,tmpf,dwpf,relh,drct,sknt,alti,vsby,feel
2021-01-01 00:00:00,10.9,8.1,88.21,190.0,5.0,30.26,10.0,1.34
2021-01-01 01:00:00,11.5,9.3,90.65,0.0,0.0,30.25,10.0,11.5
2021-01-01 02:00:00,3.6,1.6,91.15,0.0,0.0,30.23,7.0,3.6
2021-01-01 03:00:00,0.9,-2.0,87.25,0.0,0.0,30.21,7.0,0.9
2021-01-01 04:00:00,2.0,-0.9,86.91,180.0,6.0,30.24,7.0,-10.48
2021-01-01 05:00:00,6.6,4.8,92.12,190.0,3.0,30.24,5.0,-0.35
2021-01-01 06:00:00,7.2,5.0,90.47,170.0,4.0,30.24,7.0,-1.54
2021-01-01 07:00:00,11.3,9.5,92.29,180.0,5.0,30.26,3.0,1.81
2021-01-01 08:00:00,10.2,8.6,93.08,0.0,0.0,30.24,1.5,10.2
2021-01-01 09:00:00,8.4,6.3,90.93,0.0,0.0,30.22,0.25,8.4
2021-01-01 10:00:00,6.8,4.6,90.45,0.0,0.0,30.24,1.75,6.8
2021-01-01 11:00:00,6.4,4.0,90.02,0.0,0.0,30.21,4.0,6.4
2021-01-01 12:00:00,4.6,1.9,88.28,0.0,0.0,30.18,5.0,4.6
2021-01-01 13:00:00,4.0,1.4,88.25,0.0,0.0,30.17,7.0,4.1
2021-01-01 14:00:00,6.8,4.3,89.21,0.0,0.0,30.17,5.0,6.8
2021-01-01 15:00:00,8.6,6.6,91.36,0.0,0.0,30.15,5.0,8.6
2021-01-01 16:00:00,12.0,10.2,92.31,360.0,3.0,30.11,7.0,5.82
2021-01-01 17:00:00,14.7,13.1,93.22,0.0,0.0,30.05,5.0,14.7
2021-01-01 18:00:00,21.2,20.3,96.25,0.0,0.0,30.04,1.75,21.2
2021-01-01 19:00:00,23.0,22.6,98.33,0.0,0.0,30.02,2.5,23.0
2021-01-01 20:00:00,23.9,23.5,98.34,0.0,0.0,29.99,4.0,23.9
2021-01-01 21:00:00,23.9,23.9,100.0,0.0,0.0,29.98,4.0,23.9
2021-01-01 22:00:00,23.9,23.7,99.17,0.0,0.0,29.99,5.0,23.9
2021-01-01 23:00:00,23.7,23.4,98.75,0.0,0.0,29.97,7.0,23.7
2021-01-02 00:00:00,23.0,22.6,98.33,0.0,0.0,29.96,5.0,23.0
2021-01-02 01:00:00,21.2,20.5,97.07,330.0,4.0,29.95,5.0,14.81
2021-01-02 02:00:00,21.6,21.2,98.32,310.0,5.0,29.95,4.0,14.04
2021-01-02 03:00:00,20.8,20.3,97.9,320.0,6.0,29.96,3.0,12.04
2021-01-02 04:00:00,20.1,19.4,97.06,320.0,4.0,29.97,5.0,13.52
2021-01-02 05:00:00,18.0,16.9,95.37,310.0,4.0,29.95,7.0,11.07
2021-01-02 06:00:00,15.3,14.4,96.15,0.0,0.0,29.94,5.0,15.3
2021-01-02 07:00:00,18.5,18.0,97.87,330.0,3.0,29.95,1.5,13.26
2021-01-02 08:00:00,19.4,18.9,97.88,310.0,4.0,29.95,2.0,12.71
2021-01-02 09:00:00,20.3,19.9,98.31,320.0,7.0,29.95,2.5,10.52
2021-01-02 10:00:00,19.8,19.2,97.47,310.0,5.0,29.97,3.0,11.91
2021-01-02 11:00:00,19.2,18.5,97.05,300.0,6.0,29.98,3.0,10.11
2021-01-02 12:00:00,18.5,17.6,96.2,290.0,4.0,30.0,1.75,11.66
2021-01-02 13:00:00,18.9,18.1,96.62,250.0,5.0,30.03,0.75,10.84
2021-01-02 14:00:00,18.5,17.8,97.04,250.0,4.0,30.05,1.5,11.66
2021-01-02 15:00:00,19.4,18.7,97.05,270.0,3.0,30.05,3.0,14.28
2021-01-02 16:00:00,19.9,19.4,97.89,0.0,0.0,30.03,2.5,19.9
2021-01-02 17:00:00,21.4,21.0,98.32,0.0,0.0,29.99,2.0,21.4
2021-01-02 18:00:00,22.8,22.3,97.92,0.0,0.0,29.98,3.0,22.8
2021-01-02 19:00:00,23.4,23.2,99.16,0.0,0.0,29.99,3.0,23.4
2021-01-02 20:00:00,23.7,23.5,99.17,220.0,3.0,29.99,3.0,19.2
2021-01-02 21:00:00,23.0,23.0,100.0,0.0,0.0,29.99,1.5,23.0
2021-01-02 22:00:00,22.8,22.5,98.75,0.0,0.0,29.98,2.0,22.8
2021-01-02 23:00:00,22.1,21.9,99.16,0.0,0.0,29.97,0.5,22.1
2021-01-03 00:00:00,21.7,21.2,97.91,0.0,0.0,29.96,0.5,21.7
2021-01-03 01:00:00,20.8,20.3,97.9,0.0,0.0,29.96,0.25,20.8
2021-01-03 02:00:00,20.3,19.9,98.31,0.0,0.0,29.95,0.25,20.3
2021-01-03 03:00:00,20.8,20.3,97.9,0.0,0.0,29.95,0.5,20.8
2021-01-03 04:00:00,20.3,19.9,98.31,0.0,0.0,29.93,0.5,20.3
2021-01-03 05:00:00,19.4,18.9,97.88,0.0,0.0,29.92,0.5,19.4
2021-01-03 06:00:00,19.0,18.3,97.04,0.0,0.0,29.91,0.5,19.0
2021-01-03 07:00:00,18.5,17.6,96.2,0.0,0.0,29.92,0.5,18.5
2021-01-03 08:00:00,18.5,17.6,96.2,0.0,0.0,29.9,0.25,18.5
2021-01-03 09:00:00,18.0,17.1,96.19,0.0,0.0,29.88,0.25,18.0
2021-01-03 10:00:00,17.1,15.8,94.52,0.0,0.0,29.86,0.5,17.1
2021-01-03 11:00:00,17.1,15.8,94.52,0.0,0.0,29.86,0.5,17.1
2021-01-03 12:00:00,16.5,15.4,95.33,0.0,0.0,29.87,0.5,16.5
2021-01-03 13:00:00,16.3,15.1,94.92,0.0,0.0,29.88,0.25,16.3
2021-01-03 14:00:00,17.6,16.7,96.19,0.0,0.0,29.9,0.5,17.6
2021-01-03 15:00:00,19.0,18.3,97.04,0.0,0.0,29.89,0.25,19.0
2021-01-03 16:00:00,20.3,19.8,97.89,0.0,0.0,29.87,0.5,20.3
2021-01-03 17:00:00,22.8,22.3,97.92,0.0,0.0,29.86,2.5,22.8
2021-01-03 18:00:00,23.5,23.4,99.58,0.0,0.0,29.84,4.0,23.5
2021-01-03 19:00:00,25.5,25.3,99.17,230.0,3.0,29.84,10.0,21.26
2021-01-03 20:00:00,23.9,23.9,100.0,240.0,7.0,29.85,10.0,14.91
2021-01-03 21:00:00,22.6,22.1,97.91,240.0,5.0,29.87,7.0,15.23
2021-01-03 22:00:00,22.8,22.5,98.75,220.0,4.0,29.87,4.0,16.68
2021-01-03 23:00:00,22.3,21.9,98.33,240.0,5.0,29.88,2.5,14.88
2021-01-04 00:00:00,21.7,21.4,98.74,220.0,6.0,29.88,1.0,13.13
2021-01-04 01:00:00,21.6,21.2,98.32,230.0,5.0,29.88,1.25,14.04
2021-01-04 02:00:00,21.4,21.0,98.32,230.0,5.0,29.88,1.25,13.81
2021-01-04 03:00:00,21.0,20.3,97.07,260.0,3.0,29.87,1.5,16.11
2021-01-04 04:00:00,20.7,20.1,97.48,240.0,4.0,29.86,0.75,14.22
2021-01-04 05:00:00,20.3,19.9,98.31,0.0,0.0,29.85,1.25,20.3
2021-01-04 06:00:00,20.3,19.8,97.89,0.0,0.0,29.85,2.0,20.3
2021-01-04 07:00:00,20.1,19.4,97.06,0.0,0.0,29.87,3.0,20.1
2021-01-04 08:00:00,20.3,19.9,98.31,0.0,0.0,29.86,1.5,20.3
2021-01-04 09:00:00,20.8,20.3,97.9,0.0,0.0,29.84,0.75,20.8
2021-01-04 10:00:00,20.1,19.4,97.06,0.0,0.0,29.83,1.25,20.1
2021-01-04 11:00:00,19.9,19.4,97.89,200.0,3.0,29.84,2.5,14.86
2021-01-04 12:00:00,19.4,18.9,97.88,0.0,0.0,29.84,2.5,19.4
2021-01-04 13:00:00,19.2,18.5,97.05,0.0,0.0,29.84,0.5,19.2
2021-01-04 14:00:00,19.4,18.9,97.88,0.0,0.0,29.83,0.5,19.4
2021-01-04 15:00:00,20.3,19.8,97.89,0.0,0.0,29.83,0.25,20.3
2021-01-04 16:00:00,21.2,20.8,98.32,0.0,0.0,29.81,1.5,21.2
2021-01-04 17:00:00,22.1,21.9,99.16,0.0,0.0,29.8,0.5,22.1
2021-01-04 18:00:00,22.6,22.1,97.91,0.0,0.0,29.78,1.25,22.6
2021-01-04 19:00:00,23.5,23.4,99.58,0.0,0.0,29.77,1.25,23.5
2021-01-04 20:00:00,23.0,23.0,100.0,0.0,0.0,29.78,3.0,23.0
2021-01-04 21:00:00,23.5,23.2,98.75,0.0,0.0,29.81,1.5,23.5
2021-01-04 22:00:00,23.0,23.0,100.0,0.0,0.0,29.8,3.0,23.0
2021-01-04 23:00:00,23.0,23.0,100.0,0.0,0.0,29.81,7.0,23.0
2021-01-05 00:00:00,23.5,23.4,99.58,0.0,0.0,29.82,4.0,23.5
2021-01-05 01:00:00,23.9,23.9,100.0,0.0,0.0,29.82,1.25,23.9
2021-01-05 02:00:00,24.8,24.8,100.0,0.0,0.0,29.82,1.25,24.8
2021-01-05 03:00:00,25.5,25.5,100.0,0.0,0.0,29.82,4.0,25.5
2021-01-05 04:00:00,26.4,26.4,100.0,300.0,3.0,29.83,4.0,22.29
2021-01-05 05:00:00,24.8,24.8,100.0,0.0,0.0,29.84,5.0,24.8
2021-01-05 06:00:00,27.0,27.0,100.0,300.0,3.0,29.86,4.0,22.97
2021-01-05 07:00:00,27.5,27.5,100.0,0.0,0.0,29.9,5.0,27.5
2021-01-05 08:00:00,28.2,28.2,100.0,0.0,0.0,29.91,7.0,28.2
2021-01-05 09:00:00,27.9,27.9,100.0,0.0,0.0,29.91,7.0,27.9
2021-01-05 10:00:00,23.9,23.9,100.0,0.0,0.0,29.93,5.0,23.9
2021-01-05 11:00:00,19.2,18.5,97.05,0.0,0.0,29.96,0.25,19.2
2021-01-05 12:00:00,20.5,19.9,97.48,0.0,0.0,29.98,0.25,20.5
2021-01-05 13:00:00,20.5,19.9,97.48,0.0,0.0,30.0,0.5,20.5
2021-01-05 14:00:00,22.6,22.3,98.74,0.0,0.0,30.02,0.25,22.6
2021-01-05 15:00:00,22.1,21.7,98.32,0.0,0.0,30.05,2.5,22.1
2021-01-05 16:00:00,23.0,22.6,98.33,0.0,0.0,30.03,1.25,23.0
2021-01-05 17:00:00,24.8,24.8,100.0,0.0,0.0,30.02,0.5,24.8
2021-01-05 18:00:00,26.2,26.2,100.0,0.0,0.0,30.04,2.5,26.2
2021-01-05 19:00:00,26.4,26.4,100.0,0.0,0.0,30.05,4.0,26.4
2021-01-05 20:00:00,27.1,27.1,100.0,0.0,0.0,30.07,7.0,27.1
2021-01-05 21:00:00,25.0,24.6,98.35,0.0,0.0,30.09,4.0,25.0
2021-01-05 22:00:00,18.3,17.6,97.03,0.0,0.0,30.1,0.25,18.3
2021-01-05 23:00:00,12.4,10.9,93.57,0.0,0.0,30.14,0.25,12.4
2021-01-06 00:00:00,10.6,9.0,93.09,0.0,0.0,30.16,0.25,10.6
2021-01-06 01:00:00,12.9,11.5,94.0,0.0,0.0,30.17,0.25,12.9
2021-01-06 02:00:00,14.5,13.3,94.87,0.0,0.0,30.19,0.25,14.5
2021-01-06 03:00:00,11.1,9.3,92.28,0.0,0.0,30.19,0.25,11.1
2021-01-06 04:00:00,9.3,7.2,90.97,0.0,0.0,30.2,0.25,9.3
2021-01-06 05:00:00,6.0,3.6,89.99,0.0,0.0,30.21,5.0,5.9
2021-01-06 06:00:00,4.6,2.3,89.93,0.0,0.0,30.21,0.5,4.6
2021-01-06 07:00:00,8.0,6.0,92.16,0.0,0.0,30.23,5.0,7.9
2021-01-06 08:00:00,5.7,3.4,89.98,0.0,0.0,30.24,7.0,5.7
2021-01-06 09:00:00,7.2,5.2,91.3,0.0,0.0,30.25,0.25,7.2
2021-01-06 10:00:00,7.3,5.2,90.89,0.0,0.0,30.26,10.0,7.3
2021-01-06 11:00:00,4.0,1.4,88.25,0.0,0.0,30.28,10.0,4.1
2021-01-06 12:00:00,5.2,2.8,89.55,0.0,0.0,30.29,10.0,5.2
2021-01-06 13:00:00,8.2,6.0,90.92,0.0,0.0,30.32,7.0,8.2
2021-01-06 14:00:00,10.9,9.0,91.86,0.0,0.0,30.33,10.0,10.9
2021-01-06 15:00:00,21.6,20.8,96.67,0.0,0.0,30.33,7.0,21.6
2021-01-06 16:00:00,30.9,30.9,100.0,120.0,3.0,30.32,10.0,27.43
2021-01-06 17:00:00,30.7,30.7,100.0,110.0,7.0,30.3,10.0,23.19
2021-01-06 18:00:00,30.6,29.8,96.8,110.0,5.0,30.3,10.0,24.73
2021-01-06 19:00:00,31.6,28.4,87.79,90.0,5.0,30.31,10.0,25.92
2021-01-06 20:00:00,31.5,27.1,83.56,120.0,4.0,30.32,10.0,26.84
2021-01-06 21:00:00,31.8,26.6,80.87,0.0,0.0,30.34,10.0,31.8
2021-01-06 22:00:00,29.3,25.5,85.52,170.0,5.0,30.35,10.0,23.19
2021-01-06 23:00:00,27.1,24.4,89.4,130.0,3.0,30.36,10.0,23.09
2021-01-07 00:00:00,22.3,20.8,93.85,140.0,3.0,30.37,10.0,17.6
2021-01-07 01:00:00,23.5,22.8,97.1,90.0,3.0,30.38,10.0,18.97
2021-01-07 02:00:00,17.8,17.1,97.03,90.0,3.0,30.37,7.0,12.46
2021-01-07 03:00:00,15.8,14.7,95.32,0.0,0.0,30.37,5.0,15.8
2021-01-07 04:00:00,12.9,11.5,94.0,0.0,0.0,30.39,0.25,12.9
2021-01-07 05:00:00,11.8,10.2,93.13,0.0,0.0,30.4,0.25,11.8
2021-01-07 06:00:00,14.5,13.3,94.87,0.0,0.0,30.39,0.25,14.5
2021-01-07 07:00:00,10.4,8.6,92.25,0.0,0.0,30.4,0.5,10.4
2021-01-07 08:00:00,11.3,9.5,92.29,0.0,0.0,30.39,0.5,11.3
2021-01-07 09:00:00,8.6,6.6,91.36,0.0,0.0,30.39,0.5,8.6
2021-01-07 10:00:00,8.6,6.8,92.19,0.0,0.0,30.39,1.5,8.6
2021-01-07 11:00:00,8.6,6.8,92.19,0.0,0.0,30.41,7.0,8.6
2021-01-07 12:00:00,13.3,11.8,93.59,0.0,0.0,30.41,10.0,13.3
2021-01-07 13:00:00,14.9,13.8,95.3,0.0,0.0,30.42,10.0,14.9
2021-01-07 14:00:00,17.2,16.2,95.76,0.0,0.0,30.43,10.0,17.2
2021-01-07 15:00:00,21.2,20.8,98.32,0.0,0.0,30.43,10.0,21.2
2021-01-07 16:00:00,25.0,25.0,100.0,0.0,0.0,30.42,10.0,25.0
2021-01-07 17:00:00,27.1,27.1,100.0,0.0,0.0,30.41,10.0,27.1
2021-01-07 18:00:00,28.0,25.5,90.19,0.0,0.0,30.39,10.0,28.0
2021-01-07 19:00:00,28.9,21.0,71.96,20.0,3.0,30.39,10.0,25.14
2021-01-07 20:00:00,28.4,21.7,75.66,50.0,4.0,30.39,10.0,23.22
2021-01-07 21:00:00,28.2,20.3,71.89,50.0,6.0,30.39,10.0,20.95
2021-01-07 22:00:00,27.1,20.1,74.58,360.0,3.0,30.38,10.0,23.09
2021-01-07 23:00:00,24.8,18.5,76.61,360.0,3.0,30.38,10.0,20.46
2021-01-08 00:00:00,21.0,16.3,81.74,0.0,0.0,30.39,10.0,21.0
2021-01-08 01:00:00,19.0,16.0,87.87,360.0,3.0,30.38,10.0,13.83
2021-01-08 02:00:00,19.4,17.1,90.59,0.0,0.0,30.37,10.0,19.4
2021-01-08 03:00:00,17.6,15.6,91.7,0.0,0.0,30.37,10.0,17.6
2021-01-08 04:00:00,15.8,14.4,94.08,0.0,0.0,30.36,10.0,15.8
2021-01-08 05:00:00,18.9,16.7,90.96,0.0,0.0,30.36,10.0,18.9
2021-01-08 06:00:00,20.1,17.6,89.84,0.0,0.0,30.35,10.0,20.1
2021-01-08 07:00:00,21.2,19.0,91.05,0.0,0.0,30.36,10.0,21.2
2021-01-08 08:00:00,23.0,19.9,87.7,0.0,0.0,30.36,10.0,23.0
2021-01-08 09:00:00,23.4,20.1,86.98,360.0,5.0,30.35,10.0,16.18
2021-01-08 10:00:00,23.7,19.9,85.16,350.0,5.0,30.33,10.0,16.54
2021-01-08 11:00:00,23.2,19.4,85.13,360.0,5.0,30.33,10.0,15.94
2021-01-08 12:00:00,23.0,19.4,85.85,20.0,6.0,30.32,10.0,14.69
2021-01-08 13:00:00,23.0,19.8,87.33,30.0,8.0,30.32,10.0,13.03
2021-01-08 14:00:00,23.7,19.9,85.16,40.0,8.0,30.33,10.0,13.89
2021-01-08 15:00:00,23.9,19.9,84.45,10.0,7.0,30.32,10.0,14.91
2021-01-08 16:00:00,24.8,20.3,82.74,20.0,5.0,30.32,10.0,17.84
2021-01-08 17:00:00,25.5,20.3,80.36,30.0,5.0,30.3,10.0,18.68
2021-01-08 18:00:00,26.2,20.7,79.4,30.0,4.0,30.28,10.0,20.65
2021-01-08 19:00:00,27.5,20.3,73.98,0.0,0.0,30.27,10.0,27.5
2021-01-08 20:00:00,26.6,19.9,75.48,0.0,0.0,30.26,10.0,26.6
2021-01-08 21:00:00,24.8,19.0,78.27,0.0,0.0,30.27,10.0,24.8
2021-01-08 22:00:00,16.3,13.6,88.88,0.0,0.0,30.27,10.0,16.3
2021-01-08 23:00:00,12.9,11.7,94.83,0.0,0.0,30.27,10.0,12.9
2021-01-09 00:00:00,12.9,12.0,96.1,0.0,0.0,30.27,10.0,12.9
2021-01-09 01:00:00,10.2,8.6,93.08,0.0,0.0,30.27,10.0,10.2
2021-01-09 02:00:00,6.4,4.3,90.85,0.0,0.0,30.27,10.0,6.4
2021-01-09 03:00:00,6.3,4.0,90.43,0.0,0.0,30.27,0.25,6.3
2021-01-09 04:00:00,4.3,1.9,89.5,0.0,0.0,30.26,0.75,4.3
2021-01-09 05:00:00,16.9,15.6,94.52,30.0,5.0,30.26,0.75,8.46
2021-01-09 06:00:00,19.2,18.3,96.22,20.0,4.0,30.26,0.75,12.47
2021-01-09 07:00:00,20.5,19.9,97.48,0.0,0.0,30.27,0.75,20.5
2021-01-09 08:00:00,21.6,21.2,98.32,0.0,0.0,30.28,10.0,21.6
2021-01-09 09:00:00,21.2,20.8,98.32,0.0,0.0,30.28,10.0,21.2
2021-01-09 10:00:00,20.8,20.3,97.9,0.0,0.0,30.29,7.0,20.8
2021-01-09 11:00:00,20.5,19.9,97.48,0.0,0.0,30.29,10.0,20.5
2021-01-09 12:00:00,19.9,19.4,97.89,0.0,0.0,30.29,10.0,19.9
2021-01-09 13:00:00,20.1,19.4,97.06,0.0,0.0,30.3,3.0,20.1
2021-01-09 14:00:00,20.3,19.8,97.89,0.0,0.0,30.32,7.0,20.3
2021-01-09 15:00:00,20.8,20.1,97.07,0.0,0.0,30.32,10.0,20.8
2021-01-09 16:00:00,21.7,21.2,97.91,290.0,3.0,30.31,10.0,16.91
2021-01-09 17:00:00,21.7,21.2,97.91,0.0,0.0,30.29,10.0,21.7
2021-01-09 18:00:00,22.5,22.1,98.33,0.0,0.0,30.28,10.0,22.5
2021-01-09 19:00:00,23.0,22.8,99.16,310.0,4.0,30.27,10.0,16.91
2021-01-09 20:00:00,23.0,22.8,99.16,0.0,0.0,30.27,10.0,23.0
2021-01-09 21:00:00,22.6,22.1,97.91,260.0,5.0,30.27,10.0,15.23
2021-01-09 22:00:00,21.4,20.8,97.49,260.0,3.0,30.27,10.0,16.57
2021-01-09 23:00:00,21.0,20.3,97.07,280.0,5.0,30.27,10.0,13.33
2021-01-10 00:00:00,20.3,19.9,98.31,320.0,5.0,30.27,10.0,12.5
2021-01-10 01:00:00,19.4,19.0,98.3,290.0,4.0,30.27,2.5,12.71
2021-01-10 02:00:00,20.3,19.9,98.31,290.0,3.0,30.27,7.0,15.31
2021-01-10 03:00:00,20.1,19.4,97.06,330.0,4.0,30.27,10.0,13.52
2021-01-10 04:00:00,19.8,19.0,96.64,0.0,0.0,30.25,10.0,19.8
2021-01-10 05:00:00,19.4,18.9,97.88,360.0,3.0,30.25,10.0,14.28
2021-01-10 06:00:00,19.4,18.9,97.88,330.0,3.0,30.24,10.0,14.28
2021-01-10 07:00:00,19.9,19.2,97.05,0.0,0.0,30.25,10.0,19.9
2021-01-10 08:00:00,19.4,18.9,97.88,350.0,3.0,30.26,10.0,14.28
2021-01-10 09:00:00,19.2,18.5,97.05,350.0,3.0,30.25,7.0,14.06
2021-01-10 10:00:00,19.0,18.3,97.04,0.0,0.0,30.24,7.0,19.0
2021-01-10 11:00:00,18.7,18.1,97.46,350.0,4.0,30.24,5.0,11.89
2021-01-10 12:00:00,18.9,18.1,96.62,0.0,0.0,30.25,1.25,18.9
2021-01-10 13:00:00,18.5,17.8,97.04,350.0,3.0,30.26,1.25,13.26
2021-01-10 14:00:00,19.0,18.3,97.04,0.0,0.0,30.28,2.0,19.0
2021-01-10 15:00:00,19.2,18.5,97.05,0.0,0.0,30.28,0.75,19.2
2021-01-10 16:00:00,19.8,19.0,96.64,0.0,0.0,30.26,5.0,19.8
2021-01-10 17:00:00,20.3,19.8,97.89,0.0,0.0,30.24,7.0,20.3
2021-01-10 18:00:00,21.2,20.7,97.9,270.0,3.0,30.22,10.0,16.34
2021-01-10 19:00:00,21.6,21.2,98.32,270.0,5.0,30.21,10.0,14.04
2021-01-10 20:00:00,21.4,21.0,98.32,280.0,3.0,30.21,5.0,16.57
2021-01-10 21:00:00,21.2,20.8,98.32,290.0,4.0,30.22,1.0,14.81
2021-01-10 22:00:00,20.7,20.1,97.48,0.0,0.0,30.21,0.75,20.7
2021-01-10 23:00:00,19.9,19.4,97.89,250.0,3.0,30.2,0.75,14.86
2021-01-11 00:00:00,19.4,18.9,97.88,280.0,5.0,30.21,0.5,11.43
2021-01-11 01:00:00,19.2,18.5,97.05,290.0,5.0,30.2,0.5,11.19
2021-01-11 02:00:00,18.5,17.6,96.2,240.0,3.0,30.18,1.25,13.26
2021-01-11 03:00:00,18.0,17.1,96.19,250.0,5.0,30.17,3.0,9.77
2021-01-11 04:00:00,16.7,15.8,96.17,240.0,5.0,30.16,5.0,8.22
2021-01-11 05:00:00,16.5,15.4,95.33,240.0,6.0,30.15,5.0,6.86
2021-01-11 06:00:00,16.7,15.6,95.34,260.0,6.0,30.14,5.0,7.1
2021-01-11 07:00:00,16.5,15.4,95.33,260.0,7.0,30.14,5.0,5.89
2021-01-11 08:00:00,17.1,15.8,94.52,0.0,0.0,30.12,2.0,17.1
2021-01-11 09:00:00,18.1,17.2,96.2,250.0,3.0,30.11,1.0,12.8
2021-01-11 10:00:00,18.5,18.0,97.87,230.0,3.0,30.1,1.25,13.26
2021-01-11 11:00:00,19.9,19.4,97.89,230.0,5.0,30.08,1.75,12.03
2021-01-11 12:00:00,21.2,20.8,98.32,240.0,5.0,30.05,3.0,13.57
2021-01-11 13:00:00,22.8,22.5,98.75,240.0,4.0,30.05,1.75,16.68
2021-01-11 14:00:00,23.4,23.0,98.33,240.0,5.0,30.05,1.75,16.18
2021-01-11 15:00:00,23.7,23.5,99.17,230.0,4.0,30.04,1.25,17.73
2021-01-11 16:00:00,24.4,24.4,100.0,230.0,4.0,30.01,2.5,18.55
2021-01-11 17:00:00,25.3,25.3,100.0,230.0,6.0,29.98,2.5,17.46
2021-01-11 18:00:00,25.5,25.5,100.0,240.0,5.0,29.96,5.0,18.68
2021-01-11 19:00:00,25.7,25.7,100.0,230.0,4.0,29.94,4.0,20.06
2021-01-11 20:00:00,26.4,26.4,100.0,230.0,3.0,29.93,4.0,22.29
2021-01-11 21:00:00,27.0,27.0,100.0,0.0,0.0,29.93,10.0,27.0
2021-01-11 22:00:00,24.6,24.6,100.0,0.0,0.0,29.93,7.0,24.6
2021-01-11 23:00:00,22.6,22.3,98.74,0.0,0.0,29.93,4.0,22.6
2021-01-12 00:00:00,24.8,24.8,100.0,0.0,0.0,29.92,7.0,24.8
2021-01-12 01:00:00,25.5,25.5,100.0,0.0,0.0,29.93,7.0,25.5
2021-01-12 02:00:00,26.4,26.4,100.0,0.0,0.0,29.93,7.0,26.4
2021-01-12 03:00:00,26.6,26.6,100.0,0.0,0.0,29.93,5.0,26.6
2021-01-12 04:00:00,27.1,27.1,100.0,0.0,0.0,29.93,7.0,27.1
2021-01-12 05:00:00,27.5,27.5,100.0,0.0,0.0,29.92,10.0,27.5
2021-01-12 06:00:00,27.3,27.3,100.0,300.0,3.0,29.92,10.0,23.32
2021-01-12 07:00:00,27.1,27.1,100.0,300.0,3.0,29.93,10.0,23.09
2021-01-12 08:00:00,27.1,27.1,100.0,0.0,0.0,29.93,10.0,27.1
2021-01-12 09:00:00,26.6,26.6,100.0,0.0,0.0,29.91,7.0,26.6
2021-01-12 10:00:00,26.4,26.1,98.77,0.0,0.0,29.93,7.0,26.4
2021-01-12 11:00:00,26.6,25.7,96.34,0.0,0.0,29.94,7.0,26.6
2021-01-12 12:00:00,26.4,25.7,97.14,0.0,0.0,29.94,7.0,26.4
2021-01-12 13:00:00,26.6,25.5,95.54,0.0,0.0,29.94,3.0,26.6
2021-01-12 14:00:00,26.6,25.3,94.75,260.0,3.0,29.95,1.25,22.52
2021-01-12 15:00:00,27.0,25.0,92.05,0.0,0.0,29.95,1.5,27.0
2021-01-12 16:00:00,27.1,25.3,92.82,0.0,0.0,29.94,4.0,27.1
2021-01-12 17:00:00,27.5,25.7,92.83,230.0,5.0,29.92,7.0,21.05
2021-01-12 18:00:00,28.2,26.4,92.85,240.0,5.0,29.9,5.0,21.88
2021-01-12 19:00:00,28.4,26.4,92.09,240.0,7.0,29.89,7.0,20.39
2021-01-12 20:00:00,28.9,26.4,90.23,250.0,4.0,29.88,7.0,23.8
2021-01-12 21:00:00,28.6,26.1,90.22,260.0,8.0,29.88,7.0,19.92
2021-01-12 22:00:00,27.9,25.7,91.32,250.0,10.0,29.89,10.0,17.83
2021-01-12 23:00:00,27.1,25.5,93.59,240.0,7.0,29.87,7.0,18.81
2021-01-13 00:00:00,26.6,25.3,94.75,250.0,5.0,29.86,7.0,19.98
2021-01-13 01:00:00,25.7,24.8,96.33,240.0,9.0,29.86,7.0,15.68
2021-01-13 02:00:00,23.0,22.5,97.92,220.0,3.0,29.83,5.0,18.4
2021-01-13 03:00:00,21.0,20.5,97.9,210.0,4.0,29.81,3.0,14.57
2021-01-13 04:00:00,20.8,20.3,97.9,250.0,3.0,29.81,2.0,15.88
2021-01-13 05:00:00,21.4,21.0,98.32,0.0,0.0,29.78,2.0,21.4
2021-01-13 06:00:00,19.2,18.5,97.05,0.0,0.0,29.77,1.5,19.2
2021-01-13 07:00:00,16.3,15.4,96.16,0.0,0.0,29.77,0.25,16.3
2021-01-13 08:00:00,15.4,14.4,95.73,0.0,0.0,29.74,1.0,15.4
2021-01-13 09:00:00,14.0,12.9,95.28,0.0,0.0,29.72,2.5,14.0
2021-01-13 10:00:00,12.9,11.3,93.17,0.0,0.0,29.73,4.0,12.9
2021-01-13 11:00:00,17.1,16.2,96.18,0.0,0.0,29.72,2.5,17.1
2021-01-13 12:00:00,18.3,17.6,97.03,0.0,0.0,29.72,1.75,18.3
2021-01-13 13:00:00,17.8,16.9,96.19,0.0,0.0,29.7,1.0,17.8
2021-01-13 14:00:00,23.0,22.8,99.16,280.0,3.0,29.71,3.0,18.4
2021-01-13 15:00:00,24.8,24.8,100.0,0.0,0.0,29.7,4.0,24.8
2021-01-13 16:00:00,27.1,27.1,100.0,0.0,0.0,29.68,5.0,27.1
2021-01-13 17:00:00,28.6,28.6,100.0,0.0,0.0,29.67,7.0,28.6
2021-01-13 18:00:00,30.2,30.2,100.0,260.0,5.0,29.65,10.0,24.26
2021-01-13 19:00:00,34.0,28.9,81.37,0.0,0.0,29.63,10.0,34.0
2021-01-13 20:00:00,32.0,27.9,84.63,0.0,0.0,29.63,10.0,32.0
2021-01-13 21:00:00,29.7,26.2,86.61,0.0,0.0,29.63,10.0,29.7
2021-01-13 22:00:00,26.4,24.6,92.8,10.0,4.0,29.63,10.0,20.88
2021-01-13 23:00:00,23.0,22.1,96.28,0.0,0.0,29.63,10.0,23.0
2021-01-14 00:00:00,18.7,18.1,97.46,0.0,0.0,29.62,4.0,18.7
2021-01-14 01:00:00,17.8,16.9,96.19,200.0,5.0,29.63,1.25,9.53
2021-01-14 02:00:00,12.9,11.5,94.0,0.0,0.0,29.63,0.25,12.9
2021-01-14 03:00:00,9.3,7.5,92.21,60.0,4.0,29.62,0.25,0.91
2021-01-14 04:00:00,11.7,10.0,92.71,60.0,5.0,29.59,7.0,2.29
2021-01-14 05:00:00,10.0,8.1,91.82,0.0,0.0,29.6,7.0,10.0
2021-01-14 06:00:00,8.8,7.0,92.2,40.0,3.0,29.58,10.0,2.17
2021-01-14 07:00:00,12.0,10.4,93.14,0.0,0.0,29.58,10.0,12.0
2021-01-14 08:00:00,18.9,18.3,97.46,90.0,5.0,29.58,10.0,10.84
2021-01-14 09:00:00,24.1,24.1,100.0,120.0,5.0,29.57,7.0,17.01
2021-01-14 10:00:00,23.7,23.7,100.0,110.0,8.0,29.56,4.0,13.89
2021-01-14 11:00:00,23.9,23.9,100.0,110.0,6.0,29.57,0.75,15.77
2021-01-14 12:00:00,24.4,24.4,100.0,110.0,4.0,29.57,3.0,18.55
2021-01-14 13:00:00,25.2,25.2,100.0,110.0,9.0,29.56,0.25,15.06
2021-01-14 14:00:00,28.4,28.4,100.0,100.0,9.0,29.56,0.5,19.04
2021-01-14 15:00:00,29.7,29.7,100.0,110.0,13.0,29.54,0.5,18.62
2021-01-14 16:00:00,30.6,30.6,100.0,120.0,10.0,29.55,0.25,21.21
2021-01-14 17:00:00,31.1,31.1,100.0,110.0,14.0,29.51,0.5,20.0
2021-01-14 18:00:00,32.0,32.0,100.0,120.0,14.0,29.48,0.5,21.16
2021-01-14 19:00:00,32.0,32.0,100.0,100.0,13.0,29.47,0.25,21.57
2021-01-14 20:00:00,32.0,32.0,100.0,100.0,13.0,29.47,0.25,21.57
2021-01-14 21:00:00,32.2,32.2,100.0,110.0,12.0,29.47,0.75,22.26
2021-01-14 22:00:00,32.2,32.2,100.0,110.0,12.0,29.47,1.75,22.26
2021-01-14 23:00:00,32.0,32.0,100.0,110.0,16.0,29.46,2.5,20.42
2021-01-15 00:00:00,32.0,32.0,100.0,110.0,15.0,29.46,3.0,20.78
2021-01-15 01:00:00,32.0,32.0,100.0,110.0,15.0,29.45,2.5,20.78
2021-01-15 02:00:00,32.0,32.0,100.0,90.0,15.0,29.44,2.0,20.78
2021-01-15 03:00:00,32.0,32.0,100.0,90.0,15.0,29.44,2.0,20.78
2021-01-15 04:00:00,32.0,32.0,100.0,90.0,13.0,29.42,2.5,21.57
2021-01-15 05:00:00,32.0,32.0,100.0,90.0,13.0,29.4,1.5,21.57
2021-01-15 06:00:00,32.0,32.0,100.0,90.0,14.0,29.4,1.25,21.16
2021-01-15 07:00:00,32.0,32.0,100.0,90.0,14.0,29.4,2.0,21.16
2021-01-15 08:00:00,32.0,32.0,100.0,90.0,11.0,29.41,1.25,22.47
2021-01-15 09:00:00,32.0,32.0,100.0,90.0,10.0,29.41,1.25,22.97
2021-01-15 10:00:00,32.0,31.6,98.4,90.0,12.0,29.42,2.5,22.0
2021-01-15 11:00:00,32.0,31.6,98.4,90.0,13.0,29.44,10.0,21.57
2021-01-15 12:00:00,32.0,31.3,97.21,90.0,12.0,29.45,4.0,22.0
2021-01-15 13:00:00,31.8,31.6,99.2,90.0,9.0,29.47,7.0,23.27
2021-01-15 14:00:00,31.8,31.8,100.0,100.0,10.0,29.5,1.75,22.72
2021-01-15 15:00:00,31.8,31.8,100.0,100.0,7.0,29.52,1.5,24.54
2021-01-15 16:00:00,32.0,32.0,100.0,90.0,5.0,29.53,3.0,26.4
2021-01-15 17:00:00,32.0,32.0,100.0,50.0,7.0,29.52,0.75,24.78
2021-01-15 18:00:00,32.0,32.0,100.0,40.0,7.0,29.51,1.75,24.78
2021-01-15 19:00:00,32.0,32.0,100.0,30.0,9.0,29.52,2.5,23.51
2021-01-15 20:00:00,32.2,32.2,100.0,30.0,7.0,29.54,4.0,25.02
2021-01-15 21:00:00,32.2,32.2,100.0,20.0,8.0,29.56,2.5,24.36
2021-01-15 22:00:00,32.0,32.0,100.0,20.0,7.0,29.58,3.0,24.78
2021-01-15 23:00:00,32.2,32.2,100.0,10.0,9.0,29.58,10.0,23.76
2021-01-16 00:00:00,32.0,32.0,100.0,20.0,6.0,29.59,4.0,25.53
2021-01-16 01:00:00,32.0,32.0,100.0,30.0,8.0,29.59,10.0,24.11
2021-01-16 02:00:00,32.0,31.8,99.2,30.0,7.0,29.59,3.0,24.78
2021-01-16 03:00:00,32.0,31.6,98.4,10.0,9.0,29.58,7.0,23.51
2021-01-16 04:00:00,32.0,31.1,96.43,360.0,7.0,29.58,7.0,24.78
2021-01-16 05:00:00,31.8,30.2,93.73,10.0,9.0,29.58,10.0,23.27
2021-01-16 06:00:00,30.9,30.0,96.41,10.0,8.0,29.57,10.0,22.76
2021-01-16 07:00:00,31.6,30.2,94.49,10.0,12.0,29.58,10.0,21.49
2021-01-16 08:00:00,32.0,29.8,91.47,10.0,8.0,29.59,10.0,24.11
2021-01-16 09:00:00,31.5,29.7,92.96,10.0,12.0,29.59,7.0,21.37
2021-01-16 10:00:00,30.9,29.1,92.94,10.0,10.0,29.59,10.0,21.59
2021-01-16 11:00:00,29.8,26.2,86.26,10.0,11.0,29.6,10.0,19.69
2021-01-16 12:00:00,28.9,26.1,89.12,350.0,7.0,29.61,10.0,21.0
2021-01-16 13:00:00,28.4,26.6,92.86,350.0,9.0,29.62,4.0,19.04
2021-01-16 14:00:00,29.1,26.8,90.99,350.0,8.0,29.62,10.0,20.54
2021-01-16 15:00:00,29.3,26.1,87.67,360.0,8.0,29.63,10.0,20.79
2021-01-16 16:00:00,29.8,24.8,81.39,10.0,8.0,29.63,10.0,21.4
2021-01-16 17:00:00,30.0,24.1,78.4,350.0,11.0,29.62,10.0,19.94
2021-01-16 18:00:00,29.8,24.8,81.39,350.0,10.0,29.61,10.0,20.21
2021-01-16 19:00:00,29.8,23.9,78.38,340.0,9.0,29.61,10.0,20.78
2021-01-16 20:00:00,28.6,25.7,88.73,320.0,9.0,29.62,7.0,19.29
2021-01-16 21:00:00,28.8,24.1,82.33,340.0,11.0,29.64,10.0,18.42
2021-01-16 22:00:00,27.1,24.4,89.4,320.0,10.0,29.64,10.0,16.82
2021-01-16 23:00:00,26.2,22.5,85.68,320.0,9.0,29.65,10.0,16.3
2021-01-17 00:00:00,25.7,22.1,86.01,330.0,9.0,29.65,10.0,15.68
2021-01-17 01:00:00,25.5,22.1,86.73,330.0,8.0,29.64,10.0,16.11
2021-01-17 02:00:00,24.8,22.1,89.29,320.0,6.0,29.65,10.0,16.86
2021-01-17 03:00:00,24.6,21.7,88.53,340.0,6.0,29.64,10.0,16.62
2021-01-17 04:00:00,24.3,21.0,87.03,340.0,8.0,29.64,10.0,14.63
2021-01-17 05:00:00,23.9,20.5,86.64,340.0,6.0,29.64,10.0,15.77
2021-01-17 06:00:00,23.7,20.3,86.63,350.0,4.0,29.65,10.0,17.73
2021-01-17 07:00:00,23.5,20.3,87.36,320.0,4.0,29.65,10.0,17.49
2021-01-17 08:00:00,23.4,20.3,87.72,350.0,6.0,29.66,10.0,15.17
2021-01-17 09:00:00,23.0,19.0,84.39,350.0,7.0,29.65,10.0,13.81
2021-01-17 10:00:00,22.6,19.8,88.81,10.0,7.0,29.66,10.0,13.32
2021-01-17 11:00:00,21.6,17.8,85.03,10.0,6.0,29.68,10.0,13.0
2021-01-17 12:00:00,21.2,17.6,85.74,10.0,5.0,29.69,10.0,13.57
2021-01-17 13:00:00,21.2,18.5,89.12,360.0,6.0,29.69,10.0,12.52
2021-01-17 14:00:00,22.1,19.4,89.17,360.0,5.0,29.7,10.0,14.64
2021-01-17 15:00:00,23.2,19.2,84.41,340.0,3.0,29.7,10.0,18.63
2021-01-17 16:00:00,23.9,19.0,81.27,70.0,3.0,29.69,10.0,19.43
2021-01-17 17:00:00,25.3,18.9,76.33,340.0,7.0,29.68,10.0,16.61
2021-01-17 18:00:00,24.6,18.5,77.25,310.0,4.0,29.67,10.0,18.78
2021-01-17 19:00:00,24.1,18.9,80.25,320.0,8.0,29.67,10.0,14.38
2021-01-17 20:00:00,23.9,18.3,78.86,320.0,5.0,29.68,10.0,16.78
2021-01-17 21:00:00,23.9,18.5,79.54,340.0,5.0,29.68,10.0,16.78
2021-01-17 22:00:00,23.4,19.0,82.99,320.0,4.0,29.69,10.0,17.38
2021-01-17 23:00:00,23.0,18.9,84.03,340.0,6.0,29.7,10.0,14.69
2021-01-18 00:00:00,22.1,18.0,83.97,330.0,7.0,29.7,10.0,12.71
2021-01-18 01:00:00,21.9,18.0,84.68,310.0,6.0,29.71,10.0,13.37
2021-01-18 02:00:00,21.7,18.0,85.4,310.0,6.0,29.71,10.0,13.13
2021-01-18 03:00:00,21.2,18.0,87.23,300.0,4.0,29.7,10.0,14.81
2021-01-18 04:00:00,21.0,18.9,91.44,310.0,5.0,29.7,10.0,13.33
2021-01-18 05:00:00,21.0,19.6,94.22,300.0,4.0,29.7,10.0,14.57
2021-01-18 06:00:00,20.8,19.9,96.24,300.0,5.0,29.7,7.0,13.09
2021-01-18 07:00:00,20.7,19.4,94.61,320.0,4.0,29.71,10.0,14.22
2021-01-18 08:00:00,20.3,19.9,98.31,300.0,5.0,29.71,4.0,12.5
2021-01-18 09:00:00,20.1,18.5,93.39,0.0,0.0,29.71,10.0,20.1
2021-01-18 10:00:00,19.9,18.1,92.58,0.0,0.0,29.72,10.0,19.9
2021-01-18 11:00:00,20.1,18.9,95.0,320.0,3.0,29.74,7.0,15.08
2021-01-18 12:00:00,19.4,18.3,95.4,0.0,0.0,29.74,10.0,19.4
2021-01-18 13:00:00,19.2,18.1,95.39,260.0,3.0,29.76,10.0,14.06
2021-01-18 14:00:00,19.9,18.0,92.19,0.0,0.0,29.78,10.0,19.9
2021-01-18 15:00:00,20.7,17.4,86.83,250.0,4.0,29.79,10.0,14.22
2021-01-18 16:00:00,21.0,17.2,84.99,250.0,7.0,29.79,10.0,11.37
2021-01-18 17:00:00,21.7,17.6,83.94,290.0,7.0,29.78,10.0,12.22
2021-01-18 18:00:00,21.6,18.0,85.76,280.0,7.0,29.78,10.0,12.1
2021-01-18 19:00:00,21.7,18.1,85.77,300.0,7.0,29.78,10.0,12.22
2021-01-18 20:00:00,21.2,16.5,81.76,260.0,9.0,29.8,10.0,10.08
2021-01-18 21:00:00,20.8,14.9,77.57,300.0,9.0,29.82,10.0,9.59
2021-01-18 22:00:00,19.4,13.5,77.44,300.0,11.0,29.85,10.0,6.54
2021-01-18 23:00:00,18.5,13.1,79.08,300.0,9.0,29.87,10.0,6.73
2021-01-19 00:00:00,17.6,9.7,70.68,280.0,8.0,29.9,10.0,6.37
2021-01-19 01:00:00,14.7,8.4,75.62,290.0,7.0,29.91,10.0,3.69
2021-01-19 02:00:00,14.9,9.5,78.76,310.0,8.0,29.92,10.0,3.05
2021-01-19 03:00:00,11.7,7.3,82.11,310.0,3.0,29.93,10.0,5.48
2021-01-19 04:00:00,8.6,6.0,88.49,260.0,3.0,29.94,10.0,1.94
2021-01-19 05:00:00,13.1,8.0,79.31,290.0,6.0,29.93,10.0,2.77
2021-01-19 06:00:00,12.2,7.7,81.78,280.0,5.0,29.94,10.0,2.88
2021-01-19 07:00:00,12.7,8.6,83.31,270.0,7.0,29.95,10.0,1.25
2021-01-19 08:00:00,12.6,9.0,85.19,280.0,7.0,29.96,7.0,1.13
2021-01-19 09:00:00,12.7,8.6,83.31,300.0,7.0,29.97,10.0,1.25
2021-01-19 10:00:00,12.6,8.4,82.92,310.0,5.0,29.97,10.0,3.36
2021-01-19 11:00:00,11.8,6.4,78.48,320.0,6.0,29.98,10.0,1.2
2021-01-19 12:00:00,9.5,4.5,79.72,310.0,8.0,29.99,10.0,-3.6
2021-01-19 13:00:00,7.7,3.0,80.67,300.0,9.0,30.01,10.0,-6.7
2021-01-19 14:00:00,8.6,3.2,78.18,300.0,8.0,30.03,10.0,-4.71
2021-01-19 15:00:00,9.5,4.0,78.26,320.0,7.0,30.03,10.0,-2.65
2021-01-19 16:00:00,11.3,4.0,71.56,300.0,9.0,30.04,10.0,-2.23
2021-01-19 17:00:00,13.5,4.6,67.06,300.0,8.0,30.03,10.0,1.32
2021-01-19 18:00:00,14.2,5.4,67.46,300.0,8.0,30.01,10.0,2.19
2021-01-19 19:00:00,15.8,5.0,61.77,300.0,5.0,30.01,10.0,7.16
2021-01-19 20:00:00,14.9,4.8,63.65,320.0,5.0,30.0,10.0,6.09
2021-01-19 21:00:00,13.8,7.0,73.84,360.0,6.0,30.02,5.0,3.61
2021-01-19 22:00:00,12.0,6.4,77.78,350.0,6.0,30.04,7.0,1.44
2021-01-19 23:00:00,10.2,5.0,79.05,330.0,7.0,30.06,7.0,-1.79
2021-01-20 00:00:00,8.2,4.0,82.21,320.0,7.0,30.08,10.0,-4.23
2021-01-20 01:00:00,6.6,1.9,80.58,320.0,8.0,30.09,10.0,-7.18
2021-01-20 02:00:00,4.6,0.5,82.7,320.0,8.0,30.08,10.0,-9.64
2021-01-20 03:00:00,4.0,0.0,83.42,310.0,7.0,30.09,10.0,-9.47
2021-01-20 04:00:00,3.6,-0.4,83.01,310.0,10.0,30.1,10.0,-12.65
2021-01-20 05:00:00,3.7,-0.6,81.86,310.0,10.0,30.11,10.0,-12.52
2021-01-20 06:00:00,4.0,0.0,82.66,290.0,13.0,30.1,10.0,-14.17
2021-01-20 07:00:00,1.0,-3.0,82.42,290.0,6.0,30.09,10.0,-11.81
2021-01-20 08:00:00,-0.2,-3.8,84.32,270.0,5.0,30.08,10.0,-11.85
2021-01-20 09:00:00,-1.3,-4.5,85.87,230.0,4.0,30.05,10.0,-11.47
2021-01-20 10:00:00,-1.7,-4.4,87.93,0.0,0.0,30.03,10.0,-1.7
2021-01-20 11:00:00,-0.6,-3.6,86.74,220.0,3.0,30.02,10.0,-8.58
2021-01-20 12:00:00,-0.2,-3.0,87.18,220.0,6.0,30.01,10.0,-13.25
2021-01-20 13:00:00,2.0,-1.3,85.28,210.0,8.0,29.98,10.0,-12.72
2021-01-20 14:00:00,4.0,0.1,83.05,210.0,12.0,29.97,10.0,-13.51
2021-01-20 15:00:00,6.0,1.2,80.52,200.0,9.0,29.94,10.0,-8.94
2021-01-20 16:00:00,9.1,3.2,76.44,190.0,11.0,29.88,10.0,-6.47
2021-01-20 17:00:00,11.8,4.8,72.95,170.0,14.0,29.77,10.0,-4.88
2021-01-20 18:00:00,14.4,7.7,74.24,170.0,13.0,29.65,10.0,-0.98
2021-01-20 19:00:00,16.3,9.5,74.1,200.0,11.0,29.64,10.0,2.63
2021-01-20 20:00:00,18.3,11.7,74.98,200.0,12.0,29.59,10.0,4.57
2021-01-20 21:00:00,19.4,13.1,76.09,210.0,13.0,29.55,10.0,5.43
2021-01-20 22:00:00,21.0,14.7,76.24,220.0,13.0,29.52,10.0,7.48
2021-01-20 23:00:00,22.6,16.5,77.06,220.0,11.0,29.5,10.0,10.59
2021-01-21 00:00:00,22.8,17.1,78.43,220.0,10.0,29.48,10.0,11.43
2021-01-21 01:00:00,24.8,19.4,79.62,230.0,15.0,29.47,10.0,11.45
2021-01-21 02:00:00,24.8,20.7,84.16,230.0,9.0,29.46,10.0,14.56
2021-01-21 03:00:00,29.7,23.0,75.79,260.0,16.0,29.44,10.0,17.42
2021-01-21 04:00:00,29.8,23.0,75.48,270.0,13.0,29.46,10.0,18.75
2021-01-21 05:00:00,30.6,23.5,74.61,260.0,16.0,29.46,10.0,18.59
2021-01-21 06:00:00,31.6,23.9,72.87,270.0,15.0,29.46,10.0,20.26
2021-01-21 07:00:00,30.9,23.7,74.33,260.0,15.0,29.47,10.0,19.35
2021-01-21 08:00:00,30.7,23.9,75.57,260.0,15.0,29.49,10.0,19.09
2021-01-21 09:00:00,29.1,23.0,77.67,270.0,11.0,29.49,10.0,18.8
2021-01-21 10:00:00,27.9,22.1,78.55,260.0,13.0,29.49,10.0,16.32
2021-01-21 11:00:00,27.5,22.1,79.85,260.0,12.0,29.5,10.0,16.27
2021-01-21 12:00:00,25.5,20.7,81.74,260.0,11.0,29.49,10.0,14.25
2021-01-21 13:00:00,25.0,19.9,80.66,260.0,12.0,29.49,10.0,13.09
2021-01-21 14:00:00,26.4,20.3,77.42,270.0,12.0,29.49,10.0,14.87
2021-01-21 15:00:00,27.5,20.7,75.25,270.0,18.0,29.49,10.0,13.82
2021-01-21 16:00:00,28.0,20.7,73.72,290.0,17.0,29.51,10.0,14.83
2021-01-21 17:00:00,29.5,21.0,70.22,290.0,17.0,29.49,10.0,16.8
2021-01-21 18:00:00,30.2,21.2,68.83,290.0,18.0,29.5,10.0,17.38
2021-01-21 19:00:00,30.6,20.7,66.3,270.0,13.0,29.51,10.0,19.77
2021-01-21 20:00:00,30.2,21.2,68.83,270.0,13.0,29.51,10.0,19.26
2021-01-21 21:00:00,29.3,20.7,69.9,300.0,19.0,29.55,5.0,15.87
2021-01-21 22:00:00,23.7,16.5,73.59,330.0,16.0,29.59,10.0,9.6
2021-01-21 23:00:00,18.3,7.7,62.69,330.0,15.0,29.65,10.0,3.02
2021-01-22 00:00:00,14.9,6.3,68.16,330.0,17.0,29.69,10.0,-2.33
2021-01-22 01:00:00,13.1,5.2,70.15,330.0,16.0,29.73,10.0,-4.22
2021-01-22 02:00:00,12.0,4.0,70.02,330.0,19.0,29.76,7.0,-7.01
2021-01-22 03:00:00,11.1,3.2,69.91,330.0,13.0,29.79,10.0,-5.21
2021-01-22 04:00:00,9.5,2.0,71.36,320.0,11.0,29.81,10.0,-5.97
2021-01-22 05:00:00,9.3,1.4,69.69,310.0,12.0,29.83,10.0,-6.89
2021-01-22 06:00:00,8.2,0.1,68.91,330.0,14.0,29.85,10.0,-9.52
2021-01-22 07:00:00,7.7,-0.6,68.2,310.0,12.0,29.88,10.0,-8.93
2021-01-22 08:00:00,7.2,-0.6,69.76,320.0,11.0,29.9,10.0,-8.87
2021-01-22 09:00:00,6.6,-1.5,68.71,320.0,12.0,29.9,10.0,-10.33
2021-01-22 10:00:00,6.3,-1.7,68.99,320.0,11.0,29.92,10.0,-10.01
2021-01-22 11:00:00,6.0,-1.5,70.93,330.0,10.0,29.94,10.0,-9.76
2021-01-22 12:00:00,5.5,-2.2,69.88,330.0,13.0,29.97,10.0,-12.38
2021-01-22 13:00:00,4.8,-3.0,69.13,340.0,12.0,29.99,10.0,-12.62
2021-01-22 14:00:00,5.0,-1.5,73.91,330.0,11.0,30.03,5.0,-11.65
2021-01-22 15:00:00,5.7,-2.2,69.25,330.0,9.0,30.06,10.0,-9.19
2021-01-22 16:00:00,6.6,-2.6,65.22,290.0,10.0,30.07,10.0,-8.88
2021-01-22 17:00:00,8.1,-2.4,61.52,320.0,9.0,30.06,10.0,-6.2
2021-01-22 18:00:00,9.1,-3.0,56.89,290.0,14.0,30.07,10.0,-8.36
2021-01-22 19:00:00,10.2,-2.7,55.19,290.0,8.0,30.06,10.0,-2.74
2021-01-22 20:00:00,11.1,-3.0,52.02,300.0,9.0,30.08,10.0,-2.47
2021-01-22 21:00:00,11.5,-4.0,48.96,300.0,10.0,30.1,10.0,-2.74
2021-01-22 22:00:00,9.0,-4.4,53.7,290.0,7.0,30.11,10.0,-3.26
2021-01-22 23:00:00,6.8,-5.8,55.44,280.0,5.0,30.12,10.0,-3.53
2021-01-23 00:00:00,6.0,-6.0,56.68,270.0,5.0,30.14,10.0,-4.36
2021-01-23 01:00:00,8.6,-4.4,54.67,280.0,6.0,30.14,10.0,-2.65
2021-01-23 02:00:00,9.0,-4.0,54.74,280.0,7.0,30.15,10.0,-3.26
2021-01-23 03:00:00,9.1,-3.0,56.89,270.0,6.0,30.16,10.0,-2.05
2021-01-23 04:00:00,8.6,-3.8,56.27,270.0,6.0,30.17,10.0,-2.65
2021-01-23 05:00:00,7.7,-4.7,56.12,280.0,6.0,30.18,10.0,-3.74
2021-01-23 06:00:00,3.7,-6.2,62.66,280.0,3.0,30.18,10.0,-3.66
2021-01-23 07:00:00,2.0,-7.0,64.59,280.0,5.0,30.2,10.0,-9.11
2021-01-23 08:00:00,1.4,-7.0,66.73,260.0,3.0,30.21,10.0,-6.29
2021-01-23 09:00:00,-1.3,-7.8,73.2,270.0,3.0,30.21,10.0,-9.38
2021-01-23 10:00:00,-0.4,-7.0,73.31,0.0,0.0,30.21,10.0,-0.4
2021-01-23 11:00:00,-2.2,-8.0,75.65,0.0,0.0,30.21,10.0,-2.2
2021-01-23 12:00:00,-4.5,-9.4,78.82,0.0,0.0,30.22,10.0,-4.5
2021-01-23 13:00:00,-5.0,-9.4,81.13,0.0,0.0,30.24,10.0,-5.1
2021-01-23 14:00:00,-0.6,-5.8,78.05,0.0,0.0,30.25,7.0,-0.6
2021-01-23 15:00:00,4.0,-2.2,74.51,0.0,0.0,30.26,5.0,4.1
2021-01-23 16:00:00,10.0,3.2,73.42,190.0,3.0,30.26,10.0,3.54
2021-01-23 17:00:00,13.6,4.6,66.77,0.0,0.0,30.24,10.0,13.6
2021-01-23 18:00:00,15.4,5.7,64.9,230.0,5.0,30.22,10.0,6.68
2021-01-23 19:00:00,16.5,6.0,62.43,220.0,7.0,30.21,10.0,5.89
2021-01-23 20:00:00,17.4,6.3,61.16,230.0,5.0,30.2,10.0,9.06
2021-01-23 21:00:00,16.2,6.0,63.25,220.0,5.0,30.19,10.0,7.63
2021-01-23 22:00:00,12.9,4.8,69.49,0.0,0.0,30.17,10.0,12.9
2021-01-23 23:00:00,11.3,5.0,75.27,180.0,4.0,30.18,10.0,3.25
2021-01-24 00:00:00,13.6,6.6,73.15,180.0,5.0,30.18,10.0,4.54
2021-01-24 01:00:00,13.8,6.4,71.85,190.0,4.0,30.17,10.0,6.17
2021-01-24 02:00:00,14.5,7.3,72.59,170.0,4.0,30.15,7.0,6.98
2021-01-24 03:00:00,14.0,9.3,81.19,160.0,8.0,30.14,7.0,1.94
2021-01-24 04:00:00,13.6,10.4,86.79,160.0,6.0,30.13,4.0,3.37
2021-01-24 05:00:00,13.5,10.4,87.18,150.0,6.0,30.11,4.0,3.25
2021-01-24 06:00:00,13.1,10.2,87.93,150.0,8.0,30.08,3.0,0.83
2021-01-24 07:00:00,14.0,11.3,88.77,150.0,7.0,30.07,2.5,2.84
2021-01-24 08:00:00,14.5,12.2,90.38,160.0,9.0,30.06,1.25,1.75
2021-01-24 09:00:00,14.7,12.6,91.19,150.0,4.0,30.05,1.5,7.22
2021-01-24 10:00:00,15.4,13.5,92.02,160.0,6.0,30.02,2.0,5.54
2021-01-24 11:00:00,15.8,14.0,92.44,160.0,5.0,30.01,2.0,7.16
2021-01-24 12:00:00,16.3,14.5,92.46,160.0,5.0,30.0,3.0,7.75
2021-01-24 13:00:00,16.9,15.3,93.29,200.0,4.0,30.01,7.0,9.79
2021-01-24 14:00:00,17.8,16.2,93.32,0.0,0.0,30.01,10.0,17.8
2021-01-24 15:00:00,19.2,16.7,89.8,0.0,0.0,30.02,3.0,19.2
2021-01-24 16:00:00,20.5,15.6,81.0,300.0,7.0,30.01,10.0,10.76
2021-01-24 17:00:00,21.7,15.3,75.98,320.0,5.0,30.0,10.0,14.16
2021-01-24 18:00:00,23.0,14.9,70.69,320.0,7.0,29.99,10.0,13.81
2021-01-24 19:00:00,24.6,15.8,68.75,300.0,7.0,29.98,10.0,15.76
2021-01-24 20:00:00,25.7,10.6,52.24,320.0,8.0,29.99,10.0,16.35
2021-01-24 21:00:00,24.3,9.7,53.19,320.0,6.0,30.0,10.0,16.26
2021-01-24 22:00:00,21.9,9.5,58.31,300.0,4.0,30.02,10.0,15.63
2021-01-24 23:00:00,16.2,7.3,67.41,280.0,5.0,30.04,10.0,7.63
2021-01-25 00:00:00,16.9,7.5,65.99,310.0,6.0,30.04,10.0,7.34
2021-01-25 01:00:00,12.4,5.7,74.02,310.0,4.0,30.06,10.0,4.53
2021-01-25 02:00:00,6.6,2.3,82.09,280.0,3.0,30.07,10.0,-0.35
2021-01-25 03:00:00,3.7,2.5,94.61,0.0,0.0,30.08,10.0,3.7
2021-01-25 04:00:00,8.1,3.7,81.83,340.0,6.0,30.09,10.0,-3.25
2021-01-25 05:00:00,7.7,-1.3,65.99,0.0,0.0,30.1,10.0,7.7
2021-01-25 06:00:00,2.7,-2.6,77.99,330.0,3.0,30.1,10.0,-4.81
2021-01-25 07:00:00,6.0,-0.6,74.01,310.0,3.0,30.12,10.0,-1.15
2021-01-25 08:00:00,0.1,-4.4,80.79,340.0,4.0,30.12,10.0,-9.83
2021-01-25 09:00:00,-0.4,-3.8,85.11,10.0,8.0,30.08,10.0,-15.8
2021-01-25 10:00:00,3.6,-0.9,81.08,360.0,5.0,30.07,10.0,-7.33
2021-01-25 11:00:00,0.5,-3.5,82.77,350.0,5.0,30.1,10.0,-11.01
2021-01-25 12:00:00,4.5,0.3,82.3,360.0,3.0,30.14,10.0,-2.75
2021-01-25 13:00:00,-0.2,-3.6,85.13,20.0,4.0,30.11,10.0,-10.18
2021-01-25 14:00:00,2.7,-0.9,84.52,20.0,7.0,30.12,10.0,-10.94
2021-01-25 15:00:00,5.4,0.0,77.88,30.0,3.0,30.13,7.0,-1.72
2021-01-25 16:00:00,10.8,3.4,71.51,20.0,3.0,30.11,10.0,4.45
2021-01-25 17:00:00,13.6,4.6,66.77,0.0,0.0,30.07,10.0,13.6
2021-01-25 18:00:00,16.5,3.7,56.45,0.0,0.0,30.05,10.0,16.5
2021-01-25 19:00:00,19.0,5.7,55.55,20.0,3.0,30.03,10.0,13.83
2021-01-25 20:00:00,20.1,4.0,49.26,0.0,0.0,30.03,10.0,20.1
2021-01-25 21:00:00,15.1,2.7,57.28,50.0,5.0,30.03,10.0,6.32
2021-01-25 22:00:00,9.5,-0.8,62.31,40.0,6.0,30.03,10.0,-1.57
2021-01-25 23:00:00,11.8,3.0,67.15,40.0,9.0,30.02,10.0,-1.6
2021-01-26 00:00:00,10.8,1.6,65.78,50.0,8.0,30.02,10.0,-2.0
2021-01-26 01:00:00,10.6,1.9,67.31,40.0,9.0,30.01,10.0,-3.1
2021-01-26 02:00:00,10.9,3.0,69.89,40.0,8.0,30.01,10.0,-1.88
2021-01-26 03:00:00,10.9,3.0,69.89,40.0,8.0,30.01,10.0,-1.88
2021-01-26 04:00:00,10.9,6.0,79.84,40.0,8.0,30.02,10.0,-1.88
2021-01-26 05:00:00,10.9,6.3,81.3,50.0,9.0,30.02,10.0,-2.72
2021-01-26 06:00:00,10.4,6.0,81.64,40.0,10.0,29.99,10.0,-4.12
2021-01-26 07:00:00,10.2,5.5,80.88,30.0,10.0,29.99,10.0,-4.37
2021-01-26 08:00:00,10.2,6.0,82.37,40.0,13.0,29.99,10.0,-6.36
2021-01-26 09:00:00,10.2,6.0,82.37,30.0,10.0,29.98,10.0,-4.37
2021-01-26 10:00:00,10.4,6.4,83.52,30.0,10.0,29.98,10.0,-4.12
2021-01-26 11:00:00,10.8,6.8,83.54,30.0,8.0,29.99,10.0,-2.0
2021-01-26 12:00:00,10.8,7.0,84.31,10.0,8.0,29.99,10.0,-2.0
2021-01-26 13:00:00,12.0,7.7,82.51,20.0,8.0,29.98,10.0,-0.52
2021-01-26 14:00:00,13.6,9.1,81.89,10.0,10.0,29.99,10.0,-0.11
2021-01-26 15:00:00,15.8,10.4,78.84,10.0,9.0,30.01,10.0,3.37
2021-01-26 16:00:00,17.2,10.4,74.2,30.0,12.0,30.03,10.0,3.17
2021-01-26 17:00:00,17.6,10.6,73.58,10.0,11.0,30.03,10.0,4.27
2021-01-26 18:00:00,18.5,11.1,72.38,360.0,11.0,30.04,10.0,5.41
2021-01-26 19:00:00,19.2,10.9,69.62,360.0,9.0,30.05,10.0,7.6
2021-01-26 20:00:00,18.3,9.5,67.97,10.0,7.0,30.06,10.0,8.08
2021-01-26 21:00:00,18.5,9.1,66.2,350.0,8.0,30.08,10.0,7.48
2021-01-26 22:00:00,15.8,7.7,69.84,350.0,9.0,30.11,10.0,3.37
2021-01-26 23:00:00,8.6,3.2,78.18,360.0,7.0,30.13,10.0,-3.74
2021-01-27 00:00:00,7.5,2.3,78.81,340.0,6.0,30.15,10.0,-3.98
2021-01-27 01:00:00,7.7,3.2,81.42,330.0,6.0,30.17,10.0,-3.74
2021-01-27 02:00:00,6.6,1.8,80.2,340.0,5.0,30.18,10.0,-3.77
2021-01-27 03:00:00,4.8,1.0,83.88,340.0,6.0,30.19,10.0,-7.23
2021-01-27 04:00:00,3.0,-0.4,85.34,350.0,6.0,30.2,10.0,-9.4
2021-01-27 05:00:00,1.2,-1.1,89.77,0.0,0.0,30.21,10.0,1.2
2021-01-27 06:00:00,-3.5,-5.4,91.29,0.0,0.0,30.24,10.0,-3.5
2021-01-27 07:00:00,-5.0,-7.4,88.61,0.0,0.0,30.27,10.0,-4.9
2021-01-27 08:00:00,-0.4,-3.6,85.93,0.0,0.0,30.3,10.0,-0.4
2021-01-27 09:00:00,-3.6,-6.7,86.14,0.0,0.0,30.31,10.0,-3.6
2021-01-27 10:00:00,-2.4,-5.4,86.63,0.0,0.0,30.31,10.0,-2.4
2021-01-27 11:00:00,0.5,-2.4,87.22,0.0,0.0,30.3,10.0,0.5
2021-01-27 12:00:00,2.3,-0.8,86.51,0.0,0.0,30.3,10.0,2.3
2021-01-27 13:00:00,2.8,-0.4,86.14,0.0,0.0,30.32,10.0,2.8
2021-01-27 14:00:00,5.0,2.3,88.3,0.0,0.0,30.36,10.0,5.0
2021-01-27 15:00:00,9.5,7.0,89.34,300.0,3.0,30.37,10.0,2.97
2021-01-27 16:00:00,12.7,4.5,69.15,330.0,6.0,30.38,10.0,2.29
2021-01-27 17:00:00,12.9,4.3,67.91,350.0,6.0,30.37,10.0,2.53
2021-01-27 18:00:00,13.3,4.0,66.12,10.0,7.0,30.36,10.0,1.99
2021-01-27 19:00:00,14.4,4.5,64.17,360.0,7.0,30.35,10.0,3.33
2021-01-27 20:00:00,14.5,3.7,61.58,350.0,7.0,30.36,10.0,3.45
2021-01-27 21:00:00,13.1,2.3,61.38,350.0,8.0,30.37,10.0,0.83
2021-01-27 22:00:00,8.4,-0.8,65.46,360.0,6.0,30.39,10.0,-2.89
2021-01-27 23:00:00,8.6,0.9,70.26,330.0,5.0,30.41,10.0,-1.39
2021-01-28 00:00:00,4.3,-1.7,75.6,330.0,4.0,30.43,10.0,-4.93
2021-01-28 01:00:00,-0.6,-4.7,82.29,350.0,3.0,30.44,10.0,-8.58
2021-01-28 02:00:00,1.2,-3.0,82.43,330.0,4.0,30.45,10.0,-8.55
2021-01-28 03:00:00,-0.8,-4.4,84.28,340.0,4.0,30.47,10.0,-10.88
2021-01-28 04:00:00,-2.4,-5.0,88.74,330.0,4.0,30.48,10.0,-12.75
2021-01-28 05:00:00,-3.0,-5.8,87.02,340.0,5.0,30.49,10.0,-15.05
2021-01-28 06:00:00,-3.0,-6.0,86.18,340.0,4.0,30.5,10.0,-13.33
2021-01-28 07:00:00,-9.2,-11.7,88.38,0.0,0.0,30.51,10.0,-9.2
2021-01-28 08:00:00,-11.7,-15.0,84.75,0.0,0.0,30.53,10.0,-11.7
2021-01-28 09:00:00,-15.0,-18.9,81.93,0.0,0.0,30.51,10.0,-15.0
2021-01-28 10:00:00,-16.1,-20.6,79.33,0.0,0.0,30.52,10.0,-16.1
2021-01-28 11:00:00,-16.2,-20.2,81.41,0.0,0.0,30.53,4.0,-16.2
2021-01-28 12:00:00,-11.4,-15.3,82.23,0.0,0.0,30.55,10.0,-11.4
2021-01-28 13:00:00,-8.9,-13.2,80.8,0.0,0.0,30.54,10.0,-8.9
2021-01-28 14:00:00,-6.2,-9.9,83.47,0.0,0.0,30.56,10.0,-6.2
2021-01-28 15:00:00,-3.3,-7.0,84.1,0.0,0.0,30.56,10.0,-3.3
2021-01-28 16:00:00,6.4,3.2,86.36,0.0,0.0,30.58,10.0,6.4
2021-01-28 17:00:00,11.5,3.7,70.28,0.0,0.0,30.56,10.0,11.5
2021-01-28 18:00:00,12.9,4.0,66.67,150.0,4.0,30.53,10.0,5.12
2021-01-28 19:00:00,13.6,3.7,64.06,150.0,3.0,30.5,10.0,7.65
2021-01-28 20:00:00,15.6,2.7,56.05,230.0,4.0,30.5,10.0,8.27
2021-01-28 21:00:00,15.8,2.5,55.05,240.0,5.0,30.5,10.0,7.16
2021-01-28 22:00:00,14.9,5.0,64.24,210.0,3.0,30.48,10.0,9.14
2021-01-28 23:00:00,13.3,3.2,63.43,0.0,0.0,30.45,10.0,13.3
2021-01-29 00:00:00,8.4,2.3,75.67,0.0,0.0,30.46,10.0,8.4
2021-01-29 01:00:00,11.5,3.7,70.28,250.0,3.0,30.46,10.0,5.25
2021-01-29 02:00:00,8.2,2.0,75.65,0.0,0.0,30.44,10.0,8.2
2021-01-29 03:00:00,7.0,2.0,79.87,0.0,0.0,30.43,10.0,7.0
2021-01-29 04:00:00,8.2,3.6,81.08,0.0,0.0,30.43,10.0,8.2
2021-01-29 05:00:00,7.0,2.3,80.61,0.0,0.0,30.42,10.0,7.0
2021-01-29 06:00:00,7.0,2.3,80.61,0.0,0.0,30.42,10.0,7.0
2021-01-29 07:00:00,7.3,3.4,83.67,0.0,0.0,30.41,10.0,7.3
2021-01-29 08:00:00,3.2,0.7,89.03,0.0,0.0,30.39,10.0,3.2
2021-01-29 09:00:00,-2.6,-5.0,88.73,0.0,0.0,30.38,10.0,-2.6
2021-01-29 10:00:00,-7.0,-11.6,79.38,0.0,0.0,30.37,10.0,-6.9
2021-01-29 11:00:00,-5.3,-9.0,83.54,90.0,3.0,30.37,10.0,-13.95
2021-01-29 12:00:00,-5.6,-9.6,82.29,0.0,0.0,30.37,10.0,-5.6
2021-01-29 13:00:00,-6.2,-10.3,81.84,0.0,0.0,30.38,10.0,-6.2
2021-01-29 14:00:00,5.5,-0.6,75.37,0.0,0.0,30.37,10.0,5.5
2021-01-29 15:00:00,11.5,2.5,66.49,120.0,4.0,30.36,10.0,3.48
2021-01-29 16:00:00,15.8,4.0,58.73,160.0,6.0,30.35,10.0,6.02
2021-01-29 17:00:00,18.7,4.6,53.51,160.0,6.0,30.32,10.0,9.51
2021-01-29 18:00:00,20.7,7.5,56.07,170.0,6.0,30.3,10.0,11.92
2021-01-29 19:00:00,21.2,8.0,55.89,160.0,6.0,30.28,10.0,12.52
2021-01-29 20:00:00,22.1,8.1,54.29,130.0,7.0,30.27,10.0,12.71
2021-01-29 21:00:00,20.8,7.7,56.34,130.0,7.0,30.27,10.0,11.13
2021-01-29 22:00:00,19.6,7.3,58.23,120.0,8.0,30.26,10.0,8.84
2021-01-29 23:00:00,18.5,7.7,62.15,130.0,7.0,30.26,10.0,8.32
2021-01-30 00:00:00,18.3,7.3,61.56,120.0,9.0,30.26,10.0,6.48
2021-01-30 01:00:00,18.0,7.2,62.08,110.0,8.0,30.24,10.0,6.87
2021-01-30 02:00:00,18.0,10.4,71.68,110.0,9.0,30.22,10.0,6.11
2021-01-30 03:00:00,18.5,13.1,79.08,120.0,9.0,30.22,10.0,6.73
2021-01-30 04:00:00,19.4,15.4,84.15,120.0,10.0,30.2,10.0,7.17
2021-01-30 05:00:00,19.9,15.8,83.82,130.0,8.0,30.21,10.0,9.21
2021-01-30 06:00:00,19.8,16.5,86.77,130.0,9.0,30.19,10.0,8.34
2021-01-30 07:00:00,19.9,17.1,88.68,120.0,9.0,30.18,10.0,8.47
2021-01-30 08:00:00,19.9,17.2,89.06,130.0,8.0,30.17,10.0,9.21
2021-01-30 09:00:00,20.3,18.0,90.63,110.0,12.0,30.16,10.0,7.11
2021-01-30 10:00:00,21.2,18.5,89.12,120.0,13.0,30.13,10.0,7.73
2021-01-30 11:00:00,21.2,18.5,89.12,120.0,11.0,30.12,10.0,8.82
2021-01-30 12:00:00,22.3,19.4,88.42,120.0,13.0,30.12,10.0,9.14
2021-01-30 13:00:00,22.5,19.8,89.19,120.0,13.0,30.12,10.0,9.4
2021-01-30 14:00:00,23.9,20.5,86.64,110.0,14.0,30.11,10.0,10.72
2021-01-30 15:00:00,24.8,21.2,85.96,110.0,14.0,30.1,10.0,11.88
2021-01-30 16:00:00,26.2,21.6,82.49,130.0,16.0,30.11,5.0,12.86
2021-01-30 17:00:00,26.4,22.6,85.34,120.0,12.0,30.08,2.5,14.87
2021-01-30 18:00:00,26.6,23.0,86.07,110.0,18.0,30.06,2.5,12.64
2021-01-30 19:00:00,27.0,23.2,85.37,110.0,17.0,30.04,10.0,13.52
2021-01-30 20:00:00,26.6,23.0,86.07,110.0,19.0,30.04,10.0,12.3
2021-01-30 21:00:00,26.4,23.2,87.52,100.0,15.0,30.02,10.0,13.52
2021-01-30 22:00:00,26.1,23.4,89.36,100.0,16.0,30.03,10.0,12.73
2021-01-30 23:00:00,25.7,23.2,90.09,100.0,15.0,30.03,10.0,12.61
2021-01-31 00:00:00,25.2,22.6,89.69,100.0,17.0,30.03,10.0,11.17
2021-01-31 01:00:00,24.8,21.6,87.43,90.0,14.0,30.02,10.0,11.88
2021-01-31 02:00:00,24.6,21.7,88.53,80.0,12.0,30.02,10.0,12.58
2021-01-31 03:00:00,24.4,21.2,87.41,90.0,13.0,30.02,10.0,11.83
2021-01-31 04:00:00,23.9,21.2,89.25,80.0,10.0,30.02,2.5,12.81
2021-01-31 05:00:00,23.5,21.2,90.76,70.0,12.0,30.02,1.75,11.18
2021-01-31 06:00:00,23.2,20.8,90.36,80.0,13.0,30.01,2.5,10.29
2021-01-31 07:00:00,23.0,20.7,90.74,80.0,11.0,30.02,3.0,11.09
2021-01-31 08:00:00,23.0,20.3,89.21,70.0,12.0,30.01,2.5,10.55
2021-01-31 09:00:00,22.6,20.1,89.95,80.0,9.0,30.03,2.5,11.83
2021-01-31 10:00:00,22.6,20.1,89.95,70.0,10.0,30.04,2.5,11.18
2021-01-31 11:00:00,22.5,20.1,90.33,60.0,10.0,30.05,2.5,11.06
2021-01-31 12:00:00,22.5,19.4,87.68,70.0,10.0,30.07,4.0,11.06
2021-01-31 13:00:00,23.0,20.3,89.21,60.0,9.0,30.08,7.0,12.32
2021-01-31 14:00:00,24.3,21.4,88.52,60.0,9.0,30.09,10.0,13.94
2021-01-31 15:00:00,25.5,21.4,84.2,70.0,11.0,30.1,10.0,14.25
2021-01-31 16:00:00,26.6,22.1,82.87,80.0,7.0,30.11,10.0,18.2
2021-01-31 17:00:00,27.0,22.1,81.51,50.0,9.0,30.11,10.0,17.3
2021-01-31 18:00:00,26.6,21.2,79.77,40.0,9.0,30.11,10.0,16.8
2021-01-31 19:00:00,27.1,21.2,78.14,40.0,7.0,30.11,10.0,18.81
2021-01-31 20:00:00,27.1,21.0,77.48,40.0,7.0,30.12,10.0,18.81
2021-01-31 21:00:00,27.0,20.1,74.88,20.0,5.0,30.13,10.0,20.46
2021-01-31 22:00:00,24.8,19.0,78.27,10.0,4.0,30.15,10.0,19.01
2021-01-31 23:00:00,22.8,18.0,81.53,20.0,3.0,30.16,10.0,18.17
2021-02-01 00:00:00,18.0,15.1,88.2,0.0,0.0,30.16,10.0,18.0
2021-02-01 01:00:00,14.7,13.3,94.05,0.0,0.0,30.16,10.0,14.7
2021-02-01 02:00:00,13.6,12.0,93.19,0.0,0.0,30.17,10.0,13.6
2021-02-01 03:00:00,14.4,13.1,94.45,0.0,0.0,30.17,10.0,14.4
2021-02-01 04:00:00,15.6,14.4,94.9,0.0,0.0,30.17,10.0,15.6
2021-02-01 05:00:00,16.9,14.2,88.91,0.0,0.0,30.18,10.0,16.9
2021-02-01 06:00:00,16.0,14.2,92.45,330.0,4.0,30.19,10.0,8.74
2021-02-01 07:00:00,14.0,11.5,89.56,0.0,0.0,30.19,10.0,14.0
2021-02-01 08:00:00,7.2,5.7,93.41,0.0,0.0,30.19,10.0,7.2
2021-02-01 09:00:00,6.0,4.5,92.95,10.0,4.0,30.19,10.0,-2.82
2021-02-01 10:00:00,6.0,3.7,90.41,0.0,0.0,30.2,10.0,5.9
2021-02-01 11:00:00,9.0,6.8,90.55,0.0,0.0,30.21,10.0,9.0
2021-02-01 12:00:00,8.0,5.5,89.68,0.0,0.0,30.22,10.0,7.9
2021-02-01 13:00:00,9.9,8.0,91.41,0.0,0.0,30.24,10.0,9.9
2021-02-01 14:00:00,16.7,15.6,95.34,340.0,6.0,30.24,10.0,7.1
2021-02-01 15:00:00,16.7,15.3,94.1,0.0,0.0,30.24,10.0,16.7
2021-02-01 16:00:00,23.0,18.0,80.85,0.0,0.0,30.24,10.0,23.0
2021-02-01 17:00:00,27.0,16.9,65.27,10.0,4.0,30.22,10.0,21.58
2021-02-01 18:00:00,29.3,16.3,57.87,350.0,9.0,30.2,10.0,20.16
2021-02-01 19:00:00,31.1,19.2,60.95,360.0,12.0,30.19,10.0,20.86
2021-02-01 20:00:00,29.8,20.1,66.76,360.0,9.0,30.19,10.0,20.78
2021-02-01 21:00:00,29.7,21.0,69.65,340.0,10.0,30.2,10.0,20.08
2021-02-01 22:00:00,28.4,21.4,74.71,340.0,8.0,30.22,10.0,19.68
2021-02-01 23:00:00,27.5,21.7,78.51,340.0,8.0,30.24,10.0,18.57
2021-02-02 00:00:00,27.0,20.3,75.52,330.0,9.0,30.24,10.0,17.3
2021-02-02 01:00:00,26.1,20.1,77.72,350.0,9.0,30.24,10.0,16.18
2021-02-02 02:00:00,25.3,19.4,77.98,330.0,8.0,30.23,10.0,15.86
2021-02-02 03:00:00,24.6,19.6,80.98,350.0,7.0,30.25,10.0,15.76
2021-02-02 04:00:00,23.9,19.4,82.67,340.0,5.0,30.25,10.0,16.78
2021-02-02 05:00:00,23.0,18.3,81.9,340.0,8.0,30.26,10.0,13.03
2021-02-02 06:00:00,22.1,18.0,83.97,360.0,9.0,30.25,10.0,11.2
2021-02-02 07:00:00,21.2,17.6,85.74,360.0,8.0,30.25,10.0,10.81
2021-02-02 08:00:00,20.3,17.2,87.56,350.0,6.0,30.25,10.0,11.44
2021-02-02 09:00:00,20.1,17.1,87.92,300.0,5.0,30.24,10.0,12.26
2021-02-02 10:00:00,19.9,16.7,87.16,310.0,6.0,30.25,10.0,10.96
2021-02-02 11:00:00,20.1,16.7,86.42,320.0,4.0,30.25,10.0,13.52
2021-02-02 12:00:00,20.1,17.1,87.92,340.0,3.0,30.26,10.0,15.08
2021-02-02 13:00:00,20.5,17.6,88.33,320.0,4.0,30.26,10.0,13.99
2021-02-02 14:00:00,21.6,18.5,87.63,340.0,4.0,30.26,10.0,15.28
2021-02-02 15:00:00,23.2,19.4,85.13,350.0,3.0,30.26,10.0,18.63
2021-02-02 16:00:00,25.5,19.2,76.68,360.0,9.0,30.25,10.0,15.43
2021-02-02 17:00:00,26.4,19.4,74.5,10.0,9.0,30.24,10.0,16.55
2021-02-02 18:00:00,27.5,19.0,69.99,360.0,7.0,30.21,10.0,19.29
2021-02-02 19:00:00,28.4,19.4,68.61,360.0,7.0,30.2,10.0,20.39
2021-02-02 20:00:00,29.3,18.5,63.63,360.0,4.0,30.2,10.0,24.27
2021-02-02 21:00:00,28.6,18.3,64.92,340.0,6.0,30.2,10.0,21.44
2021-02-02 22:00:00,25.7,17.1,69.48,340.0,4.0,30.19,10.0,20.06
2021-02-02 23:00:00,23.9,16.3,72.34,320.0,5.0,30.18,10.0,16.78
2021-02-03 00:00:00,17.2,12.0,79.67,340.0,4.0,30.18,10.0,10.14
2021-02-03 01:00:00,14.0,9.9,83.4,0.0,0.0,30.18,10.0,14.0
2021-02-03 02:00:00,8.6,7.0,93.03,0.0,0.0,30.17,10.0,8.6
2021-02-03 03:00:00,12.7,11.5,94.83,0.0,0.0,30.17,10.0,12.7
2021-02-03 04:00:00,5.4,3.0,89.56,360.0,3.0,30.16,10.0,-1.72
2021-02-03 05:00:00,2.3,0.0,89.83,0.0,0.0,30.15,10.0,2.3
2021-02-03 06:00:00,1.9,-0.9,87.72,0.0,0.0,30.15,4.0,1.9
2021-02-03 07:00:00,-2.0,-5.3,85.42,0.0,0.0,30.14,1.5,-2.0
2021-02-03 08:00:00,-3.0,-6.2,86.17,0.0,0.0,30.13,1.25,-3.1
2021-02-03 09:00:00,-3.8,-7.2,84.88,0.0,0.0,30.11,3.0,-3.8
2021-02-03 10:00:00,-3.0,-6.3,85.76,0.0,0.0,30.11,10.0,-3.1
2021-02-03 11:00:00,-3.3,-6.7,84.92,0.0,0.0,30.1,10.0,-3.3
2021-02-03 12:00:00,-5.4,-9.0,83.94,0.0,0.0,30.08,10.0,-5.4
2021-02-03 13:00:00,-2.4,-5.8,84.98,0.0,0.0,30.08,10.0,-2.4
2021-02-03 14:00:00,4.0,1.2,87.43,0.0,0.0,30.06,10.0,4.1
2021-02-03 15:00:00,12.9,10.8,91.12,0.0,0.0,30.05,10.0,12.9
2021-02-03 16:00:00,22.8,15.6,73.49,0.0,0.0,30.04,10.0,22.8
2021-02-03 17:00:00,28.2,15.4,58.21,200.0,8.0,30.01,10.0,19.43
2021-02-03 18:00:00,30.0,16.7,57.23,170.0,6.0,29.97,10.0,23.12
2021-02-03 19:00:00,31.3,17.4,55.96,190.0,6.0,29.95,10.0,24.69
2021-02-03 20:00:00,30.7,16.9,56.11,150.0,8.0,29.92,10.0,22.51
2021-02-03 21:00:00,29.5,17.1,59.42,150.0,10.0,29.91,10.0,19.83
2021-02-03 22:00:00,28.2,16.9,62.13,150.0,11.0,29.87,10.0,17.66
2021-02-03 23:00:00,26.1,17.1,68.34,150.0,10.0,29.86,10.0,15.57
2021-02-04 00:00:00,25.5,16.7,68.86,160.0,9.0,29.86,10.0,15.43
2021-02-04 01:00:00,25.0,17.2,71.84,160.0,11.0,29.83,10.0,13.62
2021-02-04 02:00:00,24.4,16.7,72.08,150.0,13.0,29.8,10.0,11.83
2021-02-04 03:00:00,24.6,16.9,72.11,160.0,11.0,29.78,10.0,13.11
2021-02-04 04:00:00,24.8,16.7,70.89,160.0,11.0,29.78,10.0,13.37
2021-02-04 05:00:00,24.8,16.7,70.89,150.0,13.0,29.74,10.0,12.34
2021-02-04 06:00:00,25.5,17.2,70.36,190.0,10.0,29.75,10.0,14.82
2021-02-04 07:00:00,25.2,17.4,71.86,180.0,9.0,29.73,10.0,15.06
2021-02-04 08:00:00,25.0,18.5,75.98,150.0,12.0,29.69,10.0,13.09
2021-02-04 09:00:00,25.3,20.7,82.42,160.0,14.0,29.66,10.0,12.53
2021-02-04 10:00:00,26.1,23.5,89.73,150.0,7.0,29.64,5.0,17.59
2021-02-04 11:00:00,26.1,24.8,94.74,160.0,13.0,29.61,4.0,14.01
2021-02-04 12:00:00,25.7,24.8,96.33,170.0,8.0,29.59,4.0,16.35
2021-02-04 13:00:00,25.7,24.8,96.33,160.0,10.0,29.56,3.0,15.07
2021-02-04 14:00:00,25.7,24.8,96.33,160.0,9.0,29.52,3.0,15.68
2021-02-04 15:00:00,26.2,25.3,96.33,150.0,10.0,29.49,0.75,15.69
2021-02-04 16:00:00,26.6,25.7,96.34,150.0,8.0,29.47,0.75,17.46
2021-02-04 17:00:00,26.6,25.7,96.34,140.0,7.0,29.42,0.25,18.2
2021-02-04 18:00:00,27.0,26.2,96.75,140.0,7.0,29.36,0.5,18.68
2021-02-04 19:00:00,27.5,26.6,96.36,170.0,7.0,29.34,1.0,19.29
2021-02-04 20:00:00,27.5,27.3,99.18,160.0,4.0,29.3,1.0,22.17
2021-02-04 21:00:00,27.5,27.5,100.0,0.0,0.0,29.28,0.25,27.5
2021-02-04 22:00:00,27.5,27.5,100.0,0.0,0.0,29.25,0.25,27.5
2021-02-04 23:00:00,27.3,27.3,100.0,330.0,4.0,29.23,1.0,21.93
2021-02-05 00:00:00,27.0,26.6,98.36,320.0,9.0,29.22,1.5,17.3
2021-02-05 01:00:00,24.1,22.6,93.9,0.0,0.0,29.22,2.5,24.1
2021-02-05 02:00:00,21.9,19.6,90.69,0.0,0.0,29.22,3.0,21.9
2021-02-05 03:00:00,19.4,16.5,88.27,0.0,0.0,29.23,3.0,19.4
2021-02-05 04:00:00,16.7,13.8,88.13,0.0,0.0,29.24,4.0,16.7
2021-02-05 05:00:00,14.9,11.1,84.59,0.0,0.0,29.25,5.0,14.9
2021-02-05 06:00:00,14.4,9.9,81.95,0.0,0.0,29.25,7.0,14.4
2021-02-05 07:00:00,13.1,8.6,81.85,0.0,0.0,29.27,5.0,13.1
2021-02-05 08:00:00,10.9,6.8,83.17,0.0,0.0,29.28,2.5,10.9
2021-02-05 09:00:00,9.0,4.0,80.04,0.0,0.0,29.29,4.0,9.0
2021-02-05 10:00:00,6.8,1.4,78.01,0.0,0.0,29.3,5.0,6.8
2021-02-05 11:00:00,5.7,0.7,79.38,0.0,0.0,29.31,3.0,5.7
2021-02-05 12:00:00,4.8,0.5,81.94,0.0,0.0,29.32,4.0,4.8
2021-02-05 13:00:00,4.0,-0.9,79.24,0.0,0.0,29.33,5.0,4.1
2021-02-05 14:00:00,4.0,-2.2,74.51,0.0,0.0,29.35,3.0,4.1
2021-02-05 15:00:00,4.5,-2.2,73.16,0.0,0.0,29.36,2.5,4.5
2021-02-05 16:00:00,4.8,-2.4,71.47,0.0,0.0,29.38,4.0,4.8
2021-02-05 17:00:00,6.4,-1.3,69.99,0.0,0.0,29.39,7.0,6.4
2021-02-05 18:00:00,5.7,-2.0,69.91,0.0,0.0,29.4,3.0,5.7
2021-02-05 19:00:00,6.0,-2.4,67.97,0.0,0.0,29.41,7.0,5.9
2021-02-05 20:00:00,6.0,-1.3,71.6,0.0,0.0,29.42,4.0,5.9
2021-02-05 21:00:00,4.8,-3.0,69.13,0.0,0.0,29.45,7.0,4.8
2021-02-05 22:00:00,3.7,-2.6,74.47,0.0,0.0,29.47,10.0,3.7
2021-02-05 23:00:00,4.0,-2.7,72.76,0.0,0.0,29.49,10.0,4.1
2021-02-06 00:00:00,2.8,-5.4,67.89,0.0,0.0,29.52,10.0,2.8
2021-02-06 01:00:00,1.4,-6.7,68.04,0.0,0.0,29.55,10.0,1.4
2021-02-06 02:00:00,-0.4,-7.6,70.85,0.0,0.0,29.57,10.0,-0.4
2021-02-06 03:00:00,-2.2,-8.0,75.65,0.0,0.0,29.59,10.0,-2.2
2021-02-06 04:00:00,-3.3,-7.8,80.49,0.0,0.0,29.61,10.0,-3.3
2021-02-06 05:00:00,-2.7,-8.0,77.47,0.0,0.0,29.63,10.0,-2.7
2021-02-06 06:00:00,-3.6,-9.2,76.25,0.0,0.0,29.64,10.0,-3.6
2021-02-06 07:00:00,-4.7,-10.5,75.38,0.0,0.0,29.67,10.0,-4.7
2021-02-06 08:00:00,-4.7,-10.5,75.38,0.0,0.0,29.69,10.0,-4.7
2021-02-06 09:00:00,-5.3,-10.7,76.83,0.0,0.0,29.71,10.0,-5.3
2021-02-06 10:00:00,-5.6,-11.0,76.79,0.0,0.0,29.73,10.0,-5.6
2021-02-06 11:00:00,-6.3,-11.6,77.11,0.0,0.0,29.75,10.0,-6.3
2021-02-06 12:00:00,-7.8,-13.0,77.34,0.0,0.0,29.77,10.0,-7.8
2021-02-06 13:00:00,-8.1,-13.7,75.77,0.0,0.0,29.81,10.0,-8.1
2021-02-06 14:00:00,-6.3,-12.5,73.72,280.0,15.0,29.82,10.0,-28.87
2021-02-06 15:00:00,-4.5,-11.9,69.65,280.0,14.0,29.87,5.0,-25.89
2021-02-06 16:00:00,-1.5,-10.5,64.72,280.0,12.0,29.87,10.0,-20.63
2021-02-06 17:00:00,-0.6,-10.3,62.65,250.0,12.0,29.88,10.0,-19.49
2021-02-06 18:00:00,1.4,-9.4,59.64,260.0,13.0,29.87,10.0,-17.63
2021-02-06 19:00:00,0.5,-9.4,62.2,250.0,12.0,29.86,10.0,-18.09
2021-02-06 20:00:00,0.3,-10.3,60.06,270.0,17.0,29.86,10.0,-21.45
2021-02-06 21:00:00,-0.9,-10.5,62.92,250.0,9.0,29.87,10.0,-17.4
2021-02-06 22:00:00,-2.6,-11.9,63.61,260.0,11.0,29.87,10.0,-21.26
2021-02-06 23:00:00,-6.2,-13.9,68.4,250.0,9.0,29.88,10.0,-23.99
2021-02-07 00:00:00,-8.1,-15.0,70.97,270.0,8.0,29.9,10.0,-25.28
2021-02-07 01:00:00,-8.0,-15.7,68.16,270.0,11.0,29.9,10.0,-28.08
2021-02-07 02:00:00,-8.9,-17.5,64.98,280.0,9.0,29.92,10.0,-27.34
2021-02-07 03:00:00,-10.5,-18.4,67.13,290.0,9.0,29.93,10.0,-29.33
2021-02-07 04:00:00,-12.1,-19.7,67.96,290.0,8.0,29.94,10.0,-30.21
2021-02-07 05:00:00,-14.3,-21.3,69.82,280.0,6.0,29.95,10.0,-30.23
2021-02-07 06:00:00,-16.1,-22.9,70.33,280.0,6.0,29.96,10.0,-32.4
2021-02-07 07:00:00,-17.5,-24.0,71.27,270.0,7.0,29.97,10.0,-35.56
2021-02-07 08:00:00,-18.8,-24.2,75.39,280.0,7.0,29.98,10.0,-37.14
2021-02-07 09:00:00,-20.0,-25.8,73.67,280.0,5.0,29.98,10.0,-35.36
2021-02-07 10:00:00,-21.5,-27.2,73.89,270.0,6.0,30.0,10.0,-38.9
2021-02-07 11:00:00,-21.1,-26.7,74.33,290.0,7.0,30.01,10.0,-39.95
2021-02-07 12:00:00,-22.4,-28.1,73.78,300.0,8.0,30.01,10.0,-42.9
2021-02-07 13:00:00,-21.5,-27.6,72.31,290.0,7.0,30.04,10.0,-40.43
2021-02-07 14:00:00,-18.6,-25.8,68.52,300.0,14.0,30.06,10.0,-44.06
2021-02-07 15:00:00,-15.5,-24.2,63.68,300.0,8.0,30.08,10.0,-34.4
2021-02-07 16:00:00,-11.4,-22.0,58.22,300.0,7.0,30.08,10.0,-28.12
2021-02-07 17:00:00,-7.0,-20.2,51.78,290.0,12.0,30.08,10.0,-27.76
2021-02-07 18:00:00,-5.0,-18.9,49.79,300.0,12.0,30.05,10.0,-24.96
2021-02-07 19:00:00,-2.6,-18.4,45.78,290.0,9.0,30.05,10.0,-19.51
2021-02-07 20:00:00,-1.8,-16.1,49.58,260.0,11.0,30.06,10.0,-20.25
2021-02-07 21:00:00,-5.0,-16.8,55.46,260.0,12.0,30.08,10.0,-24.96
2021-02-07 22:00:00,-8.1,-18.9,58.15,250.0,9.0,30.08,10.0,-26.35
2021-02-07 23:00:00,-9.8,-19.5,61.27,270.0,7.0,30.1,10.0,-26.17
2021-02-08 00:00:00,-10.3,-19.3,63.46,270.0,8.0,30.11,10.0,-27.99
2021-02-08 01:00:00,-11.4,-20.4,63.29,260.0,7.0,30.14,10.0,-28.12
2021-02-08 02:00:00,-12.1,-20.6,64.86,280.0,5.0,30.13,10.0,-25.98
2021-02-08 03:00:00,-10.3,-20.2,60.56,280.0,9.0,30.16,10.0,-29.08
2021-02-08 04:00:00,-9.6,-19.7,60.05,260.0,6.0,30.17,10.0,-24.57
2021-02-08 05:00:00,-10.3,-20.4,59.94,280.0,7.0,30.18,10.0,-26.78
2021-02-08 06:00:00,-9.8,-20.2,59.09,290.0,4.0,30.17,10.0,-21.39
2021-02-08 07:00:00,-9.8,-19.3,61.91,280.0,5.0,30.18,10.0,-23.25
2021-02-08 08:00:00,-9.6,-19.3,61.3,280.0,6.0,30.19,10.0,-24.57
2021-02-08 09:00:00,-9.8,-18.0,66.2,300.0,6.0,30.19,7.0,-24.81
2021-02-08 10:00:00,-10.5,-17.9,68.88,290.0,3.0,30.19,10.0,-19.9
2021-02-08 11:00:00,-10.7,-17.5,71.01,290.0,4.0,30.19,10.0,-22.44
2021-02-08 12:00:00,-10.8,-17.3,72.09,270.0,5.0,30.2,10.0,-24.43
2021-02-08 13:00:00,-11.4,-17.5,73.51,290.0,6.0,30.2,10.0,-26.74
2021-02-08 14:00:00,-10.8,-17.5,71.36,300.0,9.0,30.21,10.0,-29.71
2021-02-08 15:00:00,-9.0,-17.5,65.3,320.0,5.0,30.2,10.0,-22.3
2021-02-08 16:00:00,-5.0,-15.5,59.83,0.0,0.0,30.21,10.0,-5.1
2021-02-08 17:00:00,-0.9,-13.2,55.0,270.0,4.0,30.18,10.0,-11.0
2021-02-08 18:00:00,-0.6,-13.0,54.78,0.0,0.0,30.17,10.0,-0.6
2021-02-08 19:00:00,0.9,-12.3,52.88,260.0,9.0,30.17,10.0,-15.16
2021-02-08 20:00:00,-0.2,-12.6,54.84,260.0,7.0,30.16,10.0,-14.47
2021-02-08 21:00:00,0.1,-13.0,53.01,250.0,6.0,30.16,10.0,-12.89
2021-02-08 22:00:00,-2.2,-13.0,59.08,250.0,8.0,30.17,10.0,-18.02
2021-02-08 23:00:00,-6.5,-15.0,65.65,240.0,6.0,30.17,10.0,-20.84
2021-02-09 00:00:00,-8.7,-16.1,69.11,250.0,6.0,30.17,10.0,-23.49
2021-02-09 01:00:00,-11.0,-17.1,73.56,260.0,5.0,30.18,10.0,-24.67
2021-02-09 02:00:00,-13.0,-18.4,76.02,270.0,4.0,30.19,10.0,-25.13
2021-02-09 03:00:00,-14.6,-18.9,80.29,250.0,4.0,30.2,10.0,-27.0
2021-02-09 04:00:00,-16.2,-20.2,81.41,290.0,4.0,30.21,10.0,-28.87
2021-02-09 05:00:00,-17.7,-21.6,81.71,0.0,0.0,30.21,10.0,-17.7
2021-02-09 06:00:00,-24.2,-28.1,81.14,0.0,0.0,30.22,10.0,-24.2
2021-02-09 07:00:00,-21.1,-25.6,78.85,0.0,0.0,30.22,10.0,-21.1
2021-02-09 08:00:00,-28.8,-34.4,73.42,0.0,0.0,30.21,10.0,-28.8
2021-02-09 09:00:00,-24.0,-28.8,77.29,0.0,0.0,30.22,10.0,-24.0
2021-02-09 10:00:00,-22.5,-27.4,77.03,290.0,3.0,30.22,10.0,-33.61
2021-02-09 11:00:00,-22.7,-28.1,74.96,0.0,0.0,30.21,10.0,-22.7
2021-02-09 12:00:00,-15.9,-20.7,78.12,270.0,4.0,30.22,10.0,-28.52
2021-02-09 13:00:00,-12.6,-17.5,78.04,280.0,3.0,30.22,10.0,-22.3
2021-02-09 14:00:00,-9.2,-14.1,78.37,270.0,6.0,30.23,10.0,-24.09
2021-02-09 15:00:00,-5.3,-12.8,69.2,250.0,10.0,30.22,10.0,-23.81
2021-02-09 16:00:00,-1.1,-14.1,53.07,260.0,9.0,30.22,10.0,-17.64
2021-02-09 17:00:00,1.8,-11.6,52.5,260.0,12.0,30.2,10.0,-16.43
2021-02-09 18:00:00,3.2,-10.7,51.45,250.0,10.0,30.19,10.0,-13.15
2021-02-09 19:00:00,4.0,-10.5,50.31,260.0,12.0,30.18,10.0,-13.76
2021-02-09 20:00:00,3.7,-8.9,54.94,250.0,15.0,30.18,10.0,-15.91
2021-02-09 21:00:00,4.0,-8.9,54.44,250.0,11.0,30.18,10.0,-13.04
2021-02-09 22:00:00,2.8,-8.3,58.98,250.0,8.0,30.18,10.0,-11.86
2021-02-09 23:00:00,0.5,-9.4,62.2,260.0,8.0,30.19,10.0,-14.69
2021-02-10 00:00:00,-2.0,-10.5,66.27,250.0,4.0,30.2,10.0,-12.28
2021-02-10 01:00:00,-3.8,-10.5,72.2,240.0,6.0,30.21,10.0,-17.59
2021-02-10 02:00:00,-4.2,-11.0,71.8,250.0,7.0,30.22,10.0,-19.35
2021-02-10 03:00:00,-3.3,-10.1,71.9,270.0,7.0,30.22,10.0,-18.25
2021-02-10 04:00:00,-6.0,-11.7,75.62,260.0,6.0,30.23,10.0,-20.24
2021-02-10 05:00:00,-6.3,-11.0,79.44,290.0,4.0,30.24,10.0,-17.3
2021-02-10 06:00:00,-11.6,-15.5,82.22,260.0,4.0,30.26,10.0,-23.49
2021-02-10 07:00:00,-11.2,-14.4,85.21,270.0,3.0,30.26,10.0,-20.7
2021-02-10 08:00:00,-15.3,-18.9,83.19,260.0,5.0,30.29,10.0,-29.78
2021-02-10 09:00:00,-13.2,-18.2,77.58,290.0,5.0,30.29,10.0,-27.28
2021-02-10 10:00:00,-12.6,-17.1,79.66,250.0,4.0,30.29,10.0,-24.66
2021-02-10 11:00:00,-12.8,-17.3,79.64,300.0,6.0,30.28,10.0,-28.43
2021-02-10 12:00:00,-12.1,-16.8,78.89,0.0,0.0,30.28,10.0,-12.1
2021-02-10 13:00:00,-11.4,-16.8,76.19,310.0,5.0,30.28,10.0,-25.15
2021-02-10 14:00:00,-7.2,-13.5,73.25,310.0,8.0,30.29,10.0,-24.17
2021-02-10 15:00:00,-3.3,-12.5,63.83,310.0,11.0,30.29,10.0,-22.14
2021-02-10 16:00:00,0.0,-11.0,58.84,290.0,6.0,30.29,10.0,-13.01
2021-02-10 17:00:00,1.6,-9.9,57.65,290.0,11.0,30.27,10.0,-15.95
2021-02-10 18:00:00,2.5,-9.4,56.66,280.0,7.0,30.27,10.0,-11.18
2021-02-10 19:00:00,3.0,-8.5,57.87,260.0,9.0,30.26,10.0,-12.55
2021-02-10 20:00:00,3.2,-8.7,56.78,300.0,10.0,30.27,10.0,-13.15
2021-02-10 21:00:00,2.5,-9.9,55.29,290.0,6.0,30.27,10.0,-10.0
2021-02-10 22:00:00,1.0,-11.0,56.15,270.0,4.0,30.28,10.0,-8.78
2021-02-10 23:00:00,-0.8,-11.2,60.49,270.0,5.0,30.29,10.0,-12.56
2021-02-11 00:00:00,-2.2,-11.9,62.42,260.0,3.0,30.3,10.0,-10.41
2021-02-11 01:00:00,-7.0,-15.0,67.59,280.0,3.0,30.32,10.0,-16.01
2021-02-11 02:00:00,-7.8,-15.3,68.88,270.0,5.0,30.33,10.0,-20.87
2021-02-11 03:00:00,-9.6,-15.9,72.98,270.0,3.0,30.34,10.0,-18.87
2021-02-11 04:00:00,-16.8,-22.0,76.41,0.0,0.0,30.35,10.0,-16.8
2021-02-11 05:00:00,-15.3,-19.8,79.4,0.0,0.0,30.36,10.0,-15.3
2021-02-11 06:00:00,-22.2,-27.0,77.48,0.0,0.0,30.36,10.0,-22.2
2021-02-11 07:00:00,-23.1,-27.2,80.37,0.0,0.0,30.38,10.0,-23.1
2021-02-11 08:00:00,-26.1,-30.3,79.65,0.0,0.0,30.39,10.0,-26.1
2021-02-11 09:00:00,-26.0,-30.5,78.36,0.0,0.0,30.39,10.0,-26.0
2021-02-11 10:00:00,-27.4,-31.9,78.22,0.0,0.0,30.39,10.0,-27.4
2021-02-11 11:00:00,-27.4,-32.8,74.41,0.0,0.0,30.4,10.0,-27.4
2021-02-11 12:00:00,-25.4,-30.1,77.57,0.0,0.0,30.4,10.0,-25.4
2021-02-11 13:00:00,-23.8,-28.3,78.58,0.0,0.0,30.41,10.0,-23.8
2021-02-11 14:00:00,-15.5,-20.2,78.57,340.0,3.0,30.43,10.0,-25.61
2021-02-11 15:00:00,-7.4,-12.6,77.38,0.0,0.0,30.43,10.0,-7.4
2021-02-11 16:00:00,-1.3,-10.5,64.11,330.0,6.0,30.44,10.0,-14.58
2021-02-11 17:00:00,1.2,-9.4,60.2,330.0,4.0,30.43,10.0,-8.55
2021-02-11 18:00:00,1.2,-9.4,60.2,330.0,4.0,30.43,10.0,-8.55
2021-02-11 19:00:00,3.2,-7.6,59.91,0.0,0.0,30.41,10.0,3.2
2021-02-11 20:00:00,4.6,-7.6,56.17,0.0,0.0,30.41,10.0,4.6
2021-02-11 21:00:00,4.0,-7.4,58.04,0.0,0.0,30.4,10.0,4.1
2021-02-11 22:00:00,4.0,-7.0,60.02,0.0,0.0,30.38,10.0,3.9
2021-02-11 23:00:00,2.5,-8.5,59.22,0.0,0.0,30.38,10.0,2.5
2021-02-12 00:00:00,1.0,-8.5,63.5,340.0,3.0,30.38,10.0,-6.75
2021-02-12 01:00:00,0.9,-7.0,68.97,0.0,0.0,30.37,10.0,0.9
2021-02-12 02:00:00,2.0,-7.0,65.23,340.0,3.0,30.37,10.0,-5.49
2021-02-12 03:00:00,1.6,-4.2,76.04,340.0,5.0,30.38,4.0,-9.71
2021-02-12 04:00:00,1.0,-3.3,81.64,340.0,3.0,30.38,3.0,-6.75
2021-02-12 05:00:00,0.5,-3.6,82.38,360.0,4.0,30.36,3.0,-9.36
2021-02-12 06:00:00,0.3,-4.0,81.58,330.0,4.0,30.36,2.5,-9.6
2021-02-12 07:00:00,0.1,-4.0,82.35,330.0,5.0,30.35,3.0,-11.49
2021-02-12 08:00:00,-0.8,-5.0,81.49,350.0,6.0,30.33,5.0,-13.97
2021-02-12 09:00:00,-1.7,-6.3,80.24,350.0,7.0,30.33,4.0,-16.3
2021-02-12 10:00:00,-2.4,-7.0,80.57,350.0,5.0,30.32,3.0,-14.46
2021-02-12 11:00:00,-2.7,-7.0,81.73,340.0,5.0,30.32,3.0,-14.81
2021-02-12 12:00:00,-4.0,-8.5,80.43,310.0,8.0,30.34,4.0,-20.23
2021-02-12 13:00:00,-6.7,-11.4,79.4,330.0,4.0,30.34,10.0,-17.77
2021-02-12 14:00:00,-4.4,-11.2,71.77,320.0,5.0,30.35,10.0,-16.83
2021-02-12 15:00:00,-1.3,-9.4,67.69,300.0,9.0,30.35,10.0,-17.89
2021-02-12 16:00:00,1.2,-8.5,62.91,310.0,7.0,30.34,10.0,-12.76
2021-02-12 17:00:00,3.7,-7.0,60.57,310.0,7.0,30.32,10.0,-9.72
2021-02-12 18:00:00,5.2,-6.7,57.09,310.0,4.0,30.32,10.0,-3.88
2021-02-12 19:00:00,6.6,-6.7,53.56,340.0,5.0,30.31,10.0,-3.77
2021-02-12 20:00:00,4.0,-7.8,56.92,330.0,5.0,30.31,10.0,-6.74
2021-02-12 21:00:00,4.5,-8.0,55.34,340.0,6.0,30.32,10.0,-7.59
2021-02-12 22:00:00,2.8,-8.9,57.27,320.0,3.0,30.33,10.0,-4.69
2021-02-12 23:00:00,-3.6,-12.5,64.75,310.0,4.0,30.36,10.0,-14.15
2021-02-13 00:00:00,-1.5,-10.3,65.37,320.0,5.0,30.36,10.0,-13.39
2021-02-13 01:00:00,-3.3,-11.2,68.1,330.0,6.0,30.35,10.0,-16.98
2021-02-13 02:00:00,-4.4,-11.0,72.49,340.0,6.0,30.35,10.0,-18.31
2021-02-13 03:00:00,-5.3,-10.8,76.45,340.0,5.0,30.36,10.0,-17.9
2021-02-13 04:00:00,-6.2,-11.2,78.27,340.0,6.0,30.36,10.0,-20.48
2021-02-13 05:00:00,-7.6,-13.0,76.59,350.0,7.0,30.36,10.0,-23.49
2021-02-13 06:00:00,-8.5,-15.2,71.64,350.0,6.0,30.37,10.0,-23.25
2021-02-13 07:00:00,-9.0,-17.5,65.3,350.0,8.0,30.35,10.0,-26.39
2021-02-13 08:00:00,-8.9,-17.9,63.66,340.0,6.0,30.35,10.0,-23.73
2021-02-13 09:00:00,-8.7,-17.1,65.68,340.0,6.0,30.35,10.0,-23.49
2021-02-13 10:00:00,-8.7,-16.8,66.69,330.0,5.0,30.36,10.0,-21.94
2021-02-13 11:00:00,-8.7,-16.8,66.69,330.0,10.0,30.33,10.0,-28.07
2021-02-13 12:00:00,-8.5,-15.9,69.14,340.0,6.0,30.32,10.0,-23.25
2021-02-13 13:00:00,-8.5,-13.9,76.5,350.0,7.0,30.31,3.0,-24.59
2021-02-13 14:00:00,-7.8,-14.1,73.18,330.0,8.0,30.32,3.0,-24.91
2021-02-13 15:00:00,-6.7,-13.0,73.31,350.0,8.0,30.29,1.5,-23.56
2021-02-13 16:00:00,-5.4,-11.7,73.46,340.0,5.0,30.29,1.75,-18.02
2021-02-13 17:00:00,-4.0,-10.3,73.62,320.0,7.0,30.29,1.25,-19.1
2021-02-13 18:00:00,-3.3,-9.9,72.62,320.0,8.0,30.25,1.5,-19.37
2021-02-13 19:00:00,-2.7,-9.4,72.33,310.0,9.0,30.24,3.0,-19.63
2021-02-13 20:00:00,-2.0,-9.2,70.66,320.0,7.0,30.22,4.0,-16.66
2021-02-13 21:00:00,-2.2,-9.4,70.63,290.0,11.0,30.24,3.0,-20.75
2021-02-13 22:00:00,-4.0,-10.3,73.62,300.0,9.0,30.24,4.0,-21.25
2021-02-13 23:00:00,-5.3,-12.3,70.95,310.0,9.0,30.25,10.0,-22.87
2021-02-14 00:00:00,-6.7,-13.4,71.86,310.0,7.0,30.24,10.0,-22.39
2021-02-14 01:00:00,-9.2,-15.3,73.77,320.0,6.0,30.23,10.0,-24.09
2021-02-14 02:00:00,-12.3,-17.1,78.47,310.0,7.0,30.25,10.0,-29.22
2021-02-14 03:00:00,-12.1,-17.3,76.9,310.0,7.0,30.27,10.0,-28.98
2021-02-14 04:00:00,-14.4,-20.6,72.78,330.0,7.0,30.27,10.0,-31.78
2021-02-14 05:00:00,-14.8,-21.5,70.86,320.0,11.0,30.27,10.0,-36.68
2021-02-14 06:00:00,-15.0,-21.8,70.47,310.0,8.0,30.31,10.0,-33.78
2021-02-14 07:00:00,-16.1,-22.7,71.07,310.0,7.0,30.33,10.0,-33.85
2021-02-14 08:00:00,-17.1,-23.6,71.32,320.0,8.0,30.32,10.0,-36.37
2021-02-14 09:00:00,-17.1,-23.8,70.57,320.0,8.0,30.32,10.0,-36.37
2021-02-14 10:00:00,-17.5,-23.4,73.57,320.0,10.0,30.33,10.0,-39.11
2021-02-14 11:00:00,-18.0,-24.0,73.12,320.0,8.0,30.35,10.0,-37.48
2021-02-14 12:00:00,-18.4,-24.2,73.85,310.0,7.0,30.37,10.0,-36.65
2021-02-14 13:00:00,-17.7,-24.0,72.01,320.0,7.0,30.39,10.0,-35.8
2021-02-14 14:00:00,-15.9,-23.1,68.88,320.0,7.0,30.41,10.0,-33.61
2021-02-14 15:00:00,-10.8,-20.7,60.49,320.0,9.0,30.41,10.0,-29.71
2021-02-14 16:00:00,-7.6,-18.9,56.74,310.0,7.0,30.41,10.0,-23.49
2021-02-14 17:00:00,-4.4,-17.7,51.71,320.0,6.0,30.41,10.0,-18.31
2021-02-14 18:00:00,-2.7,-18.4,45.99,340.0,6.0,30.39,10.0,-16.26
2021-02-14 19:00:00,-1.8,-17.0,47.35,300.0,10.0,30.39,10.0,-19.42
2021-02-14 20:00:00,-1.7,-18.0,44.77,290.0,11.0,30.38,10.0,-20.12
2021-02-14 21:00:00,-2.0,-18.8,43.58,310.0,9.0,30.38,10.0,-18.76
2021-02-14 22:00:00,-3.0,-19.7,43.83,310.0,7.0,30.39,10.0,-18.01
2021-02-14 23:00:00,-5.4,-20.7,46.46,300.0,7.0,30.42,10.0,-20.81
2021-02-15 00:00:00,-7.0,-23.1,44.48,330.0,9.0,30.45,10.0,-25.1
2021-02-15 01:00:00,-8.7,-23.3,47.59,330.0,8.0,30.45,10.0,-26.02
2021-02-15 02:00:00,-10.8,-23.1,53.34,350.0,9.0,30.45,10.0,-29.71
2021-02-15 03:00:00,-13.5,-24.0,58.19,340.0,8.0,30.44,10.0,-31.93
2021-02-15 04:00:00,-15.2,-24.7,61.08,330.0,5.0,30.44,10.0,-29.66
2021-02-15 05:00:00,-15.7,-24.7,62.65,0.0,0.0,30.44,10.0,-15.7
2021-02-15 06:00:00,-21.5,-29.2,66.3,0.0,0.0,30.45,10.0,-21.5
2021-02-15 07:00:00,-20.0,-26.9,69.45,320.0,4.0,30.44,10.0,-33.3
2021-02-15 08:00:00,-24.2,-29.6,74.78,0.0,0.0,30.44,10.0,-24.2
2021-02-15 09:00:00,-23.6,-27.8,79.89,0.0,0.0,30.42,10.0,-23.6
2021-02-15 10:00:00,-25.2,-28.7,82.83,0.0,0.0,30.42,10.0,-25.2
2021-02-15 11:00:00,-29.2,-33.5,78.91,0.0,0.0,30.42,10.0,-29.2
2021-02-15 12:00:00,-30.8,-35.5,76.99,0.0,0.0,30.44,10.0,-30.8
2021-02-15 13:00:00,-27.6,-32.0,78.2,0.0,0.0,30.44,10.0,-27.6
2021-02-15 14:00:00,-18.9,-24.3,75.38,0.0,0.0,30.42,10.0,-18.9
2021-02-15 15:00:00,-14.6,-20.7,73.14,0.0,0.0,30.39,10.0,-14.6
2021-02-15 16:00:00,-8.7,-18.2,62.08,0.0,0.0,30.4,10.0,-8.7
2021-02-15 17:00:00,-2.2,-14.1,55.91,360.0,6.0,30.38,10.0,-15.66
2021-02-15 18:00:00,0.1,-13.4,51.95,30.0,6.0,30.36,10.0,-12.89
2021-02-15 19:00:00,1.2,-13.7,48.61,20.0,4.0,30.32,10.0,-8.55
2021-02-15 20:00:00,2.3,-12.1,50.04,20.0,6.0,30.26,10.0,-10.24
2021-02-15 21:00:00,1.9,-11.9,51.49,30.0,5.0,30.25,10.0,-9.35
2021-02-15 22:00:00,0.9,-12.1,53.41,30.0,10.0,30.22,10.0,-16.03
2021-02-15 23:00:00,0.3,-12.5,53.84,30.0,7.0,30.22,10.0,-13.86
2021-02-16 00:00:00,-0.8,-12.3,57.27,30.0,6.0,30.2,10.0,-13.97
2021-02-16 01:00:00,-4.4,-13.4,64.31,30.0,7.0,30.2,10.0,-19.59
2021-02-16 02:00:00,-4.0,-13.0,64.37,40.0,7.0,30.19,10.0,-19.1
2021-02-16 03:00:00,-7.0,-14.8,67.62,20.0,5.0,30.19,10.0,-19.8
2021-02-16 04:00:00,-6.2,-13.0,71.56,360.0,8.0,30.15,10.0,-22.94
2021-02-16 05:00:00,-5.4,-12.3,71.3,360.0,7.0,30.13,10.0,-20.81
2021-02-16 06:00:00,-5.4,-12.3,71.3,360.0,7.0,30.13,10.0,-20.81
2021-02-16 07:00:00,-8.9,-13.9,78.01,360.0,7.0,30.12,10.0,-25.07
2021-02-16 08:00:00,-8.5,-12.6,81.65,10.0,6.0,30.1,10.0,-23.25
2021-02-16 09:00:00,-9.8,-14.1,80.72,10.0,6.0,30.08,7.0,-24.81
2021-02-16 10:00:00,-11.0,-15.3,80.62,20.0,4.0,30.08,1.5,-22.79
2021-02-16 11:00:00,-9.8,-14.1,80.72,20.0,5.0,30.07,5.0,-23.25
2021-02-16 12:00:00,-12.8,-17.0,80.87,20.0,4.0,30.06,1.25,-24.9
2021-02-16 13:00:00,-9.9,-14.4,79.9,20.0,5.0,30.08,10.0,-23.37
2021-02-16 14:00:00,-6.5,-11.2,79.42,30.0,5.0,30.08,10.0,-19.33
2021-02-16 15:00:00,-0.4,-6.7,74.02,10.0,3.0,30.08,10.0,-8.35
2021-02-16 16:00:00,6.0,-3.0,65.15,0.0,0.0,30.08,10.0,6.1
2021-02-16 17:00:00,8.6,-1.3,63.36,0.0,0.0,30.09,10.0,8.6
2021-02-16 18:00:00,10.8,-0.6,59.35,0.0,0.0,30.07,10.0,10.8
2021-02-16 19:00:00,12.7,0.9,58.53,180.0,3.0,30.06,10.0,6.63
2021-02-16 20:00:00,14.4,0.3,52.81,0.0,0.0,30.06,10.0,14.4
2021-02-16 21:00:00,14.4,-3.0,44.98,0.0,0.0,30.07,10.0,14.4
2021-02-16 22:00:00,12.4,-6.3,42.12,290.0,6.0,30.08,10.0,1.92
2021-02-16 23:00:00,6.4,-8.9,48.55,270.0,5.0,30.09,10.0,-4.01
2021-02-17 00:00:00,6.4,-5.6,57.01,270.0,5.0,30.11,10.0,-4.01
2021-02-17 01:00:00,3.6,-5.8,64.18,240.0,4.0,30.13,10.0,-5.74
2021-02-17 02:00:00,-5.0,-10.5,76.85,0.0,0.0,30.14,10.0,-5.1
2021-02-17 03:00:00,-6.0,-9.8,83.08,0.0,0.0,30.16,10.0,-6.0
2021-02-17 04:00:00,-10.5,-13.5,86.12,0.0,0.0,30.16,10.0,-10.5
2021-02-17 05:00:00,-15.2,-18.6,84.06,0.0,0.0,30.17,10.0,-15.2
2021-02-17 06:00:00,-18.4,-22.0,82.94,0.0,0.0,30.19,10.0,-18.4
2021-02-17 07:00:00,-19.5,-23.3,81.98,0.0,0.0,30.2,10.0,-19.5
2021-02-17 08:00:00,-19.1,-23.4,79.88,0.0,0.0,30.22,10.0,-19.1
2021-02-17 09:00:00,-20.9,-25.6,78.03,0.0,0.0,30.22,10.0,-20.9
2021-02-17 10:00:00,-23.3,-27.9,78.21,0.0,0.0,30.24,10.0,-23.3
2021-02-17 11:00:00,-22.5,-27.2,77.87,0.0,0.0,30.25,10.0,-22.5
2021-02-17 12:00:00,-22.0,-26.9,77.08,0.0,0.0,30.25,10.0,-22.0
2021-02-17 13:00:00,-18.6,-23.6,77.03,0.0,0.0,30.27,10.0,-18.6
2021-02-17 14:00:00,-11.6,-16.1,79.75,0.0,0.0,30.29,10.0,-11.6
2021-02-17 15:00:00,-0.8,-6.7,75.43,0.0,0.0,30.3,10.0,-0.8
2021-02-17 16:00:00,12.2,-0.4,56.3,190.0,5.0,30.31,10.0,2.88
2021-02-17 17:00:00,15.3,-0.9,48.0,0.0,0.0,30.29,10.0,15.3
2021-02-17 18:00:00,16.7,-0.2,46.68,190.0,5.0,30.28,10.0,8.22
2021-02-17 19:00:00,17.2,-0.4,45.25,0.0,0.0,30.28,10.0,17.2
2021-02-17 20:00:00,17.4,2.0,50.42,0.0,0.0,30.27,10.0,17.4
2021-02-17 21:00:00,16.3,1.2,50.71,190.0,8.0,30.27,10.0,4.77
2021-02-17 22:00:00,14.7,0.7,53.11,220.0,3.0,30.27,10.0,8.91
2021-02-17 23:00:00,12.2,-0.9,54.99,0.0,0.0,30.27,10.0,12.2
2021-02-18 00:00:00,5.7,-3.8,64.17,0.0,0.0,30.29,10.0,5.7
2021-02-18 01:00:00,4.8,-3.0,69.13,170.0,3.0,30.3,10.0,-2.41
2021-02-18 02:00:00,6.8,-0.9,70.04,160.0,4.0,30.31,10.0,-2.01
2021-02-18 03:00:00,9.0,-0.2,65.54,0.0,0.0,30.32,10.0,9.0
2021-02-18 04:00:00,7.7,0.5,71.81,0.0,0.0,30.3,10.0,7.7
2021-02-18 05:00:00,5.7,-1.7,70.91,170.0,5.0,30.33,10.0,-4.84
2021-02-18 06:00:00,4.6,-2.2,72.82,180.0,3.0,30.34,10.0,-2.63
2021-02-18 07:00:00,4.0,-2.4,73.81,0.0,0.0,30.32,10.0,4.1
2021-02-18 08:00:00,4.0,-1.3,77.75,0.0,0.0,30.32,10.0,4.1
2021-02-18 09:00:00,2.0,-2.6,80.19,0.0,0.0,30.32,10.0,2.1
2021-02-18 10:00:00,0.5,-3.8,81.6,0.0,0.0,30.32,10.0,0.5
2021-02-18 11:00:00,2.0,-2.2,81.73,0.0,0.0,30.32,10.0,2.1
2021-02-18 12:00:00,1.0,-3.6,80.48,0.0,0.0,30.31,10.0,1.0
2021-02-18 13:00:00,3.4,-0.6,83.0,0.0,0.0,30.32,10.0,3.4
2021-02-18 14:00:00,6.8,2.0,80.59,0.0,0.0,30.32,4.0,6.8
2021-02-18 15:00:00,11.3,6.3,79.87,0.0,0.0,30.31,10.0,11.3
2021-02-18 16:00:00,15.4,7.7,71.06,0.0,0.0,30.31,10.0,15.4
2021-02-18 17:00:00,17.4,9.1,69.4,0.0,0.0,30.31,10.0,17.4
2021-02-18 18:00:00,19.9,9.5,63.48,0.0,0.0,30.29,10.0,19.9
2021-02-18 19:00:00,21.0,9.0,59.23,210.0,6.0,30.27,10.0,12.28
2021-02-18 20:00:00,21.2,10.4,62.53,260.0,6.0,30.26,10.0,12.52
2021-02-18 21:00:00,19.8,9.5,63.75,260.0,4.0,30.25,10.0,13.17
2021-02-18 22:00:00,19.2,9.3,64.82,250.0,4.0,30.24,10.0,12.47
2021-02-18 23:00:00,18.5,9.7,68.0,270.0,4.0,30.24,10.0,11.66
2021-02-19 00:00:00,17.2,9.1,70.01,0.0,0.0,30.25,10.0,17.2
2021-02-19 01:00:00,14.9,10.2,81.26,0.0,0.0,30.24,10.0,14.9
2021-02-19 02:00:00,16.2,9.5,74.43,0.0,0.0,30.22,10.0,16.2
2021-02-19 03:00:00,14.5,9.5,80.15,0.0,0.0,30.22,10.0,14.5
2021-02-19 04:00:00,14.2,10.9,86.44,0.0,0.0,30.21,5.0,14.2
2021-02-19 05:00:00,11.8,9.3,89.46,0.0,0.0,30.19,3.0,11.8
2021-02-19 06:00:00,8.2,6.8,93.86,0.0,0.0,30.18,5.0,8.2
2021-02-19 07:00:00,11.7,9.5,90.66,300.0,3.0,30.18,4.0,5.48
2021-02-19 08:00:00,11.1,8.6,89.42,300.0,4.0,30.16,5.0,3.01
2021-02-19 09:00:00,11.1,8.4,88.62,320.0,4.0,30.15,7.0,3.01
2021-02-19 10:00:00,10.9,8.1,88.21,0.0,0.0,30.15,10.0,10.9
2021-02-19 11:00:00,10.4,7.7,88.58,0.0,0.0,30.14,7.0,10.4
2021-02-19 12:00:00,10.2,7.7,89.38,0.0,0.0,30.14,5.0,10.2
2021-02-19 13:00:00,10.4,7.5,87.79,300.0,4.0,30.15,2.0,2.2
2021-02-19 14:00:00,11.3,7.2,83.2,300.0,5.0,30.15,2.0,1.81
2021-02-19 15:00:00,12.7,6.4,75.42,300.0,4.0,30.14,10.0,4.88
2021-02-19 16:00:00,14.5,5.7,67.5,310.0,4.0,30.15,7.0,6.98
2021-02-19 17:00:00,15.4,5.2,63.43,330.0,3.0,30.14,10.0,9.71
2021-02-19 18:00:00,16.5,4.3,58.03,320.0,7.0,30.11,10.0,5.89
2021-02-19 19:00:00,15.6,4.0,59.79,290.0,7.0,30.11,10.0,4.79
2021-02-19 20:00:00,15.6,4.3,60.34,300.0,9.0,30.11,10.0,3.12
2021-02-19 21:00:00,14.2,3.6,62.11,300.0,9.0,30.13,10.0,1.38
2021-02-19 22:00:00,13.1,2.8,62.82,300.0,9.0,30.14,10.0,0.01
2021-02-19 23:00:00,10.4,2.5,69.83,290.0,5.0,30.15,10.0,0.74
2021-02-20 00:00:00,5.7,0.1,77.18,300.0,3.0,30.15,10.0,-1.38
2021-02-20 01:00:00,0.3,-2.2,88.88,0.0,0.0,30.16,10.0,0.3
2021-02-20 02:00:00,1.0,-0.6,92.78,0.0,0.0,30.17,10.0,1.0
2021-02-20 03:00:00,-2.4,-4.2,91.77,0.0,0.0,30.19,7.0,-2.4
2021-02-20 04:00:00,-8.5,-10.7,89.74,0.0,0.0,30.19,0.25,-8.5
2021-02-20 05:00:00,-8.5,-12.1,83.71,0.0,0.0,30.19,3.0,-8.5
2021-02-20 06:00:00,-9.9,-13.9,81.94,0.0,0.0,30.19,5.0,-9.9
2021-02-20 07:00:00,-13.2,-17.5,80.42,0.0,0.0,30.2,0.75,-13.2
2021-02-20 08:00:00,-13.9,-18.2,80.36,0.0,0.0,30.2,1.25,-13.9
2021-02-20 09:00:00,-16.1,-20.7,78.92,0.0,0.0,30.2,4.0,-16.1
2021-02-20 10:00:00,-15.7,-20.4,78.55,0.0,0.0,30.2,0.5,-15.7
2021-02-20 11:00:00,-17.7,-22.4,78.35,0.0,0.0,30.21,0.5,-17.7
2021-02-20 12:00:00,-17.1,-21.8,78.41,0.0,0.0,30.22,0.25,-17.1
2021-02-20 13:00:00,-15.0,-19.5,79.43,0.0,0.0,30.22,0.25,-15.0
2021-02-20 14:00:00,-8.0,-11.9,82.51,0.0,0.0,30.21,2.5,-8.0
2021-02-20 15:00:00,1.6,-1.8,85.25,0.0,0.0,30.21,7.0,1.6
2021-02-20 16:00:00,6.8,4.5,90.04,0.0,0.0,30.22,7.0,6.8
2021-02-20 17:00:00,12.7,10.4,90.3,0.0,0.0,30.21,10.0,12.7
2021-02-20 18:00:00,18.1,4.8,55.41,230.0,3.0,30.19,10.0,12.8
2021-02-20 19:00:00,19.2,5.0,53.34,220.0,5.0,30.2,10.0,11.19
2021-02-20 20:00:00,19.2,6.0,55.58,230.0,5.0,30.18,10.0,11.19
2021-02-20 21:00:00,18.7,5.2,55.0,250.0,3.0,30.18,10.0,13.48
2021-02-20 22:00:00,16.7,4.0,56.48,210.0,5.0,30.18,10.0,8.22
2021-02-20 23:00:00,13.5,1.6,58.38,200.0,4.0,30.19,10.0,5.82
2021-02-21 00:00:00,7.7,-1.1,66.61,180.0,6.0,30.19,10.0,-3.74
2021-02-21 01:00:00,8.8,1.0,69.96,190.0,5.0,30.19,10.0,-1.16
2021-02-21 02:00:00,5.4,0.0,77.88,170.0,5.0,30.19,10.0,-5.2
2021-02-21 03:00:00,4.3,0.7,84.63,170.0,6.0,30.19,10.0,-7.83
2021-02-21 04:00:00,4.6,1.0,84.65,190.0,5.0,30.2,10.0,-6.15
2021-02-21 05:00:00,5.0,1.8,86.27,200.0,3.0,30.2,10.0,-2.18
2021-02-21 06:00:00,3.7,0.0,84.2,190.0,5.0,30.2,10.0,-7.21
2021-02-21 07:00:00,7.7,4.0,84.87,180.0,4.0,30.19,10.0,-0.96
2021-02-21 08:00:00,5.5,2.8,88.33,160.0,3.0,30.18,10.0,-1.61
2021-02-21 09:00:00,4.8,2.8,91.2,0.0,0.0,30.17,7.0,4.8
2021-02-21 10:00:00,4.3,1.9,89.5,170.0,8.0,30.16,7.0,-10.01
2021-02-21 11:00:00,6.0,3.4,89.17,170.0,4.0,30.15,7.0,-3.06
2021-02-21 12:00:00,8.6,6.3,90.12,160.0,11.0,30.13,5.0,-7.1
2021-02-21 13:00:00,9.3,7.2,90.97,160.0,5.0,30.15,5.0,-0.56
2021-02-21 14:00:00,13.5,10.4,87.18,160.0,7.0,30.14,7.0,2.23
2021-02-21 15:00:00,15.6,11.3,82.78,140.0,5.0,30.11,7.0,6.92
2021-02-21 16:00:00,19.6,13.6,77.12,0.0,0.0,30.09,10.0,19.6
2021-02-21 17:00:00,23.9,15.6,70.18,130.0,6.0,30.06,10.0,15.77
2021-02-21 18:00:00,23.9,15.8,70.79,140.0,10.0,30.02,10.0,12.81
2021-02-21 19:00:00,23.7,15.8,71.38,130.0,7.0,29.98,10.0,14.66
2021-02-21 20:00:00,22.5,20.3,91.11,110.0,8.0,29.94,0.75,12.41
2021-02-21 21:00:00,22.8,21.0,92.68,110.0,9.0,29.9,1.5,12.07
2021-02-21 22:00:00,23.9,22.6,94.69,110.0,12.0,29.86,5.0,11.69
2021-02-21 23:00:00,24.8,23.9,96.31,100.0,12.0,29.82,2.0,12.84
2021-02-22 00:00:00,25.5,24.6,96.32,120.0,11.0,29.8,1.5,14.25
2021-02-22 01:00:00,25.7,24.8,96.33,120.0,8.0,29.76,2.0,16.35
2021-02-22 02:00:00,25.5,24.4,95.52,120.0,10.0,29.74,4.0,14.82
2021-02-22 03:00:00,23.5,22.5,95.88,100.0,6.0,29.71,5.0,15.29
2021-02-22 04:00:00,25.5,24.4,95.52,90.0,3.0,29.68,7.0,21.26
2021-02-22 05:00:00,25.0,24.1,96.31,30.0,4.0,29.65,7.0,19.25
2021-02-22 06:00:00,25.2,24.3,96.32,20.0,4.0,29.63,7.0,19.48
2021-02-22 07:00:00,24.6,23.9,97.12,340.0,4.0,29.62,5.0,18.78
2021-02-22 08:00:00,22.6,22.3,98.74,310.0,4.0,29.6,5.0,16.44
2021-02-22 09:00:00,23.9,23.4,97.93,300.0,7.0,29.6,5.0,14.91
2021-02-22 10:00:00,24.4,23.0,94.3,280.0,7.0,29.59,7.0,15.52
2021-02-22 11:00:00,23.5,22.1,94.28,270.0,7.0,29.59,7.0,14.42
2021-02-22 12:00:00,23.0,21.7,94.67,270.0,8.0,29.6,5.0,13.03
2021-02-22 13:00:00,23.5,23.0,97.92,260.0,8.0,29.6,2.5,13.64
2021-02-22 14:00:00,24.4,23.7,97.12,260.0,11.0,29.6,2.5,12.86
2021-02-22 15:00:00,25.2,23.4,92.76,240.0,11.0,29.58,4.0,13.87
2021-02-22 16:00:00,26.4,24.1,90.88,230.0,10.0,29.56,4.0,15.95
2021-02-22 17:00:00,28.0,24.8,87.6,230.0,13.0,29.55,5.0,16.44
2021-02-22 18:00:00,28.9,24.4,83.03,240.0,14.0,29.52,5.0,17.17
2021-02-22 19:00:00,30.2,24.6,79.41,230.0,10.0,29.49,7.0,20.71
2021-02-22 20:00:00,31.8,25.2,76.31,210.0,10.0,29.46,10.0,22.72
2021-02-22 21:00:00,32.4,25.7,76.05,210.0,8.0,29.45,10.0,24.61
2021-02-22 22:00:00,32.0,25.3,76.01,230.0,11.0,29.44,10.0,22.47
2021-02-22 23:00:00,32.0,25.7,77.28,230.0,9.0,29.45,10.0,23.51
2021-02-23 00:00:00,32.0,25.5,76.64,230.0,10.0,29.42,10.0,22.97
2021-02-23 01:00:00,32.0,26.1,78.58,260.0,13.0,29.42,10.0,21.57
2021-02-23 02:00:00,30.2,29.1,95.62,260.0,13.0,29.43,1.0,19.26
2021-02-23 03:00:00,29.7,29.3,98.38,250.0,7.0,29.4,2.0,21.98
2021-02-23 04:00:00,30.9,30.0,96.41,270.0,11.0,29.4,10.0,21.08
2021-02-23 05:00:00,31.8,30.9,96.43,270.0,12.0,29.4,10.0,21.75
2021-02-23 06:00:00,31.5,30.2,94.87,280.0,10.0,29.41,10.0,22.34
2021-02-23 07:00:00,30.6,30.0,97.59,270.0,9.0,29.44,10.0,21.77
2021-02-23 08:00:00,32.0,30.7,94.88,270.0,11.0,29.45,10.0,22.47
2021-02-23 09:00:00,30.6,29.5,95.62,280.0,9.0,29.47,10.0,21.77
2021-02-23 10:00:00,27.3,26.6,97.15,280.0,4.0,29.49,10.0,21.93
2021-02-23 11:00:00,30.0,29.3,97.19,270.0,11.0,29.54,10.0,19.94
2021-02-23 12:00:00,30.0,29.3,97.19,270.0,11.0,29.54,10.0,19.94
2021-02-23 13:00:00,32.5,31.1,94.51,290.0,14.0,29.61,10.0,21.81
2021-02-23 14:00:00,33.8,31.1,89.71,290.0,10.0,29.63,10.0,25.23
2021-02-23 15:00:00,35.6,30.2,80.51,290.0,10.0,29.64,10.0,27.48
2021-02-23 16:00:00,38.3,29.3,69.77,290.0,13.0,29.67,10.0,29.64
2021-02-23 17:00:00,39.2,29.8,68.75,260.0,14.0,29.68,10.0,30.44
2021-02-23 18:00:00,40.0,29.3,65.04,250.0,13.0,29.66,10.0,31.95
2021-02-23 19:00:00,40.0,29.3,65.04,260.0,12.0,29.67,10.0,32.31
2021-02-23 20:00:00,39.0,29.3,67.89,250.0,10.0,29.69,10.0,31.75
2021-02-23 21:00:00,38.3,29.3,69.77,250.0,7.0,29.7,10.0,32.46
2021-02-23 22:00:00,37.4,29.3,72.28,240.0,6.0,29.69,10.0,32.03
2021-02-23 23:00:00,36.5,29.7,76.13,230.0,7.0,29.7,10.0,30.26
2021-02-24 00:00:00,36.5,29.7,76.13,250.0,3.0,29.72,10.0,33.83
2021-02-24 01:00:00,35.4,29.3,78.23,220.0,5.0,29.71,10.0,30.43
2021-02-24 02:00:00,32.2,32.0,99.2,0.0,0.0,29.72,2.5,32.2
2021-02-24 03:00:00,32.0,32.0,100.0,0.0,0.0,29.72,1.0,32.0
2021-02-24 04:00:00,32.0,32.0,100.0,0.0,0.0,29.71,10.0,32.0
2021-02-24 05:00:00,32.0,32.0,100.0,0.0,0.0,29.67,7.0,32.0
2021-02-24 06:00:00,32.0,32.0,100.0,70.0,3.0,29.65,2.0,28.69
2021-02-24 07:00:00,32.0,32.0,100.0,0.0,0.0,29.62,7.0,32.0
2021-02-24 08:00:00,32.0,32.0,100.0,0.0,0.0,29.6,10.0,32.0
2021-02-24 09:00:00,32.0,32.0,100.0,0.0,0.0,29.61,10.0,32.0
2021-02-24 10:00:00,32.0,32.0,100.0,360.0,4.0,29.62,10.0,27.42
2021-02-24 11:00:00,32.0,32.0,100.0,350.0,5.0,29.63,5.0,26.4
2021-02-24 12:00:00,32.0,32.0,100.0,350.0,8.0,29.65,5.0,24.11
2021-02-24 13:00:00,30.9,29.8,95.63,360.0,12.0,29.71,2.0,20.6
2021-02-24 14:00:00,31.6,29.1,90.34,360.0,11.0,29.76,10.0,21.96
2021-02-24 15:00:00,32.0,29.3,89.63,340.0,11.0,29.79,10.0,22.47
2021-02-24 16:00:00,32.0,26.8,80.88,350.0,15.0,29.83,10.0,20.78
2021-02-24 17:00:00,32.2,25.7,76.66,340.0,11.0,29.87,10.0,22.72
2021-02-24 18:00:00,33.3,24.8,70.65,320.0,15.0,29.9,10.0,22.47
2021-02-24 19:00:00,32.0,22.3,67.04,340.0,14.0,29.93,10.0,21.16
2021-02-24 20:00:00,31.8,22.3,67.58,340.0,8.0,29.96,10.0,23.87
2021-02-24 21:00:00,32.0,21.2,63.99,320.0,7.0,29.99,10.0,24.78
2021-02-24 22:00:00,31.5,19.9,61.79,320.0,8.0,30.02,10.0,23.5
2021-02-24 23:00:00,28.0,18.9,68.27,320.0,4.0,30.05,10.0,22.75
2021-02-25 00:00:00,25.3,17.6,72.18,0.0,0.0,30.09,10.0,25.3
2021-02-25 01:00:00,23.7,18.5,80.21,310.0,3.0,30.11,10.0,19.2
2021-02-25 02:00:00,20.5,16.7,84.96,0.0,0.0,30.13,10.0,20.5
2021-02-25 03:00:00,18.1,14.9,87.05,0.0,0.0,30.15,10.0,18.1
2021-02-25 04:00:00,16.0,13.8,90.84,0.0,0.0,30.15,10.0,16.0
2021-02-25 05:00:00,16.9,15.4,93.7,0.0,0.0,30.16,10.0,16.9
2021-02-25 06:00:00,15.4,14.2,94.89,200.0,4.0,30.15,10.0,8.04
2021-02-25 07:00:00,11.1,9.3,92.28,0.0,0.0,30.16,10.0,11.1
2021-02-25 08:00:00,10.6,8.8,92.26,0.0,0.0,30.15,10.0,10.6
2021-02-25 09:00:00,12.7,10.9,92.33,250.0,5.0,30.15,10.0,3.47
2021-02-25 10:00:00,19.9,17.4,89.83,260.0,8.0,30.14,10.0,9.21
2021-02-25 11:00:00,22.1,18.3,85.06,280.0,9.0,30.15,10.0,11.2
2021-02-25 12:00:00,20.5,17.1,86.44,290.0,8.0,30.15,10.0,9.95
2021-02-25 13:00:00,23.5,19.4,84.07,290.0,8.0,30.18,10.0,13.64
2021-02-25 14:00:00,25.7,19.4,76.7,290.0,11.0,30.19,10.0,14.5
2021-02-25 15:00:00,27.7,19.8,71.83,290.0,13.0,30.21,10.0,16.06
2021-02-25 16:00:00,29.1,19.4,66.68,310.0,9.0,30.21,10.0,19.91
2021-02-25 17:00:00,31.8,19.6,60.27,300.0,12.0,30.2,10.0,21.75
2021-02-25 18:00:00,32.0,17.8,55.34,310.0,8.0,30.19,10.0,24.11
2021-02-25 19:00:00,33.8,18.1,52.15,260.0,11.0,30.17,10.0,24.74
2021-02-25 20:00:00,33.0,20.3,58.93,220.0,10.0,30.17,10.0,24.35
2021-02-25 21:00:00,32.0,19.4,59.27,240.0,12.0,30.17,10.0,22.0
2021-02-25 22:00:00,31.5,14.9,49.8,250.0,11.0,30.16,10.0,21.83
2021-02-25 23:00:00,27.3,14.5,58.08,250.0,5.0,30.15,10.0,20.81
2021-02-26 00:00:00,24.6,14.9,66.11,0.0,0.0,30.16,10.0,24.6
2021-02-26 01:00:00,19.0,12.9,76.72,0.0,0.0,30.15,10.0,19.0
2021-02-26 02:00:00,19.6,12.4,73.15,210.0,4.0,30.15,10.0,12.94
2021-02-26 03:00:00,19.6,12.7,74.12,230.0,6.0,30.14,10.0,10.6
2021-02-26 04:00:00,21.0,13.5,72.34,240.0,4.0,30.14,10.0,14.57
2021-02-26 05:00:00,19.2,13.6,78.45,250.0,7.0,30.14,10.0,9.18
2021-02-26 06:00:00,19.6,16.3,86.76,0.0,0.0,30.15,10.0,19.6
2021-02-26 07:00:00,10.9,9.3,93.1,0.0,0.0,30.14,7.0,10.9
2021-02-26 08:00:00,14.4,13.1,94.45,0.0,0.0,30.11,0.5,14.4
2021-02-26 09:00:00,12.2,10.8,93.98,210.0,6.0,30.1,0.25,1.68
2021-02-26 10:00:00,17.6,16.7,96.19,200.0,7.0,30.08,2.0,7.23
2021-02-26 11:00:00,18.0,17.1,96.19,200.0,5.0,30.05,0.5,9.77
2021-02-26 12:00:00,14.7,13.5,94.88,190.0,3.0,30.03,0.75,8.91
2021-02-26 13:00:00,16.5,15.3,94.92,200.0,5.0,30.05,3.0,7.99
2021-02-26 14:00:00,24.6,24.4,99.17,200.0,11.0,30.05,10.0,13.11
2021-02-26 15:00:00,28.2,28.2,100.0,210.0,15.0,30.05,10.0,15.85
2021-02-26 16:00:00,34.2,25.3,69.59,210.0,15.0,30.02,10.0,23.63
2021-02-26 17:00:00,36.0,24.6,62.92,200.0,14.0,29.97,10.0,26.32
2021-02-26 18:00:00,36.0,24.4,62.15,190.0,20.0,29.92,10.0,24.58
2021-02-26 19:00:00,36.5,24.3,60.92,200.0,17.0,29.89,10.0,25.97
2021-02-26 20:00:00,35.8,24.6,63.42,190.0,16.0,29.88,10.0,25.37
2021-02-26 21:00:00,35.2,24.8,65.5,180.0,20.0,29.84,10.0,23.39
2021-02-26 22:00:00,34.3,24.8,67.89,180.0,14.0,29.83,10.0,24.13
2021-02-26 23:00:00,32.7,23.9,69.71,170.0,17.0,29.8,10.0,20.99
2021-02-27 00:00:00,30.6,20.5,65.74,160.0,10.0,29.8,10.0,21.21
2021-02-27 01:00:00,29.5,16.0,56.66,180.0,8.0,29.78,10.0,21.03
2021-02-27 02:00:00,29.3,18.3,63.09,180.0,6.0,29.78,10.0,22.28
2021-02-27 03:00:00,28.9,18.7,65.24,180.0,7.0,29.79,10.0,21.0
2021-02-27 04:00:00,29.3,19.8,67.27,180.0,12.0,29.76,10.0,18.57
2021-02-27 05:00:00,28.4,20.3,71.3,200.0,11.0,29.74,10.0,17.92
2021-02-27 06:00:00,28.8,21.7,74.43,210.0,9.0,29.74,10.0,19.53
2021-02-27 07:00:00,27.9,22.3,79.21,220.0,6.0,29.74,10.0,20.59
2021-02-27 08:00:00,26.4,21.9,82.85,230.0,4.0,29.73,10.0,20.88
2021-02-27 09:00:00,25.0,21.2,85.25,240.0,5.0,29.73,10.0,18.08
2021-02-27 10:00:00,23.7,21.2,90.0,240.0,5.0,29.75,10.0,16.54
2021-02-27 11:00:00,23.0,21.6,94.27,230.0,3.0,29.76,7.0,18.4
2021-02-27 12:00:00,21.6,21.6,100.0,0.0,0.0,29.78,2.5,21.6
2021-02-27 13:00:00,16.2,15.6,97.43,0.0,0.0,29.8,0.25,16.2
2021-02-27 14:00:00,24.4,22.1,90.8,230.0,3.0,29.82,5.0,20.0
2021-02-27 15:00:00,34.3,27.1,74.68,250.0,6.0,29.85,10.0,28.3
2021-02-27 16:00:00,37.4,28.2,69.1,230.0,9.0,29.87,10.0,30.23
2021-02-27 17:00:00,39.6,28.4,63.92,240.0,9.0,29.9,10.0,32.96
2021-02-27 18:00:00,41.5,27.5,57.23,220.0,9.0,29.9,10.0,35.33
2021-02-27 19:00:00,42.3,26.6,53.47,230.0,10.0,29.92,10.0,35.88
2021-02-27 20:00:00,42.4,25.5,50.89,240.0,10.0,29.93,10.0,36.01
2021-02-27 21:00:00,42.0,25.7,52.31,240.0,7.0,29.95,10.0,36.85
2021-02-27 22:00:00,40.5,25.3,54.31,240.0,3.0,29.96,10.0,38.41
2021-02-27 23:00:00,34.0,25.9,71.92,0.0,0.0,29.97,10.0,34.0
2021-02-28 00:00:00,31.3,26.1,80.83,0.0,0.0,29.98,10.0,31.3
2021-02-28 01:00:00,32.0,26.6,80.22,50.0,4.0,29.96,10.0,27.42
2021-02-28 02:00:00,31.5,27.9,86.36,0.0,0.0,29.98,10.0,31.5
2021-02-28 03:00:00,33.3,25.0,71.25,170.0,4.0,29.98,10.0,28.94
2021-02-28 04:00:00,32.7,27.1,79.62,0.0,0.0,29.98,10.0,32.7
2021-02-28 05:00:00,32.5,26.6,78.62,140.0,3.0,29.97,10.0,29.26
2021-02-28 06:00:00,32.4,27.3,81.25,130.0,4.0,29.97,10.0,27.89
2021-02-28 07:00:00,32.0,27.5,83.25,100.0,5.0,29.94,10.0,26.4
2021-02-28 08:00:00,30.4,27.1,87.37,60.0,6.0,29.88,10.0,23.6
2021-02-28 09:00:00,30.2,27.5,89.54,110.0,8.0,29.86,10.0,21.9
2021-02-28 10:00:00,30.2,28.2,92.16,100.0,9.0,29.83,10.0,21.28
2021-02-28 11:00:00,29.3,28.0,94.82,80.0,7.0,29.81,7.0,21.49
2021-02-28 12:00:00,30.0,28.4,93.68,70.0,5.0,29.76,7.0,24.02
2021-02-28 13:00:00,31.1,29.7,94.47,110.0,13.0,29.71,5.0,20.42
2021-02-28 14:00:00,30.9,30.2,97.2,100.0,13.0,29.65,2.0,20.16
2021-02-28 15:00:00,31.1,31.1,100.0,120.0,14.0,29.61,0.25,20.0
2021-02-28 16:00:00,32.0,32.0,100.0,170.0,7.0,29.58,0.25,24.78
2021-02-28 17:00:00,32.0,32.0,100.0,210.0,5.0,29.55,1.25,26.4
2021-02-28 18:00:00,32.5,32.5,100.0,240.0,7.0,29.52,2.5,25.39
2021-02-28 19:00:00,33.0,33.0,100.0,280.0,11.0,29.52,1.0,23.6
2021-02-28 20:00:00,33.0,32.2,97.22,300.0,16.0,29.56,3.0,21.59
2021-02-28 21:00:00,31.5,28.4,88.15,320.0,16.0,29.63,10.0,19.77
2021-02-28 22:00:00,30.2,26.1,84.52,320.0,13.0,29.68,10.0,19.26
2021-02-28 23:00:00,28.6,22.8,78.61,320.0,20.0,29.72,10.0,14.62
2021-03-01 00:00:00,27.7,21.0,75.59,300.0,22.0,29.76,10.0,12.82
2021-03-01 01:00:00,27.1,19.6,73.0,310.0,16.0,29.79,10.0,14.03
2021-03-01 02:00:00,25.5,19.4,77.34,300.0,16.0,29.81,10.0,11.95
2021-03-01 03:00:00,23.5,15.6,71.36,310.0,15.0,29.83,10.0,9.76
2021-03-01 04:00:00,21.2,13.1,70.48,300.0,14.0,29.86,10.0,7.24
2021-03-01 05:00:00,19.2,10.2,67.48,320.0,11.0,29.9,10.0,6.29
2021-03-01 06:00:00,17.6,8.6,67.28,310.0,12.0,29.91,10.0,3.67
2021-03-01 07:00:00,16.3,8.8,71.81,330.0,12.0,29.94,10.0,2.02
2021-03-01 08:00:00,13.8,6.0,70.23,320.0,9.0,29.98,10.0,0.88
2021-03-01 09:00:00,13.1,4.0,66.7,320.0,12.0,29.98,10.0,-2.05
2021-03-01 10:00:00,12.2,4.3,70.04,320.0,9.0,30.02,10.0,-1.11
2021-03-01 11:00:00,10.4,0.3,63.02,320.0,14.0,30.07,10.0,-6.68
2021-03-01 12:00:00,8.2,0.5,70.21,320.0,11.0,30.11,10.0,-7.61
2021-03-01 13:00:00,9.0,-0.4,64.93,320.0,13.0,30.15,10.0,-7.9
2021-03-01 14:00:00,9.7,-0.8,61.75,320.0,12.0,30.18,10.0,-6.38
2021-03-01 15:00:00,11.3,-0.6,58.04,320.0,10.0,30.2,10.0,-2.99
2021-03-01 16:00:00,13.5,0.1,54.43,340.0,13.0,30.21,10.0,-2.13
2021-03-01 17:00:00,14.9,1.0,53.39,310.0,12.0,30.21,10.0,0.24
2021-03-01 18:00:00,17.1,1.9,50.6,330.0,9.0,30.21,10.0,4.99
2021-03-01 19:00:00,18.3,1.0,46.08,320.0,10.0,30.22,10.0,5.79
2021-03-01 20:00:00,19.0,1.4,45.56,300.0,12.0,30.24,10.0,5.46
2021-03-01 21:00:00,18.5,1.9,47.64,290.0,11.0,30.25,10.0,5.41
2021-03-01 22:00:00,17.6,-1.3,42.63,310.0,7.0,30.25,10.0,7.23
2021-03-01 23:00:00,14.7,-1.1,48.81,300.0,6.0,30.28,10.0,4.69
2021-03-02 00:00:00,14.4,-1.3,48.99,300.0,5.0,30.29,10.0,5.49
2021-03-02 01:00:00,14.4,-1.3,48.99,300.0,5.0,30.29,10.0,5.49
2021-03-02 02:00:00,8.1,-0.4,67.61,0.0,0.0,30.29,10.0,8.1
2021-03-02 03:00:00,5.7,-3.3,65.72,0.0,0.0,30.28,10.0,5.7
2021-03-02 04:00:00,6.0,-3.3,65.12,250.0,3.0,30.27,10.0,-1.15
2021-03-02 05:00:00,6.6,-2.2,66.47,0.0,0.0,30.26,10.0,6.6
2021-03-02 06:00:00,5.5,-3.0,66.96,0.0,0.0,30.24,10.0,5.5
2021-03-02 07:00:00,6.0,-1.3,71.6,0.0,0.0,30.21,10.0,5.9
2021-03-02 08:00:00,9.5,1.4,69.07,210.0,4.0,30.19,10.0,1.15
2021-03-02 09:00:00,12.2,0.5,58.73,210.0,8.0,30.15,10.0,-0.28
2021-03-02 10:00:00,12.0,1.0,60.65,210.0,8.0,30.12,10.0,-0.52
2021-03-02 11:00:00,10.4,1.4,66.35,190.0,7.0,30.08,10.0,-1.55
2021-03-02 12:00:00,11.1,1.4,64.31,200.0,7.0,30.06,10.0,-0.7
2021-03-02 13:00:00,14.9,3.2,59.13,200.0,10.0,30.04,10.0,1.52
2021-03-02 14:00:00,20.3,4.6,49.97,210.0,12.0,30.0,10.0,7.11
2021-03-02 15:00:00,25.0,9.7,51.66,220.0,10.0,29.97,10.0,14.19
2021-03-02 16:00:00,29.1,13.3,51.18,230.0,16.0,29.92,10.0,16.64
2021-03-02 17:00:00,32.0,17.1,53.7,230.0,17.0,29.89,10.0,20.08
2021-03-02 18:00:00,35.0,19.9,53.49,230.0,22.0,29.85,10.0,22.73
2021-03-02 19:00:00,36.7,21.4,53.5,230.0,19.0,29.78,10.0,25.65
2021-03-02 20:00:00,37.4,23.5,56.86,230.0,17.0,29.76,10.0,27.15
2021-03-02 21:00:00,38.7,25.0,57.53,240.0,15.0,29.74,10.0,29.47
2021-03-02 22:00:00,38.3,25.5,59.67,240.0,15.0,29.74,10.0,28.95
2021-03-02 23:00:00,36.3,25.7,65.09,240.0,10.0,29.74,10.0,28.36
2021-03-03 00:00:00,36.0,25.7,65.87,240.0,13.0,29.74,10.0,26.69
2021-03-03 01:00:00,35.4,26.2,68.87,250.0,14.0,29.75,10.0,25.54
2021-03-03 02:00:00,34.3,26.8,73.76,260.0,10.0,29.77,10.0,25.85
2021-03-03 03:00:00,33.0,26.6,77.37,260.0,9.0,29.78,10.0,24.63
2021-03-03 04:00:00,31.1,26.2,81.82,260.0,6.0,29.79,10.0,24.45
2021-03-03 05:00:00,28.9,25.2,85.85,280.0,3.0,29.79,10.0,25.14
2021-03-03 06:00:00,28.9,27.0,92.49,0.0,0.0,29.8,10.0,28.9
2021-03-03 07:00:00,21.2,20.7,97.9,0.0,0.0,29.81,5.0,21.2
2021-03-03 08:00:00,19.4,18.7,97.05,0.0,0.0,29.82,1.0,19.4
2021-03-03 09:00:00,19.6,19.0,97.47,0.0,0.0,29.82,0.25,19.6
2021-03-03 10:00:00,20.7,20.3,98.31,0.0,0.0,29.83,0.25,20.7
2021-03-03 11:00:00,15.1,13.8,94.47,0.0,0.0,29.86,0.25,15.1
2021-03-03 12:00:00,13.1,11.5,93.17,0.0,0.0,29.88,0.25,13.1
2021-03-03 13:00:00,15.4,14.0,94.07,0.0,0.0,29.91,0.75,15.4
2021-03-03 14:00:00,27.9,27.9,100.0,310.0,4.0,29.93,10.0,22.63
2021-03-03 15:00:00,30.0,30.0,100.0,20.0,12.0,29.96,10.0,19.46
2021-03-03 16:00:00,31.1,28.4,89.59,340.0,10.0,29.98,10.0,21.84
2021-03-03 17:00:00,33.0,28.2,82.63,340.0,9.0,30.01,10.0,24.63
2021-03-03 18:00:00,35.6,27.1,70.91,360.0,5.0,30.0,10.0,30.67
2021-03-03 19:00:00,37.0,26.6,65.98,10.0,4.0,30.01,10.0,33.14
2021-03-03 20:00:00,37.8,25.9,61.87,10.0,3.0,30.02,10.0,35.32
2021-03-03 21:00:00,38.3,23.9,55.82,10.0,3.0,30.04,10.0,35.89
2021-03-03 22:00:00,37.4,22.8,55.22,0.0,0.0,30.06,10.0,37.4
2021-03-03 23:00:00,33.6,21.2,60.01,340.0,4.0,30.08,10.0,29.29
2021-03-04 00:00:00,29.8,20.1,66.76,20.0,3.0,30.1,10.0,26.17
2021-03-04 01:00:00,26.2,19.2,74.48,360.0,3.0,30.12,10.0,22.06
2021-03-04 02:00:00,28.9,19.9,68.67,20.0,7.0,30.15,10.0,21.0
2021-03-04 03:00:00,24.6,18.3,76.59,360.0,4.0,30.17,10.0,18.78
2021-03-04 04:00:00,19.2,14.2,80.54,0.0,0.0,30.17,10.0,19.2
2021-03-04 05:00:00,18.5,14.4,83.72,0.0,0.0,30.2,10.0,18.5
2021-03-04 06:00:00,18.0,14.7,86.67,0.0,0.0,30.22,10.0,18.0
2021-03-04 07:00:00,16.3,13.3,87.72,50.0,7.0,30.24,10.0,5.64
2021-03-04 08:00:00,16.5,14.4,91.26,20.0,5.0,30.26,10.0,7.99
2021-03-04 09:00:00,8.6,6.0,89.3,40.0,4.0,30.27,10.0,0.09
2021-03-04 10:00:00,11.1,9.5,93.11,0.0,0.0,30.29,10.0,11.1
2021-03-04 11:00:00,9.1,7.0,90.96,0.0,0.0,30.31,10.0,9.1
2021-03-04 12:00:00,8.2,5.0,86.47,0.0,0.0,30.33,10.0,8.2
2021-03-04 13:00:00,12.4,9.9,89.48,0.0,0.0,30.35,10.0,12.4
2021-03-04 14:00:00,17.1,11.8,79.3,0.0,0.0,30.35,10.0,17.1
2021-03-04 15:00:00,21.0,13.3,71.71,360.0,3.0,30.36,10.0,16.11
2021-03-04 16:00:00,24.6,12.9,60.55,360.0,3.0,30.36,10.0,20.23
2021-03-04 17:00:00,27.5,12.9,53.7,0.0,0.0,30.35,10.0,27.5
2021-03-04 18:00:00,30.2,13.1,48.51,0.0,0.0,30.33,10.0,30.2
2021-03-04 19:00:00,32.2,12.7,43.96,0.0,0.0,30.32,10.0,32.2
2021-03-04 20:00:00,33.3,13.6,43.76,0.0,0.0,30.32,10.0,33.3
2021-03-04 21:00:00,34.2,13.3,41.66,0.0,0.0,30.32,10.0,34.2
2021-03-04 22:00:00,34.0,14.0,43.3,0.0,0.0,30.32,10.0,34.0
2021-03-04 23:00:00,30.0,15.8,55.04,0.0,0.0,30.32,10.0,30.0
2021-03-05 00:00:00,26.6,15.3,61.91,0.0,0.0,30.32,10.0,26.6
2021-03-05 01:00:00,21.9,14.9,74.04,0.0,0.0,30.33,10.0,21.9
2021-03-05 02:00:00,18.9,12.9,77.05,0.0,0.0,30.33,10.0,18.9
2021-03-05 03:00:00,18.5,13.1,79.08,0.0,0.0,30.32,10.0,18.5
2021-03-05 04:00:00,16.5,11.1,78.9,0.0,0.0,30.32,10.0,16.5
2021-03-05 05:00:00,17.6,11.3,75.91,0.0,0.0,30.32,10.0,17.6
2021-03-05 06:00:00,19.8,14.7,80.24,0.0,0.0,30.32,10.0,19.8
2021-03-05 07:00:00,18.9,14.4,82.3,0.0,0.0,30.31,10.0,18.9
2021-03-05 08:00:00,16.9,12.2,81.42,0.0,0.0,30.31,10.0,16.9
2021-03-05 09:00:00,19.8,14.4,79.19,0.0,0.0,30.31,10.0,19.8
2021-03-05 10:00:00,16.3,11.5,81.01,0.0,0.0,30.32,10.0,16.3
2021-03-05 11:00:00,15.8,12.0,84.65,300.0,4.0,30.33,10.0,8.5
2021-03-05 12:00:00,18.7,13.6,80.15,0.0,0.0,30.33,10.0,18.7
2021-03-05 13:00:00,23.7,16.0,72.01,0.0,0.0,30.35,10.0,23.7
2021-03-05 14:00:00,28.6,18.3,64.92,0.0,0.0,30.34,10.0,28.6
2021-03-05 15:00:00,33.0,19.0,56.2,0.0,0.0,30.34,10.0,32.9
2021-03-05 16:00:00,35.8,20.8,54.05,0.0,0.0,30.33,10.0,35.8
2021-03-05 17:00:00,37.6,19.8,48.25,0.0,0.0,30.33,10.0,37.6
2021-03-05 18:00:00,39.2,20.3,46.29,360.0,7.0,30.31,10.0,33.56
2021-03-05 19:00:00,39.0,20.1,46.26,360.0,9.0,30.29,10.0,32.22
2021-03-05 20:00:00,39.6,19.4,43.86,30.0,6.0,30.29,10.0,34.68
2021-03-05 21:00:00,38.8,17.8,42.25,20.0,8.0,30.29,10.0,32.49
2021-03-05 22:00:00,36.7,16.9,44.13,10.0,6.0,30.29,10.0,31.19
2021-03-05 23:00:00,31.3,17.8,56.93,10.0,4.0,30.3,10.0,26.6
2021-03-06 00:00:00,29.8,16.3,56.7,20.0,4.0,30.31,10.0,24.85
2021-03-06 01:00:00,27.7,14.7,57.64,20.0,5.0,30.31,10.0,21.29
2021-03-06 02:00:00,26.4,12.7,55.7,30.0,3.0,30.32,10.0,22.29
2021-03-06 03:00:00,22.1,11.8,64.06,0.0,0.0,30.32,10.0,22.1
2021-03-06 04:00:00,21.6,11.5,64.56,0.0,0.0,30.32,10.0,21.6
2021-03-06 05:00:00,17.6,10.8,74.24,0.0,0.0,30.32,10.0,17.6
2021-03-06 06:00:00,12.2,7.2,79.95,0.0,0.0,30.32,10.0,12.2
2021-03-06 07:00:00,12.4,7.3,79.61,0.0,0.0,30.32,10.0,12.4
2021-03-06 08:00:00,11.5,8.4,87.06,0.0,0.0,30.31,10.0,11.5
2021-03-06 09:00:00,9.5,6.8,88.54,0.0,0.0,30.32,10.0,9.5
2021-03-06 10:00:00,8.0,5.5,89.68,0.0,0.0,30.32,10.0,7.9
2021-03-06 11:00:00,7.5,5.4,90.89,0.0,0.0,30.33,10.0,7.5
2021-03-06 12:00:00,5.5,3.2,89.98,0.0,0.0,30.33,10.0,5.5
2021-03-06 13:00:00,12.7,8.8,84.06,0.0,0.0,30.33,10.0,12.7
2021-03-06 14:00:00,17.1,12.4,81.44,0.0,0.0,30.33,10.0,17.1
2021-03-06 15:00:00,24.8,17.1,72.13,0.0,0.0,30.33,10.0,24.8
2021-03-06 16:00:00,31.6,19.8,61.28,0.0,0.0,30.32,10.0,31.6
2021-03-06 17:00:00,35.6,14.5,41.53,350.0,6.0,30.3,10.0,29.87
2021-03-06 18:00:00,35.8,14.9,41.93,360.0,6.0,30.29,10.0,30.11
2021-03-06 19:00:00,37.0,17.2,44.36,360.0,4.0,30.28,10.0,33.14
2021-03-06 20:00:00,37.4,13.6,37.18,340.0,6.0,30.28,10.0,32.03
2021-03-06 21:00:00,35.8,15.6,43.23,350.0,9.0,30.28,10.0,28.24
2021-03-06 22:00:00,35.4,13.6,40.24,340.0,7.0,30.29,10.0,28.92
2021-03-06 23:00:00,32.0,13.1,45.1,0.0,0.0,30.29,10.0,32.0
2021-03-07 00:00:00,26.1,12.9,56.89,0.0,0.0,30.28,10.0,26.1
2021-03-07 01:00:00,24.1,12.0,59.42,50.0,4.0,30.29,10.0,18.19
2021-03-07 02:00:00,18.7,9.3,66.22,0.0,0.0,30.29,10.0,18.7
2021-03-07 03:00:00,18.9,8.1,62.21,0.0,0.0,30.29,10.0,18.9
2021-03-07 04:00:00,16.5,6.0,63.01,90.0,4.0,30.3,10.0,9.32
2021-03-07 05:00:00,17.8,7.7,64.05,0.0,0.0,30.31,10.0,17.8
2021-03-07 06:00:00,15.4,9.5,77.06,120.0,4.0,30.32,10.0,8.04
2021-03-07 07:00:00,16.0,11.1,80.63,130.0,4.0,30.34,10.0,8.74
2021-03-07 08:00:00,15.8,11.8,83.9,130.0,7.0,30.32,10.0,5.03
2021-03-07 09:00:00,13.8,10.9,87.97,130.0,4.0,30.32,10.0,6.17
2021-03-07 10:00:00,14.2,12.6,93.21,120.0,6.0,30.32,10.0,4.09
2021-03-07 11:00:00,14.0,12.7,94.44,120.0,6.0,30.33,10.0,3.85
2021-03-07 12:00:00,14.0,12.9,95.28,140.0,6.0,30.32,10.0,3.85
2021-03-07 13:00:00,17.1,13.1,83.99,180.0,6.0,30.33,10.0,7.59
2021-03-07 14:00:00,20.7,16.5,83.51,160.0,8.0,30.33,10.0,10.19
2021-03-07 15:00:00,24.6,20.5,84.14,150.0,12.0,30.32,10.0,12.58
2021-03-07 16:00:00,28.4,21.9,76.3,150.0,9.0,30.31,10.0,19.04
2021-03-07 17:00:00,32.0,23.7,71.1,150.0,10.0,30.29,10.0,22.97
2021-03-07 18:00:00,33.3,24.8,70.65,150.0,11.0,30.24,10.0,24.11
2021-03-07 19:00:00,34.3,26.2,71.95,160.0,10.0,30.22,10.0,25.85
2021-03-07 20:00:00,35.8,27.5,71.52,160.0,11.0,30.21,10.0,27.27
2021-03-07 21:00:00,36.0,28.2,72.74,150.0,9.0,30.2,10.0,28.61
2021-03-07 22:00:00,36.5,27.3,69.0,160.0,14.0,30.16,10.0,26.96
2021-03-07 23:00:00,34.5,26.6,72.57,160.0,13.0,30.15,10.0,24.77
2021-03-08 00:00:00,34.2,26.2,72.24,160.0,11.0,30.14,10.0,25.25
2021-03-08 01:00:00,33.3,26.2,74.89,170.0,12.0,30.15,10.0,23.66
2021-03-08 02:00:00,33.3,27.3,78.37,180.0,10.0,30.13,10.0,24.6
2021-03-08 03:00:00,33.8,28.0,79.06,190.0,9.0,30.11,10.0,25.75
2021-03-08 04:00:00,33.8,29.3,83.38,200.0,9.0,30.09,10.0,25.75
2021-03-08 05:00:00,32.5,29.1,87.13,190.0,3.0,30.09,10.0,29.26
2021-03-08 06:00:00,33.0,29.5,87.15,210.0,3.0,30.08,10.0,29.72
2021-03-08 07:00:00,31.6,28.9,89.61,0.0,0.0,30.07,10.0,31.6
2021-03-08 08:00:00,31.5,29.7,92.96,0.0,0.0,30.07,10.0,31.5
2021-03-08 09:00:00,23.9,23.4,97.93,0.0,0.0,30.07,5.0,23.9
2021-03-08 10:00:00,22.3,22.1,99.16,0.0,0.0,30.08,0.25,22.3
2021-03-08 11:00:00,24.3,24.3,100.0,0.0,0.0,30.1,4.0,24.3
2021-03-08 12:00:00,28.2,28.2,100.0,290.0,5.0,30.11,5.0,21.88
2021-03-08 13:00:00,31.5,30.9,97.6,280.0,4.0,30.13,7.0,26.84
2021-03-08 14:00:00,38.5,33.4,81.71,290.0,10.0,30.14,10.0,31.12
2021-03-08 15:00:00,38.0,32.5,80.06,300.0,10.0,30.17,10.0,30.62
2021-03-08 16:00:00,39.2,32.2,75.77,300.0,9.0,30.18,10.0,32.47
2021-03-08 17:00:00,41.5,32.0,68.74,290.0,9.0,30.18,10.0,35.33
2021-03-08 18:00:00,44.6,31.6,60.05,300.0,9.0,30.17,10.0,39.18
2021-03-08 19:00:00,45.7,29.7,53.32,280.0,9.0,30.17,10.0,40.55
2021-03-08 20:00:00,46.8,27.1,45.98,280.0,7.0,30.18,10.0,42.82
2021-03-08 21:00:00,46.6,25.3,43.0,300.0,8.0,30.19,10.0,42.1
2021-03-08 22:00:00,46.6,24.8,42.12,300.0,5.0,30.2,10.0,43.73
2021-03-08 23:00:00,41.4,28.9,60.84,250.0,6.0,30.22,10.0,36.85
2021-03-09 00:00:00,36.5,28.0,71.01,0.0,0.0,30.22,10.0,36.5
2021-03-09 01:00:00,33.0,26.4,76.73,0.0,0.0,30.24,10.0,32.9
2021-03-09 02:00:00,27.7,23.9,85.42,0.0,0.0,30.25,10.0,27.7
2021-03-09 03:00:00,26.1,23.5,89.73,0.0,0.0,30.26,10.0,26.1
2021-03-09 04:00:00,26.1,22.8,87.13,0.0,0.0,30.25,10.0,26.1
2021-03-09 05:00:00,28.2,25.7,90.2,0.0,0.0,30.26,10.0,28.2
2021-03-09 06:00:00,28.9,25.9,88.38,0.0,0.0,30.26,10.0,28.9
2021-03-09 07:00:00,28.2,25.2,88.34,90.0,3.0,30.26,10.0,24.34
2021-03-09 08:00:00,35.2,22.1,58.48,110.0,6.0,30.24,10.0,29.38
2021-03-09 09:00:00,32.2,23.9,71.12,120.0,9.0,30.23,10.0,23.76
2021-03-09 10:00:00,34.2,25.0,68.73,120.0,5.0,30.22,10.0,29.01
2021-03-09 11:00:00,32.0,25.5,76.64,140.0,5.0,30.23,10.0,26.4
2021-03-09 12:00:00,33.3,25.7,73.35,140.0,7.0,30.21,10.0,26.36
2021-03-09 13:00:00,36.5,27.5,69.57,140.0,14.0,30.2,10.0,26.96
2021-03-09 14:00:00,37.6,29.3,71.72,150.0,10.0,30.2,10.0,29.99
2021-03-09 15:00:00,41.7,30.9,65.24,140.0,16.0,30.17,10.0,33.06
2021-03-09 16:00:00,44.8,32.0,60.57,150.0,14.0,30.15,10.0,37.66
2021-03-09 17:00:00,46.2,32.5,58.6,150.0,14.0,30.13,10.0,39.47
2021-03-09 18:00:00,47.7,33.4,57.42,150.0,13.0,30.09,10.0,41.68
2021-03-09 19:00:00,49.0,33.8,55.78,150.0,10.0,30.03,10.0,44.16
2021-03-09 20:00:00,50.0,34.7,55.5,160.0,12.0,30.01,10.0,50.0
2021-03-09 21:00:00,49.6,35.6,58.38,150.0,15.0,29.97,10.0,43.6
2021-03-09 22:00:00,48.7,32.5,53.34,170.0,13.0,29.96,10.0,42.96
2021-03-09 23:00:00,47.0,33.0,58.0,160.0,10.0,29.96,10.0,41.65
2021-03-10 00:00:00,46.2,33.4,60.76,170.0,10.0,29.96,10.0,40.77
2021-03-10 01:00:00,45.5,35.0,66.77,170.0,8.0,29.96,10.0,40.74
2021-03-10 02:00:00,44.8,35.0,68.57,170.0,11.0,29.94,10.0,38.64
2021-03-10 03:00:00,46.6,34.7,63.04,180.0,13.0,29.91,10.0,40.27
2021-03-10 04:00:00,46.8,35.0,63.57,190.0,12.0,29.89,10.0,40.84
2021-03-10 05:00:00,44.6,35.4,69.92,190.0,8.0,29.86,10.0,39.63
2021-03-10 06:00:00,44.0,35.8,72.97,180.0,9.0,29.85,10.0,38.31
2021-03-10 07:00:00,43.3,36.3,76.15,180.0,9.0,29.83,10.0,37.56
2021-03-10 08:00:00,41.5,36.5,82.26,180.0,8.0,29.81,10.0,35.82
2021-03-10 09:00:00,41.2,37.0,84.54,180.0,7.0,29.81,10.0,35.99
2021-03-10 10:00:00,41.0,37.6,87.58,180.0,8.0,29.81,10.0,35.2
2021-03-10 11:00:00,40.5,38.3,91.78,190.0,5.0,29.79,10.0,36.49
2021-03-10 12:00:00,41.7,41.7,100.0,200.0,6.0,29.8,2.5,37.21
2021-03-10 13:00:00,41.2,41.2,100.0,180.0,6.0,29.79,0.25,36.61
2021-03-10 14:00:00,41.4,41.4,100.0,170.0,5.0,29.79,0.25,37.56
2021-03-10 15:00:00,43.0,43.0,100.0,180.0,8.0,29.77,0.75,37.66
2021-03-10 16:00:00,43.0,43.0,100.0,180.0,8.0,29.75,0.25,37.66
2021-03-10 17:00:00,43.7,43.7,100.0,170.0,5.0,29.74,0.25,40.29
2021-03-10 18:00:00,44.6,44.6,100.0,180.0,6.0,29.71,0.25,40.71
2021-03-10 19:00:00,45.5,45.5,100.0,180.0,8.0,29.69,0.75,40.74
2021-03-10 20:00:00,46.4,46.4,100.0,160.0,9.0,29.66,1.75,41.42
2021-03-10 21:00:00,46.4,46.4,100.0,160.0,6.0,29.65,2.5,42.87
2021-03-10 22:00:00,46.0,46.0,100.0,150.0,8.0,29.63,3.0,41.36
2021-03-10 23:00:00,46.2,46.2,100.0,140.0,10.0,29.62,7.0,40.77
2021-03-11 00:00:00,45.0,45.0,100.0,150.0,9.0,29.61,10.0,39.68
2021-03-11 01:00:00,47.3,47.3,100.0,160.0,11.0,29.59,10.0,41.8
2021-03-11 02:00:00,48.2,48.2,100.0,170.0,13.0,29.57,7.0,42.32
2021-03-11 03:00:00,49.0,49.0,100.0,210.0,13.0,29.59,5.0,43.48
2021-03-11 04:00:00,46.6,46.0,97.39,200.0,7.0,29.52,10.0,42.58
2021-03-11 05:00:00,47.3,47.3,100.0,170.0,13.0,29.48,10.0,41.17
2021-03-11 06:00:00,49.6,49.6,100.0,200.0,19.0,29.45,10.0,42.71
2021-03-11 07:00:00,41.2,35.0,78.73,250.0,23.0,29.49,10.0,30.68
2021-03-11 08:00:00,38.3,33.4,82.36,230.0,23.0,29.5,10.0,26.78
2021-03-11 09:00:00,34.2,29.1,81.39,240.0,18.0,29.54,10.0,22.64
2021-03-11 10:00:00,33.0,29.1,85.05,230.0,19.0,29.55,10.0,20.89
2021-03-11 11:00:00,33.3,28.9,83.68,240.0,21.0,29.56,10.0,20.59
2021-03-11 12:00:00,33.3,29.1,84.37,250.0,20.0,29.61,10.0,20.87
2021-03-11 13:00:00,33.3,28.8,83.34,260.0,21.0,29.65,10.0,20.59
2021-03-11 14:00:00,33.3,28.0,80.65,270.0,20.0,29.69,10.0,20.87
2021-03-11 15:00:00,33.0,28.4,82.65,280.0,24.0,29.73,10.0,19.54
2021-03-11 16:00:00,35.8,28.6,74.82,270.0,21.0,29.79,10.0,23.92
2021-03-11 17:00:00,37.8,29.7,72.33,280.0,19.0,29.83,10.0,27.11
2021-03-11 18:00:00,41.4,31.5,67.63,260.0,19.0,29.86,10.0,31.87
2021-03-11 19:00:00,42.0,31.6,66.6,270.0,19.0,29.88,10.0,32.53
2021-03-11 20:00:00,42.0,28.6,58.95,270.0,18.0,29.93,10.0,32.78
2021-03-11 21:00:00,42.6,27.0,53.73,290.0,17.0,29.97,10.0,33.96
2021-03-11 22:00:00,42.0,24.6,49.97,280.0,12.0,29.99,10.0,34.6
2021-03-11 23:00:00,38.3,22.6,52.85,280.0,11.0,30.03,10.0,30.43
2021-03-12 00:00:00,35.6,23.5,61.05,270.0,7.0,30.06,10.0,29.17
2021-03-12 01:00:00,34.2,23.7,65.1,270.0,8.0,30.08,10.0,26.82
2021-03-12 02:00:00,34.2,22.8,62.68,270.0,10.0,30.09,10.0,25.73
2021-03-12 03:00:00,33.0,22.3,64.14,270.0,7.0,30.1,10.0,26.12
2021-03-12 04:00:00,33.0,22.5,65.2,270.0,10.0,30.13,10.0,24.1
2021-03-12 05:00:00,32.0,23.0,69.04,270.0,10.0,30.15,10.0,22.97
2021-03-12 06:00:00,31.3,23.5,72.53,270.0,9.0,30.18,10.0,22.64
2021-03-12 07:00:00,30.2,24.3,78.42,270.0,8.0,30.19,10.0,21.9
2021-03-12 08:00:00,30.7,24.8,78.46,270.0,12.0,30.19,10.0,20.35
2021-03-12 09:00:00,30.4,24.4,78.11,290.0,14.0,30.21,10.0,19.1
2021-03-12 10:00:00,27.9,17.1,63.45,300.0,16.0,30.25,10.0,15.07
2021-03-12 11:00:00,25.9,14.7,62.08,330.0,15.0,30.28,10.0,12.87
2021-03-12 12:00:00,23.9,9.1,52.66,310.0,12.0,30.3,10.0,11.69
2021-03-12 13:00:00,24.3,7.2,47.53,330.0,15.0,30.35,10.0,10.8
2021-03-12 14:00:00,24.8,5.4,42.89,310.0,9.0,30.39,10.0,14.56
2021-03-12 15:00:00,26.8,8.1,44.62,290.0,12.0,30.4,10.0,15.38
2021-03-12 16:00:00,27.9,8.8,44.01,330.0,11.0,30.41,10.0,17.29
2021-03-12 17:00:00,29.8,9.3,41.64,290.0,9.0,30.42,10.0,20.78
2021-03-12 18:00:00,31.1,6.4,34.66,330.0,12.0,30.41,10.0,20.86
2021-03-12 19:00:00,32.4,8.0,35.2,330.0,8.0,30.4,10.0,24.61
2021-03-12 20:00:00,33.3,8.0,33.95,320.0,7.0,30.4,10.0,26.36
2021-03-12 21:00:00,33.6,6.6,31.62,310.0,4.0,30.4,10.0,29.29
2021-03-12 22:00:00,33.0,8.0,34.22,330.0,4.0,30.4,10.0,28.7
2021-03-12 23:00:00,29.8,8.6,40.36,270.0,3.0,30.41,10.0,26.17
2021-03-13 00:00:00,27.5,11.8,51.15,0.0,0.0,30.42,10.0,27.5
2021-03-13 01:00:00,23.5,18.0,79.17,0.0,0.0,30.42,10.0,23.5
2021-03-13 02:00:00,25.0,12.0,57.23,260.0,5.0,30.42,10.0,18.08
2021-03-13 03:00:00,24.6,12.0,58.19,270.0,4.0,30.43,10.0,18.78
2021-03-13 04:00:00,24.6,14.2,64.11,290.0,4.0,30.41,10.0,18.78
2021-03-13 05:00:00,24.3,11.1,56.62,280.0,4.0,30.39,10.0,18.43
2021-03-13 06:00:00,23.9,11.3,58.09,0.0,0.0,30.39,10.0,23.9
2021-03-13 07:00:00,23.2,12.2,62.25,290.0,3.0,30.4,10.0,18.63
2021-03-13 08:00:00,23.0,11.1,59.79,0.0,0.0,30.38,10.0,23.0
2021-03-13 09:00:00,23.2,15.3,71.33,0.0,0.0,30.37,10.0,23.2
2021-03-13 10:00:00,21.7,16.7,80.74,200.0,3.0,30.36,10.0,16.91
2021-03-13 11:00:00,23.0,14.9,70.69,240.0,4.0,30.34,10.0,16.91
2021-03-13 12:00:00,24.8,17.8,74.34,250.0,3.0,30.34,10.0,20.46
2021-03-13 13:00:00,30.9,22.6,70.98,250.0,6.0,30.34,10.0,24.21
2021-03-13 14:00:00,38.3,27.9,65.89,260.0,10.0,30.33,10.0,30.87
2021-03-13 15:00:00,43.5,29.8,58.22,270.0,13.0,30.31,10.0,36.3
2021-03-13 16:00:00,46.8,31.3,54.58,260.0,12.0,30.29,10.0,40.84
2021-03-13 17:00:00,49.6,31.3,49.14,270.0,17.0,30.28,10.0,43.13
2021-03-13 18:00:00,52.0,31.8,45.88,270.0,17.0,30.26,10.0,52.0
2021-03-13 19:00:00,53.4,32.4,44.64,260.0,17.0,30.23,10.0,53.4
2021-03-13 20:00:00,53.6,32.4,44.32,260.0,16.0,30.21,10.0,53.6
2021-03-13 21:00:00,53.2,32.2,44.61,260.0,16.0,30.2,10.0,53.2
2021-03-13 22:00:00,51.0,30.6,45.52,270.0,10.0,30.21,10.0,50.9
2021-03-13 23:00:00,49.5,28.9,44.74,280.0,12.0,30.21,10.0,44.27
2021-03-14 00:00:00,45.5,29.1,52.43,270.0,8.0,30.22,10.0,40.74
2021-03-14 01:00:00,41.4,27.5,57.45,260.0,6.0,30.24,10.0,36.85
2021-03-14 02:00:00,41.0,27.3,57.86,290.0,8.0,30.24,10.0,35.2
2021-03-14 03:00:00,39.7,27.9,62.38,350.0,6.0,30.25,10.0,34.8
2021-03-14 04:00:00,39.2,23.9,53.89,350.0,8.0,30.27,10.0,32.98
2021-03-14 05:00:00,38.5,21.2,49.43,350.0,9.0,30.27,10.0,31.6
2021-03-14 06:00:00,36.5,21.0,53.02,340.0,6.0,30.28,10.0,30.95
2021-03-14 07:00:00,34.7,20.1,54.81,350.0,6.0,30.29,10.0,28.78
2021-03-14 08:00:00,32.2,19.6,59.3,350.0,5.0,30.3,10.0,26.63
2021-03-14 09:00:00,30.7,20.7,66.03,10.0,7.0,30.32,10.0,23.19
2021-03-14 10:00:00,30.9,20.5,64.94,360.0,4.0,30.36,10.0,26.14
2021-03-14 11:00:00,28.4,22.1,76.95,360.0,3.0,30.39,10.0,24.57
2021-03-14 12:00:00,30.0,20.7,67.94,50.0,7.0,30.41,10.0,22.34
2021-03-14 13:00:00,32.0,17.6,54.87,40.0,11.0,30.43,10.0,22.47
2021-03-14 14:00:00,33.3,18.0,52.98,50.0,12.0,30.46,10.0,23.66
2021-03-14 15:00:00,34.2,14.0,42.96,40.0,9.0,30.49,10.0,26.25
2021-03-14 16:00:00,35.8,14.4,41.02,30.0,9.0,30.48,10.0,28.24
2021-03-14 17:00:00,35.8,14.4,41.02,30.0,9.0,30.48,10.0,28.24
2021-03-14 18:00:00,38.5,14.0,36.24,60.0,9.0,30.46,10.0,31.6
2021-03-14 19:00:00,40.0,11.7,30.77,60.0,11.0,30.45,10.0,32.7
2021-03-14 20:00:00,39.7,14.2,34.89,40.0,11.0,30.44,10.0,32.2
2021-03-14 21:00:00,39.2,16.2,38.81,50.0,8.0,30.44,10.0,32.98
2021-03-14 22:00:00,37.4,14.2,38.17,100.0,10.0,30.44,10.0,29.74
2021-03-14 23:00:00,33.4,11.5,39.72,90.0,8.0,30.44,10.0,25.84
2021-03-15 00:00:00,30.9,15.3,51.92,100.0,8.0,30.44,10.0,22.76
2021-03-15 01:00:00,29.1,13.3,51.18,100.0,10.0,30.45,10.0,19.33
2021-03-15 02:00:00,27.1,15.1,60.12,110.0,12.0,30.47,10.0,15.77
2021-03-15 03:00:00,25.0,16.5,69.7,100.0,16.0,30.46,10.0,11.29
2021-03-15 04:00:00,23.4,12.9,63.67,100.0,15.0,30.44,10.0,9.63
2021-03-15 05:00:00,21.9,13.1,68.42,90.0,11.0,30.44,10.0,9.7
2021-03-15 06:00:00,20.3,13.5,74.52,90.0,10.0,30.43,10.0,8.3
2021-03-15 07:00:00,19.4,14.5,80.91,90.0,11.0,30.41,10.0,6.54
2021-03-15 08:00:00,19.2,15.3,84.5,90.0,12.0,30.39,10.0,5.71
2021-03-15 09:00:00,18.9,15.8,87.48,100.0,13.0,30.37,10.0,4.79
2021-03-15 10:00:00,18.5,15.8,88.99,90.0,15.0,30.36,10.0,3.28
2021-03-15 11:00:00,19.0,16.2,88.63,100.0,12.0,30.34,10.0,5.46
2021-03-15 12:00:00,20.3,16.7,85.68,100.0,12.0,30.34,10.0,7.11
2021-03-15 13:00:00,22.6,17.6,80.82,100.0,11.0,30.33,10.0,10.59
2021-03-15 14:00:00,24.6,17.6,74.32,100.0,12.0,30.32,10.0,12.58
2021-03-15 15:00:00,28.0,15.4,58.69,90.0,11.0,30.29,10.0,17.41
2021-03-15 16:00:00,31.6,16.7,53.63,110.0,9.0,30.27,10.0,23.02
2021-03-15 17:00:00,33.0,16.0,48.98,100.0,11.0,30.23,10.0,23.86
2021-03-15 18:00:00,35.4,15.1,42.97,120.0,14.0,30.22,10.0,25.54
2021-03-15 19:00:00,33.0,14.0,44.89,110.0,9.0,30.17,10.0,24.88
2021-03-15 20:00:00,32.4,13.3,44.77,110.0,12.0,30.15,10.0,22.51
2021-03-15 21:00:00,31.6,14.4,48.53,120.0,11.0,30.14,10.0,21.96
2021-03-15 22:00:00,30.7,14.7,50.99,110.0,9.0,30.12,10.0,21.9
2021-03-15 23:00:00,29.7,16.0,56.2,90.0,9.0,30.11,10.0,20.65
2021-03-16 00:00:00,29.1,15.4,56.11,80.0,7.0,30.09,10.0,21.24
2021-03-16 01:00:00,28.0,16.7,62.1,80.0,10.0,30.08,7.0,17.95
2021-03-16 02:00:00,27.0,18.5,69.93,90.0,13.0,30.06,10.0,15.16
2021-03-16 03:00:00,27.1,18.7,70.24,90.0,7.0,30.05,10.0,18.81
2021-03-16 04:00:00,26.2,21.6,82.49,100.0,9.0,30.04,4.0,16.3
2021-03-16 05:00:00,24.8,23.0,92.74,80.0,6.0,30.02,3.0,16.86
2021-03-16 06:00:00,25.3,23.4,92.37,100.0,7.0,30.0,10.0,16.61
2021-03-16 07:00:00,25.7,24.3,94.34,130.0,7.0,30.0,10.0,17.1
2021-03-16 08:00:00,25.7,23.9,92.77,140.0,5.0,30.0,10.0,18.91
2021-03-16 09:00:00,25.7,24.3,94.34,0.0,0.0,29.99,10.0,25.7
2021-03-16 10:00:00,25.2,23.9,94.72,50.0,5.0,29.97,10.0,18.32
2021-03-16 11:00:00,24.6,23.7,96.31,0.0,0.0,29.98,10.0,24.6
2021-03-16 12:00:00,25.5,23.9,93.55,0.0,0.0,29.99,10.0,25.5
2021-03-16 13:00:00,26.4,24.4,92.02,60.0,3.0,29.99,10.0,22.29
2021-03-16 14:00:00,27.5,24.3,87.57,40.0,3.0,29.99,10.0,23.54
2021-03-16 15:00:00,29.1,23.7,79.98,70.0,3.0,29.99,10.0,25.37
2021-03-16 16:00:00,30.2,22.8,73.64,360.0,3.0,30.01,10.0,26.63
2021-03-16 17:00:00,31.3,23.4,72.23,350.0,3.0,30.0,10.0,27.89
2021-03-16 18:00:00,31.8,23.4,70.78,0.0,0.0,29.98,10.0,31.8
2021-03-16 19:00:00,31.6,23.4,71.35,0.0,0.0,29.99,10.0,31.6
2021-03-16 20:00:00,32.4,23.9,70.55,0.0,0.0,30.0,10.0,32.4
2021-03-16 21:00:00,32.2,23.9,71.12,0.0,0.0,30.01,10.0,32.2
2021-03-16 22:00:00,32.0,24.1,72.3,0.0,0.0,29.99,10.0,32.0
2021-03-16 23:00:00,31.6,25.2,76.93,0.0,0.0,30.02,10.0,31.6
2021-03-17 00:00:00,31.1,25.9,80.81,0.0,0.0,30.02,10.0,31.1
2021-03-17 01:00:00,31.1,26.6,83.19,0.0,0.0,30.02,10.0,31.1
2021-03-17 02:00:00,27.0,23.9,87.92,180.0,4.0,30.03,10.0,21.58
2021-03-17 03:00:00,25.9,23.5,90.48,0.0,0.0,30.03,10.0,25.9
2021-03-17 04:00:00,26.2,25.5,97.14,0.0,0.0,30.03,10.0,26.2
2021-03-17 05:00:00,24.8,23.7,95.51,0.0,0.0,30.04,10.0,24.8
2021-03-17 06:00:00,27.1,25.5,93.59,0.0,0.0,30.04,10.0,27.1
2021-03-17 07:00:00,27.0,25.7,94.76,0.0,0.0,30.03,10.0,27.0
2021-03-17 08:00:00,24.8,24.4,98.35,0.0,0.0,30.01,7.0,24.8
2021-03-17 09:00:00,27.0,26.6,98.36,0.0,0.0,30.02,10.0,27.0
2021-03-17 10:00:00,28.2,26.6,93.62,0.0,0.0,30.0,10.0,28.2
2021-03-17 11:00:00,28.4,26.8,93.63,270.0,3.0,30.03,7.0,24.57
2021-03-17 12:00:00,28.4,27.3,95.58,300.0,4.0,30.02,4.0,23.22
2021-03-17 13:00:00,29.3,28.4,96.39,310.0,4.0,30.03,1.75,24.27
2021-03-17 14:00:00,30.2,29.1,95.62,310.0,3.0,30.03,1.75,26.63
2021-03-17 15:00:00,30.7,29.3,94.46,290.0,3.0,30.03,1.5,27.2
2021-03-17 16:00:00,32.0,30.2,92.97,300.0,3.0,30.04,10.0,28.69
2021-03-17 17:00:00,33.8,29.5,84.06,320.0,5.0,30.03,10.0,28.53
2021-03-17 18:00:00,34.5,30.6,85.48,350.0,4.0,30.01,10.0,30.34
2021-03-17 19:00:00,36.3,29.1,74.87,360.0,8.0,29.98,10.0,29.41
2021-03-17 20:00:00,37.6,28.9,70.55,10.0,4.0,30.01,10.0,33.96
2021-03-17 21:00:00,38.8,29.1,67.87,30.0,4.0,30.01,10.0,35.36
2021-03-17 22:00:00,37.6,29.3,71.72,0.0,0.0,30.0,10.0,37.6
2021-03-17 23:00:00,36.5,27.5,69.57,10.0,8.0,30.02,10.0,29.66
2021-03-18 00:00:00,35.6,28.4,74.8,360.0,11.0,30.03,10.0,27.02
2021-03-18 01:00:00,33.8,27.5,77.45,20.0,6.0,30.03,10.0,27.7
2021-03-18 02:00:00,31.5,27.0,83.22,10.0,5.0,30.04,10.0,25.8
2021-03-18 03:00:00,32.4,27.0,80.25,10.0,8.0,30.05,10.0,24.61
2021-03-18 04:00:00,32.0,26.2,78.9,20.0,7.0,30.07,10.0,24.78
2021-03-18 05:00:00,29.3,25.3,84.81,20.0,5.0,30.08,10.0,23.19
2021-03-18 06:00:00,29.3,25.7,86.23,20.0,7.0,30.09,10.0,21.49
2021-03-18 07:00:00,31.1,25.5,79.48,30.0,7.0,30.1,10.0,23.68
2021-03-18 08:00:00,31.1,26.1,81.49,40.0,10.0,30.11,10.0,21.84
2021-03-18 09:00:00,31.5,25.7,78.86,40.0,14.0,30.12,10.0,20.52
2021-03-18 10:00:00,31.1,25.7,80.15,40.0,13.0,30.15,10.0,20.42
2021-03-18 11:00:00,30.6,24.8,78.78,50.0,12.0,30.16,10.0,20.22
2021-03-18 12:00:00,31.1,24.8,77.2,40.0,11.0,30.18,10.0,21.33
2021-03-18 13:00:00,33.4,24.6,69.79,40.0,16.0,30.19,10.0,22.24
2021-03-18 14:00:00,35.2,23.2,61.26,50.0,20.0,30.21,10.0,23.39
2021-03-18 15:00:00,39.2,22.3,50.38,40.0,16.0,30.23,10.0,29.8
2021-03-18 16:00:00,41.4,23.0,47.64,60.0,16.0,30.26,10.0,32.67
2021-03-18 17:00:00,44.0,23.4,43.68,40.0,16.0,30.26,10.0,36.19
2021-03-18 18:00:00,45.0,21.6,38.97,50.0,14.0,30.27,10.0,38.05
2021-03-18 19:00:00,46.0,20.7,36.26,40.0,14.0,30.27,10.0,39.21
2021-03-18 20:00:00,46.4,14.9,27.82,60.0,18.0,30.29,10.0,38.7
2021-03-18 21:00:00,45.5,17.1,31.67,60.0,14.0,30.31,10.0,38.56
2021-03-18 22:00:00,42.8,16.5,34.21,60.0,11.0,30.33,10.0,36.11
2021-03-18 23:00:00,37.4,15.8,40.93,50.0,9.0,30.37,10.0,30.23
2021-03-19 00:00:00,31.8,18.9,58.49,50.0,4.0,30.39,10.0,27.19
2021-03-19 01:00:00,30.7,21.9,69.47,50.0,4.0,30.42,10.0,25.9
2021-03-19 02:00:00,28.6,18.3,64.92,40.0,5.0,30.43,10.0,22.36
2021-03-19 03:00:00,28.9,17.1,60.9,0.0,0.0,30.44,10.0,28.9
2021-03-19 04:00:00,26.4,14.9,61.34,30.0,4.0,30.44,10.0,20.88
2021-03-19 05:00:00,26.4,12.0,54.0,30.0,5.0,30.45,10.0,19.74
2021-03-19 06:00:00,24.6,15.6,68.15,0.0,0.0,30.46,10.0,24.6
2021-03-19 07:00:00,26.6,12.6,55.0,40.0,3.0,30.47,10.0,22.52
2021-03-19 08:00:00,25.2,16.0,67.64,0.0,0.0,30.47,10.0,25.2
2021-03-19 09:00:00,25.2,14.0,61.98,0.0,0.0,30.49,10.0,25.2
2021-03-19 10:00:00,24.3,16.7,72.39,0.0,0.0,30.5,10.0,24.3
2021-03-19 11:00:00,23.0,18.1,81.2,0.0,0.0,30.51,10.0,23.0
2021-03-19 12:00:00,25.7,20.8,81.41,0.0,0.0,30.53,10.0,25.7
2021-03-19 13:00:00,30.9,11.8,44.52,160.0,6.0,30.54,10.0,24.21
2021-03-19 14:00:00,34.3,10.8,37.14,210.0,3.0,30.54,10.0,31.32
2021-03-19 15:00:00,38.3,12.2,33.74,210.0,4.0,30.54,10.0,34.78
2021-03-19 16:00:00,42.0,12.7,29.99,230.0,7.0,30.53,10.0,36.85
2021-03-19 17:00:00,45.5,13.1,26.6,210.0,7.0,30.51,10.0,41.23
2021-03-19 18:00:00,47.5,15.3,27.16,200.0,9.0,30.48,10.0,42.79
2021-03-19 19:00:00,49.0,15.6,25.91,210.0,8.0,30.46,10.0,45.18
2021-03-19 20:00:00,50.0,15.6,25.06,210.0,8.0,30.45,10.0,50.0
2021-03-19 21:00:00,49.8,16.7,26.48,210.0,6.0,30.44,10.0,46.97
2021-03-19 22:00:00,48.2,18.1,29.86,190.0,7.0,30.44,10.0,44.53
2021-03-19 23:00:00,40.6,20.1,43.47,190.0,6.0,30.43,10.0,35.89
2021-03-20 00:00:00,36.5,20.3,51.47,180.0,5.0,30.43,10.0,31.74
2021-03-20 01:00:00,33.0,18.9,55.96,180.0,6.0,30.44,10.0,26.61
2021-03-20 02:00:00,32.2,20.7,62.15,190.0,6.0,30.44,10.0,25.77
2021-03-20 03:00:00,32.0,21.2,63.99,190.0,6.0,30.43,10.0,25.53
2021-03-20 04:00:00,31.1,21.0,65.8,200.0,6.0,30.43,10.0,24.45
2021-03-20 05:00:00,31.5,20.5,63.39,200.0,5.0,30.43,10.0,25.8
2021-03-20 06:00:00,31.5,20.5,63.39,200.0,5.0,30.43,10.0,25.8
2021-03-20 07:00:00,30.7,19.9,63.82,210.0,6.0,30.42,10.0,23.96
2021-03-20 08:00:00,29.8,19.2,64.25,200.0,5.0,30.42,10.0,23.78
2021-03-20 09:00:00,29.5,19.0,64.48,210.0,5.0,30.43,10.0,23.43
2021-03-20 10:00:00,28.6,19.0,66.9,210.0,5.0,30.44,10.0,22.36
2021-03-20 11:00:00,28.2,18.7,67.14,210.0,6.0,30.44,10.0,20.95
2021-03-20 12:00:00,31.5,21.4,65.85,210.0,6.0,30.45,10.0,24.93
2021-03-20 13:00:00,36.5,22.6,56.73,210.0,8.0,30.44,10.0,29.66
2021-03-20 14:00:00,41.2,21.2,44.5,230.0,13.0,30.44,10.0,33.35
2021-03-20 15:00:00,44.6,21.2,39.06,200.0,9.0,30.43,10.0,39.18
2021-03-20 16:00:00,47.8,20.3,33.31,190.0,13.0,30.41,10.0,41.81
2021-03-20 17:00:00,51.4,19.9,28.63,190.0,12.0,30.38,10.0,51.4
2021-03-20 18:00:00,52.7,22.3,30.22,180.0,13.0,30.36,10.0,52.7
2021-03-20 19:00:00,54.0,19.4,25.47,190.0,13.0,30.33,10.0,54.0
2021-03-20 20:00:00,55.0,19.9,25.18,180.0,14.0,30.31,10.0,54.9
2021-03-20 21:00:00,55.0,18.0,23.21,190.0,16.0,30.29,10.0,54.9
2021-03-20 22:00:00,52.7,19.0,26.26,200.0,10.0,30.27,10.0,52.7
2021-03-20 23:00:00,47.0,20.1,34.16,160.0,10.0,30.27,10.0,41.65
2021-03-21 00:00:00,42.3,21.2,42.65,160.0,10.0,30.26,10.0,35.88
2021-03-21 01:00:00,41.0,21.9,46.19,160.0,10.0,30.26,10.0,34.25
2021-03-21 02:00:00,40.5,23.0,49.33,170.0,11.0,30.26,10.0,33.21
2021-03-21 03:00:00,37.6,23.0,55.25,170.0,7.0,30.26,10.0,31.61
2021-03-21 04:00:00,34.7,23.5,63.28,180.0,6.0,30.24,10.0,28.78
2021-03-21 05:00:00,34.3,23.9,65.38,180.0,5.0,30.24,10.0,29.13
2021-03-21 06:00:00,35.0,25.7,68.81,200.0,8.0,30.24,10.0,27.69
2021-03-21 07:00:00,35.0,26.6,71.42,190.0,8.0,30.23,10.0,27.69
2021-03-21 08:00:00,34.2,27.1,74.97,190.0,8.0,30.22,10.0,26.82
2021-03-21 09:00:00,32.2,26.4,78.92,170.0,6.0,30.22,10.0,25.77
2021-03-21 10:00:00,30.0,25.7,83.8,160.0,5.0,30.22,10.0,24.02
2021-03-21 11:00:00,28.4,25.2,87.62,170.0,6.0,30.21,10.0,21.19
2021-03-21 12:00:00,33.8,29.1,82.7,170.0,7.0,30.21,10.0,26.97
2021-03-21 13:00:00,37.4,28.9,71.11,180.0,9.0,30.2,10.0,30.23
2021-03-21 14:00:00,44.2,30.7,58.8,190.0,14.0,30.18,10.0,36.89
2021-03-21 15:00:00,47.7,31.8,53.84,190.0,11.0,30.16,10.0,42.31
2021-03-21 16:00:00,55.2,34.5,45.47,190.0,16.0,30.13,10.0,55.2
2021-03-21 17:00:00,56.7,32.2,39.27,190.0,21.0,30.11,10.0,56.7
2021-03-21 18:00:00,58.5,31.6,35.93,190.0,16.0,30.08,10.0,58.5
2021-03-21 19:00:00,58.0,30.9,35.69,180.0,15.0,30.05,10.0,57.9
2021-03-21 20:00:00,60.4,31.6,33.57,180.0,14.0,30.02,10.0,60.4
2021-03-21 21:00:00,59.7,30.4,32.79,190.0,18.0,29.99,10.0,59.7
2021-03-21 22:00:00,58.0,32.0,37.31,180.0,22.0,29.98,10.0,57.9
2021-03-21 23:00:00,54.0,30.2,39.96,180.0,16.0,29.98,10.0,54.0
2021-03-22 00:00:00,51.4,31.6,46.53,170.0,13.0,29.98,10.0,51.4
2021-03-22 01:00:00,49.5,32.4,51.57,160.0,12.0,29.98,10.0,44.27
2021-03-22 02:00:00,49.3,32.0,51.12,180.0,11.0,29.99,10.0,44.33
2021-03-22 03:00:00,47.5,30.9,52.31,180.0,12.0,29.98,10.0,41.73
2021-03-22 04:00:00,46.4,30.4,53.43,180.0,11.0,29.97,10.0,40.66
2021-03-22 05:00:00,46.0,30.4,54.45,170.0,9.0,29.95,10.0,40.8
2021-03-22 06:00:00,46.0,30.9,55.36,190.0,9.0,29.95,10.0,40.92
2021-03-22 07:00:00,47.3,31.6,54.22,200.0,10.0,29.93,10.0,42.15
2021-03-22 08:00:00,47.5,31.6,53.81,190.0,9.0,29.92,10.0,42.79
2021-03-22 09:00:00,46.4,32.0,57.0,190.0,8.0,29.92,10.0,41.85
2021-03-22 10:00:00,44.6,32.0,61.03,190.0,7.0,29.92,10.0,40.14
2021-03-22 11:00:00,41.0,30.7,66.49,200.0,7.0,29.93,10.0,35.75
2021-03-22 12:00:00,42.4,32.0,66.39,190.0,6.0,29.94,10.0,38.06
2021-03-22 13:00:00,49.0,33.3,54.27,210.0,8.0,29.95,10.0,45.18
2021-03-22 14:00:00,52.7,36.7,54.37,240.0,10.0,29.96,10.0,52.7
2021-03-22 15:00:00,54.7,39.6,56.61,270.0,7.0,29.97,10.0,54.7
2021-03-22 16:00:00,56.3,40.0,54.05,240.0,8.0,29.97,10.0,56.3
2021-03-22 17:00:00,55.8,38.5,52.11,320.0,6.0,29.96,10.0,55.8
2021-03-22 18:00:00,58.3,37.2,45.24,320.0,7.0,29.96,10.0,58.3
2021-03-22 19:00:00,59.5,30.4,33.02,90.0,3.0,29.95,10.0,59.5
2021-03-22 20:00:00,59.7,28.6,30.47,0.0,0.0,29.94,10.0,59.7
2021-03-22 21:00:00,59.7,29.1,31.1,130.0,3.0,29.95,10.0,59.7
2021-03-22 22:00:00,58.3,28.8,32.3,0.0,0.0,29.96,10.0,58.3
2021-03-22 23:00:00,55.4,28.0,34.7,0.0,0.0,29.96,10.0,55.4
2021-03-23 00:00:00,49.3,34.0,55.39,0.0,0.0,29.97,10.0,49.3
2021-03-23 01:00:00,48.7,36.0,61.58,170.0,5.0,29.98,10.0,46.23
2021-03-23 02:00:00,47.5,37.6,68.34,170.0,5.0,29.98,10.0,44.8
2021-03-23 03:00:00,47.7,38.3,69.72,200.0,6.0,29.98,10.0,44.44
2021-03-23 04:00:00,49.0,39.2,69.04,220.0,5.0,29.98,10.0,46.47
2021-03-23 05:00:00,47.0,39.0,73.29,0.0,0.0,29.98,10.0,47.1
2021-03-23 06:00:00,45.0,39.7,81.24,80.0,5.0,29.98,10.0,41.95
2021-03-23 07:00:00,43.7,40.3,87.72,110.0,7.0,29.98,10.0,39.04
2021-03-23 08:00:00,42.3,40.5,93.28,110.0,8.0,29.98,10.0,36.8
2021-03-23 09:00:00,41.2,39.2,92.52,90.0,6.0,29.96,10.0,36.61
2021-03-23 10:00:00,41.2,38.5,90.03,0.0,0.0,29.96,10.0,41.2
2021-03-23 11:00:00,40.5,38.3,91.78,40.0,5.0,29.97,10.0,36.49
2021-03-23 12:00:00,39.4,38.0,94.3,80.0,3.0,29.97,10.0,37.15
2021-03-23 13:00:00,43.2,38.5,83.36,90.0,4.0,29.98,10.0,40.5
2021-03-23 14:00:00,44.8,39.0,79.96,100.0,5.0,29.98,10.0,41.6
2021-03-23 15:00:00,50.5,40.0,67.37,140.0,5.0,29.97,10.0,50.5
2021-03-23 16:00:00,56.0,41.2,57.67,130.0,8.0,29.94,10.0,55.9
2021-03-23 17:00:00,55.8,41.0,57.43,130.0,15.0,29.93,10.0,55.8
2021-03-23 18:00:00,55.4,40.8,57.82,110.0,12.0,29.9,10.0,55.4
2021-03-23 19:00:00,53.4,41.7,64.4,110.0,9.0,29.88,10.0,53.4
2021-03-23 20:00:00,54.5,40.8,59.75,100.0,10.0,29.85,10.0,54.5
2021-03-23 21:00:00,52.0,40.5,64.73,110.0,11.0,29.84,10.0,52.0
2021-03-23 22:00:00,49.5,41.4,73.53,90.0,9.0,29.84,10.0,45.27
2021-03-23 23:00:00,47.7,42.0,80.19,90.0,8.0,29.84,10.0,43.45
2021-03-24 00:00:00,46.0,42.8,88.85,90.0,12.0,29.84,10.0,39.69
2021-03-24 01:00:00,44.6,42.6,92.63,90.0,11.0,29.83,7.0,38.39
2021-03-24 02:00:00,44.0,43.2,96.62,90.0,11.0,29.81,10.0,37.76
2021-03-24 03:00:00,44.0,42.8,95.87,80.0,11.0,29.78,10.0,37.5
2021-03-24 04:00:00,43.7,42.8,96.61,90.0,10.0,29.75,7.0,37.64
2021-03-24 05:00:00,42.8,42.0,97.34,70.0,12.0,29.7,10.0,35.75
2021-03-24 06:00:00,42.0,41.4,97.34,80.0,8.0,29.67,7.0,36.55
2021-03-24 07:00:00,42.3,41.5,96.96,90.0,14.0,29.63,7.0,34.44
2021-03-24 08:00:00,42.0,42.0,100.0,90.0,15.0,29.58,7.0,33.61
2021-03-24 09:00:00,42.4,42.4,100.0,100.0,14.0,29.55,7.0,34.57
2021-03-24 10:00:00,42.8,42.8,100.0,110.0,14.0,29.54,4.0,35.08
2021-03-24 11:00:00,43.0,43.0,100.0,100.0,14.0,29.52,4.0,35.34
2021-03-24 12:00:00,43.5,43.5,100.0,120.0,10.0,29.5,1.25,37.39
2021-03-24 13:00:00,44.2,44.2,100.0,160.0,7.0,29.5,2.0,39.65
2021-03-24 14:00:00,45.0,45.0,100.0,180.0,12.0,29.49,7.0,38.67
2021-03-24 15:00:00,47.5,46.4,95.94,160.0,10.0,29.49,10.0,42.41
2021-03-24 16:00:00,49.0,47.3,93.47,180.0,8.0,29.49,10.0,45.18
2021-03-24 17:00:00,47.5,46.8,97.4,180.0,10.0,29.48,7.0,42.41
2021-03-24 18:00:00,47.3,47.0,98.5,170.0,5.0,29.46,10.0,44.57
2021-03-24 19:00:00,47.5,47.3,99.25,180.0,6.0,29.45,5.0,44.2
2021-03-24 20:00:00,48.2,46.8,94.87,0.0,0.0,29.45,10.0,48.2
2021-03-24 21:00:00,49.0,47.7,95.6,240.0,3.0,29.45,10.0,48.01
2021-03-24 22:00:00,49.0,47.3,93.47,230.0,5.0,29.47,10.0,46.7
2021-03-24 23:00:00,47.3,47.0,99.25,280.0,5.0,29.49,7.0,44.57
2021-03-25 00:00:00,45.0,44.4,97.74,290.0,10.0,29.54,4.0,39.27
2021-03-25 01:00:00,37.2,37.0,99.22,290.0,15.0,29.62,5.0,27.52
2021-03-25 02:00:00,33.0,32.0,95.67,310.0,11.0,29.67,10.0,23.86
2021-03-25 03:00:00,31.8,30.2,93.73,360.0,9.0,29.7,10.0,23.27
2021-03-25 04:00:00,31.5,29.1,90.71,360.0,10.0,29.73,10.0,22.34
2021-03-25 05:00:00,31.5,28.9,89.97,360.0,9.0,29.76,10.0,22.89
2021-03-25 06:00:00,30.9,29.3,93.7,360.0,8.0,29.78,10.0,22.76
2021-03-25 07:00:00,30.9,29.3,93.7,360.0,8.0,29.78,10.0,22.76
2021-03-25 08:00:00,31.1,30.2,96.42,360.0,9.0,29.81,5.0,22.39
2021-03-25 09:00:00,31.1,29.5,93.71,360.0,5.0,29.84,10.0,25.33
2021-03-25 10:00:00,30.7,28.6,91.8,360.0,6.0,29.85,10.0,23.96
2021-03-25 11:00:00,30.2,27.9,91.03,360.0,9.0,29.85,10.0,21.28
2021-03-25 12:00:00,29.1,27.3,92.88,360.0,8.0,29.87,10.0,20.54
2021-03-25 13:00:00,28.8,26.2,89.85,360.0,7.0,29.92,10.0,20.88
2021-03-25 14:00:00,28.9,26.1,89.12,0.0,0.0,29.94,10.0,28.9
2021-03-25 15:00:00,29.7,27.1,89.89,360.0,4.0,29.94,10.0,24.73
2021-03-25 16:00:00,30.2,26.2,84.87,0.0,0.0,29.98,10.0,30.2
2021-03-25 17:00:00,32.0,27.5,83.25,360.0,3.0,29.96,10.0,28.69
2021-03-25 18:00:00,33.0,27.9,80.97,360.0,5.0,29.93,10.0,27.7
2021-03-25 19:00:00,34.7,28.9,79.13,360.0,5.0,29.91,10.0,29.6
2021-03-25 20:00:00,35.4,28.8,76.65,360.0,5.0,29.9,10.0,30.43
2021-03-25 21:00:00,37.0,29.7,74.93,360.0,7.0,29.88,10.0,30.75
2021-03-25 22:00:00,36.5,28.9,73.68,360.0,7.0,29.88,10.0,30.26
2021-03-25 23:00:00,33.8,27.7,78.09,360.0,9.0,29.9,10.0,25.75
2021-03-26 00:00:00,33.0,27.5,80.29,360.0,9.0,29.89,10.0,24.63
2021-03-26 01:00:00,30.9,26.4,83.17,360.0,10.0,29.9,10.0,21.59
2021-03-26 02:00:00,30.0,25.0,81.4,360.0,8.0,29.9,10.0,21.65
2021-03-26 03:00:00,29.3,25.0,83.76,360.0,10.0,29.87,10.0,19.58
2021-03-26 04:00:00,28.4,23.9,83.0,360.0,12.0,29.85,10.0,17.42
2021-03-26 05:00:00,27.3,23.0,83.62,360.0,11.0,29.85,10.0,16.53
2021-03-26 06:00:00,25.9,23.0,88.6,360.0,12.0,29.86,10.0,14.24
2021-03-26 07:00:00,24.6,21.9,89.29,360.0,13.0,29.85,10.0,12.09
2021-03-26 08:00:00,23.0,20.7,90.74,360.0,14.0,29.87,10.0,9.56
2021-03-26 09:00:00,22.5,21.0,93.86,360.0,11.0,29.88,10.0,10.46
2021-03-26 10:00:00,21.6,20.3,94.63,360.0,7.0,29.92,10.0,12.1
2021-03-26 11:00:00,22.6,21.2,94.26,360.0,8.0,29.93,10.0,12.53
2021-03-26 12:00:00,23.7,21.9,92.71,360.0,6.0,29.95,10.0,15.53
2021-03-26 13:00:00,24.4,22.1,90.8,360.0,7.0,29.97,10.0,15.52
2021-03-26 14:00:00,25.5,22.6,88.58,0.0,0.0,30.02,10.0,25.5
2021-03-26 15:00:00,27.1,23.2,85.02,360.0,4.0,30.01,10.0,21.7
2021-03-26 16:00:00,28.8,23.5,80.29,360.0,5.0,30.02,10.0,22.59
2021-03-26 17:00:00,31.1,24.1,74.98,0.0,0.0,30.01,10.0,31.1
2021-03-26 18:00:00,32.5,24.8,72.96,360.0,4.0,30.02,10.0,28.0
2021-03-26 19:00:00,36.5,25.9,65.12,0.0,0.0,30.01,10.0,36.5
2021-03-26 20:00:00,38.7,26.6,61.48,0.0,0.0,30.01,10.0,38.7
2021-03-26 21:00:00,39.7,26.1,57.92,360.0,4.0,30.01,10.0,36.41
2021-03-26 22:00:00,38.3,24.1,56.29,0.0,0.0,30.02,10.0,38.3
2021-03-26 23:00:00,35.6,25.7,66.92,0.0,0.0,30.03,10.0,35.6
2021-03-27 00:00:00,32.0,27.0,81.55,360.0,3.0,30.04,10.0,28.69
2021-03-27 01:00:00,30.4,27.3,88.09,0.0,0.0,30.05,10.0,30.4
2021-03-27 02:00:00,30.2,28.4,92.92,0.0,0.0,30.05,10.0,30.2
2021-03-27 03:00:00,28.4,27.3,95.58,0.0,0.0,30.05,10.0,28.4
2021-03-27 04:00:00,28.4,28.2,99.18,0.0,0.0,30.05,10.0,28.4
2021-03-27 05:00:00,27.3,27.0,98.77,0.0,0.0,30.04,10.0,27.3
2021-03-27 06:00:00,27.3,25.2,91.67,0.0,0.0,30.03,10.0,27.3
2021-03-27 07:00:00,26.4,25.7,97.14,0.0,0.0,30.05,10.0,26.4
2021-03-27 08:00:00,26.8,25.5,94.76,0.0,0.0,30.03,10.0,26.8
2021-03-27 09:00:00,28.0,27.5,97.97,360.0,3.0,30.04,10.0,24.12
2021-03-27 10:00:00,28.2,28.2,100.0,360.0,3.0,30.02,3.0,24.34
2021-03-27 11:00:00,28.4,28.4,100.0,360.0,3.0,30.01,1.25,24.57
2021-03-27 12:00:00,29.1,29.1,100.0,360.0,4.0,29.99,2.0,24.03
2021-03-27 13:00:00,29.3,29.3,100.0,360.0,5.0,29.98,3.0,23.19
2021-03-27 14:00:00,30.2,30.2,100.0,360.0,5.0,29.96,2.5,24.26
2021-03-27 15:00:00,32.0,32.0,100.0,360.0,6.0,29.94,3.0,25.53
2021-03-27 16:00:00,33.8,33.8,100.0,360.0,7.0,29.93,0.75,26.97
2021-03-27 17:00:00,32.5,32.5,100.0,360.0,8.0,29.92,4.0,24.73
2021-03-27 18:00:00,33.8,33.8,100.0,360.0,8.0,29.9,7.0,26.33
2021-03-27 19:00:00,34.2,34.2,100.0,360.0,9.0,29.85,5.0,26.25
2021-03-27 20:00:00,33.0,33.0,100.0,360.0,5.0,29.84,3.0,27.7
2021-03-27 21:00:00,32.0,32.0,100.0,0.0,0.0,29.83,1.0,32.0
2021-03-27 22:00:00,32.2,32.2,100.0,360.0,5.0,29.81,10.0,26.63
2021-03-27 23:00:00,32.0,32.0,100.0,360.0,5.0,29.8,5.0,26.4
2021-03-28 00:00:00,32.0,32.0,100.0,360.0,3.0,29.79,7.0,28.69
2021-03-28 01:00:00,32.0,32.0,100.0,0.0,0.0,29.78,3.0,32.0
2021-03-28 02:00:00,32.0,32.0,100.0,0.0,0.0,29.76,3.0,32.0
2021-03-28 03:00:00,32.0,32.0,100.0,360.0,3.0,29.73,3.0,28.69
2021-03-28 04:00:00,32.0,32.0,100.0,0.0,0.0,29.72,5.0,32.0
2021-03-28 05:00:00,32.0,32.0,100.0,360.0,3.0,29.7,1.75,28.69
2021-03-28 06:00:00,32.0,32.0,100.0,360.0,4.0,29.7,2.0,27.42
2021-03-28 07:00:00,31.1,31.1,100.0,360.0,13.0,29.7,1.75,20.42
2021-03-28 08:00:00,30.6,30.6,100.0,360.0,10.0,29.71,3.0,21.21
2021-03-28 09:00:00,30.4,29.8,97.59,360.0,13.0,29.72,1.75,19.52
2021-03-28 10:00:00,29.1,27.0,91.74,360.0,11.0,29.74,4.0,18.8
2021-03-28 11:00:00,28.2,24.4,85.45,360.0,17.0,29.76,10.0,15.1
2021-03-28 12:00:00,28.2,24.4,85.45,360.0,17.0,29.76,10.0,15.1
2021-03-28 13:00:00,27.3,23.2,84.32,360.0,16.0,29.82,10.0,14.29
2021-03-28 14:00:00,27.3,22.6,82.22,360.0,17.0,29.84,10.0,13.92
2021-03-28 15:00:00,27.5,21.9,79.18,360.0,19.0,29.88,10.0,13.49
2021-03-28 16:00:00,28.8,20.3,70.14,360.0,17.0,29.9,10.0,15.88
2021-03-28 17:00:00,27.9,21.6,76.9,360.0,15.0,29.92,10.0,15.46
2021-03-28 18:00:00,29.5,21.2,70.82,360.0,16.0,29.94,10.0,17.16
2021-03-28 19:00:00,30.4,20.1,65.16,360.0,11.0,29.96,10.0,20.44
2021-03-28 20:00:00,31.1,20.3,63.87,360.0,11.0,29.97,10.0,21.33
2021-03-28 21:00:00,32.0,18.3,56.54,360.0,10.0,29.99,10.0,22.97
2021-03-28 22:00:00,32.2,18.3,56.09,360.0,11.0,30.02,10.0,22.72
2021-03-28 23:00:00,31.1,18.0,57.89,360.0,8.0,30.03,10.0,23.0
2021-03-29 00:00:00,28.2,18.1,65.43,0.0,0.0,30.05,10.0,28.2
2021-03-29 01:00:00,26.1,18.9,73.84,0.0,0.0,30.06,10.0,26.1
2021-03-29 02:00:00,22.3,20.3,91.88,360.0,3.0,30.05,10.0,17.6
2021-03-29 03:00:00,21.0,19.9,95.43,0.0,0.0,30.05,10.0,21.0
2021-03-29 04:00:00,23.7,20.3,86.63,0.0,0.0,30.05,10.0,23.7
2021-03-29 05:00:00,22.1,18.9,87.28,0.0,0.0,30.04,10.0,22.1
2021-03-29 06:00:00,23.2,18.5,81.91,360.0,5.0,30.03,10.0,15.94
2021-03-29 07:00:00,23.7,18.3,79.53,360.0,6.0,30.02,10.0,15.53
2021-03-29 08:00:00,25.7,19.9,78.35,360.0,7.0,29.99,10.0,17.1
2021-03-29 09:00:00,27.1,20.3,75.21,360.0,9.0,30.0,10.0,17.42
2021-03-29 10:00:00,27.5,20.5,74.62,360.0,9.0,29.98,10.0,17.92
2021-03-29 11:00:00,28.0,21.6,76.59,360.0,8.0,29.97,10.0,19.19
2021-03-29 12:00:00,28.8,22.3,76.34,360.0,11.0,29.95,10.0,18.42
2021-03-29 13:00:00,30.9,23.5,73.71,360.0,17.0,29.93,10.0,18.63
2021-03-29 14:00:00,34.3,25.0,68.45,360.0,15.0,29.88,10.0,23.76
2021-03-29 15:00:00,37.0,26.4,65.18,360.0,19.0,29.85,10.0,26.05
2021-03-29 16:00:00,42.0,30.6,63.96,360.0,16.0,29.81,10.0,33.32
2021-03-29 17:00:00,46.0,33.0,60.49,360.0,16.0,29.78,10.0,38.67
2021-03-29 18:00:00,49.5,33.6,54.11,360.0,15.0,29.73,10.0,43.47
2021-03-29 19:00:00,53.8,35.6,49.99,360.0,18.0,29.69,10.0,53.8
2021-03-29 20:00:00,56.3,36.0,46.56,360.0,16.0,29.65,10.0,56.3
2021-03-29 21:00:00,58.0,36.5,44.33,360.0,17.0,29.61,10.0,58.1
2021-03-29 22:00:00,58.0,37.0,45.04,360.0,16.0,29.57,10.0,58.1
2021-03-29 23:00:00,55.6,37.0,49.48,360.0,13.0,29.56,10.0,55.6
2021-03-30 00:00:00,52.2,37.4,56.93,360.0,12.0,29.54,10.0,52.2
2021-03-30 01:00:00,51.0,37.0,58.13,360.0,11.0,29.56,10.0,51.1
2021-03-30 02:00:00,52.2,36.7,55.38,360.0,16.0,29.56,10.0,52.2
2021-03-30 03:00:00,51.6,36.5,56.17,360.0,20.0,29.55,10.0,51.6
2021-03-30 04:00:00,51.6,36.5,56.17,360.0,20.0,29.55,10.0,51.6
2021-03-30 05:00:00,51.0,36.0,56.1,360.0,21.0,29.52,10.0,51.1
2021-03-30 06:00:00,50.4,35.6,56.67,360.0,19.0,29.52,10.0,50.4
2021-03-30 07:00:00,49.3,35.2,58.11,360.0,16.0,29.52,10.0,42.97
2021-03-30 08:00:00,48.2,35.0,60.31,360.0,14.0,29.5,10.0,42.04
2021-03-30 09:00:00,47.3,35.0,62.38,360.0,13.0,29.49,10.0,41.17
2021-03-30 10:00:00,47.5,35.0,61.91,360.0,10.0,29.51,10.0,42.41
2021-03-30 11:00:00,49.3,33.6,54.51,360.0,11.0,29.54,10.0,44.33
2021-03-30 12:00:00,47.3,30.7,52.28,360.0,7.0,29.51,10.0,43.43
2021-03-30 13:00:00,49.3,32.0,51.12,360.0,12.0,29.52,10.0,44.02
2021-03-30 14:00:00,47.7,27.9,45.94,360.0,19.0,29.55,10.0,40.2
2021-03-30 15:00:00,46.0,24.6,42.89,360.0,24.0,29.59,10.0,36.81
2021-03-30 16:00:00,45.7,24.3,42.68,360.0,17.0,29.59,10.0,38.02
2021-03-30 17:00:00,45.5,22.5,39.87,360.0,20.0,29.61,10.0,37.07
2021-03-30 18:00:00,42.0,21.9,44.27,360.0,20.0,29.66,10.0,32.55
2021-03-30 19:00:00,40.0,21.7,47.43,360.0,19.0,29.67,10.0,30.15
2021-03-30 20:00:00,39.7,21.4,47.57,360.0,16.0,29.68,10.0,30.45
2021-03-30 21:00:00,40.8,21.7,46.16,360.0,15.0,29.69,10.0,32.19
2021-03-30 22:00:00,40.6,22.3,47.71,360.0,19.0,29.71,10.0,30.81
2021-03-30 23:00:00,38.3,20.5,48.36,360.0,20.0,29.73,10.0,27.51
2021-03-31 00:00:00,35.2,19.4,52.15,360.0,15.0,29.77,10.0,24.93
2021-03-31 01:00:00,33.8,19.0,54.21,360.0,12.0,29.8,10.0,24.29
2021-03-31 02:00:00,32.0,16.9,53.23,360.0,11.0,29.85,10.0,22.47
2021-03-31 03:00:00,31.1,15.6,52.18,360.0,15.0,29.86,10.0,19.61
2021-03-31 04:00:00,30.2,13.8,50.02,360.0,18.0,29.88,10.0,17.38
2021-03-31 05:00:00,28.8,14.7,55.09,360.0,10.0,29.9,10.0,18.96
2021-03-31 06:00:00,27.3,13.6,55.84,360.0,15.0,29.91,10.0,14.69
2021-03-31 07:00:00,27.1,12.9,54.59,360.0,12.0,29.92,10.0,15.77
2021-03-31 08:00:00,26.2,12.9,56.66,360.0,13.0,29.93,10.0,14.14
2021-03-31 09:00:00,24.8,12.0,57.71,360.0,11.0,29.95,10.0,13.37
2021-03-31 10:00:00,23.9,10.0,54.82,360.0,10.0,29.97,10.0,12.81
2021-03-31 11:00:00,23.9,11.3,58.09,360.0,7.0,29.99,10.0,14.91
2021-03-31 12:00:00,24.4,10.8,55.64,360.0,12.0,30.02,10.0,12.33
2021-03-31 13:00:00,24.3,11.8,58.41,360.0,11.0,30.04,10.0,12.74
2021-03-31 14:00:00,24.6,8.4,49.55,360.0,16.0,30.07,10.0,10.77
2021-03-31 15:00:00,24.6,9.5,52.06,360.0,13.0,30.09,10.0,12.09
2021-03-31 16:00:00,24.3,12.0,58.93,360.0,14.0,30.12,10.0,11.24
2021-03-31 17:00:00,25.7,10.4,51.78,360.0,13.0,30.14,10.0,13.5
2021-03-31 18:00:00,29.3,6.4,37.29,360.0,12.0,30.15,10.0,18.57
2021-03-31 19:00:00,29.5,7.2,38.35,360.0,13.0,30.15,10.0,18.37
2021-03-31 20:00:00,28.6,7.2,39.79,360.0,12.0,30.17,10.0,17.67
2021-03-31 21:00:00,27.7,6.0,38.92,360.0,16.0,30.19,10.0,14.81
2021-03-31 22:00:00,27.1,6.3,40.62,360.0,14.0,30.22,10.0,14.85
2021-03-31 23:00:00,23.9,6.6,47.03,360.0,13.0,30.26,10.0,11.19
2021-04-01 00:00:00,21.9,7.0,52.1,360.0,15.0,30.29,10.0,7.69
2021-04-01 01:00:00,21.2,6.6,52.7,360.0,14.0,30.32,10.0,7.24
2021-04-01 02:00:00,20.1,6.0,53.49,360.0,12.0,30.35,10.0,6.86
2021-04-01 03:00:00,18.5,6.6,59.13,360.0,11.0,30.37,10.0,5.41
2021-04-01 04:00:00,18.0,6.8,60.96,360.0,6.0,30.38,10.0,8.67
2021-04-01 05:00:00,17.2,8.0,66.32,360.0,4.0,30.38,10.0,10.14
2021-04-01 06:00:00,16.9,8.1,67.8,360.0,5.0,30.38,10.0,8.46
2021-04-01 07:00:00,16.0,8.6,72.1,360.0,5.0,30.39,10.0,7.39
2021-04-01 08:00:00,14.9,9.7,79.47,360.0,4.0,30.4,10.0,7.45
2021-04-01 09:00:00,14.9,10.4,81.99,360.0,4.0,30.4,10.0,7.45
2021-04-01 10:00:00,15.6,10.0,78.12,360.0,6.0,30.42,10.0,5.78
2021-04-01 11:00:00,15.6,9.7,77.08,360.0,3.0,30.44,10.0,9.94
2021-04-01 12:00:00,18.5,10.8,71.42,360.0,8.0,30.48,10.0,7.48
2021-04-01 13:00:00,21.6,10.0,60.39,360.0,7.0,30.49,10.0,12.1
2021-04-01 14:00:00,25.0,9.3,50.75,360.0,6.0,30.5,10.0,17.1
2021-04-01 15:00:00,27.0,9.3,46.71,360.0,8.0,30.51,10.0,17.95
2021-04-01 16:00:00,29.3,9.1,42.12,360.0,5.0,30.5,10.0,23.19
2021-04-01 17:00:00,31.8,9.7,39.1,360.0,5.0,30.48,10.0,26.16
2021-04-01 18:00:00,33.8,11.5,39.09,360.0,8.0,30.47,10.0,26.33
2021-04-01 19:00:00,35.6,10.0,34.04,360.0,3.0,30.45,10.0,32.8
2021-04-01 20:00:00,36.7,10.0,32.59,360.0,4.0,30.43,10.0,32.91
2021-04-01 21:00:00,36.7,9.1,31.3,360.0,5.0,30.43,10.0,31.98
2021-04-01 22:00:00,36.7,9.9,32.44,360.0,7.0,30.42,10.0,30.51
2021-04-01 23:00:00,34.0,10.9,37.76,0.0,0.0,30.41,10.0,34.0
2021-04-02 00:00:00,30.9,13.3,47.57,360.0,4.0,30.41,10.0,26.14
2021-04-02 01:00:00,28.0,15.6,59.21,360.0,3.0,30.41,10.0,24.12
2021-04-02 02:00:00,26.6,14.4,59.52,360.0,3.0,30.42,10.0,22.52
2021-04-02 03:00:00,26.2,16.0,64.89,0.0,0.0,30.41,10.0,26.2
2021-04-02 04:00:00,26.4,16.0,64.35,0.0,0.0,30.42,10.0,26.4
2021-04-02 05:00:00,24.3,19.9,83.05,0.0,0.0,30.42,10.0,24.3
2021-04-02 06:00:00,24.6,18.7,77.92,360.0,3.0,30.41,10.0,20.23
2021-04-02 07:00:00,23.4,16.0,72.92,360.0,3.0,30.4,10.0,18.86
2021-04-02 08:00:00,24.3,14.5,65.78,0.0,0.0,30.39,10.0,24.3
2021-04-02 09:00:00,24.1,13.3,62.93,360.0,3.0,30.4,10.0,19.66
2021-04-02 10:00:00,24.3,13.3,62.41,360.0,3.0,30.4,10.0,19.89
2021-04-02 11:00:00,23.0,13.8,67.36,360.0,6.0,30.41,10.0,14.69
2021-04-02 12:00:00,27.7,16.5,62.33,360.0,8.0,30.42,10.0,18.82
2021-04-02 13:00:00,32.2,16.7,52.35,360.0,8.0,30.41,10.0,24.36
2021-04-02 14:00:00,37.0,15.6,41.39,360.0,10.0,30.4,10.0,29.11
2021-04-02 15:00:00,39.4,14.0,34.99,360.0,15.0,30.38,10.0,30.37
2021-04-02 16:00:00,42.0,14.9,33.03,360.0,16.0,30.36,10.0,33.32
2021-04-02 17:00:00,43.7,13.3,28.74,360.0,11.0,30.32,10.0,37.25
2021-04-02 18:00:00,45.3,15.4,29.64,360.0,12.0,30.28,10.0,38.93
2021-04-02 19:00:00,47.0,15.4,27.9,360.0,13.0,30.24,10.0,40.66
2021-04-02 20:00:00,47.0,16.3,28.8,360.0,10.0,30.21,10.0,41.9
2021-04-02 21:00:00,47.8,18.0,30.18,360.0,15.0,30.18,10.0,41.26
2021-04-02 22:00:00,44.6,17.8,33.78,360.0,11.0,30.15,10.0,38.39
2021-04-02 23:00:00,43.0,18.7,37.32,360.0,13.0,30.14,10.0,35.66
2021-04-03 00:00:00,36.3,19.4,49.92,360.0,8.0,30.15,10.0,29.41
2021-04-03 01:00:00,34.0,19.0,53.77,360.0,7.0,30.16,10.0,27.22
2021-04-03 02:00:00,35.4,19.9,52.85,360.0,9.0,30.15,10.0,27.74
2021-04-03 03:00:00,35.0,20.1,54.37,360.0,7.0,30.13,10.0,28.31
2021-04-03 04:00:00,34.0,20.1,56.36,360.0,7.0,30.1,10.0,27.22
2021-04-03 05:00:00,34.7,19.9,54.34,360.0,9.0,30.08,10.0,26.87
2021-04-03 06:00:00,35.0,19.9,53.91,360.0,7.0,30.05,10.0,28.31
2021-04-03 07:00:00,32.2,20.1,60.58,360.0,6.0,30.03,10.0,25.77
2021-04-03 08:00:00,31.5,20.3,62.85,360.0,5.0,30.01,10.0,25.8
2021-04-03 09:00:00,29.7,20.5,68.19,360.0,5.0,29.99,10.0,23.66
2021-04-03 10:00:00,30.2,20.1,65.69,0.0,0.0,29.98,10.0,30.2
2021-04-03 11:00:00,30.0,20.3,66.79,0.0,0.0,29.99,10.0,30.0
2021-04-03 12:00:00,33.8,24.1,67.26,0.0,0.0,30.0,10.0,33.8
2021-04-03 13:00:00,41.4,24.3,50.31,360.0,6.0,29.99,10.0,36.85
2021-04-03 14:00:00,47.0,27.0,45.28,360.0,6.0,30.01,10.0,43.72
2021-04-03 15:00:00,52.7,28.9,39.74,360.0,6.0,30.02,10.0,52.7
2021-04-03 16:00:00,57.4,29.8,34.75,360.0,5.0,30.02,10.0,57.4
2021-04-03 17:00:00,62.0,30.9,30.95,360.0,7.0,30.03,10.0,61.9
2021-04-03 18:00:00,64.0,30.4,28.27,360.0,10.0,30.03,10.0,63.9
2021-04-03 19:00:00,64.8,29.7,26.62,360.0,10.0,30.03,10.0,64.8
2021-04-03 20:00:00,65.7,21.9,18.67,360.0,9.0,30.04,10.0,65.7
2021-04-03 21:00:00,65.0,23.2,20.13,360.0,11.0,30.05,10.0,65.1
2021-04-03 22:00:00,62.8,19.2,18.42,360.0,11.0,30.07,10.0,62.8
2021-04-03 23:00:00,58.0,19.8,22.34,360.0,8.0,30.08,10.0,58.1
2021-04-04 00:00:00,49.0,24.4,37.99,360.0,6.0,30.1,10.0,45.88
2021-04-04 01:00:00,47.0,23.7,39.77,360.0,3.0,30.14,10.0,45.72
2021-04-04 02:00:00,42.0,25.3,51.45,0.0,0.0,30.14,10.0,41.9
2021-04-04 03:00:00,38.8,26.1,59.99,0.0,0.0,30.14,10.0,38.8
2021-04-04 04:00:00,37.6,26.2,63.14,360.0,3.0,30.15,10.0,35.09
2021-04-04 05:00:00,42.8,21.6,42.55,360.0,8.0,30.16,10.0,37.42
2021-04-04 06:00:00,41.7,24.4,49.94,360.0,6.0,30.16,10.0,37.21
2021-04-04 07:00:00,41.0,25.7,54.16,360.0,3.0,30.16,10.0,38.98
2021-04-04 08:00:00,41.4,26.6,55.35,360.0,4.0,30.15,10.0,38.4
2021-04-04 09:00:00,41.4,27.9,58.4,360.0,3.0,30.16,10.0,39.43
2021-04-04 10:00:00,38.0,28.2,67.23,360.0,7.0,30.16,10.0,32.21
2021-04-04 11:00:00,41.0,27.3,57.86,360.0,3.0,30.17,10.0,38.98
2021-04-04 12:00:00,44.8,29.1,53.84,360.0,12.0,30.15,10.0,38.29
2021-04-04 13:00:00,47.3,28.2,47.21,360.0,12.0,30.15,10.0,41.47
2021-04-04 14:00:00,50.5,26.8,39.54,360.0,10.0,30.15,10.0,50.5
2021-04-04 15:00:00,56.0,27.5,33.15,360.0,11.0,30.14,10.0,56.1
2021-04-04 16:00:00,59.4,28.0,30.05,360.0,13.0,30.1,10.0,59.4
2021-04-04 17:00:00,60.3,31.5,33.56,360.0,12.0,30.08,10.0,60.3
2021-04-04 18:00:00,62.4,33.0,33.23,360.0,13.0,30.05,10.0,62.4
2021-04-04 19:00:00,64.0,34.2,32.82,360.0,9.0,30.02,10.0,64.0
2021-04-04 20:00:00,64.4,35.6,34.22,360.0,14.0,30.0,10.0,64.4
2021-04-04 21:00:00,65.0,38.0,37.11,360.0,9.0,29.98,10.0,64.9
2021-04-04 22:00:00,61.5,37.8,41.33,360.0,12.0,29.98,10.0,61.5
2021-04-04 23:00:00,55.4,37.0,49.84,360.0,10.0,29.97,10.0,55.4
2021-04-05 00:00:00,52.7,35.8,52.47,360.0,14.0,29.95,10.0,52.7
2021-04-05 01:00:00,49.5,35.4,58.13,360.0,13.0,29.95,10.0,43.99
2021-04-05 02:00:00,48.0,35.2,61.0,360.0,13.0,29.94,10.0,42.07
2021-04-05 03:00:00,46.8,35.2,63.82,360.0,5.0,29.94,10.0,43.97
2021-04-05 04:00:00,46.4,35.6,65.83,360.0,3.0,29.93,10.0,45.15
2021-04-05 05:00:00,45.5,36.0,69.2,360.0,3.0,29.91,10.0,44.12
2021-04-05 06:00:00,45.0,35.6,69.15,360.0,5.0,29.9,10.0,41.95
2021-04-05 07:00:00,43.0,34.2,70.87,0.0,0.0,29.88,10.0,43.0
2021-04-05 08:00:00,39.7,33.0,77.04,360.0,3.0,29.87,10.0,37.49
2021-04-05 09:00:00,38.3,33.8,83.68,0.0,0.0,29.87,10.0,38.3
2021-04-05 10:00:00,38.0,33.8,84.34,0.0,0.0,29.86,10.0,38.1
2021-04-05 11:00:00,36.5,35.0,93.85,0.0,0.0,29.87,10.0,36.5
2021-04-05 12:00:00,44.4,37.8,77.46,0.0,0.0,29.88,10.0,44.4
2021-04-05 13:00:00,48.7,37.0,63.56,360.0,7.0,29.88,10.0,45.14
2021-04-05 14:00:00,54.3,38.5,55.03,360.0,7.0,29.88,10.0,54.3
2021-04-05 15:00:00,60.4,41.4,49.45,360.0,5.0,29.86,10.0,60.4
2021-04-05 16:00:00,66.7,46.0,47.09,360.0,8.0,29.86,10.0,66.7
2021-04-05 17:00:00,69.8,45.3,41.37,360.0,8.0,29.83,10.0,69.8
2021-04-05 18:00:00,74.3,43.7,33.43,360.0,9.0,29.8,10.0,74.3
2021-04-05 19:00:00,75.2,48.0,38.17,360.0,10.0,29.78,10.0,75.2
2021-04-05 20:00:00,76.0,50.2,40.49,360.0,10.0,29.75,10.0,75.9
2021-04-05 21:00:00,76.5,49.3,38.38,360.0,12.0,29.74,10.0,76.5
2021-04-05 22:00:00,73.8,48.6,40.92,360.0,8.0,29.74,10.0,73.8
2021-04-05 23:00:00,69.6,49.0,47.71,360.0,11.0,29.74,10.0,69.6
2021-04-06 00:00:00,66.2,48.6,53.04,360.0,9.0,29.76,10.0,66.2
2021-04-06 01:00:00,61.3,49.0,63.69,360.0,9.0,29.76,10.0,61.3
2021-04-06 02:00:00,60.0,48.4,65.23,360.0,9.0,29.76,10.0,60.1
2021-04-06 03:00:00,56.5,48.2,73.67,360.0,6.0,29.74,10.0,56.5
2021-04-06 04:00:00,56.7,48.2,73.14,360.0,5.0,29.74,10.0,56.7
2021-04-06 05:00:00,58.3,49.5,72.48,360.0,7.0,29.73,10.0,58.3
2021-04-06 06:00:00,58.6,51.0,75.54,360.0,4.0,29.76,10.0,58.6
2021-04-06 07:00:00,56.3,51.8,84.84,360.0,10.0,29.75,10.0,56.3
2021-04-06 08:00:00,54.3,52.7,94.31,360.0,3.0,29.79,10.0,54.3
2021-04-06 09:00:00,54.5,53.6,96.76,360.0,9.0,29.73,10.0,54.5
2021-04-06 10:00:00,53.8,53.0,97.47,360.0,6.0,29.76,10.0,53.8
2021-04-06 11:00:00,50.7,50.4,98.89,360.0,3.0,29.78,10.0,50.7
2021-04-06 12:00:00,55.0,54.7,98.91,360.0,5.0,29.79,10.0,55.0
2021-04-06 13:00:00,58.0,55.4,91.36,360.0,4.0,29.79,10.0,57.9
2021-04-06 14:00:00,61.5,55.0,78.91,360.0,4.0,29.8,10.0,61.5
2021-04-06 15:00:00,65.7,55.0,68.35,0.0,0.0,29.79,10.0,65.7
2021-04-06 16:00:00,69.3,55.8,62.14,0.0,0.0,29.78,10.0,69.3
2021-04-06 17:00:00,71.2,55.6,57.82,0.0,0.0,29.78,10.0,71.2
2021-04-06 18:00:00,72.3,54.5,53.52,0.0,0.0,29.78,10.0,72.3
2021-04-06 19:00:00,73.0,54.5,52.45,0.0,0.0,29.78,10.0,72.9
2021-04-06 20:00:00,75.4,54.7,48.58,170.0,6.0,29.76,10.0,75.4
2021-04-06 21:00:00,73.2,52.5,48.25,140.0,4.0,29.76,10.0,73.2
2021-04-06 22:00:00,62.6,54.3,74.26,220.0,15.0,29.8,2.0,62.6
2021-04-06 23:00:00,59.0,56.0,90.09,160.0,4.0,29.8,10.0,59.0
2021-04-07 00:00:00,58.0,54.7,88.43,200.0,5.0,29.78,10.0,58.1
2021-04-07 01:00:00,58.5,54.5,86.53,80.0,9.0,29.83,10.0,58.5
2021-04-07 02:00:00,57.7,55.8,93.37,340.0,8.0,29.85,10.0,57.7
2021-04-07 03:00:00,56.8,55.4,95.06,360.0,10.0,29.87,5.0,56.8
2021-04-07 04:00:00,56.0,54.5,95.04,50.0,10.0,29.84,10.0,55.9
2021-04-07 05:00:00,56.3,53.4,89.98,80.0,8.0,29.82,10.0,56.3
2021-04-07 06:00:00,56.0,55.0,96.43,80.0,6.0,29.82,10.0,55.9
2021-04-07 07:00:00,55.4,55.0,98.2,100.0,6.0,29.81,10.0,55.4
2021-04-07 08:00:00,54.5,54.3,99.27,140.0,7.0,29.81,10.0,54.5
2021-04-07 09:00:00,53.0,53.0,99.27,110.0,8.0,29.8,10.0,53.1
2021-04-07 10:00:00,51.8,51.8,100.0,70.0,7.0,29.81,7.0,51.8
2021-04-07 11:00:00,51.0,50.5,98.53,60.0,4.0,29.82,4.0,50.9
2021-04-07 12:00:00,50.4,50.2,99.26,90.0,7.0,29.83,2.5,50.4
2021-04-07 13:00:00,51.0,49.8,96.0,90.0,9.0,29.83,4.0,50.9
2021-04-07 14:00:00,53.6,51.0,90.53,110.0,6.0,29.82,7.0,53.6
2021-04-07 15:00:00,57.2,52.2,83.34,100.0,8.0,29.81,10.0,57.2
2021-04-07 16:00:00,62.0,53.8,74.21,120.0,7.0,29.79,10.0,62.1
2021-04-07 17:00:00,66.7,54.5,64.82,110.0,10.0,29.78,10.0,66.7
2021-04-07 18:00:00,70.7,53.0,53.69,120.0,9.0,29.76,10.0,70.7
2021-04-07 19:00:00,73.0,52.3,48.22,150.0,12.0,29.74,10.0,73.0
2021-04-07 20:00:00,73.0,53.0,49.3,130.0,14.0,29.73,10.0,73.0
2021-04-07 21:00:00,71.6,52.5,50.93,150.0,10.0,29.72,10.0,71.6
2021-04-07 22:00:00,70.3,53.4,55.02,140.0,8.0,29.7,10.0,70.3
2021-04-07 23:00:00,67.5,52.2,57.96,120.0,13.0,29.7,10.0,67.5
2021-04-08 00:00:00,62.8,52.3,68.52,100.0,8.0,29.69,10.0,62.8
2021-04-08 01:00:00,61.0,52.2,72.75,100.0,9.0,29.71,10.0,61.0
2021-04-08 02:00:00,59.7,53.0,78.18,100.0,9.0,29.72,10.0,59.7
2021-04-08 03:00:00,57.4,53.6,87.11,100.0,8.0,29.69,10.0,57.4
2021-04-08 04:00:00,56.5,53.2,88.68,110.0,8.0,29.68,10.0,56.5
2021-04-08 05:00:00,54.3,52.3,92.93,100.0,16.0,29.7,7.0,54.3
2021-04-08 06:00:00,54.5,54.0,98.55,130.0,10.0,29.69,5.0,54.5
2021-04-08 07:00:00,54.0,54.0,100.0,100.0,8.0,29.65,7.0,54.1
2021-04-08 08:00:00,53.8,53.8,100.0,100.0,11.0,29.64,7.0,53.8
2021-04-08 09:00:00,52.0,52.0,100.0,90.0,11.0,29.64,2.0,52.0
2021-04-08 10:00:00,51.8,51.8,100.0,90.0,14.0,29.63,7.0,51.8
2021-04-08 11:00:00,50.2,50.0,99.26,100.0,13.0,29.64,5.0,50.2
2021-04-08 12:00:00,50.0,50.0,100.0,90.0,12.0,29.62,2.0,50.0
2021-04-08 13:00:00,51.0,51.0,100.0,100.0,13.0,29.62,2.0,51.1
2021-04-08 14:00:00,54.7,53.0,94.32,100.0,13.0,29.61,10.0,54.7
2021-04-08 15:00:00,54.7,53.0,93.63,120.0,10.0,29.61,7.0,54.7
2021-04-08 16:00:00,55.2,54.3,96.77,100.0,10.0,29.59,3.0,55.2
2021-04-08 17:00:00,56.5,56.3,99.28,120.0,12.0,29.59,4.0,56.5
2021-04-08 18:00:00,56.8,56.3,98.21,120.0,10.0,29.57,5.0,56.8
2021-04-08 19:00:00,57.2,56.0,96.1,120.0,10.0,29.56,10.0,57.2
2021-04-08 20:00:00,58.0,56.3,93.72,120.0,11.0,29.55,10.0,58.1
2021-04-08 21:00:00,58.3,56.7,94.4,120.0,8.0,29.53,10.0,58.3
2021-04-08 22:00:00,57.0,56.0,96.1,130.0,8.0,29.54,5.0,57.0
2021-04-08 23:00:00,54.5,54.0,98.55,130.0,9.0,29.55,10.0,54.5
2021-04-09 00:00:00,53.8,52.7,96.05,80.0,10.0,29.53,10.0,53.8
2021-04-09 01:00:00,53.8,53.6,99.27,90.0,9.0,29.53,10.0,53.8
2021-04-09 02:00:00,54.0,54.0,100.0,80.0,11.0,29.52,4.0,54.0
2021-04-09 03:00:00,52.7,52.7,100.0,100.0,12.0,29.51,10.0,52.7
2021-04-09 04:00:00,52.7,52.7,100.0,120.0,17.0,29.5,5.0,52.7
2021-04-09 05:00:00,51.8,51.8,100.0,120.0,10.0,29.49,2.5,51.8
2021-04-09 06:00:00,50.2,50.2,100.0,160.0,11.0,29.49,7.0,50.2
2021-04-09 07:00:00,47.8,47.3,98.14,160.0,10.0,29.49,5.0,42.78
2021-04-09 08:00:00,46.8,46.6,99.25,150.0,14.0,29.5,10.0,40.24
2021-04-09 09:00:00,43.5,43.5,100.0,170.0,13.0,29.52,5.0,36.3
2021-04-09 10:00:00,43.5,42.6,96.61,170.0,8.0,29.54,10.0,38.28
2021-04-09 11:00:00,43.7,43.5,99.24,120.0,6.0,29.55,5.0,39.62
2021-04-09 12:00:00,44.8,44.8,100.0,140.0,7.0,29.55,7.0,40.38
2021-04-09 13:00:00,45.7,45.7,100.0,130.0,9.0,29.54,1.75,40.55
2021-04-09 14:00:00,46.6,46.4,99.25,140.0,9.0,29.55,1.5,41.67
2021-04-09 15:00:00,48.4,47.8,97.77,150.0,10.0,29.55,7.0,43.53
2021-04-09 16:00:00,49.0,48.0,95.97,150.0,10.0,29.55,2.0,44.41
2021-04-09 17:00:00,49.3,48.7,97.78,130.0,10.0,29.55,3.0,44.66
2021-04-09 18:00:00,49.8,49.0,97.42,150.0,10.0,29.55,10.0,45.29
2021-04-09 19:00:00,49.6,48.7,96.7,160.0,6.0,29.56,5.0,46.73
2021-04-09 20:00:00,50.5,49.5,96.35,160.0,6.0,29.56,10.0,50.5
2021-04-09 21:00:00,50.5,50.0,98.16,180.0,5.0,29.58,5.0,50.5
2021-04-09 22:00:00,50.0,46.8,88.7,240.0,5.0,29.59,10.0,50.0
2021-04-09 23:00:00,49.0,47.3,93.47,230.0,6.0,29.61,10.0,46.13
2021-04-10 00:00:00,47.5,45.7,93.43,220.0,6.0,29.62,10.0,44.2
2021-04-10 01:00:00,47.0,46.4,98.13,220.0,7.0,29.63,10.0,42.94
2021-04-10 02:00:00,45.7,45.0,97.75,240.0,4.0,29.64,10.0,43.42
2021-04-10 03:00:00,43.5,43.5,100.0,200.0,4.0,29.65,10.0,40.85
2021-04-10 04:00:00,45.0,45.0,100.0,210.0,3.0,29.66,10.0,43.66
2021-04-10 05:00:00,45.7,45.5,99.24,210.0,5.0,29.66,10.0,42.67
2021-04-10 06:00:00,45.7,45.5,99.24,220.0,5.0,29.65,10.0,42.67
2021-04-10 07:00:00,45.5,45.5,100.0,230.0,5.0,29.65,10.0,42.43
2021-04-10 08:00:00,46.0,46.0,100.0,250.0,4.0,29.66,10.0,43.77
2021-04-10 09:00:00,45.0,44.8,98.87,260.0,6.0,29.67,10.0,41.31
2021-04-10 10:00:00,43.7,41.4,91.54,270.0,7.0,29.69,10.0,39.04
2021-04-10 11:00:00,42.0,40.6,94.37,280.0,5.0,29.68,10.0,38.39
2021-04-10 12:00:00,43.7,41.0,90.13,280.0,4.0,29.71,10.0,41.08
2021-04-10 13:00:00,43.7,41.2,90.83,320.0,4.0,29.7,10.0,41.08
2021-04-10 14:00:00,45.0,42.3,89.84,0.0,0.0,29.71,10.0,45.1
2021-04-10 15:00:00,46.4,42.0,84.87,360.0,6.0,29.69,10.0,42.87
2021-04-10 16:00:00,50.0,42.6,75.59,310.0,3.0,29.67,10.0,50.0
2021-04-10 17:00:00,50.4,43.0,75.63,0.0,0.0,29.65,10.0,50.4
2021-04-10 18:00:00,51.0,43.7,75.7,0.0,0.0,29.65,10.0,51.1
2021-04-10 19:00:00,51.4,43.7,74.86,0.0,0.0,29.62,10.0,51.4
2021-04-10 20:00:00,51.8,43.7,73.76,0.0,0.0,29.61,10.0,51.8
2021-04-10 21:00:00,51.4,44.0,76.01,320.0,3.0,29.6,10.0,51.4
2021-04-10 22:00:00,51.8,44.8,76.92,50.0,7.0,29.57,10.0,51.8
2021-04-10 23:00:00,51.0,45.5,81.67,40.0,7.0,29.57,10.0,50.9
2021-04-11 00:00:00,49.0,46.4,90.35,10.0,6.0,29.56,10.0,46.13
2021-04-11 01:00:00,48.2,47.5,97.41,40.0,7.0,29.58,10.0,44.53
2021-04-11 02:00:00,47.8,47.3,98.14,20.0,10.0,29.55,10.0,42.78
2021-04-11 03:00:00,47.7,47.0,97.03,30.0,10.0,29.53,10.0,42.66
2021-04-11 04:00:00,47.7,47.3,98.51,20.0,9.0,29.5,10.0,43.04
2021-04-11 05:00:00,47.3,46.8,98.13,20.0,11.0,29.47,10.0,41.8
2021-04-11 06:00:00,46.0,45.5,98.12,10.0,15.0,29.44,10.0,38.93
2021-04-11 07:00:00,45.5,45.0,98.12,20.0,12.0,29.42,10.0,39.18
2021-04-11 08:00:00,45.0,44.6,98.49,20.0,16.0,29.4,10.0,37.36
2021-04-11 09:00:00,44.8,44.2,97.74,20.0,12.0,29.4,7.0,38.29
2021-04-11 10:00:00,45.0,44.2,97.0,20.0,10.0,29.4,7.0,39.27
2021-04-11 11:00:00,45.5,44.6,96.64,40.0,10.0,29.41,10.0,39.9
2021-04-11 12:00:00,45.7,45.0,97.38,40.0,6.0,29.41,10.0,42.03
2021-04-11 13:00:00,46.4,46.4,100.0,20.0,7.0,29.42,5.0,42.33
2021-04-11 14:00:00,47.3,46.8,98.13,20.0,10.0,29.41,10.0,42.15
2021-04-11 15:00:00,47.5,46.8,97.4,40.0,10.0,29.42,7.0,42.41
2021-04-11 16:00:00,48.4,48.2,99.25,30.0,9.0,29.42,5.0,43.91
2021-04-11 17:00:00,49.3,48.7,97.78,30.0,9.0,29.41,7.0,45.03
2021-04-11 18:00:00,49.0,48.4,97.42,30.0,7.0,29.41,5.0,45.62
2021-04-11 19:00:00,49.0,48.4,97.42,360.0,3.0,29.41,7.0,48.24
2021-04-11 20:00:00,49.0,49.0,100.0,20.0,4.0,29.43,3.0,47.39
2021-04-11 21:00:00,49.0,49.0,100.0,0.0,0.0,29.45,2.0,49.1
2021-04-11 22:00:00,49.3,49.3,100.0,0.0,0.0,29.46,1.5,49.3
2021-04-11 23:00:00,49.3,49.3,100.0,0.0,0.0,29.47,4.0,49.3
2021-04-12 00:00:00,49.0,49.0,100.0,330.0,3.0,29.48,2.5,48.24
2021-04-12 01:00:00,48.2,48.2,100.0,10.0,3.0,29.5,5.0,47.21
2021-04-12 02:00:00,48.2,48.2,100.0,0.0,0.0,29.51,10.0,48.2
2021-04-12 03:00:00,47.8,47.8,100.0,350.0,3.0,29.51,2.5,46.75
2021-04-12 04:00:00,47.5,47.5,100.0,350.0,3.0,29.52,3.0,46.41
2021-04-12 05:00:00,47.8,47.8,100.0,150.0,4.0,29.53,0.75,45.87
2021-04-12 06:00:00,47.8,47.8,100.0,130.0,5.0,29.53,2.0,45.16
2021-04-12 07:00:00,47.5,47.5,100.0,130.0,7.0,29.55,0.5,43.67
2021-04-12 08:00:00,47.5,47.5,100.0,130.0,7.0,29.56,2.0,43.67
2021-04-12 09:00:00,46.4,46.4,100.0,140.0,6.0,29.57,3.0,42.87
2021-04-12 10:00:00,45.5,45.5,100.0,170.0,8.0,29.59,4.0,40.74
2021-04-12 11:00:00,44.8,44.8,100.0,170.0,6.0,29.61,5.0,40.95
2021-04-12 12:00:00,44.8,44.8,100.0,190.0,5.0,29.62,3.0,41.6
2021-04-12 13:00:00,44.0,44.0,100.0,220.0,6.0,29.63,2.0,40.1
2021-04-12 14:00:00,44.4,44.4,100.0,0.0,0.0,29.64,2.0,44.4
2021-04-12 15:00:00,45.0,45.0,100.0,230.0,4.0,29.65,2.0,42.72
2021-04-12 16:00:00,46.0,45.5,98.5,250.0,4.0,29.67,2.5,43.65
2021-04-12 17:00:00,47.5,46.4,95.94,250.0,5.0,29.68,2.0,44.8
2021-04-12 18:00:00,50.0,44.6,81.61,260.0,12.0,29.69,10.0,50.0
2021-04-12 19:00:00,49.5,46.4,89.02,250.0,6.0,29.69,10.0,46.61
2021-04-12 20:00:00,46.6,42.0,83.58,250.0,14.0,29.7,7.0,39.98
2021-04-12 21:00:00,49.3,41.0,72.95,250.0,15.0,29.71,10.0,43.21
2021-04-12 22:00:00,47.7,41.0,77.45,240.0,13.0,29.74,10.0,41.68
2021-04-12 23:00:00,45.0,38.8,78.74,260.0,14.0,29.78,10.0,37.92
2021-04-13 00:00:00,43.2,37.8,81.1,250.0,11.0,29.8,10.0,36.62
2021-04-13 01:00:00,41.5,37.0,83.57,250.0,12.0,29.82,10.0,34.09
2021-04-13 02:00:00,40.6,37.0,86.87,240.0,12.0,29.83,10.0,32.95
2021-04-13 03:00:00,40.0,37.0,88.57,240.0,9.0,29.83,10.0,33.59
2021-04-13 04:00:00,40.0,36.5,86.84,240.0,8.0,29.83,10.0,34.09
2021-04-13 05:00:00,39.2,35.8,87.49,230.0,12.0,29.84,10.0,31.17
2021-04-13 06:00:00,39.2,36.0,88.18,240.0,9.0,29.84,10.0,32.47
2021-04-13 07:00:00,38.7,36.0,89.92,240.0,6.0,29.84,10.0,33.6
2021-04-13 08:00:00,38.3,36.7,93.9,240.0,8.0,29.85,7.0,31.87
2021-04-13 09:00:00,37.8,36.3,94.26,240.0,8.0,29.86,10.0,31.26
2021-04-13 10:00:00,36.3,33.6,89.82,250.0,14.0,29.87,10.0,26.7
2021-04-13 11:00:00,33.3,26.1,74.58,250.0,12.0,29.9,10.0,23.66
2021-04-13 12:00:00,35.2,26.6,70.58,270.0,13.0,29.91,10.0,25.67
2021-04-13 13:00:00,35.6,28.2,74.19,260.0,13.0,29.92,10.0,26.18
2021-04-13 14:00:00,35.2,29.3,78.85,240.0,10.0,29.93,10.0,26.98
2021-04-13 15:00:00,34.7,31.6,88.31,250.0,5.0,29.94,10.0,29.6
2021-04-13 16:00:00,36.7,26.6,66.51,250.0,14.0,29.96,10.0,27.22
2021-04-13 17:00:00,36.0,26.8,68.94,240.0,13.0,29.97,10.0,26.69
2021-04-13 18:00:00,36.3,27.7,70.7,240.0,13.0,29.97,10.0,27.08
2021-04-13 19:00:00,35.6,28.2,74.19,240.0,11.0,29.98,10.0,27.02
2021-04-13 20:00:00,35.2,27.0,71.75,230.0,13.0,29.98,10.0,25.67
2021-04-13 21:00:00,34.2,26.8,74.05,250.0,11.0,29.99,10.0,25.25
2021-04-13 22:00:00,33.0,28.8,84.69,250.0,9.0,30.01,10.0,24.63
2021-04-13 23:00:00,31.5,29.7,92.96,240.0,12.0,30.02,2.0,21.37
2021-04-14 00:00:00,29.8,28.4,94.44,250.0,5.0,30.04,7.0,23.78
2021-04-14 01:00:00,30.2,28.4,92.92,240.0,5.0,30.05,10.0,24.26
2021-04-14 02:00:00,30.7,28.2,90.31,260.0,4.0,30.04,10.0,25.9
2021-04-14 03:00:00,30.6,28.0,89.93,240.0,6.0,30.04,10.0,23.84
2021-04-14 04:00:00,30.6,27.5,88.1,240.0,7.0,30.04,10.0,23.07
2021-04-14 05:00:00,30.2,28.2,92.16,250.0,6.0,30.04,10.0,23.36
2021-04-14 06:00:00,30.2,28.4,92.92,260.0,7.0,30.03,10.0,22.59
2021-04-14 07:00:00,30.2,28.2,92.16,270.0,7.0,30.03,10.0,22.59
2021-04-14 08:00:00,30.0,28.4,93.68,260.0,5.0,30.02,10.0,24.02
2021-04-14 09:00:00,30.0,28.6,94.45,260.0,3.0,30.02,4.0,26.4
2021-04-14 10:00:00,29.5,28.4,95.6,260.0,7.0,30.02,10.0,21.73
2021-04-14 11:00:00,29.7,28.4,94.83,280.0,6.0,30.03,7.0,22.76
2021-04-14 12:00:00,30.6,28.4,91.42,260.0,6.0,30.03,4.0,23.84
2021-04-14 13:00:00,32.0,29.3,89.63,280.0,6.0,30.03,10.0,25.53
2021-04-14 14:00:00,33.4,29.3,84.72,280.0,8.0,30.03,10.0,25.84
2021-04-14 15:00:00,33.6,29.3,84.05,290.0,9.0,30.03,7.0,25.5
2021-04-14 16:00:00,35.8,29.7,78.26,260.0,10.0,30.02,10.0,27.73
2021-04-14 17:00:00,38.8,30.4,71.56,310.0,8.0,30.02,10.0,32.49
2021-04-14 18:00:00,38.7,29.1,68.13,270.0,8.0,30.01,10.0,32.37
2021-04-14 19:00:00,39.7,28.6,64.2,260.0,10.0,29.99,10.0,32.62
2021-04-14 20:00:00,41.0,30.9,67.03,280.0,11.0,29.99,10.0,33.84
2021-04-14 21:00:00,37.6,33.0,82.97,280.0,8.0,29.99,10.0,31.01
2021-04-14 22:00:00,36.0,35.0,95.35,270.0,9.0,29.99,5.0,28.61
2021-04-14 23:00:00,35.2,35.0,99.6,280.0,7.0,29.99,10.0,28.68
2021-04-15 00:00:00,34.7,34.0,97.25,310.0,8.0,30.0,10.0,27.44
2021-04-15 01:00:00,34.7,33.8,96.47,350.0,11.0,30.01,10.0,25.88
2021-04-15 02:00:00,33.4,32.0,94.53,360.0,13.0,30.02,10.0,23.36
2021-04-15 03:00:00,33.3,32.0,94.91,350.0,10.0,30.02,10.0,24.6
2021-04-15 04:00:00,34.2,33.4,96.85,330.0,9.0,30.02,10.0,26.25
2021-04-15 05:00:00,34.7,33.0,93.81,330.0,10.0,30.02,10.0,26.35
2021-04-15 06:00:00,34.7,33.8,96.47,320.0,8.0,30.02,10.0,27.44
2021-04-15 07:00:00,35.0,33.4,93.44,330.0,11.0,30.02,10.0,26.38
2021-04-15 08:00:00,34.7,32.0,89.75,340.0,12.0,30.02,10.0,25.44
2021-04-15 09:00:00,33.8,30.7,88.26,340.0,8.0,30.03,10.0,26.33
2021-04-15 10:00:00,32.7,30.2,90.39,320.0,6.0,30.04,10.0,26.37
2021-04-15 11:00:00,33.0,31.1,93.0,310.0,6.0,30.05,10.0,26.61
2021-04-15 12:00:00,35.0,31.1,85.86,330.0,14.0,30.04,10.0,24.9
2021-04-15 13:00:00,35.8,29.5,77.63,350.0,16.0,30.04,10.0,25.37
2021-04-15 14:00:00,36.0,29.5,76.71,350.0,15.0,30.04,10.0,26.1
2021-04-15 15:00:00,38.5,30.0,71.23,360.0,13.0,30.03,10.0,29.9
2021-04-15 16:00:00,41.0,31.3,68.13,360.0,11.0,30.03,10.0,33.84
2021-04-15 17:00:00,42.6,31.6,64.83,330.0,11.0,30.03,10.0,35.86
2021-04-15 18:00:00,45.0,32.2,60.6,350.0,12.0,30.02,10.0,38.55
2021-04-15 19:00:00,44.0,32.4,63.22,330.0,9.0,30.02,10.0,38.56
2021-04-15 20:00:00,46.0,33.6,61.95,350.0,10.0,30.01,10.0,40.4
2021-04-15 21:00:00,44.8,33.8,65.11,330.0,11.0,30.01,10.0,38.64
2021-04-15 22:00:00,44.8,34.3,66.42,350.0,13.0,30.02,10.0,37.97
2021-04-15 23:00:00,42.0,33.6,72.18,340.0,10.0,30.02,10.0,35.38
2021-04-16 00:00:00,38.8,33.3,80.44,340.0,6.0,30.03,10.0,33.72
2021-04-16 01:00:00,37.4,33.0,83.62,330.0,5.0,30.04,10.0,32.81
2021-04-16 02:00:00,35.8,32.5,87.66,320.0,6.0,30.04,10.0,30.11
2021-04-16 03:00:00,34.7,32.5,91.57,310.0,3.0,30.04,10.0,31.78
2021-04-16 04:00:00,33.8,31.6,91.54,310.0,5.0,30.04,10.0,28.53
2021-04-16 05:00:00,32.0,28.9,88.17,330.0,5.0,30.04,10.0,26.4
2021-04-16 06:00:00,31.1,27.0,84.57,320.0,5.0,30.04,10.0,25.33
2021-04-16 07:00:00,30.9,26.8,84.56,340.0,6.0,30.03,10.0,24.21
2021-04-16 08:00:00,30.0,26.6,86.99,310.0,6.0,30.02,10.0,23.12
2021-04-16 09:00:00,28.6,25.7,88.73,330.0,4.0,30.01,10.0,23.45
2021-04-16 10:00:00,28.6,24.8,85.47,330.0,6.0,30.02,10.0,21.44
2021-04-16 11:00:00,30.7,25.5,80.78,340.0,7.0,30.02,10.0,23.19
2021-04-16 12:00:00,34.0,27.5,76.83,330.0,7.0,30.02,10.0,27.22
2021-04-16 13:00:00,38.8,27.3,63.03,330.0,7.0,30.01,10.0,33.07
2021-04-16 14:00:00,43.0,21.0,41.17,360.0,9.0,30.01,10.0,37.19
2021-04-16 15:00:00,45.5,19.2,34.66,360.0,8.0,30.01,10.0,40.74
2021-04-16 16:00:00,48.0,21.4,34.64,330.0,7.0,29.99,10.0,44.28
2021-04-16 17:00:00,50.0,22.1,33.11,330.0,10.0,29.98,10.0,50.0
2021-04-16 18:00:00,51.0,23.4,33.82,320.0,9.0,29.96,10.0,50.9
2021-04-16 19:00:00,51.3,23.7,33.75,20.0,10.0,29.95,10.0,51.3
2021-04-16 20:00:00,52.2,24.6,33.89,10.0,12.0,29.95,10.0,52.2
2021-04-16 21:00:00,52.3,23.2,31.85,340.0,7.0,29.95,10.0,52.3
2021-04-16 22:00:00,52.0,22.5,31.27,360.0,8.0,29.96,10.0,52.0
2021-04-16 23:00:00,49.0,27.1,42.18,360.0,7.0,29.96,10.0,45.62
2021-04-17 00:00:00,44.0,27.0,51.12,360.0,9.0,29.97,10.0,38.31
2021-04-17 01:00:00,39.6,26.1,58.14,360.0,9.0,29.99,10.0,32.96
2021-04-17 02:00:00,38.5,22.1,51.35,10.0,7.0,29.99,10.0,32.7
2021-04-17 03:00:00,34.0,23.0,63.72,360.0,7.0,30.0,10.0,27.22
2021-04-17 04:00:00,34.5,23.2,62.99,60.0,3.0,30.0,10.0,31.55
2021-04-17 05:00:00,32.2,22.3,66.5,0.0,0.0,30.0,10.0,32.2
2021-04-17 06:00:00,30.6,24.8,78.78,0.0,0.0,29.99,10.0,30.6
2021-04-17 07:00:00,29.1,23.5,79.31,360.0,4.0,29.98,10.0,24.03
2021-04-17 08:00:00,28.4,21.9,76.3,0.0,0.0,29.98,10.0,28.4
2021-04-17 09:00:00,25.5,23.9,93.55,0.0,0.0,29.99,10.0,25.5
2021-04-17 10:00:00,26.4,21.4,81.12,0.0,0.0,29.99,10.0,26.4
2021-04-17 11:00:00,29.3,20.1,68.14,330.0,5.0,29.99,10.0,23.19
2021-04-17 12:00:00,33.0,22.1,64.11,350.0,4.0,30.0,10.0,28.47
2021-04-17 13:00:00,38.3,19.8,46.94,360.0,5.0,29.99,10.0,33.88
2021-04-17 14:00:00,44.0,19.0,36.25,340.0,6.0,29.98,10.0,40.1
2021-04-17 15:00:00,47.7,16.7,28.65,330.0,7.0,29.98,10.0,43.92
2021-04-17 16:00:00,50.0,16.7,26.29,330.0,9.0,29.96,10.0,50.0
2021-04-17 17:00:00,51.0,17.1,25.67,350.0,8.0,29.95,10.0,51.1
2021-04-17 18:00:00,52.0,16.0,23.68,340.0,7.0,29.94,10.0,52.0
2021-04-17 19:00:00,53.0,19.4,26.33,0.0,0.0,29.94,10.0,53.1
2021-04-17 20:00:00,54.7,21.7,27.38,340.0,6.0,29.92,10.0,54.7
2021-04-17 21:00:00,54.7,21.0,26.58,320.0,4.0,29.92,10.0,54.7
2021-04-17 22:00:00,54.7,23.4,29.41,340.0,7.0,29.92,10.0,54.7
2021-04-17 23:00:00,49.5,26.2,40.04,330.0,5.0,29.92,10.0,47.18
2021-04-18 00:00:00,45.3,27.9,50.3,350.0,6.0,29.92,10.0,41.55
2021-04-18 01:00:00,45.0,27.7,50.26,360.0,7.0,29.94,10.0,40.75
2021-04-18 02:00:00,44.8,23.9,43.43,20.0,5.0,29.95,10.0,41.6
2021-04-18 03:00:00,39.4,29.5,67.39,40.0,4.0,29.94,10.0,36.06
2021-04-18 04:00:00,37.0,28.9,72.53,90.0,3.0,29.94,10.0,34.29
2021-04-18 05:00:00,37.0,27.5,68.48,90.0,3.0,29.94,10.0,34.29
2021-04-18 06:00:00,36.0,25.5,65.07,0.0,0.0,29.93,10.0,36.1
2021-04-18 07:00:00,33.0,26.6,77.37,0.0,0.0,29.93,10.0,32.9
2021-04-18 08:00:00,30.0,28.2,92.91,0.0,0.0,29.92,10.0,30.0
2021-04-18 09:00:00,31.1,28.2,88.85,0.0,0.0,29.91,10.0,31.1
2021-04-18 10:00:00,32.0,30.6,94.5,0.0,0.0,29.91,10.0,32.0
2021-04-18 11:00:00,33.0,31.6,94.9,0.0,0.0,29.91,10.0,32.9
2021-04-18 12:00:00,37.0,32.0,81.93,0.0,0.0,29.91,10.0,37.0
2021-04-18 13:00:00,43.5,29.8,58.22,220.0,3.0,29.91,10.0,41.84
2021-04-18 14:00:00,49.3,25.3,38.86,230.0,7.0,29.89,10.0,45.87
2021-04-18 15:00:00,52.2,22.8,31.43,250.0,9.0,29.87,10.0,52.2
2021-04-18 16:00:00,54.5,25.0,31.68,230.0,10.0,29.85,10.0,54.5
2021-04-18 17:00:00,55.8,23.9,28.86,190.0,7.0,29.82,10.0,55.8
2021-04-18 18:00:00,54.7,25.9,32.65,240.0,10.0,29.8,10.0,54.7
2021-04-18 19:00:00,56.3,25.3,30.04,210.0,10.0,29.79,10.0,56.3
2021-04-18 20:00:00,58.0,28.2,31.74,260.0,12.0,29.76,10.0,58.1
2021-04-18 21:00:00,55.6,25.9,31.59,250.0,7.0,29.75,10.0,55.6
2021-04-18 22:00:00,54.0,27.7,36.07,230.0,9.0,29.74,10.0,54.0
2021-04-18 23:00:00,53.0,29.3,40.1,240.0,8.0,29.73,10.0,52.9
2021-04-19 00:00:00,47.8,28.2,46.33,220.0,6.0,29.71,10.0,44.56
2021-04-19 01:00:00,44.2,30.0,57.15,190.0,5.0,29.7,10.0,40.88
2021-04-19 02:00:00,42.0,30.2,62.45,190.0,6.0,29.69,10.0,37.69
2021-04-19 03:00:00,45.5,31.5,57.8,260.0,13.0,29.68,10.0,38.86
2021-04-19 04:00:00,43.0,39.0,85.66,280.0,10.0,29.69,10.0,36.76
2021-04-19 05:00:00,41.5,40.3,95.46,250.0,13.0,29.68,10.0,33.74
2021-04-19 06:00:00,39.2,37.6,93.93,290.0,10.0,29.69,10.0,32.0
2021-04-19 07:00:00,35.2,33.4,93.07,310.0,13.0,29.69,5.0,25.67
2021-04-19 08:00:00,33.0,31.1,93.0,310.0,12.0,29.7,10.0,23.15
2021-04-19 09:00:00,32.0,28.4,86.39,300.0,11.0,29.71,10.0,22.47
2021-04-19 10:00:00,31.1,27.9,87.77,300.0,10.0,29.72,10.0,21.84
2021-04-19 11:00:00,31.6,28.2,87.08,290.0,11.0,29.74,4.0,21.96
2021-04-19 12:00:00,32.2,27.3,81.91,290.0,16.0,29.75,10.0,20.68
2021-04-19 13:00:00,32.5,25.3,74.5,290.0,16.0,29.75,10.0,21.07
2021-04-19 14:00:00,32.0,26.4,79.56,300.0,13.0,29.78,4.0,21.57
2021-04-19 15:00:00,32.7,22.8,66.56,310.0,15.0,29.78,10.0,21.69
2021-04-19 16:00:00,33.0,23.4,67.17,290.0,18.0,29.79,10.0,21.2
2021-04-19 17:00:00,34.7,21.0,56.95,320.0,16.0,29.79,10.0,23.94
2021-04-19 18:00:00,35.6,22.8,59.29,290.0,14.0,29.81,10.0,25.8
2021-04-19 19:00:00,34.7,20.7,56.23,310.0,17.0,29.83,10.0,23.61
2021-04-19 20:00:00,34.5,20.5,56.2,310.0,9.0,29.84,10.0,26.62
2021-04-19 21:00:00,34.3,19.4,54.05,330.0,14.0,29.85,10.0,24.13
2021-04-19 22:00:00,33.3,19.4,56.26,330.0,15.0,29.88,10.0,22.47
2021-04-19 23:00:00,31.6,19.4,60.24,330.0,14.0,29.91,10.0,20.65
2021-04-20 00:00:00,29.3,18.9,64.73,340.0,10.0,29.93,10.0,19.58
2021-04-20 01:00:00,28.0,18.1,65.97,330.0,9.0,29.96,10.0,18.54
2021-04-20 02:00:00,27.3,18.3,68.48,320.0,7.0,29.97,10.0,19.05
2021-04-20 03:00:00,26.6,17.6,68.4,320.0,6.0,29.97,10.0,19.03
2021-04-20 04:00:00,25.7,17.8,71.61,300.0,4.0,29.97,10.0,20.06
2021-04-20 05:00:00,24.4,18.5,77.9,270.0,5.0,29.98,10.0,17.37
2021-04-20 06:00:00,23.9,18.1,78.19,270.0,5.0,29.97,10.0,16.78
2021-04-20 07:00:00,23.9,19.0,81.27,280.0,5.0,29.97,10.0,16.78
2021-04-20 08:00:00,23.0,18.7,83.32,270.0,5.0,29.98,10.0,15.71
2021-04-20 09:00:00,23.4,18.9,82.63,290.0,6.0,29.98,10.0,15.17
2021-04-20 10:00:00,23.7,18.5,80.21,270.0,5.0,29.98,10.0,16.54
2021-04-20 11:00:00,25.7,19.4,76.7,280.0,7.0,30.01,10.0,17.1
2021-04-20 12:00:00,28.4,21.0,73.45,290.0,6.0,30.02,10.0,21.19
2021-04-20 13:00:00,30.6,21.2,67.72,330.0,4.0,30.03,10.0,25.79
2021-04-20 14:00:00,33.0,19.2,56.68,310.0,5.0,30.04,10.0,27.46
2021-04-20 15:00:00,33.3,17.1,50.96,310.0,6.0,30.04,10.0,27.1
2021-04-20 16:00:00,34.7,19.2,52.74,350.0,7.0,30.04,10.0,28.07
2021-04-20 17:00:00,33.8,17.4,50.6,10.0,4.0,30.04,10.0,29.52
2021-04-20 18:00:00,36.0,18.3,48.0,340.0,8.0,30.03,10.0,29.16
2021-04-20 19:00:00,35.0,17.4,48.05,330.0,8.0,30.03,10.0,27.93
2021-04-20 20:00:00,36.7,18.1,46.48,340.0,7.0,30.02,10.0,30.51
2021-04-20 21:00:00,35.6,18.5,49.39,10.0,3.0,30.02,10.0,32.8
2021-04-20 22:00:00,35.0,21.0,56.49,360.0,10.0,30.03,10.0,26.6
2021-04-20 23:00:00,34.0,19.6,55.17,10.0,7.0,30.03,10.0,27.22
2021-04-21 00:00:00,32.0,21.2,63.99,360.0,7.0,30.04,10.0,24.78
2021-04-21 01:00:00,29.8,22.3,73.29,360.0,5.0,30.06,10.0,23.78
2021-04-21 02:00:00,29.3,19.8,67.27,10.0,5.0,30.07,10.0,23.19
2021-04-21 03:00:00,30.0,18.1,60.79,30.0,5.0,30.07,10.0,24.02
2021-04-21 04:00:00,27.3,18.7,69.67,30.0,3.0,30.07,10.0,23.32
2021-04-21 05:00:00,26.8,17.2,66.67,30.0,5.0,30.07,10.0,20.22
2021-04-21 06:00:00,27.5,17.2,64.78,50.0,4.0,30.07,10.0,22.17
2021-04-21 07:00:00,26.2,15.6,63.77,40.0,5.0,30.06,10.0,19.51
2021-04-21 08:00:00,25.5,15.4,65.08,50.0,5.0,30.06,10.0,18.68
2021-04-21 09:00:00,23.5,16.2,73.25,40.0,4.0,30.07,10.0,17.49
2021-04-21 10:00:00,23.7,17.1,75.52,30.0,4.0,30.07,10.0,17.73
2021-04-21 11:00:00,24.4,17.6,74.94,40.0,5.0,30.08,10.0,17.37
2021-04-21 12:00:00,26.6,17.6,68.4,0.0,0.0,30.1,10.0,26.6
2021-04-21 13:00:00,29.3,14.2,52.81,0.0,0.0,30.1,10.0,29.3
2021-04-21 14:00:00,28.9,15.8,57.56,200.0,4.0,30.09,10.0,23.8
2021-04-21 15:00:00,33.0,18.7,55.03,250.0,8.0,30.08,10.0,25.47
2021-04-21 16:00:00,32.5,17.4,53.31,290.0,8.0,30.07,7.0,24.73
2021-04-21 17:00:00,35.8,17.2,46.33,230.0,3.0,30.05,10.0,33.03
2021-04-21 18:00:00,34.3,18.1,51.12,280.0,10.0,30.04,7.0,25.85
2021-04-21 19:00:00,34.2,23.0,63.21,280.0,8.0,30.03,10.0,26.82
2021-04-21 20:00:00,37.0,25.2,62.26,290.0,6.0,30.02,10.0,31.43
2021-04-21 21:00:00,35.0,25.3,67.68,280.0,13.0,30.01,10.0,25.28
2021-04-21 22:00:00,34.5,24.8,67.35,270.0,7.0,30.01,10.0,27.83
2021-04-21 23:00:00,33.3,26.1,74.58,250.0,4.0,30.0,10.0,28.94
2021-04-22 00:00:00,31.5,26.2,80.51,10.0,6.0,30.01,10.0,24.93
2021-04-22 01:00:00,29.3,26.2,88.03,0.0,0.0,30.02,10.0,29.3
2021-04-22 02:00:00,29.1,27.0,91.74,0.0,0.0,30.02,10.0,29.1
2021-04-22 03:00:00,24.8,24.3,97.94,0.0,0.0,30.02,10.0,24.8
2021-04-22 04:00:00,24.8,24.6,99.17,0.0,0.0,30.02,10.0,24.8
2021-04-22 05:00:00,25.0,23.4,93.53,0.0,0.0,30.02,10.0,25.0
2021-04-22 06:00:00,22.1,21.0,95.45,0.0,0.0,30.0,10.0,22.1
2021-04-22 07:00:00,23.5,20.1,86.62,0.0,0.0,29.99,10.0,23.5
2021-04-22 08:00:00,23.0,20.3,89.21,0.0,0.0,29.99,10.0,23.0
2021-04-22 09:00:00,22.1,18.5,85.8,0.0,0.0,30.0,10.0,22.1
2021-04-22 10:00:00,22.8,18.1,81.88,0.0,0.0,29.99,10.0,22.8
2021-04-22 11:00:00,24.6,19.0,78.93,0.0,0.0,30.0,10.0,24.6
2021-04-22 12:00:00,30.6,21.2,67.72,250.0,4.0,29.99,10.0,25.79
2021-04-22 13:00:00,34.7,21.9,59.16,230.0,7.0,30.0,10.0,28.07
2021-04-22 14:00:00,37.8,22.1,52.78,220.0,8.0,29.99,10.0,31.26
2021-04-22 15:00:00,40.5,23.9,51.23,200.0,4.0,29.98,10.0,37.35
2021-04-22 16:00:00,44.4,26.4,48.93,220.0,8.0,29.97,10.0,39.39
2021-04-22 17:00:00,47.0,27.0,45.28,230.0,4.0,29.96,10.0,45.05
2021-04-22 18:00:00,50.2,29.1,43.95,190.0,3.0,29.95,10.0,50.2
2021-04-22 19:00:00,52.2,29.1,40.81,280.0,7.0,29.93,10.0,52.2
2021-04-22 20:00:00,54.7,30.0,38.63,300.0,8.0,29.91,10.0,54.7
2021-04-22 21:00:00,55.8,29.5,36.37,240.0,6.0,29.89,10.0,55.8
2021-04-22 22:00:00,53.8,28.9,38.17,260.0,5.0,29.89,10.0,53.8
2021-04-22 23:00:00,53.8,27.3,35.75,290.0,7.0,29.88,10.0,53.8
2021-04-23 00:00:00,49.3,27.9,43.27,220.0,4.0,29.88,10.0,47.62
2021-04-23 01:00:00,41.4,29.3,61.85,210.0,5.0,29.9,10.0,37.56
2021-04-23 02:00:00,43.7,26.6,50.67,230.0,6.0,29.9,10.0,39.62
2021-04-23 03:00:00,43.0,26.2,51.19,230.0,6.0,29.91,10.0,38.78
2021-04-23 04:00:00,40.3,26.1,56.58,230.0,6.0,29.91,10.0,35.53
2021-04-23 05:00:00,37.2,25.9,63.35,240.0,3.0,29.91,10.0,34.63
2021-04-23 06:00:00,35.6,25.5,66.37,0.0,0.0,29.9,10.0,35.6
2021-04-23 07:00:00,33.0,26.2,75.49,230.0,3.0,29.9,10.0,29.95
2021-04-23 08:00:00,36.0,25.5,65.33,230.0,6.0,29.91,10.0,30.35
2021-04-23 09:00:00,36.3,24.8,62.7,230.0,6.0,29.91,10.0,30.71
2021-04-23 10:00:00,34.7,23.9,64.35,230.0,4.0,29.91,10.0,30.57
2021-04-23 11:00:00,37.0,26.6,65.72,240.0,6.0,29.93,10.0,31.55
2021-04-23 12:00:00,42.4,27.7,55.73,260.0,7.0,29.95,10.0,37.46
2021-04-23 13:00:00,48.2,29.3,47.74,260.0,9.0,29.94,10.0,43.66
2021-04-23 14:00:00,52.0,30.7,43.88,270.0,10.0,29.93,10.0,52.0
2021-04-23 15:00:00,53.2,30.9,42.33,260.0,13.0,29.93,10.0,53.2
2021-04-23 16:00:00,53.2,30.6,41.82,230.0,14.0,29.92,10.0,53.2
2021-04-23 17:00:00,53.2,30.6,41.82,210.0,13.0,29.91,10.0,53.2
2021-04-23 18:00:00,52.0,30.9,44.24,240.0,14.0,29.91,10.0,52.0
2021-04-23 19:00:00,51.8,32.0,46.59,220.0,12.0,29.9,10.0,51.8
2021-04-23 20:00:00,52.2,32.0,45.91,210.0,5.0,29.88,10.0,52.2
2021-04-23 21:00:00,52.7,31.5,44.17,220.0,10.0,29.88,10.0,52.7
2021-04-23 22:00:00,52.2,30.6,43.38,230.0,4.0,29.87,10.0,52.2
2021-04-23 23:00:00,51.0,31.6,47.4,220.0,3.0,29.87,10.0,50.9
2021-04-24 00:00:00,48.6,32.2,52.9,0.0,0.0,29.86,10.0,48.6
2021-04-24 01:00:00,47.5,32.7,56.25,110.0,3.0,29.87,10.0,46.41
2021-04-24 02:00:00,45.0,35.6,69.15,0.0,0.0,29.88,10.0,45.1
2021-04-24 03:00:00,46.8,35.8,65.36,330.0,5.0,29.87,10.0,43.97
2021-04-24 04:00:00,45.7,35.6,67.6,0.0,0.0,29.88,10.0,45.7
2021-04-24 05:00:00,42.8,38.3,83.98,0.0,0.0,29.88,10.0,42.8
2021-04-24 06:00:00,43.7,36.5,75.59,290.0,5.0,29.88,10.0,40.29
2021-04-24 07:00:00,42.0,40.0,93.27,0.0,0.0,29.88,10.0,41.9
2021-04-24 08:00:00,37.8,37.4,98.44,0.0,0.0,29.87,4.0,37.8
2021-04-24 09:00:00,35.4,35.4,100.0,0.0,0.0,29.86,1.0,35.4
2021-04-24 10:00:00,35.6,35.6,100.0,0.0,0.0,29.86,0.25,35.6
2021-04-24 11:00:00,35.0,35.0,100.0,0.0,0.0,29.87,0.5,35.1
2021-04-24 12:00:00,40.0,40.0,100.0,0.0,0.0,29.87,4.0,39.9
2021-04-24 13:00:00,42.0,42.0,100.0,290.0,3.0,29.86,10.0,40.01
2021-04-24 14:00:00,44.6,42.0,90.87,0.0,0.0,29.86,10.0,44.6
2021-04-24 15:00:00,45.3,41.7,87.13,0.0,0.0,29.86,10.0,45.3
2021-04-24 16:00:00,45.7,40.6,82.24,220.0,4.0,29.84,10.0,43.42
2021-04-24 17:00:00,47.5,42.8,83.64,230.0,5.0,29.82,10.0,44.8
2021-04-24 18:00:00,46.2,43.2,89.21,250.0,8.0,29.82,5.0,41.61
2021-04-24 19:00:00,43.7,41.7,92.6,300.0,11.0,29.82,7.0,37.25
2021-04-24 20:00:00,39.4,38.0,95.04,330.0,10.0,29.83,10.0,32.25
2021-04-24 21:00:00,38.0,35.6,91.32,340.0,14.0,29.85,10.0,28.77
2021-04-24 22:00:00,37.4,33.0,84.3,340.0,12.0,29.87,10.0,28.87
2021-04-24 23:00:00,36.0,32.0,85.23,340.0,13.0,29.88,10.0,26.69
2021-04-25 00:00:00,33.8,30.9,88.98,350.0,9.0,29.91,10.0,25.75
2021-04-25 01:00:00,33.0,28.2,82.63,350.0,14.0,29.94,10.0,22.32
2021-04-25 02:00:00,32.0,25.3,76.01,350.0,17.0,29.96,10.0,20.08
2021-04-25 03:00:00,31.5,21.9,67.26,330.0,15.0,29.97,10.0,20.13
2021-04-25 04:00:00,30.2,22.1,71.5,340.0,7.0,29.98,10.0,22.59
2021-04-25 05:00:00,29.7,22.1,72.97,340.0,6.0,29.98,10.0,22.76
2021-04-25 06:00:00,27.5,22.8,82.24,320.0,5.0,29.99,10.0,21.05
2021-04-25 07:00:00,26.6,23.4,87.53,310.0,4.0,29.99,10.0,21.11
2021-04-25 08:00:00,25.7,23.7,92.0,310.0,5.0,30.01,10.0,18.91
2021-04-25 09:00:00,25.5,23.7,92.77,330.0,6.0,30.03,10.0,17.7
2021-04-25 10:00:00,24.8,23.5,94.71,330.0,6.0,30.04,10.0,16.86
2021-04-25 11:00:00,27.3,24.8,90.16,0.0,0.0,30.08,10.0,27.3
2021-04-25 12:00:00,29.8,25.3,83.1,0.0,0.0,30.1,10.0,29.8
2021-04-25 13:00:00,32.7,24.4,71.18,360.0,6.0,30.1,10.0,26.37
2021-04-25 14:00:00,36.7,23.0,57.24,10.0,5.0,30.1,10.0,31.98
2021-04-25 15:00:00,38.5,21.2,49.43,330.0,5.0,30.11,10.0,34.11
2021-04-25 16:00:00,38.8,18.7,43.91,280.0,3.0,30.12,10.0,36.46
2021-04-25 17:00:00,42.3,21.2,42.65,340.0,7.0,30.12,10.0,37.33
2021-04-25 18:00:00,43.3,19.6,38.34,350.0,5.0,30.11,10.0,39.82
2021-04-25 19:00:00,44.2,18.7,35.65,0.0,0.0,30.09,10.0,44.2
2021-04-25 20:00:00,45.3,19.8,35.83,110.0,4.0,30.07,10.0,42.95
2021-04-25 21:00:00,44.6,20.1,37.27,280.0,3.0,30.05,10.0,43.09
2021-04-25 22:00:00,44.0,18.7,35.78,0.0,0.0,30.05,10.0,44.1
2021-04-25 23:00:00,44.2,19.2,36.42,110.0,3.0,30.03,10.0,42.64
2021-04-26 00:00:00,43.0,25.9,50.56,110.0,5.0,30.02,10.0,39.46
2021-04-26 01:00:00,40.3,23.7,51.2,120.0,10.0,30.05,10.0,33.38
2021-04-26 02:00:00,37.0,26.2,64.64,130.0,16.0,30.07,10.0,26.94
2021-04-26 03:00:00,35.6,26.1,68.04,120.0,13.0,30.08,10.0,26.18
2021-04-26 04:00:00,34.3,25.2,69.03,130.0,12.0,30.1,10.0,24.93
2021-04-26 05:00:00,33.4,23.9,67.78,110.0,9.0,30.1,10.0,25.25
2021-04-26 06:00:00,33.0,23.5,67.46,110.0,10.0,30.08,10.0,24.35
2021-04-26 07:00:00,31.8,25.0,75.68,100.0,12.0,30.07,5.0,21.75
2021-04-26 08:00:00,29.1,27.7,94.42,100.0,11.0,30.05,1.5,18.8
2021-04-26 09:00:00,29.1,27.5,93.65,110.0,12.0,30.03,10.0,18.31
2021-04-26 10:00:00,29.1,27.9,95.2,100.0,13.0,30.02,10.0,17.85
2021-04-26 11:00:00,29.1,27.7,94.42,100.0,10.0,30.02,10.0,19.33
2021-04-26 12:00:00,30.0,28.4,93.68,100.0,14.0,30.03,10.0,18.58
2021-04-26 13:00:00,30.2,28.8,94.45,110.0,14.0,29.99,10.0,18.84
2021-04-26 14:00:00,31.5,29.8,93.34,100.0,14.0,29.97,10.0,20.52
2021-04-26 15:00:00,31.8,30.9,96.43,110.0,14.0,29.94,7.0,20.9
2021-04-26 16:00:00,33.0,32.5,97.62,110.0,15.0,29.91,7.0,22.21
2021-04-26 17:00:00,35.8,34.3,94.21,100.0,12.0,29.9,10.0,26.84
2021-04-26 18:00:00,39.2,36.0,88.53,110.0,11.0,29.86,10.0,31.57
2021-04-26 19:00:00,39.2,34.3,82.42,100.0,11.0,29.82,10.0,31.57
2021-04-26 20:00:00,39.6,33.8,79.54,110.0,13.0,29.79,10.0,31.3
2021-04-26 21:00:00,38.7,35.4,87.81,90.0,11.0,29.8,10.0,30.93
2021-04-26 22:00:00,37.2,34.7,90.57,90.0,14.0,29.78,10.0,27.87
2021-04-26 23:00:00,35.8,33.8,92.35,80.0,9.0,29.78,10.0,28.24
2021-04-27 00:00:00,35.2,33.0,91.22,90.0,9.0,29.78,10.0,27.49
2021-04-27 01:00:00,36.0,33.0,88.02,50.0,9.0,29.8,10.0,28.61
2021-04-27 02:00:00,37.4,33.3,84.98,60.0,7.0,29.79,10.0,31.36
2021-04-27 03:00:00,36.5,32.5,85.26,70.0,9.0,29.77,10.0,29.11
2021-04-27 04:00:00,35.8,33.0,89.08,70.0,8.0,29.76,10.0,28.79
2021-04-27 05:00:00,35.2,33.0,91.22,70.0,7.0,29.76,10.0,28.68
2021-04-27 06:00:00,33.8,32.4,94.54,40.0,4.0,29.74,10.0,29.52
2021-04-27 07:00:00,33.4,33.0,98.01,40.0,3.0,29.74,10.0,30.29
2021-04-27 08:00:00,33.8,33.3,98.02,40.0,8.0,29.72,10.0,26.33
2021-04-27 09:00:00,33.8,33.4,98.41,40.0,4.0,29.76,10.0,29.52
2021-04-27 10:00:00,34.0,33.4,97.63,70.0,15.0,29.73,5.0,23.37
2021-04-27 11:00:00,34.7,34.2,98.03,350.0,8.0,29.75,10.0,27.44
2021-04-27 12:00:00,36.3,35.4,96.5,90.0,4.0,29.78,10.0,32.44
2021-04-27 13:00:00,38.7,35.8,89.21,50.0,6.0,29.78,10.0,33.6
2021-04-27 14:00:00,42.3,38.5,86.29,40.0,7.0,29.79,10.0,37.33
2021-04-27 15:00:00,44.0,39.2,83.4,360.0,6.0,29.82,10.0,39.86
2021-04-27 16:00:00,47.3,40.6,77.42,20.0,8.0,29.8,10.0,42.96
2021-04-27 17:00:00,52.3,42.0,67.58,110.0,8.0,29.78,10.0,52.3
2021-04-27 18:00:00,53.4,42.3,65.91,120.0,8.0,29.75,10.0,53.4
2021-04-27 19:00:00,54.0,41.0,61.1,110.0,9.0,29.78,10.0,54.1
2021-04-27 20:00:00,53.2,41.5,64.38,110.0,10.0,29.79,10.0,53.2
2021-04-27 21:00:00,50.5,40.0,66.85,100.0,7.0,29.82,10.0,50.5
2021-04-27 22:00:00,48.2,40.5,74.55,130.0,4.0,29.86,10.0,46.34
2021-04-27 23:00:00,45.0,43.7,95.16,110.0,9.0,29.84,10.0,39.68
2021-04-28 00:00:00,45.5,44.6,96.64,10.0,5.0,29.85,5.0,42.43
2021-04-28 01:00:00,44.8,44.0,96.63,40.0,11.0,29.83,7.0,38.64
2021-04-28 02:00:00,44.6,43.7,96.62,30.0,4.0,29.86,10.0,42.13
2021-04-28 03:00:00,44.0,43.0,95.88,30.0,6.0,29.87,10.0,40.1
2021-04-28 04:00:00,43.0,42.0,95.86,30.0,9.0,29.87,7.0,37.19
2021-04-28 05:00:00,42.0,41.2,97.33,0.0,0.0,29.88,10.0,41.9
2021-04-28 06:00:00,41.2,40.3,96.57,30.0,7.0,29.88,10.0,35.99
2021-04-28 07:00:00,39.6,38.3,95.05,20.0,8.0,29.88,10.0,33.48
2021-04-28 08:00:00,38.7,37.4,95.03,10.0,7.0,29.92,10.0,32.95
2021-04-28 09:00:00,38.3,37.2,95.77,350.0,7.0,29.92,10.0,32.46
2021-04-28 10:00:00,37.8,36.5,95.01,20.0,9.0,29.91,10.0,30.73
2021-04-28 11:00:00,38.3,37.0,95.02,10.0,9.0,29.92,10.0,31.35
2021-04-28 12:00:00,39.6,37.6,92.47,20.0,6.0,29.93,10.0,34.68
2021-04-28 13:00:00,40.6,38.0,90.0,360.0,7.0,29.95,10.0,35.26
2021-04-28 14:00:00,43.2,39.0,85.0,20.0,7.0,29.94,10.0,38.43
2021-04-28 15:00:00,48.7,40.5,73.17,50.0,5.0,29.95,10.0,46.23
2021-04-28 16:00:00,52.7,41.5,65.57,20.0,6.0,29.94,10.0,52.7
2021-04-28 17:00:00,56.5,42.8,60.02,340.0,3.0,29.93,10.0,56.5
2021-04-28 18:00:00,59.2,43.2,55.31,30.0,5.0,29.92,10.0,59.2
2021-04-28 19:00:00,61.5,44.6,53.77,20.0,7.0,29.9,10.0,61.5
2021-04-28 20:00:00,60.0,42.0,51.71,0.0,0.0,29.91,10.0,59.9
2021-04-28 21:00:00,60.8,44.0,53.66,330.0,4.0,29.9,10.0,60.8
2021-04-28 22:00:00,60.8,43.5,52.85,320.0,3.0,29.9,10.0,60.8
2021-04-28 23:00:00,59.5,45.3,59.29,0.0,0.0,29.88,10.0,59.5
2021-04-29 00:00:00,56.5,45.3,66.03,30.0,4.0,29.9,10.0,56.5
2021-04-29 01:00:00,52.3,46.2,79.64,140.0,8.0,29.93,10.0,52.3
2021-04-29 02:00:00,51.0,45.0,80.14,130.0,7.0,29.93,10.0,50.9
2021-04-29 03:00:00,47.3,44.0,87.9,110.0,3.0,29.92,10.0,46.18
2021-04-29 04:00:00,44.6,43.0,94.07,110.0,5.0,29.91,10.0,41.36
2021-04-29 05:00:00,44.0,42.3,93.33,110.0,4.0,29.9,10.0,41.55
2021-04-29 06:00:00,42.0,41.5,97.71,140.0,3.0,29.9,10.0,40.23
2021-04-29 07:00:00,42.0,42.0,100.0,0.0,0.0,29.87,10.0,41.9
2021-04-29 08:00:00,43.0,43.0,100.0,0.0,0.0,29.86,10.0,43.0
2021-04-29 09:00:00,43.7,43.0,97.35,0.0,0.0,29.86,10.0,43.7
2021-04-29 10:00:00,42.8,42.4,98.47,0.0,0.0,29.86,10.0,42.8
2021-04-29 11:00:00,43.0,43.0,100.0,0.0,0.0,29.86,10.0,43.0
2021-04-29 12:00:00,46.6,44.2,91.29,210.0,3.0,29.88,10.0,45.38
2021-04-29 13:00:00,50.0,44.6,81.61,240.0,5.0,29.88,10.0,50.0
2021-04-29 14:00:00,54.5,44.8,69.67,310.0,7.0,29.86,10.0,54.5
2021-04-29 15:00:00,58.0,42.4,56.2,310.0,7.0,29.84,10.0,57.9
2021-04-29 16:00:00,60.8,42.0,50.08,270.0,8.0,29.83,10.0,60.8
2021-04-29 17:00:00,60.0,42.0,51.32,280.0,12.0,29.81,10.0,59.9
2021-04-29 18:00:00,51.0,47.0,86.12,320.0,17.0,29.84,10.0,51.1
2021-04-29 19:00:00,53.4,42.8,67.19,320.0,16.0,29.86,10.0,53.4
2021-04-29 20:00:00,50.2,42.4,74.46,330.0,14.0,29.86,10.0,50.2
2021-04-29 21:00:00,53.0,40.6,62.86,310.0,14.0,29.87,10.0,52.9
2021-04-29 22:00:00,53.0,40.6,62.86,310.0,14.0,29.87,10.0,52.9
2021-04-29 23:00:00,53.0,40.6,62.86,310.0,14.0,29.87,10.0,52.9
2021-04-30 00:00:00,53.0,40.6,62.86,310.0,14.0,29.87,10.0,52.9
2021-04-30 01:00:00,53.0,40.6,62.86,310.0,14.0,29.87,10.0,52.9
2021-04-30 02:00:00,53.0,40.6,62.86,310.0,14.0,29.87,10.0,52.9
2021-04-30 03:00:00,43.5,37.0,77.38,0.0,0.0,29.95,10.0,43.5
2021-04-30 04:00:00,40.5,37.2,87.9,220.0,3.0,29.93,10.0,38.41
2021-04-30 05:00:00,43.5,36.3,75.57,300.0,5.0,29.95,10.0,40.05
2021-04-30 06:00:00,42.3,35.8,77.58,350.0,17.0,29.97,10.0,33.57
2021-04-30 07:00:00,40.0,35.0,82.16,340.0,10.0,29.99,10.0,33.13
2021-04-30 08:00:00,38.3,32.5,79.43,340.0,13.0,30.01,10.0,29.64
2021-04-30 09:00:00,36.3,30.6,79.59,340.0,14.0,30.03,10.0,26.7
2021-04-30 10:00:00,34.7,30.2,83.44,340.0,13.0,30.07,10.0,25.03
2021-04-30 11:00:00,35.6,30.2,80.51,340.0,14.0,30.11,10.0,25.8
2021-04-30 12:00:00,37.2,28.8,71.38,340.0,13.0,30.14,10.0,28.23
2021-04-30 13:00:00,39.2,26.4,59.79,350.0,13.0,30.16,10.0,30.79
2021-04-30 14:00:00,41.4,25.2,52.23,350.0,14.0,30.17,10.0,33.28
2021-04-30 15:00:00,44.0,25.7,48.44,350.0,14.0,30.17,10.0,36.5
2021-04-30 16:00:00,45.7,24.1,42.32,320.0,7.0,30.18,10.0,41.48
2021-04-30 17:00:00,48.4,25.0,39.69,300.0,5.0,30.17,10.0,45.87
2021-04-30 18:00:00,51.0,25.9,37.54,360.0,9.0,30.17,10.0,50.9
2021-04-30 19:00:00,52.3,25.9,35.65,290.0,10.0,30.16,10.0,52.3
2021-04-30 20:00:00,53.4,21.7,28.71,320.0,8.0,30.15,10.0,53.4
2021-04-30 21:00:00,54.0,21.7,28.09,280.0,5.0,30.15,10.0,54.0
2021-04-30 22:00:00,53.2,19.2,26.01,290.0,8.0,30.15,10.0,53.2
2021-04-30 23:00:00,51.3,22.5,32.09,290.0,5.0,30.13,10.0,51.3
2021-05-01 00:00:00,46.8,24.6,41.45,0.0,0.0,30.12,10.0,46.8
2021-05-01 01:00:00,43.3,28.4,55.41,0.0,0.0,30.11,10.0,43.3
2021-05-01 02:00:00,41.0,28.2,60.05,0.0,0.0,30.1,10.0,41.0
2021-05-01 03:00:00,39.2,31.6,73.95,0.0,0.0,30.07,10.0,39.2
2021-05-01 04:00:00,38.5,25.3,58.71,160.0,6.0,30.05,10.0,33.36
2021-05-01 05:00:00,39.6,27.5,61.6,190.0,5.0,30.02,10.0,35.42
2021-05-01 06:00:00,41.5,29.3,61.61,170.0,7.0,29.99,10.0,36.36
2021-05-01 07:00:00,42.3,26.4,53.03,180.0,7.0,29.96,10.0,37.33
2021-05-01 08:00:00,41.2,25.7,53.74,170.0,9.0,29.92,10.0,34.95
2021-05-01 09:00:00,42.0,25.7,52.31,180.0,9.0,29.87,10.0,35.82
2021-05-01 10:00:00,42.0,27.0,55.2,170.0,8.0,29.85,10.0,36.31
2021-05-01 11:00:00,43.0,27.1,53.13,180.0,9.0,29.82,10.0,37.19
2021-05-01 12:00:00,42.6,30.6,62.26,150.0,9.0,29.77,10.0,36.69
2021-05-01 13:00:00,46.2,34.0,62.24,170.0,9.0,29.72,10.0,41.17
2021-05-01 14:00:00,49.6,37.4,62.68,180.0,14.0,29.67,10.0,43.85
2021-05-01 15:00:00,57.6,40.8,53.4,190.0,15.0,29.62,10.0,57.6
2021-05-01 16:00:00,61.7,42.8,49.84,220.0,13.0,29.6,10.0,61.7
2021-05-01 17:00:00,65.7,45.0,47.11,220.0,18.0,29.58,10.0,65.7
2021-05-01 18:00:00,70.3,46.0,41.77,240.0,15.0,29.56,10.0,70.3
2021-05-01 19:00:00,73.6,46.4,37.92,240.0,17.0,29.54,10.0,73.6
2021-05-01 20:00:00,76.6,43.7,30.96,270.0,12.0,29.53,10.0,76.6
2021-05-01 21:00:00,78.0,41.0,26.73,280.0,12.0,29.52,10.0,77.9
2021-05-01 22:00:00,77.4,41.5,27.7,270.0,8.0,29.52,10.0,77.4
2021-05-01 23:00:00,74.7,43.3,32.48,260.0,9.0,29.52,10.0,74.7
2021-05-02 00:00:00,68.5,43.0,39.62,230.0,4.0,29.52,10.0,68.5
2021-05-02 01:00:00,62.8,45.0,52.14,210.0,4.0,29.52,10.0,62.8
2021-05-02 02:00:00,57.6,44.0,60.17,190.0,5.0,29.52,10.0,57.6
2021-05-02 03:00:00,59.4,44.2,57.06,190.0,6.0,29.52,10.0,59.4
2021-05-02 04:00:00,62.2,43.7,50.68,200.0,4.0,29.51,10.0,62.2
2021-05-02 05:00:00,56.5,42.6,59.56,90.0,10.0,29.52,10.0,56.5
2021-05-02 06:00:00,55.4,40.3,56.71,100.0,5.0,29.53,10.0,55.4
2021-05-02 07:00:00,54.7,39.0,55.3,80.0,8.0,29.52,10.0,54.7
2021-05-02 08:00:00,53.6,38.3,56.02,360.0,3.0,29.54,10.0,53.6
2021-05-02 09:00:00,52.0,38.0,58.94,80.0,5.0,29.55,10.0,52.0
2021-05-02 10:00:00,51.4,39.4,63.41,90.0,7.0,29.56,10.0,51.4
2021-05-02 11:00:00,52.7,40.0,62.11,80.0,3.0,29.57,10.0,52.7
2021-05-02 12:00:00,55.6,41.5,58.98,90.0,7.0,29.57,10.0,55.6
2021-05-02 13:00:00,59.7,43.2,54.33,80.0,3.0,29.56,10.0,59.7
2021-05-02 14:00:00,62.8,45.0,52.14,0.0,0.0,29.56,10.0,62.8
2021-05-02 15:00:00,65.3,46.6,50.76,0.0,0.0,29.56,10.0,65.3
2021-05-02 16:00:00,66.2,47.3,50.51,120.0,6.0,29.58,10.0,66.2
2021-05-02 17:00:00,65.5,47.7,52.54,110.0,5.0,29.58,10.0,65.5
2021-05-02 18:00:00,66.6,46.6,48.52,0.0,0.0,29.61,10.0,66.6
2021-05-02 19:00:00,65.0,50.5,59.15,0.0,0.0,29.6,10.0,65.1
2021-05-02 20:00:00,66.2,48.2,52.25,70.0,6.0,29.61,10.0,66.2
2021-05-02 21:00:00,67.0,47.3,49.3,50.0,12.0,29.6,10.0,66.9
2021-05-02 22:00:00,62.8,45.0,52.34,50.0,10.0,29.6,10.0,62.8
2021-05-02 23:00:00,61.0,43.5,52.48,60.0,17.0,29.6,10.0,61.0
2021-05-03 00:00:00,59.0,45.0,59.9,60.0,9.0,29.6,10.0,59.0
2021-05-03 01:00:00,56.0,48.2,75.29,90.0,14.0,29.62,10.0,55.9
2021-05-03 02:00:00,52.0,50.2,93.55,130.0,6.0,29.65,10.0,52.0
2021-05-03 03:00:00,50.5,50.0,98.16,110.0,4.0,29.68,7.0,50.5
2021-05-03 04:00:00,50.0,49.3,97.43,90.0,11.0,29.62,10.0,50.0
2021-05-03 05:00:00,50.0,49.3,97.43,80.0,7.0,29.61,10.0,50.0
2021-05-03 06:00:00,50.2,50.0,99.26,90.0,10.0,29.59,10.0,50.2
2021-05-03 07:00:00,50.0,50.0,100.0,80.0,5.0,29.59,7.0,50.0
2021-05-03 08:00:00,50.0,50.0,100.0,80.0,3.0,29.59,1.25,50.0
2021-05-03 09:00:00,50.0,50.0,100.0,70.0,3.0,29.59,0.5,50.0
2021-05-03 10:00:00,49.5,49.5,100.0,60.0,8.0,29.6,1.25,45.67
2021-05-03 11:00:00,49.0,49.0,100.0,50.0,7.0,29.61,4.0,45.62
2021-05-03 12:00:00,48.6,48.6,100.0,40.0,13.0,29.58,7.0,42.84
2021-05-03 13:00:00,48.6,48.6,100.0,60.0,5.0,29.6,10.0,46.11
2021-05-03 14:00:00,49.6,49.3,98.89,90.0,8.0,29.59,10.0,45.79
2021-05-03 15:00:00,50.2,49.0,95.98,80.0,5.0,29.6,10.0,50.2
2021-05-03 16:00:00,50.4,49.6,97.07,0.0,0.0,29.62,7.0,50.4
2021-05-03 17:00:00,50.5,50.0,98.16,10.0,6.0,29.62,5.0,50.5
2021-05-03 18:00:00,50.5,50.5,100.0,20.0,6.0,29.62,10.0,50.5
2021-05-03 19:00:00,52.2,50.4,93.56,20.0,5.0,29.62,10.0,52.2
2021-05-03 20:00:00,53.0,50.5,90.85,360.0,8.0,29.62,10.0,53.1
2021-05-03 21:00:00,52.2,50.4,93.56,10.0,7.0,29.63,10.0,52.2
2021-05-03 22:00:00,52.7,50.7,92.88,360.0,7.0,29.64,10.0,52.7
2021-05-03 23:00:00,52.0,50.0,92.86,360.0,5.0,29.66,10.0,52.0
2021-05-04 00:00:00,51.6,50.2,94.95,10.0,6.0,29.67,10.0,51.6
2021-05-04 01:00:00,51.0,50.2,97.44,20.0,6.0,29.69,10.0,50.9
2021-05-04 02:00:00,50.0,50.0,100.0,340.0,10.0,29.71,5.0,50.0
2021-05-04 03:00:00,46.0,45.7,99.25,320.0,12.0,29.73,4.0,39.69
2021-05-04 04:00:00,43.3,43.0,98.86,320.0,13.0,29.75,10.0,36.05
2021-05-04 05:00:00,43.3,43.0,98.86,320.0,13.0,29.75,10.0,36.05
2021-05-04 06:00:00,41.5,40.3,95.46,310.0,11.0,29.75,10.0,34.47
2021-05-04 07:00:00,41.0,39.6,94.71,330.0,13.0,29.75,10.0,33.1
2021-05-04 08:00:00,41.0,38.3,90.02,330.0,12.0,29.76,10.0,33.46
2021-05-04 09:00:00,40.3,38.8,94.32,310.0,9.0,29.79,10.0,33.83
2021-05-04 10:00:00,39.7,37.4,91.39,310.0,13.0,29.81,10.0,31.43
2021-05-04 11:00:00,39.6,37.0,89.96,310.0,11.0,29.83,10.0,32.07
2021-05-04 12:00:00,40.6,37.0,86.87,310.0,9.0,29.85,10.0,34.21
2021-05-04 13:00:00,40.6,36.5,85.17,310.0,12.0,29.86,10.0,32.95
2021-05-04 14:00:00,41.7,37.0,82.93,320.0,12.0,29.85,10.0,34.35
2021-05-04 15:00:00,43.0,36.7,78.26,320.0,12.0,29.86,10.0,36.0
2021-05-04 16:00:00,44.4,36.0,72.44,320.0,12.0,29.88,10.0,37.78
2021-05-04 17:00:00,47.0,36.7,66.96,340.0,11.0,29.88,10.0,41.55
2021-05-04 18:00:00,47.8,36.0,63.7,340.0,13.0,29.88,10.0,41.81
2021-05-04 19:00:00,47.0,35.4,64.09,330.0,16.0,29.9,10.0,39.84
2021-05-04 20:00:00,46.8,34.2,61.33,340.0,15.0,29.91,10.0,39.97
2021-05-04 21:00:00,46.4,33.4,60.3,350.0,13.0,29.92,10.0,40.02
2021-05-04 22:00:00,46.8,32.4,57.06,330.0,10.0,29.93,10.0,41.53
2021-05-04 23:00:00,45.5,32.0,58.98,340.0,10.0,29.93,10.0,39.9
2021-05-05 00:00:00,43.5,32.0,63.65,340.0,9.0,29.92,10.0,37.81
2021-05-05 01:00:00,41.2,31.6,68.43,340.0,6.0,29.95,10.0,36.61
2021-05-05 02:00:00,39.6,31.8,73.4,310.0,3.0,29.98,10.0,37.38
2021-05-05 03:00:00,36.5,31.8,82.89,320.0,4.0,30.0,10.0,32.68
2021-05-05 04:00:00,34.7,30.9,85.84,330.0,5.0,30.01,10.0,29.6
2021-05-05 05:00:00,34.0,31.6,90.81,340.0,3.0,30.02,10.0,30.97
2021-05-05 06:00:00,33.8,31.8,92.28,330.0,6.0,30.02,10.0,27.7
2021-05-05 07:00:00,32.5,31.1,94.51,320.0,4.0,30.02,10.0,28.0
2021-05-05 08:00:00,32.0,30.9,95.65,320.0,4.0,30.02,10.0,27.42
2021-05-05 09:00:00,31.1,30.2,96.42,320.0,4.0,30.04,10.0,26.37
2021-05-05 10:00:00,30.9,30.2,97.2,310.0,3.0,30.05,10.0,27.43
2021-05-05 11:00:00,33.6,32.0,93.78,330.0,4.0,30.08,10.0,29.29
2021-05-05 12:00:00,38.5,32.7,79.45,320.0,3.0,30.1,10.0,36.12
2021-05-05 13:00:00,43.5,32.7,65.47,330.0,9.0,30.1,10.0,37.81
2021-05-05 14:00:00,45.0,32.5,61.1,330.0,9.0,30.1,10.0,39.8
2021-05-05 15:00:00,47.0,32.7,57.54,350.0,5.0,30.11,10.0,44.09
2021-05-05 16:00:00,49.0,32.4,52.34,290.0,5.0,30.12,10.0,46.7
2021-05-05 17:00:00,51.0,30.6,45.52,330.0,7.0,30.1,10.0,50.9
2021-05-05 18:00:00,50.5,25.5,37.47,350.0,3.0,30.09,10.0,50.5
2021-05-05 19:00:00,53.4,28.4,37.95,340.0,6.0,30.09,10.0,53.4
2021-05-05 20:00:00,55.0,28.0,35.21,310.0,7.0,30.08,10.0,55.0
2021-05-05 21:00:00,55.0,26.1,32.68,330.0,8.0,30.08,10.0,54.9
2021-05-05 22:00:00,55.2,26.4,32.73,360.0,8.0,30.08,10.0,55.2
2021-05-05 23:00:00,52.5,26.4,36.12,340.0,3.0,30.08,10.0,52.5
2021-05-06 00:00:00,50.2,30.9,47.29,10.0,3.0,30.08,10.0,50.2
2021-05-06 01:00:00,50.0,26.6,39.95,360.0,6.0,30.1,10.0,50.0
2021-05-06 02:00:00,49.8,25.5,38.46,10.0,5.0,30.11,10.0,47.53
2021-05-06 03:00:00,47.3,28.6,47.99,340.0,8.0,30.12,10.0,42.96
2021-05-06 04:00:00,45.3,29.3,53.26,50.0,7.0,30.11,10.0,40.99
2021-05-06 05:00:00,44.0,27.3,51.76,30.0,3.0,30.11,10.0,42.29
2021-05-06 06:00:00,42.0,30.9,64.74,350.0,5.0,30.11,10.0,38.15
2021-05-06 07:00:00,40.8,30.2,65.66,100.0,3.0,30.1,10.0,38.75
2021-05-06 08:00:00,39.4,31.8,73.97,0.0,0.0,30.1,10.0,39.4
2021-05-06 09:00:00,36.5,32.2,84.24,0.0,0.0,30.1,10.0,36.5
2021-05-06 10:00:00,34.0,31.5,90.44,0.0,0.0,30.1,10.0,34.0
2021-05-06 11:00:00,38.3,34.0,84.36,0.0,0.0,30.11,10.0,38.3
2021-05-06 12:00:00,45.0,30.9,57.5,290.0,8.0,30.12,10.0,40.13
2021-05-06 13:00:00,48.2,27.5,44.35,300.0,8.0,30.12,10.0,44.07
2021-05-06 14:00:00,50.4,26.4,39.04,310.0,11.0,30.1,10.0,50.4
2021-05-06 15:00:00,50.5,25.2,37.01,340.0,10.0,30.09,10.0,50.5
2021-05-06 16:00:00,51.0,25.5,36.92,310.0,8.0,30.08,10.0,50.9
2021-05-06 17:00:00,51.6,24.6,34.65,320.0,10.0,30.07,10.0,51.6
2021-05-06 18:00:00,53.0,24.8,33.07,320.0,7.0,30.04,10.0,53.1
2021-05-06 19:00:00,52.5,23.2,31.61,310.0,9.0,30.03,10.0,52.5
2021-05-06 20:00:00,54.5,26.1,33.16,330.0,9.0,30.02,10.0,54.5
2021-05-06 21:00:00,52.5,25.0,34.09,320.0,12.0,30.02,10.0,52.5
2021-05-06 22:00:00,51.6,24.8,34.94,340.0,10.0,30.02,10.0,51.6
2021-05-06 23:00:00,50.5,23.4,34.33,330.0,6.0,30.01,10.0,50.5
2021-05-07 00:00:00,47.3,25.9,42.94,0.0,0.0,30.0,10.0,47.3
2021-05-07 01:00:00,41.2,32.2,70.1,160.0,3.0,29.99,10.0,39.21
2021-05-07 02:00:00,39.2,32.0,75.16,0.0,0.0,29.98,10.0,39.2
2021-05-07 03:00:00,44.0,26.1,48.88,0.0,0.0,29.96,10.0,44.1
2021-05-07 04:00:00,42.0,32.7,69.08,280.0,7.0,29.96,10.0,37.09
2021-05-07 05:00:00,39.2,36.0,88.18,320.0,9.0,29.98,7.0,32.47
2021-05-07 06:00:00,37.0,35.4,93.87,330.0,5.0,29.96,7.0,32.33
2021-05-07 07:00:00,36.5,35.4,95.74,270.0,4.0,29.95,10.0,32.68
2021-05-07 08:00:00,35.0,35.0,99.21,290.0,8.0,29.95,10.0,27.93
2021-05-07 09:00:00,35.2,32.2,88.69,320.0,8.0,29.95,10.0,28.05
2021-05-07 10:00:00,35.0,33.0,92.32,310.0,8.0,29.95,10.0,27.69
2021-05-07 11:00:00,35.0,33.3,93.07,320.0,9.0,29.97,10.0,27.37
2021-05-07 12:00:00,36.5,32.0,83.56,340.0,12.0,29.98,10.0,27.73
2021-05-07 13:00:00,39.0,31.1,73.04,340.0,14.0,30.0,10.0,30.19
2021-05-07 14:00:00,42.4,31.3,64.54,330.0,15.0,30.0,10.0,34.26
2021-05-07 15:00:00,42.4,28.4,57.36,330.0,12.0,30.01,10.0,35.24
2021-05-07 16:00:00,44.0,29.3,55.75,350.0,12.0,30.02,10.0,37.4
2021-05-07 17:00:00,44.6,29.7,55.6,340.0,16.0,30.02,10.0,36.84
2021-05-07 18:00:00,45.7,30.4,54.86,360.0,9.0,30.03,10.0,40.55
2021-05-07 19:00:00,44.6,28.2,52.29,320.0,15.0,30.04,10.0,37.11
2021-05-07 20:00:00,45.5,28.2,50.53,320.0,11.0,30.04,10.0,39.53
2021-05-07 21:00:00,43.7,26.6,50.67,350.0,15.0,30.06,10.0,35.95
2021-05-07 22:00:00,42.0,24.1,48.94,340.0,11.0,30.07,10.0,34.98
2021-05-07 23:00:00,42.0,25.3,51.05,320.0,9.0,30.06,10.0,36.07
2021-05-08 00:00:00,40.3,23.9,51.63,340.0,9.0,30.07,10.0,33.83
2021-05-08 01:00:00,39.0,24.6,55.92,350.0,11.0,30.08,10.0,31.31
2021-05-08 02:00:00,37.8,23.7,56.45,340.0,9.0,30.09,10.0,30.73
2021-05-08 03:00:00,33.6,24.8,69.81,330.0,3.0,30.1,10.0,30.52
2021-05-08 04:00:00,32.7,24.3,70.88,0.0,0.0,30.1,10.0,32.7
2021-05-08 05:00:00,30.0,25.9,84.5,0.0,0.0,30.1,10.0,30.0
2021-05-08 06:00:00,28.4,24.8,86.18,0.0,0.0,30.1,10.0,28.4
2021-05-08 07:00:00,27.0,25.5,93.98,0.0,0.0,30.1,10.0,27.0
2021-05-08 08:00:00,27.1,25.9,95.16,0.0,0.0,30.1,10.0,27.1
2021-05-08 09:00:00,27.0,25.7,94.76,0.0,0.0,30.1,10.0,27.0
2021-05-08 10:00:00,25.3,25.2,99.59,0.0,0.0,30.12,10.0,25.3
2021-05-08 11:00:00,30.7,28.6,91.8,0.0,0.0,30.13,10.0,30.7
2021-05-08 12:00:00,34.2,28.8,80.4,0.0,0.0,30.13,10.0,34.2
2021-05-08 13:00:00,41.7,28.8,59.9,0.0,0.0,30.12,10.0,41.7
2021-05-08 14:00:00,45.5,27.5,49.1,310.0,3.0,30.1,10.0,44.12
2021-05-08 15:00:00,48.2,30.0,49.12,250.0,6.0,30.1,10.0,45.04
2021-05-08 16:00:00,49.3,28.2,43.8,240.0,4.0,30.09,10.0,47.62
2021-05-08 17:00:00,52.2,30.6,43.38,200.0,5.0,30.06,10.0,52.2
2021-05-08 18:00:00,51.3,27.9,40.17,280.0,5.0,30.04,10.0,51.3
2021-05-08 19:00:00,53.0,27.7,37.56,240.0,7.0,30.03,10.0,52.9
2021-05-08 20:00:00,53.6,28.2,37.36,320.0,7.0,30.02,10.0,53.6
2021-05-08 21:00:00,51.8,25.7,36.01,190.0,3.0,30.01,10.0,51.8
2021-05-08 22:00:00,51.8,25.7,36.01,190.0,3.0,30.01,10.0,51.8
2021-05-08 23:00:00,53.0,28.0,38.02,170.0,5.0,29.98,10.0,52.9
2021-05-09 00:00:00,49.5,30.7,48.14,230.0,5.0,29.98,10.0,47.18
2021-05-09 01:00:00,46.4,32.4,57.93,0.0,0.0,29.99,10.0,46.4
2021-05-09 02:00:00,44.4,32.4,62.5,0.0,0.0,30.01,10.0,44.4
2021-05-09 03:00:00,40.5,32.2,72.03,150.0,11.0,30.02,10.0,33.21
2021-05-09 04:00:00,40.8,30.4,66.2,200.0,6.0,30.02,10.0,36.13
2021-05-09 05:00:00,37.6,30.2,74.4,210.0,4.0,30.01,10.0,33.96
2021-05-09 06:00:00,34.2,29.1,81.39,0.0,0.0,30.01,10.0,34.2
2021-05-09 07:00:00,33.3,28.4,81.99,0.0,0.0,30.01,10.0,33.3
2021-05-09 08:00:00,31.8,29.3,90.35,0.0,0.0,29.98,10.0,31.8
2021-05-09 09:00:00,31.3,29.3,92.2,0.0,0.0,29.96,10.0,31.3
2021-05-09 10:00:00,31.3,29.8,94.09,0.0,0.0,29.96,10.0,31.3
2021-05-09 11:00:00,34.2,32.7,94.17,50.0,3.0,29.99,10.0,31.2
2021-05-09 12:00:00,39.7,33.4,77.97,80.0,4.0,29.99,10.0,36.41
2021-05-09 13:00:00,43.7,33.0,66.02,120.0,3.0,29.98,10.0,42.06
2021-05-09 14:00:00,45.7,32.5,59.72,130.0,5.0,29.98,10.0,42.67
2021-05-09 15:00:00,47.8,32.5,55.17,10.0,4.0,29.98,10.0,45.87
2021-05-09 16:00:00,49.0,31.6,50.68,0.0,0.0,29.98,10.0,49.1
2021-05-09 17:00:00,51.8,32.0,46.59,360.0,3.0,29.97,10.0,51.8
2021-05-09 18:00:00,51.6,30.2,43.64,90.0,3.0,29.96,10.0,51.6
2021-05-09 19:00:00,53.8,30.2,40.25,10.0,5.0,29.96,10.0,53.8
2021-05-09 20:00:00,51.4,27.9,40.02,10.0,6.0,29.97,10.0,51.4
2021-05-09 21:00:00,51.0,28.0,40.93,10.0,13.0,29.98,10.0,50.9
2021-05-09 22:00:00,49.6,27.3,41.74,360.0,10.0,30.0,10.0,45.04
2021-05-09 23:00:00,47.7,27.3,44.82,20.0,9.0,30.02,10.0,43.04
2021-05-10 00:00:00,45.5,27.1,48.3,30.0,8.0,30.05,10.0,40.74
2021-05-10 01:00:00,43.7,23.9,45.29,10.0,12.0,30.08,10.0,36.89
2021-05-10 02:00:00,41.5,23.5,48.47,10.0,9.0,30.1,10.0,35.33
2021-05-10 03:00:00,40.0,24.6,53.99,360.0,6.0,30.1,10.0,35.04
2021-05-10 04:00:00,39.0,25.2,57.34,20.0,5.0,30.11,10.0,34.71
2021-05-10 05:00:00,38.3,25.3,59.17,40.0,7.0,30.12,10.0,32.46
2021-05-10 06:00:00,35.4,26.4,69.44,40.0,4.0,30.12,10.0,31.39
2021-05-10 07:00:00,33.4,24.3,68.92,30.0,6.0,30.11,10.0,27.22
2021-05-10 08:00:00,32.7,24.8,72.38,10.0,6.0,30.12,10.0,26.37
2021-05-10 09:00:00,30.6,25.2,80.1,350.0,3.0,30.14,10.0,27.09
2021-05-10 10:00:00,29.8,24.8,81.39,0.0,0.0,30.15,10.0,29.8
2021-05-10 11:00:00,32.5,27.5,81.59,360.0,3.0,30.16,10.0,29.26
2021-05-10 12:00:00,36.3,28.2,72.17,350.0,7.0,30.17,10.0,30.02
2021-05-10 13:00:00,40.0,27.9,61.9,360.0,6.0,30.17,10.0,35.04
2021-05-10 14:00:00,42.3,27.1,54.58,350.0,7.0,30.17,10.0,37.33
2021-05-10 15:00:00,43.2,23.0,44.45,350.0,11.0,30.17,10.0,36.62
2021-05-10 16:00:00,42.0,25.9,52.75,360.0,8.0,30.18,10.0,36.31
2021-05-10 17:00:00,44.4,24.6,45.4,10.0,9.0,30.17,10.0,38.93
2021-05-10 18:00:00,47.8,25.3,41.1,20.0,10.0,30.17,10.0,42.78
2021-05-10 19:00:00,46.4,24.3,41.56,350.0,10.0,30.17,10.0,41.03
2021-05-10 20:00:00,45.7,24.3,42.68,360.0,10.0,30.17,10.0,40.15
2021-05-10 21:00:00,45.0,25.0,45.12,330.0,10.0,30.17,10.0,39.27
2021-05-10 22:00:00,44.6,24.8,45.44,330.0,11.0,30.18,10.0,38.39
2021-05-10 23:00:00,44.2,24.1,44.8,340.0,11.0,30.19,10.0,37.88
2021-05-11 00:00:00,40.0,24.1,52.47,350.0,7.0,30.21,10.0,34.65
2021-05-11 01:00:00,39.4,25.5,57.16,350.0,5.0,30.22,10.0,35.18
2021-05-11 02:00:00,36.0,24.8,63.2,360.0,6.0,30.24,10.0,30.47
2021-05-11 03:00:00,34.0,24.4,67.57,350.0,4.0,30.25,10.0,29.76
2021-05-11 04:00:00,31.5,24.3,74.39,360.0,5.0,30.26,10.0,25.8
2021-05-11 05:00:00,31.1,23.9,74.35,340.0,4.0,30.27,10.0,26.37
2021-05-11 06:00:00,30.6,23.9,75.88,330.0,3.0,30.28,10.0,27.09
2021-05-11 07:00:00,28.2,24.1,84.38,0.0,0.0,30.28,10.0,28.2
2021-05-11 08:00:00,27.3,24.6,89.41,290.0,4.0,30.29,10.0,21.93
2021-05-11 09:00:00,28.4,25.7,89.46,300.0,5.0,30.29,10.0,22.12
2021-05-11 10:00:00,28.2,25.2,88.34,300.0,3.0,30.31,10.0,24.34
2021-05-11 11:00:00,32.7,27.5,80.94,290.0,4.0,30.33,10.0,28.24
2021-05-11 12:00:00,37.6,28.8,70.27,310.0,6.0,30.35,10.0,32.27
2021-05-11 13:00:00,42.6,28.8,57.86,10.0,9.0,30.36,10.0,36.69
2021-05-11 14:00:00,45.0,27.0,48.84,350.0,10.0,30.37,10.0,39.4
2021-05-11 15:00:00,47.0,27.3,46.19,10.0,11.0,30.36,10.0,41.3
2021-05-11 16:00:00,47.5,26.1,42.97,330.0,13.0,30.36,10.0,41.43
2021-05-11 17:00:00,48.2,26.1,41.86,350.0,7.0,30.36,10.0,44.53
2021-05-11 18:00:00,49.5,25.9,39.54,360.0,7.0,30.34,10.0,46.11
2021-05-11 19:00:00,51.8,26.6,37.38,330.0,8.0,30.32,10.0,51.8
2021-05-11 20:00:00,52.5,25.9,35.38,350.0,9.0,30.31,10.0,52.5
2021-05-11 21:00:00,53.4,25.0,32.98,330.0,8.0,30.31,10.0,53.4
2021-05-11 22:00:00,52.7,25.0,33.84,10.0,7.0,30.32,10.0,52.7
2021-05-11 23:00:00,52.0,24.3,33.72,360.0,4.0,30.33,10.0,52.0
2021-05-12 00:00:00,48.0,26.4,42.7,40.0,4.0,30.35,10.0,46.1
2021-05-12 01:00:00,42.6,32.0,65.89,0.0,0.0,30.37,10.0,42.6
2021-05-12 02:00:00,38.0,29.3,70.88,0.0,0.0,30.39,10.0,37.9
2021-05-12 03:00:00,35.8,29.5,77.63,0.0,0.0,30.4,10.0,35.8
2021-05-12 04:00:00,32.7,29.5,87.85,0.0,0.0,30.4,10.0,32.7
2021-05-12 05:00:00,32.7,29.7,88.57,0.0,0.0,30.39,10.0,32.7
2021-05-12 06:00:00,30.9,28.0,88.84,0.0,0.0,30.39,10.0,30.9
2021-05-12 07:00:00,30.0,27.0,88.44,0.0,0.0,30.39,10.0,30.0
2021-05-12 08:00:00,28.4,26.4,92.09,0.0,0.0,30.4,10.0,28.4
2021-05-12 09:00:00,27.5,25.7,92.83,0.0,0.0,30.41,10.0,27.5
2021-05-12 10:00:00,27.7,26.2,94.0,0.0,0.0,30.42,10.0,27.7
2021-05-12 11:00:00,32.5,27.3,80.92,0.0,0.0,30.44,10.0,32.5
2021-05-12 12:00:00,42.0,32.4,68.78,0.0,0.0,30.46,10.0,41.9
2021-05-12 13:00:00,50.2,24.1,35.74,0.0,0.0,30.46,10.0,50.2
2021-05-12 14:00:00,52.3,23.5,32.25,0.0,0.0,30.46,10.0,52.3
2021-05-12 15:00:00,55.0,24.3,30.32,310.0,5.0,30.45,10.0,54.9
2021-05-12 16:00:00,56.3,21.2,25.29,0.0,0.0,30.44,10.0,56.3
2021-05-12 17:00:00,58.0,21.6,24.11,20.0,7.0,30.42,10.0,58.1
2021-05-12 18:00:00,59.2,21.0,22.6,0.0,0.0,30.4,10.0,59.2
2021-05-12 19:00:00,60.0,20.8,21.7,120.0,3.0,30.39,10.0,60.1
2021-05-12 20:00:00,62.0,26.1,25.42,0.0,0.0,30.38,10.0,61.9
2021-05-12 21:00:00,62.2,24.1,23.15,200.0,7.0,30.36,10.0,62.2
2021-05-12 22:00:00,61.0,20.3,20.57,0.0,0.0,30.36,10.0,61.0
2021-05-12 23:00:00,60.0,22.6,23.41,170.0,5.0,30.35,10.0,60.1
2021-05-13 00:00:00,52.2,27.9,38.85,0.0,0.0,30.35,10.0,52.2
2021-05-13 01:00:00,47.7,32.2,54.72,0.0,0.0,30.36,10.0,47.7
2021-05-13 02:00:00,46.0,31.5,56.72,110.0,6.0,30.37,10.0,42.39
2021-05-13 03:00:00,43.0,32.0,64.88,150.0,3.0,30.37,10.0,41.26
2021-05-13 04:00:00,44.0,32.2,62.71,170.0,4.0,30.37,10.0,41.55
2021-05-13 05:00:00,43.5,31.6,62.63,0.0,0.0,30.37,10.0,43.5
2021-05-13 06:00:00,42.0,31.3,65.8,0.0,0.0,30.37,10.0,41.9
2021-05-13 07:00:00,36.0,31.3,82.86,0.0,0.0,30.36,10.0,36.0
2021-05-13 08:00:00,36.0,32.0,84.89,0.0,0.0,30.36,10.0,36.1
2021-05-13 09:00:00,34.0,30.9,88.27,0.0,0.0,30.37,10.0,34.0
2021-05-13 10:00:00,34.0,31.8,91.55,0.0,0.0,30.37,10.0,34.0
2021-05-13 11:00:00,40.0,35.0,82.14,0.0,0.0,30.38,10.0,39.9
2021-05-13 12:00:00,49.6,34.2,55.22,0.0,0.0,30.38,10.0,49.6
2021-05-13 13:00:00,57.4,33.0,39.71,300.0,4.0,30.38,10.0,57.4
2021-05-13 14:00:00,62.0,30.6,30.57,280.0,7.0,30.36,10.0,61.9
2021-05-13 15:00:00,64.0,30.4,28.17,230.0,8.0,30.36,10.0,64.0
2021-05-13 16:00:00,65.5,28.8,25.04,180.0,5.0,30.34,10.0,65.5
2021-05-13 17:00:00,64.4,27.7,24.87,210.0,7.0,30.32,10.0,64.4
2021-05-13 18:00:00,63.0,27.7,26.12,240.0,6.0,30.31,10.0,63.0
2021-05-13 19:00:00,64.0,28.4,26.05,270.0,6.0,30.3,10.0,63.9
2021-05-13 20:00:00,64.0,27.1,24.69,220.0,5.0,30.28,10.0,63.9
2021-05-13 21:00:00,62.4,27.7,26.68,230.0,9.0,30.27,10.0,62.4
2021-05-13 22:00:00,62.6,29.5,28.52,220.0,7.0,30.27,10.0,62.6
2021-05-13 23:00:00,59.0,31.1,34.59,220.0,6.0,30.26,10.0,59.0
2021-05-14 00:00:00,57.0,32.0,38.54,230.0,3.0,30.26,10.0,57.0
2021-05-14 01:00:00,52.7,33.3,47.49,0.0,0.0,30.26,10.0,52.7
2021-05-14 02:00:00,48.4,33.3,55.71,210.0,4.0,30.27,10.0,46.57
2021-05-14 03:00:00,46.6,31.8,56.12,240.0,4.0,30.27,10.0,44.47
2021-05-14 04:00:00,44.8,33.8,65.11,0.0,0.0,30.27,10.0,44.8
2021-05-14 05:00:00,39.6,32.4,75.2,0.0,0.0,30.27,10.0,39.6
2021-05-14 06:00:00,38.3,32.7,80.07,0.0,0.0,30.27,10.0,38.3
2021-05-14 07:00:00,37.2,33.0,84.28,0.0,0.0,30.28,10.0,37.2
2021-05-14 08:00:00,36.7,32.2,83.58,0.0,0.0,30.28,10.0,36.7
2021-05-14 09:00:00,35.8,32.4,87.3,0.0,0.0,30.29,10.0,35.8
2021-05-14 10:00:00,35.0,32.0,89.03,0.0,0.0,30.29,10.0,34.9
2021-05-14 11:00:00,41.4,36.7,83.23,0.0,0.0,30.29,10.0,41.4
2021-05-14 12:00:00,51.6,36.5,56.17,0.0,0.0,30.29,10.0,51.6
2021-05-14 13:00:00,57.7,34.0,40.72,280.0,7.0,30.29,10.0,57.7
2021-05-14 14:00:00,61.7,34.0,35.31,270.0,6.0,30.29,10.0,61.7
2021-05-14 15:00:00,64.0,32.4,30.54,230.0,9.0,30.27,10.0,64.0
2021-05-14 16:00:00,64.2,31.5,29.24,200.0,10.0,30.27,10.0,64.2
2021-05-14 17:00:00,64.4,31.6,29.16,240.0,9.0,30.24,10.0,64.4
2021-05-14 18:00:00,64.6,33.0,30.51,210.0,8.0,30.23,10.0,64.6
2021-05-14 19:00:00,63.0,30.6,29.41,180.0,7.0,30.22,10.0,63.0
2021-05-14 20:00:00,64.6,30.2,27.36,240.0,9.0,30.2,10.0,64.6
2021-05-14 21:00:00,65.0,30.6,27.33,230.0,9.0,30.19,10.0,65.1
2021-05-14 22:00:00,63.0,30.7,29.43,200.0,7.0,30.18,10.0,63.1
2021-05-14 23:00:00,62.8,30.7,29.74,220.0,10.0,30.17,10.0,62.8
2021-05-15 00:00:00,58.0,32.0,37.31,230.0,6.0,30.17,10.0,57.9
2021-05-15 01:00:00,52.7,32.0,45.07,210.0,3.0,30.18,10.0,52.7
2021-05-15 02:00:00,49.5,34.7,56.54,0.0,0.0,30.19,10.0,49.5
2021-05-15 03:00:00,48.0,31.3,52.17,0.0,0.0,30.2,10.0,48.0
2021-05-15 04:00:00,44.0,37.2,77.11,0.0,0.0,30.19,10.0,43.9
2021-05-15 05:00:00,43.5,36.5,76.17,0.0,0.0,30.19,10.0,43.5
2021-05-15 06:00:00,43.7,39.2,84.04,0.0,0.0,30.2,10.0,43.7
2021-05-15 07:00:00,44.6,39.2,81.2,0.0,0.0,30.19,10.0,44.6
2021-05-15 08:00:00,46.0,39.2,77.29,60.0,5.0,30.17,10.0,42.9
2021-05-15 09:00:00,47.0,39.7,75.89,0.0,0.0,30.17,10.0,46.9
2021-05-15 10:00:00,49.0,39.0,68.51,170.0,3.0,30.18,10.0,48.01
2021-05-15 11:00:00,49.0,40.8,73.47,220.0,5.0,30.19,10.0,46.47
2021-05-15 12:00:00,49.6,42.0,74.69,90.0,6.0,30.18,10.0,46.73
2021-05-15 13:00:00,52.7,41.4,65.32,110.0,8.0,30.17,10.0,52.7
2021-05-15 14:00:00,56.0,40.0,55.26,140.0,13.0,30.18,10.0,55.9
2021-05-15 15:00:00,59.2,43.3,55.52,180.0,16.0,30.18,10.0,59.2
2021-05-15 16:00:00,57.0,42.0,56.94,170.0,11.0,30.18,10.0,57.0
2021-05-15 17:00:00,52.2,44.8,75.8,160.0,6.0,30.18,10.0,52.2
2021-05-15 18:00:00,54.0,45.7,73.42,140.0,7.0,30.16,10.0,54.0
2021-05-15 19:00:00,51.0,45.7,81.69,130.0,5.0,30.16,10.0,51.1
2021-05-15 20:00:00,50.7,46.4,85.13,90.0,6.0,30.15,10.0,50.7
2021-05-15 21:00:00,50.2,46.0,85.1,70.0,4.0,30.14,10.0,50.2
2021-05-15 22:00:00,49.0,47.7,94.89,70.0,5.0,30.13,10.0,46.7
2021-05-15 23:00:00,49.5,47.5,92.78,0.0,0.0,30.12,10.0,49.5
2021-05-16 00:00:00,49.5,47.8,93.84,100.0,4.0,30.12,10.0,47.86
2021-05-16 01:00:00,49.0,48.2,96.69,70.0,3.0,30.12,10.0,48.24
2021-05-16 02:00:00,48.2,47.5,97.41,0.0,0.0,30.14,10.0,48.2
2021-05-16 03:00:00,48.7,46.0,90.34,0.0,0.0,30.14,10.0,48.7
2021-05-16 04:00:00,48.6,46.6,92.76,60.0,3.0,30.14,10.0,47.67
2021-05-16 05:00:00,47.8,46.0,93.44,110.0,3.0,30.14,10.0,46.75
2021-05-16 06:00:00,45.5,45.0,98.12,0.0,0.0,30.14,10.0,45.5
2021-05-16 07:00:00,43.7,43.7,100.0,0.0,0.0,30.14,3.0,43.7
2021-05-16 08:00:00,43.7,43.7,100.0,60.0,3.0,30.15,7.0,42.06
2021-05-16 09:00:00,45.7,45.7,100.0,0.0,0.0,30.16,5.0,45.7
2021-05-16 10:00:00,47.0,47.0,100.0,110.0,4.0,30.16,4.0,45.05
2021-05-16 11:00:00,48.4,48.4,100.0,0.0,0.0,30.17,3.0,48.4
2021-05-16 12:00:00,50.4,48.7,93.86,210.0,3.0,30.18,7.0,50.4
2021-05-16 13:00:00,54.5,49.3,82.54,0.0,0.0,30.2,10.0,54.5
2021-05-16 14:00:00,57.2,49.5,75.41,120.0,3.0,30.18,10.0,57.2
2021-05-16 15:00:00,57.4,46.8,67.66,0.0,0.0,30.17,10.0,57.4
2021-05-16 16:00:00,60.0,47.5,63.51,170.0,3.0,30.18,10.0,59.9
2021-05-16 17:00:00,61.3,47.8,61.12,100.0,4.0,30.17,10.0,61.3
2021-05-16 18:00:00,64.6,47.7,54.21,0.0,0.0,30.15,10.0,64.6
2021-05-16 19:00:00,66.2,47.0,50.13,160.0,6.0,30.13,10.0,66.2
2021-05-16 20:00:00,67.0,46.0,46.76,200.0,6.0,30.12,10.0,66.9
2021-05-16 21:00:00,68.0,45.5,44.34,180.0,3.0,30.1,10.0,68.0
2021-05-16 22:00:00,67.3,45.0,44.57,210.0,5.0,30.11,10.0,67.3
2021-05-16 23:00:00,66.0,46.2,48.8,170.0,5.0,30.1,10.0,66.0
2021-05-17 00:00:00,61.7,46.6,57.59,160.0,6.0,30.11,10.0,61.7
2021-05-17 01:00:00,56.0,46.8,71.42,140.0,7.0,30.13,10.0,55.9
2021-05-17 02:00:00,55.4,49.5,80.48,150.0,9.0,30.15,10.0,55.4
2021-05-17 03:00:00,53.0,50.0,89.18,160.0,6.0,30.15,10.0,53.1
2021-05-17 04:00:00,51.4,49.6,93.54,150.0,4.0,30.15,10.0,51.4
2021-05-17 05:00:00,49.0,49.0,100.0,160.0,3.0,30.15,10.0,48.24
2021-05-17 06:00:00,48.4,48.4,100.0,0.0,0.0,30.15,5.0,48.4
2021-05-17 07:00:00,46.6,46.6,100.0,0.0,0.0,30.15,3.0,46.6
2021-05-17 08:00:00,44.8,44.8,100.0,0.0,0.0,30.15,1.0,44.8
2021-05-17 09:00:00,42.6,42.6,100.0,0.0,0.0,30.16,0.25,42.6
2021-05-17 10:00:00,42.0,42.0,100.0,0.0,0.0,30.17,0.25,41.9
2021-05-17 11:00:00,47.8,47.8,100.0,0.0,0.0,30.19,3.0,47.8
2021-05-17 12:00:00,54.3,54.0,99.27,0.0,0.0,30.2,10.0,54.3
2021-05-17 13:00:00,62.8,52.7,69.54,320.0,5.0,30.2,10.0,62.8
2021-05-17 14:00:00,66.7,52.2,59.58,0.0,0.0,30.21,10.0,66.7
2021-05-17 15:00:00,69.4,48.0,46.44,190.0,6.0,30.2,10.0,69.4
2021-05-17 16:00:00,71.0,47.8,43.8,210.0,5.0,30.2,10.0,70.9
2021-05-17 17:00:00,71.0,46.0,40.92,130.0,6.0,30.19,10.0,70.9
2021-05-17 18:00:00,72.0,45.3,38.26,210.0,8.0,30.19,10.0,72.1
2021-05-17 19:00:00,72.7,45.0,37.07,140.0,4.0,30.18,10.0,72.7
2021-05-17 20:00:00,73.2,44.8,36.17,130.0,8.0,30.18,10.0,73.2
2021-05-17 21:00:00,73.4,46.4,38.18,170.0,8.0,30.17,10.0,73.4
2021-05-17 22:00:00,72.5,46.0,38.62,180.0,8.0,30.18,10.0,72.5
2021-05-17 23:00:00,70.3,44.8,39.91,150.0,6.0,30.18,10.0,70.3
2021-05-18 00:00:00,64.8,45.0,48.8,160.0,6.0,30.18,10.0,64.8
2021-05-18 01:00:00,58.3,46.0,63.31,160.0,5.0,30.2,10.0,58.3
2021-05-18 02:00:00,55.8,45.5,68.24,160.0,8.0,30.21,10.0,55.8
2021-05-18 03:00:00,54.5,45.5,71.55,140.0,6.0,30.22,10.0,54.5
2021-05-18 04:00:00,53.0,44.8,73.33,160.0,4.0,30.24,10.0,53.1
2021-05-18 05:00:00,53.4,45.5,74.48,170.0,3.0,30.23,10.0,53.4
2021-05-18 06:00:00,50.4,44.8,81.02,170.0,3.0,30.23,10.0,50.4
2021-05-18 07:00:00,52.5,45.5,76.99,160.0,3.0,30.24,10.0,52.5
2021-05-18 08:00:00,50.2,46.2,86.07,190.0,5.0,30.24,10.0,50.2
2021-05-18 09:00:00,50.0,47.0,89.04,0.0,0.0,30.26,10.0,50.0
2021-05-18 10:00:00,48.4,46.6,93.45,0.0,0.0,30.26,10.0,48.4
2021-05-18 11:00:00,55.2,51.8,88.29,140.0,4.0,30.26,10.0,55.2
2021-05-18 12:00:00,59.4,52.2,77.02,130.0,9.0,30.27,10.0,59.4
2021-05-18 13:00:00,62.6,52.3,69.01,120.0,10.0,30.27,10.0,62.6
2021-05-18 14:00:00,65.3,51.8,61.63,120.0,14.0,30.26,10.0,65.3
2021-05-18 15:00:00,68.0,52.5,57.6,150.0,14.0,30.25,10.0,68.0
2021-05-18 16:00:00,70.5,53.6,55.05,130.0,12.0,30.24,10.0,70.5
2021-05-18 17:00:00,72.5,54.3,52.77,130.0,16.0,30.22,10.0,72.5
2021-05-18 18:00:00,72.0,54.5,53.88,160.0,12.0,30.2,10.0,72.1
2021-05-18 19:00:00,71.0,54.0,55.11,150.0,15.0,30.19,10.0,70.9
2021-05-18 20:00:00,74.0,52.7,47.16,140.0,18.0,30.17,10.0,74.1
2021-05-18 21:00:00,71.4,51.4,49.24,140.0,14.0,30.16,10.0,71.4
2021-05-18 22:00:00,69.3,51.0,52.31,160.0,19.0,30.16,10.0,69.3
2021-05-18 23:00:00,64.6,55.4,72.06,190.0,6.0,30.17,10.0,64.6
2021-05-19 00:00:00,62.8,55.6,77.31,170.0,3.0,30.16,10.0,62.8
2021-05-19 01:00:00,61.0,56.0,83.29,150.0,6.0,30.17,10.0,61.0
2021-05-19 02:00:00,60.0,55.8,86.3,160.0,13.0,30.17,10.0,59.9
2021-05-19 03:00:00,58.0,57.4,97.51,130.0,11.0,30.17,10.0,58.1
2021-05-19 04:00:00,58.0,58.0,100.0,130.0,10.0,30.15,7.0,58.1
2021-05-19 05:00:00,58.5,58.5,100.0,150.0,12.0,30.14,5.0,58.5
2021-05-19 06:00:00,58.5,58.5,100.0,140.0,12.0,30.11,4.0,58.5
2021-05-19 07:00:00,58.3,58.3,100.0,140.0,12.0,30.1,5.0,58.3
2021-05-19 08:00:00,58.6,58.6,100.0,150.0,12.0,30.1,4.0,58.6
2021-05-19 09:00:00,59.0,59.0,100.0,160.0,11.0,30.1,3.0,59.0
2021-05-19 10:00:00,59.0,59.0,100.0,160.0,9.0,30.1,2.5,59.0
2021-05-19 11:00:00,59.5,59.5,100.0,160.0,10.0,30.11,2.0,59.5
2021-05-19 12:00:00,60.0,60.0,100.0,150.0,11.0,30.11,1.75,59.9
2021-05-19 13:00:00,60.0,60.0,100.0,160.0,9.0,30.12,1.5,60.1
2021-05-19 14:00:00,60.6,60.6,100.0,170.0,11.0,30.12,1.75,60.6
2021-05-19 15:00:00,61.7,61.7,100.0,170.0,10.0,30.13,2.5,61.7
2021-05-19 16:00:00,62.6,62.6,100.0,180.0,11.0,30.13,7.0,62.6
2021-05-19 17:00:00,63.3,63.0,99.3,180.0,8.0,30.13,7.0,63.3
2021-05-19 18:00:00,64.4,63.7,97.58,180.0,8.0,30.13,10.0,64.4
2021-05-19 19:00:00,64.4,63.3,96.22,170.0,8.0,30.14,10.0,64.4
2021-05-19 20:00:00,66.0,63.5,91.64,170.0,4.0,30.14,10.0,66.0
2021-05-19 21:00:00,66.6,64.4,92.63,160.0,10.0,30.14,10.0,66.6
2021-05-19 22:00:00,65.0,64.4,98.27,170.0,10.0,30.14,5.0,64.9
2021-05-19 23:00:00,64.6,63.7,96.9,170.0,6.0,30.15,10.0,64.6
2021-05-20 00:00:00,64.0,63.0,96.89,180.0,8.0,30.15,10.0,64.0
2021-05-20 01:00:00,62.6,62.6,100.0,170.0,6.0,30.15,7.0,62.6
2021-05-20 02:00:00,62.6,62.6,100.0,160.0,6.0,30.16,4.0,62.6
2021-05-20 03:00:00,62.6,62.6,100.0,150.0,3.0,30.17,3.0,62.6
2021-05-20 04:00:00,62.0,62.0,100.0,150.0,8.0,30.17,3.0,62.1
2021-05-20 05:00:00,62.6,62.6,100.0,160.0,8.0,30.17,2.5,62.6
2021-05-20 06:00:00,64.0,64.0,100.0,190.0,13.0,30.17,4.0,63.9
2021-05-20 07:00:00,64.4,64.0,98.61,190.0,11.0,30.17,5.0,64.4
2021-05-20 08:00:00,64.4,64.0,98.27,190.0,11.0,30.17,7.0,64.4
2021-05-20 09:00:00,64.0,63.7,98.95,180.0,9.0,30.17,5.0,64.0
2021-05-20 10:00:00,63.5,63.5,100.0,170.0,7.0,30.18,4.0,63.5
2021-05-20 11:00:00,63.5,63.5,100.0,180.0,12.0,30.19,4.0,63.5
2021-05-20 12:00:00,62.6,62.2,98.6,150.0,11.0,30.19,7.0,62.6
2021-05-20 13:00:00,63.0,62.4,97.91,150.0,14.0,30.2,10.0,63.0
2021-05-20 14:00:00,62.6,62.0,98.25,160.0,8.0,30.2,4.0,62.6
2021-05-20 15:00:00,64.2,64.0,98.96,140.0,10.0,30.19,7.0,64.2
2021-05-20 16:00:00,67.0,64.4,91.04,170.0,13.0,30.18,10.0,67.1
2021-05-20 17:00:00,69.0,64.2,84.39,160.0,10.0,30.17,10.0,69.1
2021-05-20 18:00:00,70.0,63.7,80.42,160.0,16.0,30.16,10.0,70.0
2021-05-20 19:00:00,71.0,63.0,76.09,170.0,13.0,30.15,10.0,70.9
2021-05-20 20:00:00,69.6,62.8,78.99,180.0,10.0,30.16,10.0,69.6
2021-05-20 21:00:00,67.5,64.4,89.79,210.0,9.0,30.17,10.0,67.5
2021-05-20 22:00:00,68.7,64.4,86.16,190.0,8.0,30.18,10.0,68.7
2021-05-20 23:00:00,68.0,64.6,88.88,170.0,6.0,30.17,10.0,68.0
2021-05-21 00:00:00,66.6,64.8,93.93,170.0,8.0,30.17,10.0,66.6
2021-05-21 01:00:00,65.5,64.8,97.59,150.0,5.0,30.18,10.0,65.5
2021-05-21 02:00:00,65.3,64.6,97.59,150.0,4.0,30.2,10.0,65.3
2021-05-21 03:00:00,66.0,64.0,92.94,0.0,0.0,30.2,10.0,66.0
2021-05-21 04:00:00,65.7,63.0,91.31,150.0,7.0,30.19,10.0,65.7
2021-05-21 05:00:00,66.2,62.6,88.18,170.0,6.0,30.2,10.0,66.2
2021-05-21 06:00:00,65.0,62.6,91.61,160.0,5.0,30.2,10.0,65.1
2021-05-21 07:00:00,64.4,62.6,93.88,150.0,6.0,30.2,10.0,64.4
2021-05-21 08:00:00,65.3,62.0,88.76,170.0,7.0,30.2,10.0,65.3
2021-05-21 09:00:00,64.0,62.8,96.21,200.0,5.0,30.22,7.0,63.9
2021-05-21 10:00:00,63.7,63.0,97.92,190.0,8.0,30.22,10.0,63.7
2021-05-21 11:00:00,63.7,63.0,97.92,160.0,10.0,30.24,10.0,63.7
2021-05-21 12:00:00,64.0,63.0,97.23,170.0,9.0,30.25,10.0,63.9
2021-05-21 13:00:00,64.2,63.5,97.58,170.0,9.0,30.26,10.0,64.2
2021-05-21 14:00:00,64.4,63.7,97.58,200.0,10.0,30.27,7.0,64.4
2021-05-21 15:00:00,65.3,64.0,95.56,210.0,7.0,30.27,10.0,65.3
2021-05-21 16:00:00,67.0,64.6,91.68,200.0,8.0,30.27,10.0,67.1
2021-05-21 17:00:00,68.0,65.0,90.44,200.0,11.0,30.27,10.0,68.0
2021-05-21 18:00:00,68.5,65.0,88.28,190.0,9.0,30.27,10.0,68.5
2021-05-21 19:00:00,69.4,65.5,87.41,180.0,9.0,30.27,10.0,69.4
2021-05-21 20:00:00,69.0,65.7,89.54,190.0,10.0,30.26,10.0,68.9
2021-05-21 21:00:00,69.0,65.8,89.85,190.0,9.0,30.27,10.0,68.9
2021-05-21 22:00:00,69.6,66.4,89.57,180.0,8.0,30.27,10.0,69.6
2021-05-21 23:00:00,67.6,65.5,92.98,190.0,9.0,30.27,10.0,67.6
2021-05-22 00:00:00,66.7,65.8,96.93,180.0,10.0,30.27,10.0,66.7
2021-05-22 01:00:00,66.4,65.7,97.6,190.0,8.0,30.27,10.0,66.4
2021-05-22 02:00:00,66.2,65.5,97.6,190.0,10.0,30.28,10.0,66.2
2021-05-22 03:00:00,65.5,65.5,100.0,200.0,7.0,30.28,4.0,65.5
2021-05-22 04:00:00,65.3,65.0,99.31,210.0,9.0,30.28,10.0,65.3
2021-05-22 05:00:00,64.6,64.6,100.0,220.0,7.0,30.28,10.0,64.6
2021-05-22 06:00:00,65.0,64.8,99.65,220.0,8.0,30.28,10.0,64.9
2021-05-22 07:00:00,65.0,64.6,98.96,230.0,8.0,30.27,10.0,64.9
2021-05-22 08:00:00,64.8,64.4,98.61,240.0,6.0,30.29,10.0,64.8
2021-05-22 09:00:00,64.8,64.0,97.24,240.0,10.0,30.3,10.0,64.8
2021-05-22 10:00:00,64.8,64.2,97.93,240.0,8.0,30.3,10.0,64.8
2021-05-22 11:00:00,65.0,64.0,96.9,240.0,10.0,30.32,10.0,64.9
2021-05-22 12:00:00,65.7,64.4,95.57,240.0,8.0,30.31,10.0,65.7
2021-05-22 13:00:00,66.2,64.0,92.3,260.0,8.0,30.31,10.0,66.2
2021-05-22 14:00:00,68.0,64.6,88.88,250.0,6.0,30.3,10.0,68.0
2021-05-22 15:00:00,69.4,65.3,86.8,220.0,9.0,30.29,10.0,69.4
2021-05-22 16:00:00,71.0,65.0,81.9,240.0,8.0,30.28,10.0,70.9
2021-05-22 17:00:00,72.7,65.8,78.95,260.0,9.0,30.28,10.0,72.7
2021-05-22 18:00:00,75.4,65.8,72.11,260.0,7.0,30.26,10.0,75.4
2021-05-22 19:00:00,75.7,65.0,69.68,250.0,8.0,30.24,10.0,75.7
2021-05-22 20:00:00,77.2,66.0,68.4,240.0,11.0,30.22,10.0,77.2
2021-05-22 21:00:00,77.2,66.2,68.87,240.0,10.0,30.21,10.0,77.2
2021-05-22 22:00:00,77.4,65.7,67.24,240.0,11.0,30.2,10.0,77.4
2021-05-22 23:00:00,76.3,64.0,65.72,250.0,10.0,30.18,10.0,76.3
2021-05-23 00:00:00,72.5,64.0,74.65,260.0,6.0,30.18,10.0,72.5
2021-05-23 01:00:00,69.0,63.5,82.35,260.0,4.0,30.18,10.0,69.1
2021-05-23 02:00:00,67.3,63.5,87.61,280.0,4.0,30.19,10.0,67.3
2021-05-23 03:00:00,66.0,63.5,91.64,280.0,3.0,30.2,10.0,66.0
2021-05-23 04:00:00,63.5,62.8,97.57,230.0,5.0,30.19,10.0,63.5
2021-05-23 05:00:00,62.8,62.4,98.6,210.0,4.0,30.19,10.0,62.8
2021-05-23 06:00:00,63.3,63.0,99.3,230.0,4.0,30.18,10.0,63.3
2021-05-23 07:00:00,63.5,63.5,100.0,250.0,6.0,30.18,10.0,63.5
2021-05-23 08:00:00,64.0,63.7,99.3,260.0,5.0,30.18,10.0,63.9
2021-05-23 09:00:00,63.0,63.0,100.0,0.0,0.0,30.19,10.0,63.1
2021-05-23 10:00:00,63.5,63.5,100.0,250.0,4.0,30.2,7.0,63.5
2021-05-23 11:00:00,65.3,65.3,100.0,270.0,3.0,30.2,10.0,65.3
2021-05-23 12:00:00,66.6,66.2,98.62,320.0,3.0,30.2,10.0,66.6
2021-05-23 13:00:00,66.6,66.2,98.62,0.0,0.0,30.2,10.0,66.6
2021-05-23 14:00:00,65.5,64.0,94.9,90.0,12.0,30.2,3.0,65.5
2021-05-23 15:00:00,58.6,58.6,100.0,50.0,12.0,30.22,2.0,58.6
2021-05-23 16:00:00,55.2,55.0,99.28,90.0,11.0,30.24,2.0,55.2
2021-05-23 17:00:00,53.0,53.0,100.0,80.0,7.0,30.25,4.0,53.1
2021-05-23 18:00:00,52.7,52.5,99.27,70.0,9.0,30.24,4.0,52.7
2021-05-23 19:00:00,52.7,51.0,93.57,80.0,10.0,30.24,10.0,52.7
2021-05-23 20:00:00,52.7,50.7,92.88,90.0,10.0,30.22,10.0,52.7
2021-05-23 21:00:00,52.5,50.5,92.88,100.0,8.0,30.22,7.0,52.5
2021-05-23 22:00:00,52.2,50.5,93.91,90.0,9.0,30.22,7.0,52.2
2021-05-23 23:00:00,51.0,50.0,96.71,100.0,9.0,30.22,7.0,50.9
2021-05-24 00:00:00,50.2,48.2,92.81,110.0,7.0,30.22,10.0,50.2
2021-05-24 01:00:00,50.0,48.0,92.8,90.0,5.0,30.22,10.0,50.0
2021-05-24 02:00:00,50.0,47.7,91.76,100.0,4.0,30.22,10.0,50.0
2021-05-24 03:00:00,50.7,48.2,91.1,100.0,7.0,30.2,10.0,50.7
2021-05-24 04:00:00,51.0,48.2,90.43,90.0,6.0,30.19,10.0,50.9
2021-05-24 05:00:00,51.0,48.4,91.11,100.0,6.0,30.18,10.0,50.9
2021-05-24 06:00:00,50.4,49.0,95.27,120.0,6.0,30.16,10.0,50.4
2021-05-24 07:00:00,49.6,49.5,99.63,120.0,5.0,30.15,5.0,47.3
2021-05-24 08:00:00,49.0,49.0,100.0,110.0,7.0,30.14,1.0,45.62
2021-05-24 09:00:00,49.0,49.0,100.0,120.0,7.0,30.13,1.75,45.38
2021-05-24 10:00:00,49.0,49.0,100.0,120.0,4.0,30.14,1.5,47.39
2021-05-24 11:00:00,49.0,49.0,100.0,130.0,6.0,30.13,4.0,46.13
2021-05-24 12:00:00,50.0,50.0,100.0,140.0,7.0,30.12,3.0,50.0
2021-05-24 13:00:00,51.3,51.3,100.0,160.0,6.0,30.12,2.0,51.3
2021-05-24 14:00:00,54.0,54.0,100.0,160.0,6.0,30.1,3.0,54.0
2021-05-24 15:00:00,56.7,56.7,100.0,140.0,7.0,30.08,5.0,56.7
2021-05-24 16:00:00,60.8,58.8,93.12,160.0,6.0,30.08,10.0,60.8
2021-05-24 17:00:00,65.0,61.3,88.11,160.0,8.0,30.06,10.0,64.9
2021-05-24 18:00:00,68.4,63.0,83.18,180.0,9.0,30.04,10.0,68.4
2021-05-24 19:00:00,68.7,64.6,86.77,180.0,7.0,30.03,10.0,68.7
2021-05-24 20:00:00,71.0,66.2,85.09,150.0,9.0,30.0,10.0,70.9
2021-05-24 21:00:00,73.2,67.5,82.34,150.0,9.0,29.98,10.0,73.2
2021-05-24 22:00:00,74.0,68.4,82.96,170.0,7.0,29.96,10.0,73.9
2021-05-24 23:00:00,72.7,68.5,86.67,150.0,6.0,29.95,10.0,72.7
2021-05-25 00:00:00,70.7,67.0,88.38,180.0,6.0,29.96,10.0,70.7
2021-05-25 01:00:00,67.0,65.5,94.6,310.0,5.0,29.97,10.0,67.1
2021-05-25 02:00:00,64.0,63.7,99.3,100.0,3.0,29.97,10.0,63.9
2021-05-25 03:00:00,63.7,63.7,100.0,190.0,5.0,29.96,10.0,63.7
2021-05-25 04:00:00,67.6,63.7,87.32,200.0,7.0,29.95,10.0,67.6
2021-05-25 05:00:00,68.2,63.0,83.46,210.0,9.0,29.94,10.0,68.2
2021-05-25 06:00:00,68.5,62.6,81.44,220.0,11.0,29.93,10.0,68.5
2021-05-25 07:00:00,68.0,63.0,84.03,210.0,12.0,29.92,10.0,68.0
2021-05-25 08:00:00,68.0,63.0,84.03,210.0,12.0,29.92,10.0,68.0
2021-05-25 09:00:00,68.0,63.0,84.03,210.0,12.0,29.92,10.0,68.0
2021-05-25 10:00:00,65.3,62.6,90.98,200.0,9.0,29.88,10.0,65.3
2021-05-25 11:00:00,66.2,63.3,90.37,210.0,8.0,29.88,10.0,66.2
2021-05-25 12:00:00,68.2,64.0,86.13,220.0,14.0,29.86,10.0,68.2
2021-05-25 13:00:00,68.7,64.4,86.16,220.0,12.0,29.86,10.0,68.7
2021-05-25 14:00:00,67.8,64.4,88.87,220.0,11.0,29.86,10.0,67.8
2021-05-25 15:00:00,66.7,65.8,96.93,210.0,10.0,29.85,10.0,66.7
2021-05-25 16:00:00,71.0,67.3,88.39,210.0,12.0,29.84,10.0,70.9
2021-05-25 17:00:00,72.0,67.0,83.99,220.0,12.0,29.83,10.0,72.0
2021-05-25 18:00:00,69.6,65.5,86.81,220.0,13.0,29.83,10.0,69.6
2021-05-25 19:00:00,71.8,67.8,87.23,230.0,13.0,29.82,10.0,71.8
2021-05-25 20:00:00,74.0,68.0,81.27,220.0,12.0,29.8,10.0,74.1
2021-05-25 21:00:00,75.2,65.7,72.34,230.0,14.0,29.78,10.0,75.2
2021-05-25 22:00:00,75.4,64.6,69.16,200.0,10.0,29.76,10.0,75.4
2021-05-25 23:00:00,71.6,63.3,75.09,200.0,12.0,29.76,10.0,71.6
2021-05-26 00:00:00,60.4,57.6,90.47,150.0,10.0,29.76,7.0,60.4
2021-05-26 01:00:00,59.4,56.3,89.45,210.0,8.0,29.77,10.0,59.4
2021-05-26 02:00:00,59.4,56.3,89.45,200.0,11.0,29.79,10.0,59.4
2021-05-26 03:00:00,59.5,57.6,93.42,210.0,11.0,29.78,10.0,59.5
2021-05-26 04:00:00,59.4,57.2,92.41,220.0,12.0,29.79,10.0,59.4
2021-05-26 05:00:00,58.3,57.0,95.43,230.0,10.0,29.81,10.0,58.3
2021-05-26 06:00:00,57.2,55.6,94.38,240.0,7.0,29.81,10.0,57.2
2021-05-26 07:00:00,56.8,50.5,79.4,260.0,8.0,29.82,10.0,56.8
2021-05-26 08:00:00,56.0,47.0,72.24,270.0,10.0,29.82,10.0,55.9
2021-05-26 09:00:00,54.5,46.8,75.15,280.0,9.0,29.83,10.0,54.5
2021-05-26 10:00:00,54.0,47.0,77.41,270.0,10.0,29.85,10.0,54.0
2021-05-26 11:00:00,56.0,48.2,75.29,270.0,13.0,29.88,10.0,55.9
2021-05-26 12:00:00,57.4,49.0,73.76,290.0,15.0,29.9,10.0,57.4
2021-05-26 13:00:00,58.5,49.0,70.37,290.0,15.0,29.93,10.0,58.5
2021-05-26 14:00:00,58.5,48.6,69.58,320.0,10.0,29.96,10.0,58.5
2021-05-26 15:00:00,55.8,47.5,73.6,310.0,14.0,30.02,10.0,55.8
2021-05-26 16:00:00,54.5,46.4,74.03,310.0,15.0,30.05,10.0,54.5
2021-05-26 17:00:00,55.0,45.5,70.26,330.0,12.0,30.06,10.0,55.0
2021-05-26 18:00:00,56.0,44.8,65.73,310.0,10.0,30.08,10.0,56.1
2021-05-26 19:00:00,56.0,44.2,64.25,320.0,11.0,30.1,10.0,56.1
2021-05-26 20:00:00,56.5,43.0,60.48,320.0,11.0,30.11,10.0,56.5
2021-05-26 21:00:00,56.7,41.7,57.12,300.0,7.0,30.12,10.0,56.7
2021-05-26 22:00:00,56.0,40.6,56.35,340.0,8.0,30.11,10.0,55.9
2021-05-26 23:00:00,55.4,39.7,55.41,350.0,7.0,30.14,10.0,55.4
2021-05-27 00:00:00,51.0,38.0,61.39,10.0,7.0,30.16,10.0,50.9
2021-05-27 01:00:00,47.3,38.8,72.18,10.0,6.0,30.17,10.0,43.96
2021-05-27 02:00:00,46.6,37.0,68.78,30.0,8.0,30.18,10.0,42.1
2021-05-27 03:00:00,43.2,35.8,74.95,20.0,5.0,30.22,10.0,39.7
2021-05-27 04:00:00,41.2,37.0,84.54,30.0,5.0,30.21,10.0,37.32
2021-05-27 05:00:00,39.7,35.8,85.8,20.0,4.0,30.22,10.0,36.41
2021-05-27 06:00:00,41.2,35.0,78.1,60.0,6.0,30.2,10.0,36.61
2021-05-27 07:00:00,39.2,34.2,82.09,90.0,4.0,30.24,10.0,35.83
2021-05-27 08:00:00,37.4,33.0,83.62,90.0,9.0,30.25,10.0,30.23
2021-05-27 09:00:00,37.4,31.6,79.36,90.0,7.0,30.26,10.0,31.36
2021-05-27 10:00:00,36.7,29.8,75.84,70.0,6.0,30.26,10.0,31.19
2021-05-27 11:00:00,37.0,30.0,75.85,90.0,11.0,30.26,10.0,28.66
2021-05-27 12:00:00,37.4,30.0,74.38,70.0,6.0,30.29,10.0,32.03
2021-05-27 13:00:00,38.5,28.0,65.64,90.0,6.0,30.3,10.0,33.36
2021-05-27 14:00:00,39.2,28.2,64.4,80.0,7.0,30.3,10.0,33.56
2021-05-27 15:00:00,37.2,31.6,79.99,90.0,7.0,30.29,7.0,31.12
2021-05-27 16:00:00,36.7,33.8,89.12,60.0,4.0,30.28,7.0,32.91
2021-05-27 17:00:00,37.2,35.4,93.13,90.0,4.0,30.27,7.0,33.49
2021-05-27 18:00:00,38.0,36.7,95.39,80.0,7.0,30.22,10.0,31.97
2021-05-27 19:00:00,38.5,37.4,95.78,50.0,13.0,30.16,10.0,29.9
2021-05-27 20:00:00,39.7,37.0,89.61,80.0,8.0,30.19,10.0,33.6
2021-05-27 21:00:00,38.8,37.4,94.66,60.0,9.0,30.18,10.0,31.97
2021-05-27 22:00:00,36.7,35.6,95.74,80.0,9.0,30.18,10.0,29.36
2021-05-27 23:00:00,35.8,34.0,93.09,60.0,10.0,30.19,10.0,27.73
2021-05-28 00:00:00,34.7,34.0,97.25,40.0,11.0,30.19,10.0,25.88
2021-05-28 01:00:00,35.0,32.7,90.85,60.0,9.0,30.18,10.0,27.37
2021-05-28 02:00:00,36.0,31.3,82.86,60.0,8.0,30.19,10.0,29.04
2021-05-28 03:00:00,36.0,32.0,84.89,50.0,6.0,30.17,10.0,30.47
2021-05-28 04:00:00,35.6,30.7,82.16,50.0,9.0,30.19,10.0,27.99
2021-05-28 05:00:00,35.0,29.1,78.52,40.0,8.0,30.2,10.0,27.93
2021-05-28 06:00:00,34.2,28.2,78.44,40.0,8.0,30.19,10.0,26.82
2021-05-28 07:00:00,33.6,27.5,78.07,50.0,9.0,30.17,10.0,25.5
2021-05-28 08:00:00,33.3,27.0,77.4,40.0,7.0,30.17,10.0,26.36
2021-05-28 09:00:00,33.3,27.3,78.37,40.0,10.0,30.17,10.0,24.6
2021-05-28 10:00:00,33.6,28.2,80.35,50.0,8.0,30.19,10.0,26.08
2021-05-28 11:00:00,34.7,28.9,79.13,40.0,10.0,30.19,10.0,26.35
2021-05-28 12:00:00,36.7,31.3,80.59,40.0,11.0,30.2,10.0,28.41
2021-05-28 13:00:00,38.5,32.0,77.24,50.0,12.0,30.21,10.0,30.27
2021-05-28 14:00:00,41.0,32.7,72.08,50.0,10.0,30.21,10.0,34.25
2021-05-28 15:00:00,43.7,32.0,63.16,40.0,13.0,30.21,10.0,36.56
2021-05-28 16:00:00,46.4,28.4,49.24,70.0,14.0,30.22,10.0,39.72
2021-05-28 17:00:00,49.8,29.7,45.71,50.0,14.0,30.22,10.0,44.11
2021-05-28 18:00:00,53.2,31.3,43.02,70.0,10.0,30.2,10.0,53.2
2021-05-28 19:00:00,53.8,28.9,38.17,30.0,6.0,30.18,10.0,53.8
2021-05-28 20:00:00,56.0,28.0,34.08,20.0,11.0,30.17,10.0,55.9
2021-05-28 21:00:00,57.0,29.3,34.54,60.0,11.0,30.17,10.0,57.0
2021-05-28 22:00:00,55.8,27.5,33.51,40.0,8.0,30.17,10.0,55.8
2021-05-28 23:00:00,54.5,29.3,37.82,40.0,8.0,30.17,10.0,54.5
2021-05-29 00:00:00,49.5,33.6,54.11,40.0,7.0,30.19,10.0,46.11
2021-05-29 01:00:00,43.2,35.6,74.35,110.0,4.0,30.21,10.0,40.5
2021-05-29 02:00:00,39.7,35.2,83.78,90.0,4.0,30.22,10.0,36.41
2021-05-29 03:00:00,37.0,34.7,91.29,0.0,0.0,30.24,10.0,37.0
2021-05-29 04:00:00,35.6,34.0,93.83,50.0,3.0,30.25,10.0,32.8
2021-05-29 05:00:00,34.0,32.7,94.92,0.0,0.0,30.25,10.0,34.0
2021-05-29 06:00:00,33.8,30.7,88.26,0.0,0.0,30.24,10.0,33.8
2021-05-29 07:00:00,32.0,30.0,92.22,360.0,3.0,30.25,10.0,28.69
2021-05-29 08:00:00,31.5,29.8,93.34,0.0,0.0,30.25,10.0,31.5
2021-05-29 09:00:00,30.2,29.1,95.62,0.0,0.0,30.27,10.0,30.2
2021-05-29 10:00:00,31.1,29.3,92.94,10.0,3.0,30.29,10.0,27.66
2021-05-29 11:00:00,35.0,31.6,87.61,0.0,0.0,30.31,10.0,34.9
2021-05-29 12:00:00,44.0,33.6,66.84,0.0,0.0,30.31,10.0,43.9
2021-05-29 13:00:00,49.6,32.2,50.96,0.0,0.0,30.31,10.0,49.6
2021-05-29 14:00:00,53.6,28.9,38.45,0.0,0.0,30.31,10.0,53.6
2021-05-29 15:00:00,54.7,28.2,35.89,0.0,0.0,30.31,10.0,54.7
2021-05-29 16:00:00,56.7,31.8,38.65,290.0,3.0,30.29,10.0,56.7
2021-05-29 17:00:00,57.7,31.3,36.53,0.0,0.0,30.28,10.0,57.7
2021-05-29 18:00:00,60.8,31.6,33.1,130.0,6.0,30.26,10.0,60.8
2021-05-29 19:00:00,62.0,33.3,34.09,160.0,5.0,30.25,10.0,61.9
2021-05-29 20:00:00,63.3,32.4,31.3,130.0,5.0,30.24,10.0,63.3
2021-05-29 21:00:00,63.0,28.8,27.23,160.0,5.0,30.24,10.0,63.1
2021-05-29 22:00:00,62.2,31.1,30.87,150.0,4.0,30.24,10.0,62.2
2021-05-29 23:00:00,58.0,37.8,46.66,160.0,5.0,30.23,10.0,58.1
2021-05-30 00:00:00,55.8,40.0,55.03,160.0,5.0,30.23,10.0,55.8
2021-05-30 01:00:00,48.4,37.0,64.28,140.0,5.0,30.24,10.0,45.87
2021-05-30 02:00:00,45.7,35.4,67.06,150.0,3.0,30.25,10.0,44.35
2021-05-30 03:00:00,44.0,34.2,68.47,140.0,6.0,30.24,10.0,39.86
2021-05-30 04:00:00,43.7,33.3,66.55,0.0,0.0,30.26,10.0,43.7
2021-05-30 05:00:00,41.4,34.0,74.77,170.0,3.0,30.26,10.0,39.43
2021-05-30 06:00:00,42.0,33.6,71.62,180.0,3.0,30.26,10.0,40.23
2021-05-30 07:00:00,42.0,34.0,72.78,160.0,3.0,30.26,10.0,40.23
2021-05-30 08:00:00,39.2,33.6,80.15,0.0,0.0,30.26,10.0,39.2
2021-05-30 09:00:00,35.6,33.6,92.34,0.0,0.0,30.24,10.0,35.6
2021-05-30 10:00:00,42.3,35.8,77.58,170.0,3.0,30.25,10.0,40.46
2021-05-30 11:00:00,46.8,37.4,69.62,190.0,4.0,30.27,10.0,44.7
2021-05-30 12:00:00,49.0,37.8,64.87,210.0,4.0,30.27,10.0,47.39
2021-05-30 13:00:00,52.0,40.0,63.24,220.0,5.0,30.28,10.0,52.0
2021-05-30 14:00:00,58.0,42.6,56.63,220.0,8.0,30.27,10.0,57.9
2021-05-30 15:00:00,57.6,41.4,54.66,220.0,10.0,30.26,10.0,57.6
2021-05-30 16:00:00,56.7,38.7,50.83,250.0,6.0,30.25,10.0,56.7
2021-05-30 17:00:00,56.3,41.4,57.28,250.0,7.0,30.25,10.0,56.3
2021-05-30 18:00:00,55.2,40.0,56.25,220.0,10.0,30.26,10.0,55.2
2021-05-30 19:00:00,55.4,39.4,54.76,240.0,10.0,30.26,10.0,55.4
2021-05-30 20:00:00,52.2,45.0,76.38,250.0,5.0,30.25,10.0,52.2
2021-05-30 21:00:00,50.7,46.2,84.49,220.0,4.0,30.25,10.0,50.7
2021-05-30 22:00:00,51.0,45.0,80.14,0.0,0.0,30.22,10.0,50.9
2021-05-30 23:00:00,52.0,44.6,75.78,260.0,5.0,30.21,10.0,52.0
2021-05-31 00:00:00,51.4,45.0,78.97,260.0,4.0,30.22,10.0,51.4
2021-05-31 01:00:00,50.2,45.7,84.46,0.0,0.0,30.22,10.0,50.2
2021-05-31 02:00:00,49.6,47.3,91.75,190.0,3.0,30.22,10.0,48.81
2021-05-31 03:00:00,49.3,47.3,92.78,180.0,3.0,30.2,10.0,48.47
2021-05-31 04:00:00,46.4,44.4,92.69,0.0,0.0,30.21,10.0,46.4
2021-05-31 05:00:00,48.4,46.6,93.45,0.0,0.0,30.22,10.0,48.4
2021-05-31 06:00:00,48.6,44.6,85.98,220.0,7.0,30.2,10.0,45.01
2021-05-31 07:00:00,45.5,43.5,92.66,240.0,3.0,30.21,10.0,44.12
2021-05-31 08:00:00,47.5,45.7,93.43,0.0,0.0,30.21,10.0,47.5
2021-05-31 09:00:00,47.5,45.7,93.43,220.0,4.0,30.2,10.0,45.52
2021-05-31 10:00:00,48.0,45.3,90.31,200.0,9.0,30.19,10.0,43.41
2021-05-31 11:00:00,53.2,47.7,81.53,220.0,9.0,30.2,10.0,53.2
2021-05-31 12:00:00,54.0,47.5,78.3,240.0,6.0,30.2,10.0,54.1
2021-05-31 13:00:00,56.0,49.0,77.3,200.0,6.0,30.2,10.0,56.1
2021-05-31 14:00:00,59.0,50.0,72.01,250.0,9.0,30.2,10.0,59.0
2021-05-31 15:00:00,62.2,51.6,68.2,240.0,8.0,30.19,10.0,62.2
2021-05-31 16:00:00,64.2,50.7,61.49,230.0,7.0,30.18,10.0,64.2
2021-05-31 17:00:00,66.4,51.6,58.89,230.0,8.0,30.17,10.0,66.4
2021-05-31 18:00:00,69.4,53.8,57.58,220.0,10.0,30.15,10.0,69.4
2021-05-31 19:00:00,68.7,52.2,55.61,220.0,14.0,30.13,10.0,68.7
2021-05-31 20:00:00,67.0,50.7,55.59,220.0,10.0,30.11,10.0,67.1
2021-05-31 21:00:00,55.4,47.8,75.52,20.0,19.0,30.15,7.0,55.4
2021-05-31 22:00:00,54.5,47.5,77.16,60.0,5.0,30.13,10.0,54.5
2021-05-31 23:00:00,52.0,50.2,93.55,80.0,9.0,30.19,4.0,52.0
2021-06-01 00:00:00,51.8,49.5,91.82,100.0,7.0,30.15,10.0,51.8
2021-06-01 01:00:00,51.0,50.2,96.72,160.0,5.0,30.16,10.0,51.1
2021-06-01 02:00:00,49.6,49.5,99.63,190.0,7.0,30.16,10.0,46.23
2021-06-01 03:00:00,51.0,50.5,98.53,190.0,5.0,30.17,10.0,50.9
2021-06-01 04:00:00,48.6,48.6,100.0,240.0,3.0,30.17,10.0,47.67
2021-06-01 05:00:00,48.6,48.6,100.0,0.0,0.0,30.18,10.0,48.6
2021-06-01 06:00:00,46.6,46.6,100.0,0.0,0.0,30.18,5.0,46.6
2021-06-01 07:00:00,43.5,43.5,100.0,0.0,0.0,30.17,0.5,43.5
2021-06-01 08:00:00,43.2,43.2,100.0,0.0,0.0,30.17,0.5,43.2
2021-06-01 09:00:00,41.7,41.7,100.0,0.0,0.0,30.17,0.5,41.7
2021-06-01 10:00:00,42.3,42.3,100.0,0.0,0.0,30.19,0.25,42.3
2021-06-01 11:00:00,47.5,47.5,100.0,0.0,0.0,30.19,10.0,47.5
2021-06-01 12:00:00,52.7,52.7,100.0,0.0,0.0,30.2,10.0,52.7
2021-06-01 13:00:00,59.5,52.7,78.17,270.0,4.0,30.2,10.0,59.5
2021-06-01 14:00:00,62.8,53.6,71.87,330.0,4.0,30.19,10.0,62.8
2021-06-01 15:00:00,64.8,53.2,66.03,200.0,4.0,30.19,10.0,64.8
2021-06-01 16:00:00,67.0,53.0,60.3,0.0,0.0,30.18,10.0,67.1
2021-06-01 17:00:00,69.6,51.3,52.16,180.0,4.0,30.17,10.0,69.6
2021-06-01 18:00:00,70.5,49.8,47.85,170.0,3.0,30.15,10.0,70.5
2021-06-01 19:00:00,72.0,51.3,48.07,160.0,6.0,30.14,10.0,72.0
2021-06-01 20:00:00,69.8,50.7,50.67,180.0,4.0,30.13,10.0,69.8
2021-06-01 21:00:00,72.0,51.0,47.56,0.0,0.0,30.11,10.0,72.1
2021-06-01 22:00:00,71.8,49.8,45.78,230.0,3.0,30.1,10.0,71.8
2021-06-01 23:00:00,70.7,53.8,55.08,150.0,7.0,30.1,10.0,70.7
2021-06-02 00:00:00,64.6,55.0,71.02,150.0,6.0,30.1,10.0,64.6
2021-06-02 01:00:00,63.0,53.6,71.37,150.0,7.0,30.1,10.0,63.0
2021-06-02 02:00:00,59.4,56.0,88.81,150.0,9.0,30.11,5.0,59.4
2021-06-02 03:00:00,58.0,54.7,88.43,150.0,6.0,30.1,10.0,58.1
2021-06-02 04:00:00,56.0,54.0,92.64,150.0,5.0,30.09,10.0,56.1
2021-06-02 05:00:00,53.6,52.0,94.29,0.0,0.0,30.08,10.0,53.6
2021-06-02 06:00:00,53.0,52.2,96.74,0.0,0.0,30.07,10.0,53.1
2021-06-02 07:00:00,53.4,52.7,97.46,180.0,4.0,30.06,10.0,53.4
2021-06-02 08:00:00,52.7,52.2,98.18,0.0,0.0,30.06,10.0,52.7
2021-06-02 09:00:00,51.0,51.0,100.0,0.0,0.0,30.05,10.0,50.9
2021-06-02 10:00:00,49.0,49.0,100.0,0.0,0.0,30.05,10.0,49.1
2021-06-02 11:00:00,55.0,54.5,98.19,0.0,0.0,30.05,10.0,55.0
2021-06-02 12:00:00,58.6,54.3,85.6,190.0,3.0,30.05,10.0,58.6
2021-06-02 13:00:00,64.4,53.6,67.95,220.0,5.0,30.05,10.0,64.4
2021-06-02 14:00:00,68.0,54.5,61.98,200.0,6.0,30.04,10.0,68.0
2021-06-02 15:00:00,71.0,53.6,53.94,240.0,9.0,30.02,10.0,71.1
2021-06-02 16:00:00,73.4,53.0,48.64,240.0,11.0,30.01,10.0,73.4
2021-06-02 17:00:00,75.2,53.0,46.13,220.0,10.0,29.99,10.0,75.2
2021-06-02 18:00:00,72.0,52.0,49.33,240.0,7.0,29.98,10.0,72.0
2021-06-02 19:00:00,73.2,52.0,47.37,240.0,12.0,29.97,10.0,73.2
2021-06-02 20:00:00,72.7,50.0,44.74,230.0,9.0,29.95,10.0,72.7
2021-06-02 21:00:00,72.7,51.0,46.26,230.0,7.0,29.93,10.0,72.7
2021-06-02 22:00:00,69.6,53.0,55.33,240.0,3.0,29.92,10.0,69.6
2021-06-02 23:00:00,70.3,55.4,59.19,180.0,4.0,29.91,10.0,70.3
2021-06-03 00:00:00,66.7,56.3,69.2,170.0,4.0,29.9,10.0,66.7
2021-06-03 01:00:00,62.6,54.7,75.35,170.0,4.0,29.9,10.0,62.6
2021-06-03 02:00:00,62.0,53.0,72.84,180.0,3.0,29.91,10.0,61.9
2021-06-03 03:00:00,61.7,50.5,66.65,160.0,7.0,29.9,10.0,61.7
2021-06-03 04:00:00,58.5,50.7,75.25,170.0,8.0,29.89,10.0,58.5
2021-06-03 05:00:00,56.7,49.8,77.64,200.0,5.0,29.88,10.0,56.7
2021-06-03 06:00:00,56.0,50.4,81.14,190.0,3.0,29.87,10.0,56.1
2021-06-03 07:00:00,56.8,50.4,79.11,200.0,4.0,29.86,10.0,56.8
2021-06-03 08:00:00,57.0,48.2,72.35,200.0,6.0,29.85,10.0,57.0
2021-06-03 09:00:00,56.0,47.5,72.8,200.0,7.0,29.83,10.0,56.1
2021-06-03 10:00:00,56.0,47.7,73.35,210.0,7.0,29.83,10.0,56.1
2021-06-03 11:00:00,59.2,49.3,69.66,220.0,4.0,29.83,10.0,59.2
2021-06-03 12:00:00,63.7,51.3,63.98,240.0,6.0,29.83,10.0,63.7
2021-06-03 13:00:00,62.0,51.4,68.42,240.0,8.0,29.83,10.0,61.9
2021-06-03 14:00:00,64.4,52.0,64.07,220.0,5.0,29.82,10.0,64.4
2021-06-03 15:00:00,71.0,56.0,59.48,200.0,9.0,29.81,10.0,70.9
2021-06-03 16:00:00,75.6,55.6,49.86,250.0,14.0,29.8,10.0,75.6
2021-06-03 17:00:00,77.0,57.6,51.16,250.0,10.0,29.78,10.0,77.0
2021-06-03 18:00:00,77.2,56.0,48.15,270.0,5.0,29.78,10.0,77.2
2021-06-03 19:00:00,74.0,55.6,52.78,330.0,9.0,29.81,10.0,73.9
2021-06-03 20:00:00,67.6,55.0,63.76,360.0,11.0,29.83,10.0,67.6
2021-06-03 21:00:00,62.6,58.6,86.75,0.0,0.0,29.83,10.0,62.6
2021-06-03 22:00:00,62.8,59.0,87.39,220.0,5.0,29.8,10.0,62.8
2021-06-03 23:00:00,66.6,58.0,73.57,220.0,6.0,29.78,10.0,66.6
2021-06-04 00:00:00,66.2,58.8,77.04,200.0,3.0,29.79,10.0,66.2
2021-06-04 01:00:00,66.2,58.8,77.04,200.0,3.0,29.79,10.0,66.2
2021-06-04 02:00:00,62.0,58.5,88.6,0.0,0.0,29.82,10.0,61.9
2021-06-04 03:00:00,60.4,58.6,93.78,40.0,3.0,29.83,10.0,60.4
2021-06-04 04:00:00,58.0,57.6,98.22,0.0,0.0,29.83,10.0,58.1
2021-06-04 05:00:00,55.6,55.6,100.0,0.0,0.0,29.83,10.0,55.6
2021-06-04 06:00:00,54.5,54.5,100.0,0.0,0.0,29.83,7.0,54.5
2021-06-04 07:00:00,54.7,54.7,100.0,0.0,0.0,29.82,10.0,54.7
2021-06-04 08:00:00,54.7,54.7,100.0,0.0,0.0,29.81,10.0,54.7
2021-06-04 09:00:00,53.2,53.2,100.0,0.0,0.0,29.81,10.0,53.2
2021-06-04 10:00:00,54.5,54.5,100.0,0.0,0.0,29.83,10.0,54.5
2021-06-04 11:00:00,58.8,57.6,95.78,0.0,0.0,29.83,10.0,58.8
2021-06-04 12:00:00,66.4,59.0,77.06,230.0,5.0,29.83,10.0,66.4
2021-06-04 13:00:00,70.2,57.4,63.85,250.0,10.0,29.83,10.0,70.2
2021-06-04 14:00:00,73.4,57.7,57.91,260.0,10.0,29.82,10.0,73.4
2021-06-04 15:00:00,77.2,59.4,54.21,210.0,9.0,29.81,10.0,77.2
2021-06-04 16:00:00,80.0,59.7,50.13,210.0,9.0,29.8,10.0,79.9
2021-06-04 17:00:00,81.5,60.3,48.61,230.0,14.0,29.8,10.0,82.06
2021-06-04 18:00:00,82.2,60.8,48.37,250.0,12.0,29.79,10.0,82.74
2021-06-04 19:00:00,83.7,60.4,45.43,250.0,16.0,29.78,10.0,83.88
2021-06-04 20:00:00,85.0,61.2,44.96,250.0,17.0,29.76,10.0,85.18
2021-06-04 21:00:00,85.0,58.3,40.29,260.0,14.0,29.78,10.0,84.49
2021-06-04 22:00:00,84.4,58.5,41.5,250.0,11.0,29.76,10.0,83.95
2021-06-04 23:00:00,83.0,60.3,46.15,240.0,10.0,29.75,10.0,83.35
2021-06-05 00:00:00,80.0,60.4,51.06,230.0,7.0,29.74,10.0,81.0
2021-06-05 01:00:00,74.0,60.0,61.61,220.0,8.0,29.74,10.0,73.9
2021-06-05 02:00:00,73.2,58.0,59.15,210.0,9.0,29.76,10.0,73.2
2021-06-05 03:00:00,73.4,57.0,56.47,220.0,11.0,29.76,10.0,73.4
2021-06-05 04:00:00,72.0,55.0,55.06,220.0,10.0,29.78,10.0,72.0
2021-06-05 05:00:00,70.7,53.4,54.28,220.0,12.0,29.78,10.0,70.7
2021-06-05 06:00:00,69.0,52.0,54.45,230.0,12.0,29.78,10.0,69.1
2021-06-05 07:00:00,67.8,51.8,56.52,220.0,12.0,29.78,10.0,67.8
2021-06-05 08:00:00,67.0,52.0,58.74,220.0,11.0,29.76,10.0,66.9
2021-06-05 09:00:00,66.4,53.0,61.77,220.0,12.0,29.76,10.0,66.4
2021-06-05 10:00:00,66.6,54.0,64.11,230.0,13.0,29.78,10.0,66.6
2021-06-05 11:00:00,68.4,55.6,63.63,230.0,14.0,29.78,10.0,68.4
2021-06-05 12:00:00,69.0,57.0,65.35,230.0,10.0,29.78,10.0,69.1
2021-06-05 13:00:00,73.0,59.0,61.5,230.0,12.0,29.78,10.0,73.0
2021-06-05 14:00:00,76.3,60.3,57.68,240.0,12.0,29.77,10.0,76.3
2021-06-05 15:00:00,79.5,61.3,53.77,250.0,12.0,29.76,10.0,79.5
2021-06-05 16:00:00,82.8,62.0,49.32,230.0,12.0,29.75,10.0,83.55
2021-06-05 17:00:00,85.5,62.6,46.34,240.0,10.0,29.75,10.0,86.24
2021-06-05 18:00:00,87.0,63.3,45.42,250.0,10.0,29.74,10.0,87.89
2021-06-05 19:00:00,88.7,63.5,43.2,250.0,16.0,29.74,10.0,89.82
2021-06-05 20:00:00,88.5,61.5,40.52,260.0,16.0,29.74,10.0,88.72
2021-06-05 21:00:00,88.2,61.0,40.19,250.0,17.0,29.74,10.0,88.22
2021-06-05 22:00:00,87.0,60.8,41.58,240.0,14.0,29.75,10.0,86.89
2021-06-05 23:00:00,86.0,61.0,43.1,240.0,11.0,29.75,10.0,86.12
2021-06-06 00:00:00,81.0,63.3,54.75,210.0,8.0,29.76,10.0,82.45
2021-06-06 01:00:00,76.5,61.7,60.21,200.0,6.0,29.78,10.0,76.5
2021-06-06 02:00:00,73.0,60.0,63.96,200.0,6.0,29.8,10.0,73.0
2021-06-06 03:00:00,73.6,60.0,62.24,200.0,6.0,29.8,10.0,73.6
2021-06-06 04:00:00,72.7,59.0,62.12,220.0,8.0,29.8,10.0,72.7
2021-06-06 05:00:00,71.6,58.3,62.88,210.0,8.0,29.8,10.0,71.6
2021-06-06 06:00:00,71.4,58.8,64.45,220.0,9.0,29.81,10.0,71.4
2021-06-06 07:00:00,69.8,59.4,69.54,210.0,8.0,29.81,10.0,69.8
2021-06-06 08:00:00,70.7,60.0,68.65,220.0,10.0,29.81,10.0,70.7
2021-06-06 09:00:00,69.8,60.0,71.3,220.0,10.0,29.83,10.0,69.8
2021-06-06 10:00:00,69.4,60.4,73.05,220.0,9.0,29.84,10.0,69.4
2021-06-06 11:00:00,71.8,60.8,68.28,230.0,13.0,29.84,10.0,71.8
2021-06-06 12:00:00,74.0,61.3,64.75,220.0,15.0,29.86,10.0,73.9
2021-06-06 13:00:00,76.6,62.0,60.44,220.0,14.0,29.86,10.0,76.6
2021-06-06 14:00:00,78.8,62.2,56.8,240.0,13.0,29.85,10.0,78.8
2021-06-06 15:00:00,80.8,61.7,52.26,230.0,16.0,29.84,10.0,81.81
2021-06-06 16:00:00,81.5,60.8,49.48,210.0,15.0,29.83,10.0,82.17
2021-06-06 17:00:00,82.8,60.4,46.77,200.0,13.0,29.82,10.0,83.13
2021-06-06 18:00:00,83.3,59.2,44.09,200.0,13.0,29.81,10.0,83.23
2021-06-06 19:00:00,84.2,59.7,43.6,210.0,16.0,29.8,10.0,84.11
2021-06-06 20:00:00,83.5,60.3,45.56,220.0,17.0,29.8,10.0,83.68
2021-06-06 21:00:00,82.6,60.0,46.57,230.0,13.0,29.8,10.0,82.89
2021-06-06 22:00:00,80.2,58.8,48.07,230.0,14.0,29.81,10.0,80.79
2021-06-06 23:00:00,80.2,58.3,47.22,220.0,12.0,29.81,10.0,80.71
2021-06-07 00:00:00,78.0,60.0,53.93,210.0,7.0,29.81,10.0,77.9
2021-06-07 01:00:00,75.7,60.8,59.9,210.0,11.0,29.81,10.0,75.7
2021-06-07 02:00:00,72.3,61.2,68.1,200.0,6.0,29.83,10.0,72.3
2021-06-07 03:00:00,68.5,61.2,77.51,190.0,6.0,29.83,10.0,68.5
2021-06-07 04:00:00,69.8,61.3,74.4,200.0,6.0,29.83,10.0,69.8
2021-06-07 05:00:00,69.8,62.0,76.0,210.0,9.0,29.83,10.0,69.8
2021-06-07 06:00:00,69.0,62.0,78.93,210.0,8.0,29.84,10.0,68.9
2021-06-07 07:00:00,67.5,62.2,83.12,210.0,7.0,29.84,10.0,67.5
2021-06-07 08:00:00,66.2,62.2,86.94,220.0,6.0,29.85,10.0,66.2
2021-06-07 09:00:00,66.2,62.6,88.18,210.0,6.0,29.86,10.0,66.2
2021-06-07 10:00:00,67.5,63.3,86.4,210.0,8.0,29.88,10.0,67.5
2021-06-07 11:00:00,69.8,64.0,81.82,220.0,11.0,29.88,10.0,69.8
2021-06-07 12:00:00,73.0,65.5,77.61,230.0,7.0,29.88,10.0,72.9
2021-06-07 13:00:00,76.5,66.4,70.98,210.0,10.0,29.89,10.0,76.5
2021-06-07 14:00:00,79.0,66.2,64.9,260.0,13.0,29.9,10.0,79.0
2021-06-07 15:00:00,79.3,66.0,63.82,240.0,8.0,29.91,10.0,79.3
2021-06-07 16:00:00,82.0,66.2,59.03,270.0,8.0,29.91,10.0,84.11
2021-06-07 17:00:00,83.5,64.8,53.38,200.0,9.0,29.9,10.0,85.19
2021-06-07 18:00:00,83.3,65.0,53.92,240.0,10.0,29.9,10.0,85.03
2021-06-07 19:00:00,84.2,64.0,50.58,250.0,7.0,29.9,10.0,85.51
2021-06-07 20:00:00,85.0,62.0,46.12,250.0,10.0,29.9,10.0,85.68
2021-06-07 21:00:00,85.0,61.7,45.77,260.0,8.0,29.9,10.0,85.35
2021-06-07 22:00:00,83.7,63.0,49.98,220.0,6.0,29.89,10.0,84.74
2021-06-07 23:00:00,82.8,65.0,54.8,0.0,0.0,29.9,10.0,84.54
2021-06-08 00:00:00,79.3,67.5,67.22,180.0,4.0,29.91,10.0,79.3
2021-06-08 01:00:00,74.5,67.0,77.74,170.0,3.0,29.92,10.0,74.5
2021-06-08 02:00:00,71.6,66.2,83.09,0.0,0.0,29.94,10.0,71.6
2021-06-08 03:00:00,69.3,65.0,85.89,0.0,0.0,29.94,10.0,69.3
2021-06-08 04:00:00,67.8,64.4,88.87,150.0,3.0,29.94,10.0,67.8
2021-06-08 05:00:00,67.5,65.0,91.38,0.0,0.0,29.96,10.0,67.5
2021-06-08 06:00:00,65.7,64.8,96.91,0.0,0.0,29.98,10.0,65.7
2021-06-08 07:00:00,67.3,65.8,94.94,220.0,4.0,29.99,10.0,67.3
2021-06-08 08:00:00,67.6,66.4,95.94,220.0,4.0,29.99,10.0,67.6
2021-06-08 09:00:00,64.8,64.8,100.0,0.0,0.0,29.98,7.0,64.8
2021-06-08 10:00:00,64.0,64.0,100.0,330.0,3.0,30.03,5.0,63.9
2021-06-08 11:00:00,69.0,67.5,94.65,0.0,0.0,30.02,10.0,69.1
2021-06-08 12:00:00,74.0,68.7,83.81,280.0,3.0,30.03,10.0,73.9
2021-06-08 13:00:00,75.7,68.7,78.92,330.0,4.0,30.04,10.0,75.7
2021-06-08 14:00:00,78.4,69.4,73.91,0.0,0.0,30.04,10.0,78.4
2021-06-08 15:00:00,82.8,69.6,64.45,80.0,3.0,30.04,10.0,86.61
2021-06-08 16:00:00,85.8,68.2,55.78,0.0,0.0,30.03,7.0,89.31
2021-06-08 17:00:00,87.0,67.6,52.75,130.0,7.0,30.02,7.0,90.17
2021-06-08 18:00:00,88.0,67.8,51.3,160.0,6.0,30.01,10.0,91.52
2021-06-08 19:00:00,89.0,68.0,50.2,170.0,6.0,30.02,10.0,92.67
2021-06-08 20:00:00,86.4,66.6,51.78,170.0,5.0,30.02,10.0,89.03
2021-06-08 21:00:00,83.3,67.3,58.6,200.0,4.0,30.0,10.0,86.06
2021-06-08 22:00:00,86.7,67.0,52.18,0.0,0.0,29.98,10.0,89.64
2021-06-08 23:00:00,82.4,66.4,58.48,140.0,3.0,30.01,10.0,84.71
2021-06-09 00:00:00,72.3,62.2,70.55,360.0,7.0,30.09,10.0,72.3
2021-06-09 01:00:00,64.8,64.0,97.24,70.0,9.0,30.13,10.0,64.8
2021-06-09 02:00:00,66.7,63.0,87.89,130.0,5.0,30.13,7.0,66.7
2021-06-09 03:00:00,67.0,60.3,78.79,140.0,9.0,30.04,10.0,67.1
2021-06-09 04:00:00,65.7,61.0,84.79,30.0,9.0,30.05,10.0,65.7
2021-06-09 05:00:00,64.8,60.0,84.73,50.0,6.0,30.07,10.0,64.8
2021-06-09 06:00:00,62.2,60.4,93.82,350.0,6.0,30.08,10.0,62.2
2021-06-09 07:00:00,62.0,60.0,93.15,10.0,5.0,30.07,10.0,61.9
2021-06-09 08:00:00,60.3,59.4,96.84,0.0,0.0,30.08,10.0,60.3
2021-06-09 09:00:00,60.0,60.0,99.29,0.0,0.0,30.08,10.0,60.1
2021-06-09 10:00:00,61.7,61.7,100.0,10.0,4.0,30.11,10.0,61.7
2021-06-09 11:00:00,64.6,64.4,99.3,0.0,0.0,30.13,10.0,64.6
2021-06-09 12:00:00,64.6,64.4,99.3,0.0,0.0,30.13,10.0,64.6
2021-06-09 13:00:00,71.2,68.0,89.63,130.0,3.0,30.14,10.0,71.2
2021-06-09 14:00:00,73.6,69.4,86.72,0.0,0.0,30.14,10.0,73.6
2021-06-09 15:00:00,77.5,70.5,79.06,120.0,3.0,30.14,10.0,77.5
2021-06-09 16:00:00,80.0,69.6,70.84,130.0,3.0,30.13,10.0,79.9
2021-06-09 17:00:00,82.0,70.2,67.74,140.0,5.0,30.11,10.0,85.78
2021-06-09 18:00:00,83.5,69.4,62.58,160.0,5.0,30.1,10.0,87.36
2021-06-09 19:00:00,85.0,67.3,55.66,130.0,4.0,30.09,10.0,87.8
2021-06-09 20:00:00,85.0,68.2,57.04,130.0,3.0,30.08,10.0,88.52
2021-06-09 21:00:00,85.0,67.5,55.69,130.0,6.0,30.07,10.0,88.13
2021-06-09 22:00:00,83.8,67.0,56.87,140.0,5.0,30.06,10.0,86.41
2021-06-09 23:00:00,82.8,66.6,58.13,110.0,5.0,30.06,10.0,85.21
2021-06-10 00:00:00,79.7,68.7,69.14,120.0,5.0,30.06,10.0,79.7
2021-06-10 01:00:00,75.2,67.0,75.94,120.0,8.0,30.08,10.0,75.2
2021-06-10 02:00:00,72.5,66.2,80.6,110.0,8.0,30.1,10.0,72.5
2021-06-10 03:00:00,70.2,65.5,85.05,130.0,4.0,30.1,10.0,70.2
2021-06-10 04:00:00,68.5,65.3,89.52,120.0,5.0,30.08,10.0,68.5
2021-06-10 05:00:00,67.3,65.3,93.3,130.0,6.0,30.07,10.0,67.3
2021-06-10 06:00:00,66.2,65.3,96.92,120.0,3.0,30.06,10.0,66.2
2021-06-10 07:00:00,64.2,64.0,99.3,0.0,0.0,30.03,10.0,64.2
2021-06-10 08:00:00,62.0,62.0,100.0,0.0,0.0,30.03,4.0,61.9
2021-06-10 09:00:00,61.2,61.2,100.0,0.0,0.0,30.03,5.0,61.2
2021-06-10 10:00:00,62.2,62.2,100.0,0.0,0.0,30.03,5.0,62.2
2021-06-10 11:00:00,66.7,64.8,93.61,0.0,0.0,30.03,10.0,66.7
2021-06-10 12:00:00,70.7,66.7,87.17,0.0,0.0,30.03,10.0,70.7
2021-06-10 13:00:00,75.4,68.2,78.35,0.0,0.0,30.02,10.0,75.4
2021-06-10 14:00:00,78.8,67.6,68.57,220.0,8.0,30.01,10.0,78.8
2021-06-10 15:00:00,81.0,67.6,63.8,200.0,5.0,30.0,10.0,83.63
2021-06-10 16:00:00,83.0,65.8,56.36,200.0,4.0,29.98,10.0,84.99
2021-06-10 17:00:00,84.0,64.0,50.9,0.0,0.0,29.96,10.0,85.32
2021-06-10 18:00:00,85.8,66.2,52.06,170.0,8.0,29.95,10.0,88.18
2021-06-10 19:00:00,87.0,63.3,45.42,170.0,5.0,29.93,10.0,87.89
2021-06-10 20:00:00,87.0,67.6,52.42,170.0,9.0,29.93,10.0,90.39
2021-06-10 21:00:00,84.7,66.7,54.87,140.0,10.0,29.91,10.0,87.27
2021-06-10 22:00:00,82.0,67.3,61.32,160.0,3.0,29.91,10.0,84.53
2021-06-10 23:00:00,72.7,70.0,91.24,330.0,9.0,29.94,10.0,72.7
2021-06-11 00:00:00,66.7,60.6,80.74,250.0,6.0,29.92,10.0,66.7
2021-06-11 01:00:00,64.4,62.0,92.24,170.0,13.0,29.93,10.0,64.4
2021-06-11 02:00:00,67.0,58.3,73.35,210.0,5.0,29.9,10.0,67.1
2021-06-11 03:00:00,65.0,60.0,83.26,290.0,8.0,29.94,10.0,65.1
2021-06-11 04:00:00,64.0,61.0,89.97,330.0,6.0,29.93,10.0,64.0
2021-06-11 05:00:00,64.2,61.2,89.98,150.0,3.0,29.88,10.0,64.2
2021-06-11 06:00:00,62.6,61.7,96.87,0.0,0.0,29.87,10.0,62.6
2021-06-11 07:00:00,61.2,60.4,97.2,10.0,4.0,29.88,10.0,61.2
2021-06-11 08:00:00,62.2,60.8,95.17,110.0,9.0,29.88,10.0,62.2
2021-06-11 09:00:00,60.8,60.0,97.54,0.0,0.0,29.91,10.0,60.8
2021-06-11 10:00:00,61.5,60.8,97.55,0.0,0.0,29.91,10.0,61.5
2021-06-11 11:00:00,65.0,62.4,91.61,0.0,0.0,29.9,10.0,64.9
2021-06-11 12:00:00,67.8,64.2,88.25,0.0,0.0,29.9,10.0,67.8
2021-06-11 13:00:00,72.0,65.3,79.18,90.0,4.0,29.91,10.0,72.1
2021-06-11 14:00:00,74.5,64.8,71.77,120.0,5.0,29.91,10.0,74.5
2021-06-11 15:00:00,76.8,65.0,67.17,140.0,6.0,29.9,10.0,76.8
2021-06-11 16:00:00,77.0,66.2,69.33,200.0,6.0,29.93,10.0,77.0
2021-06-11 17:00:00,67.6,63.5,86.71,240.0,14.0,29.91,2.0,67.6
2021-06-11 18:00:00,68.7,62.8,81.46,10.0,8.0,29.9,10.0,68.7
2021-06-11 19:00:00,69.0,62.8,80.35,320.0,8.0,29.84,10.0,69.1
2021-06-11 20:00:00,70.0,66.0,87.14,150.0,7.0,29.88,10.0,70.0
2021-06-11 21:00:00,74.0,66.4,76.9,130.0,10.0,29.8,10.0,74.1
2021-06-11 22:00:00,76.5,66.7,71.72,160.0,4.0,29.85,10.0,76.5
2021-06-11 23:00:00,75.4,67.6,76.75,100.0,5.0,29.85,10.0,75.4
2021-06-12 00:00:00,74.8,66.4,75.12,100.0,5.0,29.88,10.0,74.8
2021-06-12 01:00:00,70.5,67.3,89.61,110.0,10.0,29.88,10.0,70.5
2021-06-12 02:00:00,66.2,63.5,91.01,120.0,8.0,29.9,10.0,66.2
2021-06-12 03:00:00,63.5,62.0,94.52,140.0,5.0,29.91,10.0,63.5
2021-06-12 04:00:00,62.0,61.0,96.18,120.0,4.0,29.91,10.0,62.1
2021-06-12 05:00:00,61.2,60.4,97.2,120.0,4.0,29.91,10.0,61.2
2021-06-12 06:00:00,60.3,60.3,100.0,90.0,4.0,29.91,10.0,60.3
2021-06-12 07:00:00,60.0,60.0,100.0,0.0,0.0,29.9,3.0,60.1
2021-06-12 08:00:00,59.5,59.5,100.0,0.0,0.0,29.9,0.5,59.5
2021-06-12 09:00:00,59.2,59.2,100.0,0.0,0.0,29.91,0.25,59.2
2021-06-12 10:00:00,59.0,59.0,100.0,0.0,0.0,29.92,0.25,59.0
2021-06-12 11:00:00,60.0,60.0,100.0,330.0,3.0,29.93,1.0,60.1
2021-06-12 12:00:00,62.6,62.6,100.0,320.0,3.0,29.93,4.0,62.6
2021-06-12 13:00:00,65.3,65.3,100.0,330.0,4.0,29.93,10.0,65.3
2021-06-12 14:00:00,71.0,64.8,80.5,320.0,10.0,29.94,10.0,71.1
2021-06-12 15:00:00,73.2,62.0,68.2,310.0,11.0,29.94,10.0,73.2
2021-06-12 16:00:00,74.8,60.0,60.21,310.0,8.0,29.93,10.0,74.8
2021-06-12 17:00:00,76.0,57.0,51.93,290.0,9.0,29.93,10.0,75.9
2021-06-12 18:00:00,76.5,57.0,50.91,290.0,8.0,29.93,10.0,76.5
2021-06-12 19:00:00,77.2,54.0,44.6,290.0,10.0,29.93,10.0,77.2
2021-06-12 20:00:00,77.0,51.8,41.42,290.0,7.0,29.93,10.0,77.0
2021-06-12 21:00:00,77.0,51.8,41.42,310.0,8.0,29.93,10.0,77.0
2021-06-12 22:00:00,76.0,52.2,43.31,310.0,9.0,29.92,10.0,76.1
2021-06-12 23:00:00,75.2,51.8,43.97,310.0,7.0,29.92,10.0,75.2
2021-06-13 00:00:00,72.5,53.8,51.82,320.0,3.0,29.93,10.0,72.5
2021-06-13 01:00:00,66.4,55.8,68.67,0.0,0.0,29.95,10.0,66.4
2021-06-13 02:00:00,62.6,58.5,86.44,0.0,0.0,29.97,10.0,62.6
2021-06-13 03:00:00,59.5,57.4,92.75,0.0,0.0,29.99,10.0,59.5
2021-06-13 04:00:00,59.0,56.7,92.06,0.0,0.0,30.0,10.0,59.0
2021-06-13 05:00:00,56.3,55.8,98.2,0.0,0.0,30.01,10.0,56.3
2021-06-13 06:00:00,55.0,54.5,98.55,0.0,0.0,30.01,10.0,54.9
2021-06-13 07:00:00,53.0,53.0,99.27,0.0,0.0,30.01,10.0,53.1
2021-06-13 08:00:00,52.7,52.7,100.0,0.0,0.0,30.01,10.0,52.7
2021-06-13 09:00:00,51.3,51.3,100.0,0.0,0.0,30.02,10.0,51.3
2021-06-13 10:00:00,52.5,52.5,100.0,0.0,0.0,30.04,10.0,52.5
2021-06-13 11:00:00,57.2,53.0,85.52,0.0,0.0,30.05,10.0,57.2
2021-06-13 12:00:00,63.5,53.8,70.64,0.0,0.0,30.05,10.0,63.5
2021-06-13 13:00:00,69.0,56.0,63.69,0.0,0.0,30.05,10.0,68.9
2021-06-13 14:00:00,72.3,54.7,53.91,280.0,3.0,30.05,10.0,72.3
2021-06-13 15:00:00,74.8,52.0,44.89,290.0,4.0,30.05,10.0,74.8
2021-06-13 16:00:00,76.5,53.4,44.66,280.0,8.0,30.05,10.0,76.5
2021-06-13 17:00:00,76.8,52.5,42.78,300.0,5.0,30.02,10.0,76.8
2021-06-13 18:00:00,78.3,54.7,44.12,260.0,9.0,30.02,10.0,78.3
2021-06-13 19:00:00,80.0,55.4,42.94,280.0,6.0,29.99,10.0,79.9
2021-06-13 20:00:00,80.6,54.0,39.88,260.0,6.0,29.96,10.0,80.34
2021-06-13 21:00:00,77.4,53.8,43.99,240.0,7.0,29.94,10.0,77.4
2021-06-13 22:00:00,78.0,55.4,45.86,250.0,8.0,29.94,10.0,77.9
2021-06-13 23:00:00,77.2,54.5,45.43,240.0,5.0,29.91,10.0,77.2
2021-06-14 00:00:00,73.2,59.2,61.52,160.0,4.0,29.89,10.0,73.2
2021-06-14 01:00:00,66.6,54.3,64.58,60.0,16.0,29.9,10.0,66.6
2021-06-14 02:00:00,61.2,53.0,74.67,30.0,10.0,29.96,10.0,61.2
2021-06-14 03:00:00,57.7,53.8,86.81,60.0,5.0,29.98,10.0,57.7
2021-06-14 04:00:00,56.5,53.6,89.99,0.0,0.0,29.98,10.0,56.5
2021-06-14 05:00:00,55.4,54.0,95.03,0.0,0.0,29.98,10.0,55.4
2021-06-14 06:00:00,54.3,53.6,97.47,300.0,3.0,29.98,10.0,54.3
2021-06-14 07:00:00,53.4,52.3,96.04,0.0,0.0,29.99,10.0,53.4
2021-06-14 08:00:00,51.3,51.0,98.53,0.0,0.0,29.99,10.0,51.3
2021-06-14 09:00:00,49.8,49.8,100.0,0.0,0.0,30.0,10.0,49.8
2021-06-14 10:00:00,53.2,51.0,91.87,310.0,5.0,30.02,10.0,53.2
2021-06-14 11:00:00,56.3,51.3,83.28,310.0,7.0,30.03,10.0,56.3
2021-06-14 12:00:00,60.3,52.0,74.04,330.0,7.0,30.04,10.0,60.3
2021-06-14 13:00:00,65.8,54.0,65.91,330.0,7.0,30.04,10.0,65.8
2021-06-14 14:00:00,70.0,53.6,56.0,300.0,7.0,30.03,10.0,70.0
2021-06-14 15:00:00,71.6,53.0,51.69,300.0,9.0,30.03,10.0,71.6
2021-06-14 16:00:00,71.6,50.2,46.78,350.0,10.0,30.03,10.0,71.6
2021-06-14 17:00:00,71.4,51.0,48.7,350.0,6.0,30.02,10.0,71.4
2021-06-14 18:00:00,67.0,53.6,61.86,360.0,4.0,30.03,10.0,67.1
2021-06-14 19:00:00,73.0,50.7,45.61,320.0,13.0,30.02,10.0,72.9
2021-06-14 20:00:00,74.3,48.6,40.24,320.0,11.0,30.02,10.0,74.3
2021-06-14 21:00:00,74.0,49.8,42.65,320.0,10.0,30.03,10.0,73.9
2021-06-14 22:00:00,71.0,49.0,45.67,340.0,11.0,30.04,10.0,71.1
2021-06-14 23:00:00,70.3,50.0,48.53,360.0,9.0,30.05,10.0,70.3
2021-06-15 00:00:00,67.6,50.7,54.64,360.0,7.0,30.07,10.0,67.6
2021-06-15 01:00:00,62.0,51.0,67.17,360.0,5.0,30.07,10.0,61.9
2021-06-15 02:00:00,59.4,50.4,72.06,10.0,4.0,30.09,10.0,59.4
2021-06-15 03:00:00,55.8,49.8,80.21,0.0,0.0,30.1,10.0,55.8
2021-06-15 04:00:00,54.7,50.4,85.37,10.0,3.0,30.11,10.0,54.7
2021-06-15 05:00:00,53.2,49.8,88.19,0.0,0.0,30.12,10.0,53.2
2021-06-15 06:00:00,53.6,50.2,88.21,350.0,4.0,30.11,10.0,53.6
2021-06-15 07:00:00,51.8,50.4,94.95,0.0,0.0,30.12,10.0,51.8
2021-06-15 08:00:00,49.6,49.0,98.15,0.0,0.0,30.13,10.0,49.6
2021-06-15 09:00:00,49.3,48.7,97.78,350.0,3.0,30.15,10.0,48.47
2021-06-15 10:00:00,52.0,51.0,96.02,360.0,3.0,30.16,10.0,52.0
2021-06-15 11:00:00,56.3,53.0,88.99,10.0,6.0,30.17,10.0,56.3
2021-06-15 12:00:00,60.0,52.7,76.51,20.0,5.0,30.18,10.0,60.1
2021-06-15 13:00:00,64.6,54.0,68.47,40.0,7.0,30.18,10.0,64.6
2021-06-15 14:00:00,67.3,53.8,61.89,40.0,5.0,30.19,10.0,67.3
2021-06-15 15:00:00,69.0,52.7,56.26,40.0,8.0,30.19,10.0,68.9
2021-06-15 16:00:00,70.5,52.3,52.49,20.0,3.0,30.19,10.0,70.5
2021-06-15 17:00:00,72.0,53.6,52.32,20.0,7.0,30.18,10.0,72.0
2021-06-15 18:00:00,71.6,52.3,50.56,20.0,7.0,30.17,10.0,71.6
2021-06-15 19:00:00,72.5,52.0,48.5,20.0,11.0,30.17,10.0,72.5
2021-06-15 20:00:00,73.4,51.0,45.51,50.0,9.0,30.16,10.0,73.4
2021-06-15 21:00:00,71.2,49.5,46.2,360.0,8.0,30.15,10.0,71.2
2021-06-15 22:00:00,72.0,47.8,42.19,360.0,7.0,30.15,10.0,72.0
2021-06-15 23:00:00,71.0,45.7,40.19,50.0,9.0,30.15,10.0,71.1
2021-06-16 00:00:00,68.0,46.0,45.19,40.0,7.0,30.16,10.0,68.0
2021-06-16 01:00:00,60.4,49.5,67.24,50.0,3.0,30.16,10.0,60.4
2021-06-16 02:00:00,58.0,46.6,65.95,80.0,4.0,30.18,10.0,57.9
2021-06-16 03:00:00,55.0,47.0,74.64,40.0,3.0,30.19,10.0,55.0
2021-06-16 04:00:00,55.0,47.0,74.64,40.0,3.0,30.19,10.0,55.0
2021-06-16 05:00:00,51.6,46.2,81.72,0.0,0.0,30.19,10.0,51.6
2021-06-16 06:00:00,49.0,45.3,86.67,0.0,0.0,30.18,10.0,49.1
2021-06-16 07:00:00,47.0,44.8,92.35,0.0,0.0,30.19,10.0,46.9
2021-06-16 08:00:00,45.7,44.8,96.64,0.0,0.0,30.19,10.0,45.7
2021-06-16 09:00:00,44.2,44.0,98.86,0.0,0.0,30.2,10.0,44.2
2021-06-16 10:00:00,45.0,42.8,91.59,0.0,0.0,30.2,10.0,45.1
2021-06-16 11:00:00,50.5,46.6,86.42,0.0,0.0,30.2,10.0,50.5
2021-06-16 12:00:00,56.5,43.2,60.95,0.0,0.0,30.2,10.0,56.5
2021-06-16 13:00:00,62.0,38.3,41.27,150.0,3.0,30.2,10.0,62.1
2021-06-16 14:00:00,64.0,37.0,36.68,170.0,3.0,30.18,10.0,64.0
2021-06-16 15:00:00,65.7,39.2,37.68,170.0,6.0,30.18,10.0,65.7
2021-06-16 16:00:00,67.6,39.0,35.01,0.0,0.0,30.17,10.0,67.6
2021-06-16 17:00:00,69.0,38.7,33.09,0.0,0.0,30.15,10.0,68.9
2021-06-16 18:00:00,71.0,46.2,41.23,230.0,4.0,30.14,10.0,70.9
2021-06-16 19:00:00,72.3,44.8,37.29,0.0,0.0,30.11,10.0,72.3
2021-06-16 20:00:00,73.6,47.5,39.53,190.0,5.0,30.09,10.0,73.6
2021-06-16 21:00:00,74.3,47.8,39.05,250.0,8.0,30.08,10.0,74.3
2021-06-16 22:00:00,73.2,45.7,37.43,0.0,0.0,30.05,10.0,73.2
2021-06-16 23:00:00,73.4,47.3,39.5,240.0,6.0,30.04,10.0,73.4
2021-06-17 00:00:00,70.7,50.2,48.23,250.0,3.0,30.04,10.0,70.7
2021-06-17 01:00:00,64.0,53.2,67.91,180.0,3.0,30.04,10.0,64.0
2021-06-17 02:00:00,61.7,51.3,68.65,0.0,0.0,30.03,10.0,61.7
2021-06-17 03:00:00,59.0,51.8,76.98,0.0,0.0,30.03,10.0,59.0
2021-06-17 04:00:00,58.0,50.2,74.93,170.0,3.0,30.02,10.0,58.1
2021-06-17 05:00:00,57.4,50.4,77.41,160.0,4.0,30.02,10.0,57.4
2021-06-17 06:00:00,56.5,49.3,76.76,170.0,5.0,30.01,10.0,56.5
2021-06-17 07:00:00,56.8,48.7,74.25,160.0,4.0,29.98,10.0,56.8
2021-06-17 08:00:00,56.0,48.4,75.85,160.0,10.0,29.94,10.0,55.9
2021-06-17 09:00:00,54.5,47.8,78.04,180.0,4.0,29.95,10.0,54.5
2021-06-17 10:00:00,54.3,49.5,83.77,0.0,0.0,29.97,10.0,54.3
2021-06-17 11:00:00,60.6,50.7,69.81,200.0,3.0,29.96,10.0,60.6
2021-06-17 12:00:00,64.4,52.2,64.54,190.0,7.0,29.95,10.0,64.4
2021-06-17 13:00:00,64.6,52.2,64.1,200.0,9.0,29.95,10.0,64.6
2021-06-17 14:00:00,72.0,56.7,58.36,190.0,8.0,29.92,10.0,72.1
2021-06-17 15:00:00,75.0,58.0,55.68,220.0,14.0,29.9,10.0,75.0
2021-06-17 16:00:00,79.2,59.7,51.3,190.0,13.0,29.88,10.0,79.2
2021-06-17 17:00:00,80.0,60.4,51.06,190.0,14.0,29.86,10.0,81.0
2021-06-17 18:00:00,83.3,61.7,48.19,200.0,16.0,29.85,10.0,83.92
2021-06-17 19:00:00,84.0,62.0,47.78,210.0,16.0,29.82,10.0,84.67
2021-06-17 20:00:00,83.5,63.0,50.12,240.0,13.0,29.81,10.0,84.53
2021-06-17 21:00:00,82.2,63.5,53.2,230.0,8.0,29.8,10.0,83.5
2021-06-17 22:00:00,83.0,65.0,54.62,230.0,8.0,29.78,10.0,84.64
2021-06-17 23:00:00,80.0,64.0,58.36,210.0,11.0,29.8,10.0,79.9
2021-06-18 00:00:00,77.0,63.7,63.54,210.0,9.0,29.78,10.0,77.0
2021-06-18 01:00:00,75.6,63.7,66.57,220.0,8.0,29.78,10.0,75.6
2021-06-18 02:00:00,74.0,63.5,69.98,210.0,9.0,29.78,10.0,73.9
2021-06-18 03:00:00,71.0,64.6,80.48,230.0,10.0,29.79,10.0,70.9
2021-06-18 04:00:00,70.2,64.8,83.0,220.0,6.0,29.79,10.0,70.2
2021-06-18 05:00:00,68.5,65.0,88.28,0.0,0.0,29.77,10.0,68.5
2021-06-18 06:00:00,67.5,64.6,90.42,0.0,0.0,29.75,10.0,67.5
2021-06-18 07:00:00,67.0,65.5,94.6,240.0,3.0,29.74,10.0,67.1
2021-06-18 08:00:00,65.8,64.8,96.58,180.0,4.0,29.74,10.0,65.8
2021-06-18 09:00:00,62.2,62.0,99.65,0.0,0.0,29.76,10.0,62.2
2021-06-18 10:00:00,62.4,62.4,100.0,0.0,0.0,29.78,0.25,62.4
2021-06-18 11:00:00,66.0,63.5,91.64,280.0,6.0,29.77,10.0,66.0
2021-06-18 12:00:00,69.6,58.5,67.8,300.0,7.0,29.78,10.0,69.6
2021-06-18 13:00:00,74.0,57.7,56.56,290.0,11.0,29.78,10.0,74.1
2021-06-18 14:00:00,77.0,56.3,48.82,300.0,12.0,29.78,10.0,77.0
2021-06-18 15:00:00,78.8,51.3,38.31,280.0,13.0,29.78,10.0,78.8
2021-06-18 16:00:00,79.5,47.0,31.77,300.0,21.0,29.78,10.0,79.5
2021-06-18 17:00:00,79.2,43.3,27.98,300.0,17.0,29.77,10.0,79.2
2021-06-18 18:00:00,80.4,42.4,25.99,300.0,16.0,29.78,10.0,79.17
2021-06-18 19:00:00,80.6,42.3,25.72,280.0,15.0,29.78,10.0,79.27
2021-06-18 20:00:00,81.0,42.0,24.91,280.0,18.0,29.77,10.0,79.54
2021-06-18 21:00:00,80.8,43.0,26.25,280.0,15.0,29.77,10.0,79.43
2021-06-18 22:00:00,80.0,44.0,28.01,280.0,12.0,29.77,10.0,79.12
2021-06-18 23:00:00,79.0,44.0,28.82,270.0,13.0,29.78,10.0,79.0
2021-06-19 00:00:00,75.7,43.3,31.41,270.0,9.0,29.79,10.0,75.7
2021-06-19 01:00:00,69.4,45.3,41.94,250.0,5.0,29.79,10.0,69.4
2021-06-19 02:00:00,62.4,47.7,58.57,220.0,3.0,29.8,10.0,62.4
2021-06-19 03:00:00,60.4,48.2,64.05,10.0,3.0,29.81,10.0,60.4
2021-06-19 04:00:00,58.0,49.8,73.82,0.0,0.0,29.79,10.0,58.1
2021-06-19 05:00:00,55.2,49.8,81.98,50.0,3.0,29.75,10.0,55.2
2021-06-19 06:00:00,54.3,50.4,86.62,350.0,6.0,29.76,10.0,54.3
2021-06-19 07:00:00,58.3,48.2,69.04,40.0,10.0,29.76,10.0,58.3
2021-06-19 08:00:00,56.0,51.0,83.26,160.0,5.0,29.8,10.0,55.9
2021-06-19 09:00:00,55.0,51.0,86.98,120.0,6.0,29.76,10.0,54.9
2021-06-19 10:00:00,55.0,51.3,87.62,130.0,5.0,29.77,10.0,54.9
2021-06-19 11:00:00,56.5,53.0,87.7,350.0,6.0,29.82,10.0,56.5
2021-06-19 12:00:00,61.0,52.5,73.56,0.0,0.0,29.83,10.0,61.0
2021-06-19 13:00:00,63.0,54.0,72.43,60.0,5.0,29.82,10.0,63.1
2021-06-19 14:00:00,64.8,54.0,68.0,110.0,5.0,29.82,10.0,64.8
2021-06-19 15:00:00,66.6,54.5,65.05,0.0,0.0,29.83,10.0,66.6
2021-06-19 16:00:00,68.2,55.0,62.46,90.0,3.0,29.81,10.0,68.2
2021-06-19 17:00:00,70.2,53.6,55.62,0.0,0.0,29.81,10.0,70.2
2021-06-19 18:00:00,71.4,53.2,52.62,260.0,5.0,29.8,10.0,71.4
2021-06-19 19:00:00,72.0,53.6,52.14,0.0,0.0,29.79,10.0,72.1
2021-06-19 20:00:00,74.0,52.0,46.27,0.0,0.0,29.78,10.0,73.9
2021-06-19 21:00:00,73.0,52.3,48.39,0.0,0.0,29.78,10.0,72.9
2021-06-19 22:00:00,73.2,53.0,49.33,310.0,8.0,29.77,10.0,73.2
2021-06-19 23:00:00,70.7,52.2,51.94,310.0,6.0,29.77,10.0,70.7
2021-06-20 00:00:00,70.0,53.0,54.58,310.0,3.0,29.78,10.0,70.0
2021-06-20 01:00:00,66.0,52.7,62.18,310.0,5.0,29.78,10.0,66.0
2021-06-20 02:00:00,63.7,52.7,67.37,320.0,5.0,29.8,10.0,63.7
2021-06-20 03:00:00,59.4,53.6,81.08,350.0,6.0,29.8,10.0,59.4
2021-06-20 04:00:00,57.6,53.0,84.91,40.0,5.0,29.8,10.0,57.6
2021-06-20 05:00:00,55.4,53.6,93.65,50.0,3.0,29.81,10.0,55.4
2021-06-20 06:00:00,53.6,52.7,96.75,80.0,4.0,29.79,10.0,53.6
2021-06-20 07:00:00,53.8,52.2,94.3,90.0,4.0,29.79,10.0,53.8
2021-06-20 08:00:00,51.8,51.0,96.73,330.0,8.0,29.81,10.0,51.8
2021-06-20 09:00:00,50.0,50.0,100.0,60.0,5.0,29.76,10.0,50.0
2021-06-20 10:00:00,52.0,51.4,97.81,100.0,3.0,29.74,10.0,52.0
2021-06-20 11:00:00,56.3,52.7,87.69,140.0,4.0,29.75,10.0,56.3
2021-06-20 12:00:00,58.0,54.0,86.2,180.0,5.0,29.79,10.0,58.1
2021-06-20 13:00:00,61.7,54.5,77.22,0.0,0.0,29.78,10.0,61.7
2021-06-20 14:00:00,63.0,55.6,76.5,220.0,4.0,29.78,10.0,63.1
2021-06-20 15:00:00,65.0,55.6,71.83,320.0,4.0,29.75,10.0,64.9
2021-06-20 16:00:00,68.0,54.5,61.98,360.0,3.0,29.73,10.0,68.0
2021-06-20 17:00:00,69.0,55.2,61.64,110.0,5.0,29.7,10.0,68.9
2021-06-20 18:00:00,68.7,53.8,58.98,160.0,4.0,29.69,10.0,68.7
2021-06-20 19:00:00,67.5,56.5,67.81,140.0,9.0,29.68,10.0,67.5
2021-06-20 20:00:00,62.4,59.2,89.26,160.0,8.0,29.66,5.0,62.4
2021-06-20 21:00:00,62.6,60.8,93.83,140.0,5.0,29.64,10.0,62.6
2021-06-20 22:00:00,61.2,60.8,98.59,170.0,10.0,29.61,3.0,61.2
2021-06-20 23:00:00,60.8,60.8,100.0,160.0,9.0,29.58,3.0,60.8
2021-06-21 00:00:00,60.8,60.8,100.0,150.0,9.0,29.52,7.0,60.8
2021-06-21 01:00:00,61.2,61.2,100.0,200.0,5.0,29.53,5.0,61.2
2021-06-21 02:00:00,61.0,61.0,100.0,0.0,0.0,29.51,7.0,61.0
2021-06-21 03:00:00,61.0,61.0,100.0,0.0,0.0,29.47,10.0,61.0
2021-06-21 04:00:00,61.0,61.0,100.0,320.0,3.0,29.44,5.0,61.0
2021-06-21 05:00:00,55.4,54.7,97.49,340.0,15.0,29.47,10.0,55.4
2021-06-21 06:00:00,55.2,53.8,95.02,330.0,18.0,29.5,10.0,55.2
2021-06-21 07:00:00,54.7,53.8,96.77,330.0,12.0,29.52,10.0,54.7
2021-06-21 08:00:00,55.0,53.8,96.06,320.0,12.0,29.53,10.0,54.9
2021-06-21 09:00:00,55.0,53.2,93.63,320.0,11.0,29.55,10.0,55.0
2021-06-21 10:00:00,54.0,51.3,90.55,320.0,16.0,29.59,4.0,54.0
2021-06-21 11:00:00,51.4,48.7,90.45,320.0,16.0,29.64,10.0,51.4
2021-06-21 12:00:00,50.2,48.7,94.56,330.0,14.0,29.69,10.0,50.2
2021-06-21 13:00:00,48.6,47.5,95.96,320.0,14.0,29.71,2.0,42.56
2021-06-21 14:00:00,51.0,47.0,86.76,320.0,16.0,29.75,10.0,50.9
2021-06-21 15:00:00,50.4,44.8,81.02,310.0,15.0,29.79,10.0,50.4
2021-06-21 16:00:00,52.0,41.4,67.02,320.0,20.0,29.81,10.0,52.0
2021-06-21 17:00:00,55.0,41.4,60.05,320.0,16.0,29.83,10.0,55.0
2021-06-21 18:00:00,55.2,38.8,53.88,320.0,15.0,29.84,10.0,55.2
2021-06-21 19:00:00,56.3,39.4,53.0,310.0,15.0,29.85,10.0,56.3
2021-06-21 20:00:00,57.4,38.8,49.76,320.0,13.0,29.85,10.0,57.4
2021-06-21 21:00:00,56.5,38.0,50.01,340.0,12.0,29.85,10.0,56.5
2021-06-21 22:00:00,56.7,40.0,53.27,300.0,10.0,29.86,10.0,56.7
2021-06-21 23:00:00,57.2,39.6,51.71,300.0,7.0,29.87,10.0,57.2
2021-06-22 00:00:00,54.0,40.8,60.63,300.0,6.0,29.88,10.0,54.1
2021-06-22 01:00:00,51.4,43.2,73.44,270.0,4.0,29.89,10.0,51.4
2021-06-22 02:00:00,49.3,43.3,79.7,270.0,3.0,29.91,10.0,48.47
2021-06-22 03:00:00,49.5,44.0,81.57,0.0,0.0,29.92,10.0,49.5
2021-06-22 04:00:00,49.0,44.0,82.17,0.0,0.0,29.92,10.0,49.1
2021-06-22 05:00:00,48.2,46.4,93.45,0.0,0.0,29.91,10.0,48.2
2021-06-22 06:00:00,48.2,44.8,87.95,0.0,0.0,29.9,10.0,48.2
2021-06-22 07:00:00,47.8,45.0,89.96,0.0,0.0,29.9,10.0,47.8
2021-06-22 08:00:00,47.5,45.3,92.02,0.0,0.0,29.88,10.0,47.5
2021-06-22 09:00:00,47.3,45.3,92.72,270.0,3.0,29.9,10.0,46.18
2021-06-22 10:00:00,47.5,45.0,90.98,270.0,4.0,29.91,10.0,45.52
2021-06-22 11:00:00,48.2,44.6,87.28,0.0,0.0,29.92,10.0,48.2
2021-06-22 12:00:00,50.0,44.8,82.23,270.0,5.0,29.94,10.0,50.0
2021-06-22 13:00:00,55.6,44.6,66.43,300.0,8.0,29.95,10.0,55.6
2021-06-22 14:00:00,57.0,43.5,60.55,280.0,9.0,29.94,10.0,57.0
2021-06-22 15:00:00,60.3,44.0,54.63,250.0,13.0,29.94,10.0,60.3
2021-06-22 16:00:00,56.3,41.7,57.95,310.0,9.0,29.94,10.0,56.3
2021-06-22 17:00:00,60.0,41.2,49.59,290.0,9.0,29.93,10.0,60.1
2021-06-22 18:00:00,61.7,42.3,48.89,310.0,11.0,29.93,10.0,61.7
2021-06-22 19:00:00,63.0,42.3,46.7,270.0,9.0,29.93,10.0,63.0
2021-06-22 20:00:00,63.3,40.6,43.27,270.0,8.0,29.93,10.0,63.3
2021-06-22 21:00:00,64.4,42.0,43.78,280.0,9.0,29.93,10.0,64.4
2021-06-22 22:00:00,63.5,41.4,44.32,250.0,8.0,29.92,10.0,63.5
2021-06-22 23:00:00,63.0,40.3,43.22,260.0,5.0,29.93,10.0,63.0
2021-06-23 00:00:00,59.4,43.7,55.98,240.0,5.0,29.93,10.0,59.4
2021-06-23 01:00:00,54.3,46.8,75.71,190.0,3.0,29.94,10.0,54.3
2021-06-23 02:00:00,51.0,45.5,81.67,0.0,0.0,29.96,10.0,50.9
2021-06-23 03:00:00,49.6,44.0,81.27,0.0,0.0,29.96,10.0,49.6
2021-06-23 04:00:00,49.6,41.7,74.11,0.0,0.0,29.97,10.0,49.6
2021-06-23 05:00:00,48.0,41.2,77.18,200.0,3.0,29.97,10.0,46.98
2021-06-23 06:00:00,48.2,39.4,71.43,180.0,5.0,29.95,10.0,45.63
2021-06-23 07:00:00,49.0,39.6,69.61,190.0,6.0,29.94,10.0,46.13
2021-06-23 08:00:00,49.3,41.4,74.08,180.0,8.0,29.94,10.0,45.42
2021-06-23 09:00:00,49.0,43.2,79.99,170.0,6.0,29.94,10.0,46.13
2021-06-23 10:00:00,51.0,44.2,77.16,180.0,4.0,29.94,10.0,51.1
2021-06-23 11:00:00,57.2,48.0,71.29,170.0,7.0,29.94,10.0,57.2
2021-06-23 12:00:00,56.8,49.3,75.93,180.0,4.0,29.95,10.0,56.8
2021-06-23 13:00:00,62.6,54.3,74.26,190.0,7.0,29.95,10.0,62.6
2021-06-23 14:00:00,65.8,56.8,72.7,170.0,6.0,29.94,10.0,65.8
2021-06-23 15:00:00,67.5,57.6,70.55,160.0,8.0,29.93,10.0,67.5
2021-06-23 16:00:00,71.0,59.2,66.5,180.0,10.0,29.92,10.0,70.9
2021-06-23 17:00:00,71.8,59.0,64.04,170.0,9.0,29.91,10.0,71.8
2021-06-23 18:00:00,72.7,59.2,62.57,180.0,14.0,29.9,10.0,72.7
2021-06-23 19:00:00,71.8,61.0,68.77,170.0,12.0,29.9,10.0,71.8
2021-06-23 20:00:00,69.8,60.0,71.3,160.0,10.0,29.9,10.0,69.8
2021-06-23 21:00:00,69.8,60.8,73.09,190.0,11.0,29.88,10.0,69.8
2021-06-23 22:00:00,69.6,61.2,74.65,180.0,7.0,29.88,10.0,69.6
2021-06-23 23:00:00,69.0,61.3,76.73,170.0,8.0,29.87,10.0,68.9
2021-06-24 00:00:00,67.8,61.5,80.25,170.0,8.0,29.86,10.0,67.8
2021-06-24 01:00:00,67.0,61.0,80.77,170.0,8.0,29.87,10.0,67.1
2021-06-24 02:00:00,64.6,60.8,87.48,180.0,8.0,29.88,10.0,64.6
2021-06-24 03:00:00,64.2,61.0,89.34,180.0,8.0,29.86,10.0,64.2
2021-06-24 04:00:00,63.7,61.2,91.57,180.0,9.0,29.86,10.0,63.7
2021-06-24 05:00:00,64.2,61.0,89.34,190.0,9.0,29.86,10.0,64.2
2021-06-24 06:00:00,64.0,60.3,88.07,190.0,9.0,29.84,10.0,63.9
2021-06-24 07:00:00,63.5,60.0,88.05,180.0,8.0,29.82,10.0,63.5
2021-06-24 08:00:00,63.7,59.4,85.89,180.0,9.0,29.82,10.0,63.7
2021-06-24 09:00:00,63.0,59.0,86.77,170.0,7.0,29.81,10.0,63.0
2021-06-24 10:00:00,62.0,60.0,93.15,300.0,5.0,29.86,5.0,61.9
2021-06-24 11:00:00,62.0,61.7,99.3,140.0,4.0,29.85,7.0,61.9
2021-06-24 12:00:00,62.0,62.0,100.0,160.0,5.0,29.83,10.0,62.1
2021-06-24 13:00:00,62.6,62.6,100.0,170.0,9.0,29.85,10.0,62.6
2021-06-24 14:00:00,64.0,64.0,99.65,210.0,4.0,29.85,10.0,64.0
2021-06-24 15:00:00,71.6,67.0,85.72,220.0,12.0,29.84,10.0,71.6
2021-06-24 16:00:00,71.4,65.3,81.08,220.0,12.0,29.83,10.0,71.4
2021-06-24 17:00:00,68.4,63.5,84.35,190.0,13.0,29.87,10.0,68.4
2021-06-24 18:00:00,67.6,63.0,85.5,210.0,7.0,29.86,10.0,67.6
2021-06-24 19:00:00,68.0,64.4,88.26,210.0,3.0,29.86,10.0,68.0
2021-06-24 20:00:00,68.4,64.8,88.28,0.0,0.0,29.85,10.0,68.4
2021-06-24 21:00:00,68.0,65.3,91.08,120.0,5.0,29.85,10.0,68.0
2021-06-24 22:00:00,67.0,66.2,96.93,120.0,5.0,29.86,10.0,67.1
2021-06-24 23:00:00,66.6,66.2,98.62,120.0,5.0,29.87,7.0,66.6
2021-06-25 00:00:00,67.3,66.7,97.95,140.0,6.0,29.86,7.0,67.3
2021-06-25 01:00:00,66.6,66.6,100.0,0.0,0.0,29.87,5.0,66.6
2021-06-25 02:00:00,66.4,66.4,100.0,170.0,7.0,29.88,7.0,66.4
2021-06-25 03:00:00,64.8,64.8,100.0,0.0,0.0,29.88,7.0,64.8
2021-06-25 04:00:00,64.0,63.5,98.26,230.0,6.0,29.92,10.0,64.0
2021-06-25 05:00:00,62.0,62.0,100.0,250.0,3.0,29.92,10.0,62.1
2021-06-25 06:00:00,64.0,64.0,100.0,260.0,9.0,29.92,5.0,63.9
2021-06-25 07:00:00,62.4,62.4,100.0,0.0,0.0,29.91,10.0,62.4
2021-06-25 08:00:00,62.2,62.2,100.0,290.0,4.0,29.9,10.0,62.2
2021-06-25 09:00:00,60.0,60.0,100.0,0.0,0.0,29.9,7.0,59.9
2021-06-25 10:00:00,61.0,61.0,100.0,0.0,0.0,29.91,7.0,61.0
2021-06-25 11:00:00,64.4,64.4,100.0,20.0,5.0,29.91,7.0,64.4
2021-06-25 12:00:00,65.7,65.5,99.31,40.0,10.0,29.91,10.0,65.7
2021-06-25 13:00:00,67.0,65.5,95.26,40.0,9.0,29.92,10.0,66.9
2021-06-25 14:00:00,68.4,65.5,90.46,50.0,6.0,29.91,10.0,68.4
2021-06-25 15:00:00,69.3,66.2,89.87,30.0,6.0,29.91,10.0,69.3
2021-06-25 16:00:00,69.0,65.8,89.24,40.0,7.0,29.91,10.0,69.1
2021-06-25 17:00:00,69.0,66.2,90.48,40.0,7.0,29.9,10.0,69.1
2021-06-25 18:00:00,69.3,66.6,91.12,90.0,5.0,29.9,10.0,69.3
2021-06-25 19:00:00,72.7,67.5,83.74,120.0,5.0,29.9,10.0,72.7
2021-06-25 20:00:00,72.5,67.0,83.15,120.0,5.0,29.9,10.0,72.5
2021-06-25 21:00:00,75.2,67.5,77.0,110.0,7.0,29.88,10.0,75.2
2021-06-25 22:00:00,74.0,66.6,77.44,110.0,6.0,29.88,10.0,74.1
2021-06-25 23:00:00,72.5,65.0,77.04,110.0,7.0,29.9,10.0,72.5
2021-06-26 00:00:00,70.3,66.2,86.85,120.0,4.0,29.91,10.0,70.3
2021-06-26 01:00:00,67.0,65.5,94.6,0.0,0.0,29.9,10.0,67.1
2021-06-26 02:00:00,66.2,64.8,95.25,0.0,0.0,29.91,10.0,66.2
2021-06-26 03:00:00,65.3,64.6,97.59,90.0,3.0,29.9,10.0,65.3
2021-06-26 04:00:00,64.6,64.0,97.92,130.0,5.0,29.9,10.0,64.6
2021-06-26 05:00:00,64.0,63.3,97.58,70.0,3.0,29.91,10.0,64.0
2021-06-26 06:00:00,63.5,63.0,98.26,110.0,3.0,29.9,10.0,63.5
2021-06-26 07:00:00,63.5,63.5,100.0,90.0,4.0,29.89,2.0,63.5
2021-06-26 08:00:00,62.8,62.8,100.0,100.0,4.0,29.87,4.0,62.8
2021-06-26 09:00:00,62.2,62.2,100.0,90.0,6.0,29.87,5.0,62.2
2021-06-26 10:00:00,62.2,62.2,100.0,70.0,5.0,29.86,4.0,62.2
2021-06-26 11:00:00,62.6,62.6,100.0,80.0,6.0,29.85,5.0,62.6
2021-06-26 12:00:00,63.0,63.0,100.0,70.0,5.0,29.84,5.0,63.0
2021-06-26 13:00:00,64.0,63.0,96.89,90.0,8.0,29.85,10.0,63.9
2021-06-26 14:00:00,65.0,63.0,93.89,80.0,6.0,29.84,10.0,64.9
2021-06-26 15:00:00,64.4,63.7,97.58,70.0,7.0,29.82,7.0,64.4
2021-06-26 16:00:00,65.0,64.2,97.58,70.0,6.0,29.82,10.0,64.9
2021-06-26 17:00:00,65.5,65.0,98.62,60.0,6.0,29.82,7.0,65.5
2021-06-26 18:00:00,65.0,64.4,98.27,60.0,8.0,29.81,10.0,64.9
2021-06-26 19:00:00,64.8,64.4,98.61,60.0,6.0,29.8,10.0,64.8
2021-06-26 20:00:00,65.0,64.4,98.27,70.0,7.0,29.8,10.0,64.9
2021-06-26 21:00:00,63.5,63.0,98.26,60.0,10.0,29.79,10.0,63.5
2021-06-26 22:00:00,62.0,61.0,96.86,20.0,10.0,29.8,10.0,61.9
2021-06-26 23:00:00,59.4,57.6,93.75,50.0,6.0,29.8,7.0,59.4
2021-06-27 00:00:00,58.3,57.6,97.52,40.0,7.0,29.79,7.0,58.3
2021-06-27 01:00:00,58.3,58.0,99.28,30.0,5.0,29.8,7.0,58.3
2021-06-27 02:00:00,58.5,58.3,99.29,40.0,6.0,29.81,10.0,58.5
2021-06-27 03:00:00,57.7,57.2,98.22,60.0,7.0,29.81,10.0,57.7
2021-06-27 04:00:00,57.7,57.4,98.93,20.0,4.0,29.8,10.0,57.7
2021-06-27 05:00:00,59.0,59.0,100.0,40.0,5.0,29.8,10.0,59.0
2021-06-27 06:00:00,58.0,57.7,98.57,40.0,8.0,29.79,7.0,58.1
2021-06-27 07:00:00,56.0,55.0,96.78,20.0,9.0,29.8,10.0,55.9
2021-06-27 08:00:00,54.5,54.3,99.27,50.0,10.0,29.81,10.0,54.5
2021-06-27 09:00:00,54.0,53.2,97.11,40.0,9.0,29.81,10.0,54.0
2021-06-27 10:00:00,54.0,53.2,97.11,30.0,7.0,29.84,7.0,54.0
2021-06-27 11:00:00,54.7,53.8,96.77,360.0,8.0,29.85,10.0,54.7
2021-06-27 12:00:00,56.5,54.0,91.65,20.0,4.0,29.87,10.0,56.5
2021-06-27 13:00:00,58.5,53.6,83.73,10.0,3.0,29.9,10.0,58.5
2021-06-27 14:00:00,59.0,56.0,90.09,10.0,5.0,29.93,5.0,59.0
2021-06-27 15:00:00,62.0,57.0,83.95,350.0,6.0,29.95,10.0,61.9
2021-06-27 16:00:00,65.5,58.0,76.43,0.0,0.0,29.96,10.0,65.5
2021-06-27 17:00:00,68.7,57.7,67.94,340.0,4.0,29.97,10.0,68.7
2021-06-27 18:00:00,71.4,56.8,59.98,340.0,6.0,29.97,10.0,71.4
2021-06-27 19:00:00,72.0,57.6,60.29,0.0,0.0,29.96,10.0,72.1
2021-06-27 20:00:00,72.3,56.3,57.14,0.0,0.0,29.97,10.0,72.3
2021-06-27 21:00:00,73.0,56.7,56.81,0.0,0.0,29.98,10.0,72.9
2021-06-27 22:00:00,72.7,58.5,61.02,260.0,5.0,29.99,10.0,72.7
2021-06-27 23:00:00,73.0,58.8,61.26,250.0,5.0,30.01,10.0,72.9
2021-06-28 00:00:00,69.4,60.6,73.58,200.0,6.0,30.02,10.0,69.4
2021-06-28 01:00:00,64.2,61.7,91.58,180.0,5.0,30.03,10.0,64.2
2021-06-28 02:00:00,63.7,62.6,96.21,200.0,5.0,30.05,10.0,63.7
2021-06-28 03:00:00,61.7,60.8,96.86,180.0,4.0,30.06,10.0,61.7
2021-06-28 04:00:00,61.0,60.3,97.54,200.0,4.0,30.07,10.0,61.0
2021-06-28 05:00:00,60.4,59.5,96.84,0.0,0.0,30.07,10.0,60.4
2021-06-28 06:00:00,57.6,57.4,99.28,0.0,0.0,30.08,10.0,57.6
2021-06-28 07:00:00,56.7,56.7,100.0,0.0,0.0,30.08,10.0,56.7
2021-06-28 08:00:00,56.3,56.3,100.0,0.0,0.0,30.1,10.0,56.3
2021-06-28 09:00:00,55.0,55.0,100.0,0.0,0.0,30.11,10.0,55.0
2021-06-28 10:00:00,58.0,58.0,100.0,0.0,0.0,30.11,10.0,58.1
2021-06-28 11:00:00,61.0,60.8,99.29,0.0,0.0,30.12,10.0,61.0
2021-06-28 12:00:00,64.0,62.6,95.2,200.0,5.0,30.13,10.0,64.0
2021-06-28 13:00:00,67.5,64.0,88.55,190.0,3.0,30.14,10.0,67.5
2021-06-28 14:00:00,70.7,65.0,82.46,0.0,0.0,30.14,10.0,70.7
2021-06-28 15:00:00,73.2,66.4,79.27,210.0,9.0,30.15,10.0,73.2
2021-06-28 16:00:00,73.0,65.7,78.15,350.0,3.0,30.15,10.0,72.9
2021-06-28 17:00:00,75.6,65.0,69.91,200.0,6.0,30.14,10.0,75.6
2021-06-28 18:00:00,76.5,65.3,68.32,180.0,10.0,30.13,10.0,76.5
2021-06-28 19:00:00,77.4,65.3,66.31,170.0,13.0,30.12,10.0,77.4
2021-06-28 20:00:00,76.3,64.0,65.72,190.0,11.0,30.1,10.0,76.3
2021-06-28 21:00:00,75.6,65.3,70.4,170.0,11.0,30.11,10.0,75.6
2021-06-28 22:00:00,75.0,65.0,70.83,170.0,11.0,30.1,10.0,75.0
2021-06-28 23:00:00,72.7,64.0,74.15,190.0,7.0,30.11,10.0,72.7
2021-06-29 00:00:00,70.3,64.4,81.57,200.0,4.0,30.12,10.0,70.3
2021-06-29 01:00:00,68.0,65.5,91.71,0.0,0.0,30.14,10.0,68.0
2021-06-29 02:00:00,66.2,66.2,100.0,0.0,0.0,30.15,10.0,66.2
2021-06-29 03:00:00,65.8,65.8,100.0,0.0,0.0,30.14,10.0,65.8
2021-06-29 04:00:00,65.3,65.3,100.0,240.0,3.0,30.14,7.0,65.3
2021-06-29 05:00:00,64.8,64.8,100.0,200.0,4.0,30.14,7.0,64.8
2021-06-29 06:00:00,64.4,64.4,100.0,0.0,0.0,30.14,10.0,64.4
2021-06-29 07:00:00,64.0,64.0,100.0,320.0,3.0,30.13,10.0,63.9
2021-06-29 08:00:00,62.8,62.8,100.0,0.0,0.0,30.13,10.0,62.8
2021-06-29 09:00:00,63.0,63.0,100.0,0.0,0.0,30.14,10.0,63.0
2021-06-29 10:00:00,62.8,62.8,100.0,0.0,0.0,30.15,7.0,62.8
2021-06-29 11:00:00,64.0,64.0,100.0,0.0,0.0,30.15,10.0,63.9
2021-06-29 12:00:00,65.0,65.0,100.0,0.0,0.0,30.15,10.0,65.1
2021-06-29 13:00:00,65.7,65.0,97.93,0.0,0.0,30.16,10.0,65.7
2021-06-29 14:00:00,67.0,66.0,96.26,0.0,0.0,30.16,10.0,67.1
2021-06-29 15:00:00,69.0,65.5,88.31,0.0,0.0,30.15,10.0,69.1
2021-06-29 16:00:00,70.7,66.0,85.08,210.0,5.0,30.15,10.0,70.7
2021-06-29 17:00:00,72.5,67.0,83.15,190.0,6.0,30.13,10.0,72.5
2021-06-29 18:00:00,73.2,66.6,79.82,190.0,8.0,30.1,10.0,73.2
2021-06-29 19:00:00,73.0,66.7,80.64,200.0,11.0,30.08,10.0,73.0
2021-06-29 20:00:00,62.0,62.0,100.0,190.0,7.0,30.12,1.25,62.1
2021-06-29 21:00:00,64.8,64.8,100.0,0.0,0.0,30.1,10.0,64.8
2021-06-29 22:00:00,68.0,65.5,91.71,250.0,5.0,30.09,10.0,68.0
2021-06-29 23:00:00,68.7,65.5,89.53,250.0,6.0,30.1,10.0,68.7
2021-06-30 00:00:00,68.0,65.7,92.35,240.0,4.0,30.09,10.0,68.0
2021-06-30 01:00:00,64.6,64.4,99.3,230.0,5.0,30.1,10.0,64.6
2021-06-30 02:00:00,62.6,62.6,100.0,0.0,0.0,30.11,10.0,62.6
2021-06-30 03:00:00,61.0,61.0,100.0,230.0,4.0,30.11,0.25,61.0
2021-06-30 04:00:00,63.0,63.0,100.0,270.0,5.0,30.11,10.0,63.1
2021-06-30 05:00:00,61.0,61.0,100.0,0.0,0.0,30.1,4.0,61.0
2021-06-30 06:00:00,61.2,61.2,100.0,0.0,0.0,30.11,0.25,61.2
2021-06-30 07:00:00,59.0,59.0,100.0,0.0,0.0,30.11,0.5,59.0
2021-06-30 08:00:00,58.0,58.0,100.0,0.0,0.0,30.1,0.5,58.1
2021-06-30 09:00:00,56.8,56.8,100.0,0.0,0.0,30.1,0.5,56.8
2021-06-30 10:00:00,56.3,56.3,100.0,0.0,0.0,30.1,0.25,56.3
2021-06-30 11:00:00,61.0,61.0,100.0,0.0,0.0,30.1,10.0,61.0
2021-06-30 12:00:00,64.8,64.8,100.0,300.0,5.0,30.1,10.0,64.8
2021-06-30 13:00:00,70.5,66.0,85.66,310.0,4.0,30.1,10.0,70.5
2021-06-30 14:00:00,73.8,65.5,75.29,300.0,4.0,30.1,10.0,73.8
2021-06-30 15:00:00,76.0,65.0,68.75,0.0,0.0,30.1,10.0,76.1
2021-06-30 16:00:00,76.3,63.0,63.46,320.0,4.0,30.1,10.0,76.3
2021-06-30 17:00:00,78.0,63.0,60.39,310.0,4.0,30.08,10.0,77.9
2021-06-30 18:00:00,79.3,60.4,52.42,290.0,6.0,30.07,10.0,79.3
2021-06-30 19:00:00,80.0,61.7,53.82,290.0,7.0,30.06,10.0,79.9
2021-06-30 20:00:00,80.2,58.8,48.07,300.0,7.0,30.06,10.0,80.79
2021-06-30 21:00:00,79.5,58.5,48.66,330.0,10.0,30.05,10.0,79.5
2021-06-30 22:00:00,78.0,57.2,48.95,340.0,8.0,30.05,10.0,77.9
2021-06-30 23:00:00,75.2,58.3,55.71,10.0,7.0,30.06,10.0,75.2
2021-07-01 00:00:00,68.4,60.8,76.69,100.0,7.0,30.07,10.0,68.4
2021-07-01 01:00:00,64.8,60.4,85.64,60.0,4.0,30.08,10.0,64.8
2021-07-01 02:00:00,64.0,60.3,87.76,0.0,0.0,30.1,10.0,64.0
2021-07-01 03:00:00,61.7,61.0,97.55,0.0,0.0,30.1,10.0,61.7
2021-07-01 04:00:00,59.0,59.0,100.0,0.0,0.0,30.09,10.0,59.0
2021-07-01 05:00:00,57.4,57.4,100.0,30.0,3.0,30.1,10.0,57.4
2021-07-01 06:00:00,56.5,56.5,100.0,30.0,3.0,30.1,10.0,56.5
2021-07-01 07:00:00,56.3,56.3,100.0,30.0,3.0,30.1,10.0,56.3
2021-07-01 08:00:00,55.8,55.8,100.0,70.0,4.0,30.11,10.0,55.8
2021-07-01 09:00:00,55.6,55.0,97.49,40.0,4.0,30.11,10.0,55.6
2021-07-01 10:00:00,55.4,55.0,98.56,10.0,3.0,30.12,10.0,55.4
2021-07-01 11:00:00,58.3,56.0,92.38,30.0,5.0,30.13,10.0,58.3
2021-07-01 12:00:00,61.2,57.0,86.06,30.0,6.0,30.13,10.0,61.2
2021-07-01 13:00:00,64.8,56.0,73.4,30.0,7.0,30.15,10.0,64.8
2021-07-01 14:00:00,67.3,56.7,68.77,20.0,7.0,30.15,10.0,67.3
2021-07-01 15:00:00,70.0,56.3,61.78,20.0,5.0,30.15,10.0,70.0
2021-07-01 16:00:00,71.0,54.5,56.12,20.0,9.0,30.15,10.0,70.9
2021-07-01 17:00:00,72.7,54.7,53.19,20.0,10.0,30.14,10.0,72.7
2021-07-01 18:00:00,73.6,53.2,48.85,360.0,10.0,30.13,10.0,73.6
2021-07-01 19:00:00,74.5,51.0,43.86,20.0,11.0,30.12,10.0,74.5
2021-07-01 20:00:00,74.3,48.7,40.39,350.0,9.0,30.11,10.0,74.3
2021-07-01 21:00:00,74.0,49.0,41.27,10.0,10.0,30.11,10.0,74.1
2021-07-01 22:00:00,72.5,46.2,39.06,10.0,9.0,30.11,10.0,72.5
2021-07-01 23:00:00,71.0,49.0,45.98,50.0,6.0,30.11,10.0,70.9
2021-07-02 00:00:00,66.6,51.8,58.91,40.0,4.0,30.13,10.0,66.6
2021-07-02 01:00:00,60.0,53.0,77.08,30.0,4.0,30.13,10.0,60.1
2021-07-02 02:00:00,56.7,50.7,80.28,40.0,3.0,30.14,10.0,56.7
2021-07-02 03:00:00,54.0,52.2,93.61,0.0,0.0,30.15,10.0,54.0
2021-07-02 04:00:00,53.4,50.2,88.86,0.0,0.0,30.15,10.0,53.4
2021-07-02 05:00:00,52.7,50.5,92.2,0.0,0.0,30.16,10.0,52.7
2021-07-02 06:00:00,51.8,51.3,98.17,0.0,0.0,30.17,10.0,51.8
2021-07-02 07:00:00,50.7,50.0,97.43,0.0,0.0,30.16,10.0,50.7
2021-07-02 08:00:00,47.5,47.5,100.0,0.0,0.0,30.16,2.0,47.5
2021-07-02 09:00:00,48.2,48.2,100.0,0.0,0.0,30.16,10.0,48.2
2021-07-02 10:00:00,48.7,48.7,100.0,0.0,0.0,30.19,10.0,48.7
2021-07-02 11:00:00,51.0,51.0,100.0,0.0,0.0,30.19,10.0,51.1
2021-07-02 12:00:00,56.7,52.3,85.17,0.0,0.0,30.19,10.0,56.7
2021-07-02 13:00:00,60.3,52.7,75.97,360.0,5.0,30.19,10.0,60.3
2021-07-02 14:00:00,63.0,52.2,67.79,310.0,4.0,30.17,10.0,63.0
2021-07-02 15:00:00,66.2,50.7,57.35,10.0,6.0,30.18,10.0,66.2
2021-07-02 16:00:00,68.0,47.3,47.47,0.0,0.0,30.17,10.0,68.0
2021-07-02 17:00:00,70.2,47.3,44.02,350.0,4.0,30.15,10.0,70.2
2021-07-02 18:00:00,72.3,48.6,43.04,40.0,3.0,30.14,10.0,72.3
2021-07-02 19:00:00,73.4,46.8,38.76,10.0,5.0,30.12,10.0,73.4
2021-07-02 20:00:00,74.5,49.0,40.42,350.0,4.0,30.09,10.0,74.5
2021-07-02 21:00:00,74.8,49.8,41.38,350.0,5.0,30.09,10.0,74.8
2021-07-02 22:00:00,74.5,52.5,46.19,20.0,5.0,30.1,10.0,74.5
2021-07-02 23:00:00,73.6,55.8,53.71,360.0,3.0,30.09,10.0,73.6
2021-07-03 00:00:00,69.4,56.8,64.21,270.0,5.0,30.04,10.0,69.4
2021-07-03 01:00:00,66.6,56.8,70.71,0.0,0.0,30.06,10.0,66.6
2021-07-03 02:00:00,63.5,57.7,81.38,0.0,0.0,30.06,10.0,63.5
2021-07-03 03:00:00,59.7,57.4,92.09,0.0,0.0,30.05,10.0,59.7
2021-07-03 04:00:00,58.0,56.3,93.72,0.0,0.0,30.05,10.0,58.1
2021-07-03 05:00:00,58.6,56.7,93.39,0.0,0.0,30.05,10.0,58.6
2021-07-03 06:00:00,59.2,56.7,91.41,0.0,0.0,30.05,10.0,59.2
2021-07-03 07:00:00,58.5,56.8,94.07,260.0,3.0,30.04,10.0,58.5
2021-07-03 08:00:00,60.0,57.4,91.43,280.0,6.0,30.04,10.0,59.9
2021-07-03 09:00:00,60.0,57.4,91.43,270.0,6.0,30.04,10.0,59.9
2021-07-03 10:00:00,59.7,57.6,92.75,270.0,4.0,30.05,10.0,59.7
2021-07-03 11:00:00,63.0,58.3,84.62,280.0,6.0,30.05,10.0,63.0
2021-07-03 12:00:00,66.7,58.8,75.72,290.0,7.0,30.05,10.0,66.7
2021-07-03 13:00:00,70.3,60.8,71.86,300.0,7.0,30.04,10.0,70.3
2021-07-03 14:00:00,74.5,62.8,66.91,300.0,8.0,30.03,10.0,74.5
2021-07-03 15:00:00,78.0,63.0,60.18,310.0,11.0,30.02,10.0,77.9
2021-07-03 16:00:00,80.6,64.0,56.84,300.0,10.0,30.01,10.0,82.15
2021-07-03 17:00:00,82.0,64.6,55.65,290.0,10.0,30.0,10.0,83.66
2021-07-03 18:00:00,83.0,64.6,53.7,300.0,10.0,29.98,10.0,84.72
2021-07-03 19:00:00,84.0,66.0,54.77,270.0,9.0,29.97,10.0,86.2
2021-07-03 20:00:00,84.2,65.5,53.48,270.0,10.0,29.96,10.0,86.18
2021-07-03 21:00:00,84.4,65.0,52.04,280.0,10.0,29.96,10.0,86.12
2021-07-03 22:00:00,82.8,64.8,54.61,290.0,8.0,29.95,10.0,84.51
2021-07-03 23:00:00,80.8,65.5,59.71,270.0,5.0,29.95,10.0,82.76
2021-07-04 00:00:00,77.4,66.2,68.42,270.0,6.0,29.95,10.0,77.4
2021-07-04 01:00:00,72.7,64.4,75.19,260.0,6.0,29.95,10.0,72.7
2021-07-04 02:00:00,71.4,64.4,78.58,260.0,6.0,29.96,10.0,71.4
2021-07-04 03:00:00,71.0,63.3,76.9,270.0,8.0,29.95,10.0,70.9
2021-07-04 04:00:00,69.0,62.8,80.9,280.0,5.0,29.96,10.0,68.9
2021-07-04 05:00:00,66.4,62.6,87.57,270.0,5.0,29.96,10.0,66.4
2021-07-04 06:00:00,64.4,62.0,92.24,280.0,3.0,29.95,10.0,64.4
2021-07-04 07:00:00,62.8,61.7,96.19,0.0,0.0,29.94,10.0,62.8
2021-07-04 08:00:00,60.6,60.3,98.94,0.0,0.0,29.94,10.0,60.6
2021-07-04 09:00:00,59.0,58.8,99.29,0.0,0.0,29.94,10.0,59.0
2021-07-04 10:00:00,59.0,59.0,100.0,0.0,0.0,29.94,7.0,59.0
2021-07-04 11:00:00,64.6,63.0,94.55,0.0,0.0,29.94,10.0,64.6
2021-07-04 12:00:00,69.0,63.3,81.77,270.0,3.0,29.95,10.0,69.1
2021-07-04 13:00:00,73.4,65.0,74.73,260.0,6.0,29.95,10.0,73.4
2021-07-04 14:00:00,77.2,67.5,72.04,230.0,10.0,29.94,10.0,77.2
2021-07-04 15:00:00,79.5,67.3,66.32,250.0,10.0,29.93,10.0,79.5
2021-07-04 16:00:00,80.8,68.2,65.56,220.0,11.0,29.92,10.0,83.6
2021-07-04 17:00:00,81.5,68.2,64.08,220.0,9.0,29.9,10.0,84.42
2021-07-04 18:00:00,82.0,66.6,59.66,230.0,12.0,29.89,10.0,84.37
2021-07-04 19:00:00,82.0,67.3,61.12,210.0,12.0,29.89,10.0,84.64
2021-07-04 20:00:00,81.7,67.5,62.15,210.0,13.0,29.88,10.0,84.38
2021-07-04 21:00:00,82.2,67.0,59.89,210.0,16.0,29.86,10.0,84.7
2021-07-04 22:00:00,80.8,67.0,63.12,220.0,13.0,29.86,10.0,83.24
2021-07-04 23:00:00,80.0,68.0,67.06,210.0,11.0,29.87,10.0,79.9
2021-07-05 00:00:00,78.0,68.4,72.13,200.0,8.0,29.86,10.0,78.1
2021-07-05 01:00:00,75.2,68.4,79.42,210.0,6.0,29.86,10.0,75.2
2021-07-05 02:00:00,73.4,68.0,83.21,200.0,6.0,29.86,10.0,73.4
2021-07-05 03:00:00,74.0,67.3,79.87,220.0,10.0,29.86,10.0,73.9
2021-07-05 04:00:00,72.7,67.3,83.16,230.0,10.0,29.86,10.0,72.7
2021-07-05 05:00:00,71.8,67.0,85.14,230.0,8.0,29.86,10.0,71.8
2021-07-05 06:00:00,71.6,66.6,84.25,220.0,11.0,29.83,10.0,71.6
2021-07-05 07:00:00,71.6,66.6,84.25,230.0,10.0,29.83,10.0,71.6
2021-07-05 08:00:00,71.6,66.2,83.09,230.0,11.0,29.83,10.0,71.6
2021-07-05 09:00:00,70.7,65.7,84.2,230.0,9.0,29.84,10.0,70.7
2021-07-05 10:00:00,70.3,65.5,84.76,230.0,10.0,29.85,10.0,70.3
2021-07-05 11:00:00,71.2,65.7,82.78,240.0,10.0,29.86,10.0,71.2
2021-07-05 12:00:00,74.3,67.0,78.26,250.0,12.0,29.86,10.0,74.3
2021-07-05 13:00:00,76.6,68.5,76.06,260.0,12.0,29.86,10.0,76.6
2021-07-05 14:00:00,79.3,70.5,74.5,250.0,12.0,29.86,10.0,79.3
2021-07-05 15:00:00,81.5,71.8,72.46,250.0,12.0,29.86,10.0,86.0
2021-07-05 16:00:00,83.5,72.0,68.37,260.0,11.0,29.87,10.0,88.94
2021-07-05 17:00:00,83.8,72.3,68.41,250.0,13.0,29.88,10.0,89.56
2021-07-05 18:00:00,84.6,74.0,70.36,240.0,9.0,29.87,10.0,91.92
2021-07-05 19:00:00,76.5,67.8,74.5,350.0,15.0,29.89,10.0,76.5
2021-07-05 20:00:00,81.3,70.3,69.31,310.0,15.0,29.88,10.0,85.03
2021-07-05 21:00:00,79.0,72.7,81.07,240.0,6.0,29.87,10.0,79.0
2021-07-05 22:00:00,73.0,66.7,80.64,50.0,3.0,29.92,10.0,73.0
2021-07-05 23:00:00,74.5,70.5,87.36,0.0,0.0,29.93,10.0,74.5
2021-07-06 00:00:00,73.8,70.7,90.05,0.0,0.0,29.95,10.0,73.8
2021-07-06 01:00:00,71.0,69.8,95.67,0.0,0.0,29.96,10.0,71.1
2021-07-06 02:00:00,68.0,67.8,99.31,0.0,0.0,29.97,10.0,68.0
2021-07-06 03:00:00,65.8,65.8,100.0,0.0,0.0,29.97,5.0,65.8
2021-07-06 04:00:00,64.6,64.6,100.0,210.0,3.0,29.98,0.75,64.6
2021-07-06 05:00:00,62.6,62.6,100.0,0.0,0.0,29.98,1.0,62.6
2021-07-06 06:00:00,63.5,63.5,100.0,0.0,0.0,29.98,0.5,63.5
2021-07-06 07:00:00,62.6,62.6,100.0,0.0,0.0,29.98,0.75,62.6
2021-07-06 08:00:00,61.3,61.3,100.0,0.0,0.0,29.99,0.5,61.3
2021-07-06 09:00:00,60.0,60.0,100.0,0.0,0.0,30.01,1.0,60.1
2021-07-06 10:00:00,60.4,60.4,100.0,0.0,0.0,30.02,5.0,60.4
2021-07-06 11:00:00,66.2,66.2,100.0,0.0,0.0,30.02,10.0,66.2
2021-07-06 12:00:00,68.7,68.7,100.0,0.0,0.0,30.03,10.0,68.7
2021-07-06 13:00:00,76.5,69.8,79.79,0.0,0.0,30.02,10.0,76.5
2021-07-06 14:00:00,80.0,65.8,61.74,0.0,0.0,30.02,10.0,82.13
2021-07-06 15:00:00,78.3,67.6,69.71,0.0,0.0,30.01,10.0,78.3
2021-07-06 16:00:00,80.0,68.0,67.06,0.0,0.0,30.01,10.0,79.9
2021-07-06 17:00:00,80.6,67.3,63.97,0.0,0.0,30.01,10.0,83.08
2021-07-06 18:00:00,79.2,68.5,69.8,60.0,3.0,29.98,10.0,79.2
2021-07-06 19:00:00,79.7,70.0,72.29,100.0,5.0,29.98,4.0,79.7
2021-07-06 20:00:00,69.4,66.6,90.81,10.0,18.0,29.99,7.0,69.4
2021-07-06 21:00:00,65.5,63.5,93.25,50.0,11.0,30.03,10.0,65.5
2021-07-06 22:00:00,63.3,62.8,98.26,80.0,12.0,30.02,7.0,63.3
2021-07-06 23:00:00,62.6,62.0,97.56,30.0,7.0,30.03,10.0,62.6
2021-07-07 00:00:00,61.7,61.7,100.0,0.0,0.0,30.05,0.75,61.7
2021-07-07 01:00:00,60.0,60.0,100.0,110.0,7.0,30.03,10.0,59.9
2021-07-07 02:00:00,59.0,59.0,100.0,60.0,7.0,30.03,10.0,59.0
2021-07-07 03:00:00,58.0,58.0,100.0,80.0,4.0,30.03,10.0,58.1
2021-07-07 04:00:00,56.7,56.7,100.0,40.0,6.0,30.05,10.0,56.7
2021-07-07 05:00:00,55.6,55.6,100.0,50.0,8.0,30.03,10.0,55.6
2021-07-07 06:00:00,54.5,54.5,100.0,70.0,4.0,30.03,10.0,54.5
2021-07-07 07:00:00,53.8,53.8,100.0,60.0,3.0,30.04,10.0,53.8
2021-07-07 08:00:00,53.0,53.0,100.0,50.0,3.0,30.03,4.0,53.1
2021-07-07 09:00:00,52.7,52.7,100.0,40.0,4.0,30.02,10.0,52.7
2021-07-07 10:00:00,52.7,52.7,100.0,40.0,6.0,30.02,10.0,52.7
2021-07-07 11:00:00,52.7,52.7,100.0,40.0,8.0,30.02,4.0,52.7
2021-07-07 12:00:00,53.2,53.2,100.0,40.0,7.0,30.02,3.0,53.2
2021-07-07 13:00:00,54.0,54.0,100.0,40.0,6.0,30.02,4.0,54.0
2021-07-07 14:00:00,55.0,55.0,100.0,40.0,5.0,30.02,10.0,55.0
2021-07-07 15:00:00,56.3,56.0,98.56,40.0,8.0,30.03,5.0,56.3
2021-07-07 16:00:00,56.8,56.8,100.0,30.0,8.0,30.02,7.0,56.8
2021-07-07 17:00:00,58.5,57.2,95.43,40.0,10.0,30.01,10.0,58.5
2021-07-07 18:00:00,59.0,56.7,92.06,50.0,11.0,30.01,10.0,59.0
2021-07-07 19:00:00,59.0,56.5,91.4,40.0,11.0,30.0,10.0,59.0
2021-07-07 20:00:00,58.6,56.7,93.39,40.0,7.0,30.0,10.0,58.6
2021-07-07 21:00:00,58.0,56.5,94.4,50.0,9.0,30.01,10.0,58.1
2021-07-07 22:00:00,57.6,56.3,95.42,50.0,8.0,29.99,10.0,57.6
2021-07-07 23:00:00,56.3,55.6,97.49,40.0,11.0,30.0,5.0,56.3
2021-07-08 00:00:00,55.0,54.7,98.91,60.0,9.0,30.01,7.0,55.0
2021-07-08 01:00:00,54.0,52.7,95.35,40.0,10.0,30.02,10.0,54.0
2021-07-08 02:00:00,53.8,52.2,94.3,40.0,8.0,30.03,10.0,53.8
2021-07-08 03:00:00,52.7,51.4,95.32,30.0,9.0,30.02,10.0,52.7
2021-07-08 04:00:00,52.2,51.3,96.73,10.0,4.0,30.02,10.0,52.2
2021-07-08 05:00:00,52.2,51.3,96.73,10.0,4.0,30.02,10.0,52.2
2021-07-08 06:00:00,51.8,49.6,92.17,20.0,4.0,30.0,10.0,51.8
2021-07-08 07:00:00,52.0,50.0,92.86,20.0,6.0,30.01,10.0,52.0
2021-07-08 08:00:00,51.3,47.3,86.14,20.0,5.0,29.99,10.0,51.3
2021-07-08 09:00:00,51.0,47.8,89.08,360.0,5.0,29.99,10.0,50.9
2021-07-08 10:00:00,49.6,47.3,91.75,350.0,4.0,30.01,10.0,47.97
2021-07-08 11:00:00,51.0,46.6,85.14,10.0,4.0,30.0,10.0,50.9
2021-07-08 12:00:00,55.6,45.0,67.7,20.0,5.0,30.01,10.0,55.6
2021-07-08 13:00:00,58.3,45.3,61.89,40.0,6.0,30.01,10.0,58.3
2021-07-08 14:00:00,61.2,47.7,61.1,20.0,9.0,30.01,10.0,61.2
2021-07-08 15:00:00,62.4,48.2,59.67,30.0,8.0,30.01,10.0,62.4
2021-07-08 16:00:00,65.0,51.0,60.9,40.0,8.0,30.01,10.0,64.9
2021-07-08 17:00:00,64.8,50.4,59.55,10.0,5.0,30.01,10.0,64.8
2021-07-08 18:00:00,65.0,50.2,58.9,0.0,0.0,30.01,10.0,64.9
2021-07-08 19:00:00,65.0,49.0,56.12,0.0,0.0,29.99,10.0,64.9
2021-07-08 20:00:00,67.8,50.5,53.87,0.0,0.0,29.99,10.0,67.8
2021-07-08 21:00:00,66.6,51.0,57.41,350.0,3.0,29.98,10.0,66.6
2021-07-08 22:00:00,67.3,51.3,56.45,0.0,0.0,29.98,10.0,67.3
2021-07-08 23:00:00,66.6,53.0,61.8,300.0,3.0,29.98,10.0,66.6
2021-07-09 00:00:00,62.8,56.0,78.16,0.0,0.0,29.98,10.0,62.8
2021-07-09 01:00:00,58.0,57.2,96.81,0.0,0.0,29.99,10.0,58.1
2021-07-09 02:00:00,58.0,55.0,89.4,0.0,0.0,30.01,10.0,58.1
2021-07-09 03:00:00,56.8,55.2,94.37,0.0,0.0,30.01,10.0,56.8
2021-07-09 04:00:00,55.6,54.5,96.08,0.0,0.0,30.02,10.0,55.6
2021-07-09 05:00:00,54.0,53.0,96.76,0.0,0.0,30.03,10.0,54.0
2021-07-09 06:00:00,51.4,51.0,98.9,0.0,0.0,30.03,10.0,51.4
2021-07-09 07:00:00,50.7,50.7,100.0,0.0,0.0,30.02,10.0,50.7
2021-07-09 08:00:00,49.3,49.3,100.0,0.0,0.0,30.02,10.0,49.3
2021-07-09 09:00:00,48.2,48.2,100.0,0.0,0.0,30.04,7.0,48.2
2021-07-09 10:00:00,49.0,49.0,100.0,0.0,0.0,30.06,10.0,49.1
2021-07-09 11:00:00,53.0,53.0,99.27,0.0,0.0,30.08,10.0,53.1
2021-07-09 12:00:00,59.5,56.7,90.43,0.0,0.0,30.09,10.0,59.5
2021-07-09 13:00:00,63.5,57.6,81.09,0.0,0.0,30.1,10.0,63.5
2021-07-09 14:00:00,65.7,55.2,68.84,0.0,0.0,30.09,10.0,65.7
2021-07-09 15:00:00,69.0,54.3,59.65,40.0,4.0,30.09,10.0,68.9
2021-07-09 16:00:00,69.8,52.5,54.15,0.0,0.0,30.08,10.0,69.8
2021-07-09 17:00:00,70.3,51.3,50.93,40.0,3.0,30.08,10.0,70.3
2021-07-09 18:00:00,72.0,51.6,48.44,30.0,4.0,30.07,10.0,72.1
2021-07-09 19:00:00,73.6,50.5,44.22,0.0,0.0,30.07,10.0,73.6
2021-07-09 20:00:00,74.0,50.2,43.0,0.0,0.0,30.07,10.0,74.1
2021-07-09 21:00:00,72.0,50.0,45.65,0.0,0.0,30.07,10.0,72.1
2021-07-09 22:00:00,73.8,50.5,43.92,140.0,3.0,30.07,10.0,73.8
2021-07-09 23:00:00,72.0,56.7,58.36,150.0,6.0,30.07,10.0,72.1
2021-07-10 00:00:00,68.2,58.8,71.9,140.0,3.0,30.07,10.0,68.2
2021-07-10 01:00:00,63.5,57.4,80.5,140.0,3.0,30.07,10.0,63.5
2021-07-10 02:00:00,60.4,56.3,86.32,0.0,0.0,30.09,10.0,60.4
2021-07-10 03:00:00,58.8,56.3,91.39,150.0,4.0,30.09,10.0,58.8
2021-07-10 04:00:00,58.0,56.5,94.4,0.0,0.0,30.08,10.0,58.1
2021-07-10 05:00:00,56.7,56.0,97.85,0.0,0.0,30.07,10.0,56.7
2021-07-10 06:00:00,56.3,55.8,98.2,100.0,4.0,30.03,10.0,56.3
2021-07-10 07:00:00,56.0,56.0,100.0,190.0,6.0,30.08,10.0,56.1
2021-07-10 08:00:00,56.7,56.7,100.0,190.0,3.0,30.1,10.0,56.7
2021-07-10 09:00:00,54.0,54.0,100.0,0.0,0.0,30.09,10.0,54.1
2021-07-10 10:00:00,54.7,54.7,100.0,0.0,0.0,30.05,10.0,54.7
2021-07-10 11:00:00,58.5,58.0,97.87,0.0,0.0,30.09,10.0,58.5
2021-07-10 12:00:00,62.0,57.7,85.49,0.0,0.0,30.1,10.0,62.1
2021-07-10 13:00:00,64.6,58.6,80.88,120.0,4.0,30.1,10.0,64.6
2021-07-10 14:00:00,68.0,58.5,71.62,110.0,3.0,30.1,10.0,68.0
2021-07-10 15:00:00,69.6,53.0,55.74,130.0,4.0,30.08,10.0,69.6
2021-07-10 16:00:00,70.7,54.7,56.92,130.0,3.0,30.08,10.0,70.7
2021-07-10 17:00:00,72.7,54.3,52.42,100.0,6.0,30.05,10.0,72.7
2021-07-10 18:00:00,73.0,53.4,50.38,100.0,8.0,30.05,10.0,72.9
2021-07-10 19:00:00,74.0,53.0,48.18,90.0,9.0,30.05,10.0,73.9
2021-07-10 20:00:00,73.8,51.3,45.24,90.0,7.0,30.04,10.0,73.8
2021-07-10 21:00:00,74.3,51.3,44.49,110.0,3.0,30.03,10.0,74.3
2021-07-10 22:00:00,73.0,51.0,46.13,100.0,8.0,30.03,10.0,73.0
2021-07-10 23:00:00,71.0,51.4,50.08,120.0,7.0,30.03,10.0,70.9
2021-07-11 00:00:00,67.0,54.0,63.01,120.0,3.0,30.04,10.0,67.1
2021-07-11 01:00:00,62.0,54.3,76.11,110.0,4.0,30.04,10.0,61.9
2021-07-11 02:00:00,60.0,52.7,77.06,0.0,0.0,30.05,10.0,59.9
2021-07-11 03:00:00,55.8,52.5,88.64,0.0,0.0,30.07,10.0,55.8
2021-07-11 04:00:00,53.4,52.5,96.75,360.0,3.0,30.07,10.0,53.4
2021-07-11 05:00:00,52.7,52.2,98.18,0.0,0.0,30.07,10.0,52.7
2021-07-11 06:00:00,51.0,50.4,97.44,0.0,0.0,30.06,10.0,51.1
2021-07-11 07:00:00,49.5,49.0,97.79,0.0,0.0,30.06,10.0,49.5
2021-07-11 08:00:00,48.2,48.0,99.25,0.0,0.0,30.05,10.0,48.2
2021-07-11 09:00:00,48.2,47.5,97.41,0.0,0.0,30.06,10.0,48.2
2021-07-11 10:00:00,48.0,47.3,97.4,0.0,0.0,30.08,10.0,48.0
2021-07-11 11:00:00,53.6,52.0,94.29,0.0,0.0,30.08,10.0,53.6
2021-07-11 12:00:00,59.5,55.6,86.9,30.0,4.0,30.09,10.0,59.5
2021-07-11 13:00:00,65.7,57.0,73.48,360.0,3.0,30.1,10.0,65.7
2021-07-11 14:00:00,69.8,51.8,52.77,90.0,5.0,30.1,10.0,69.8
2021-07-11 15:00:00,71.4,49.8,46.4,40.0,4.0,30.1,10.0,71.4
2021-07-11 16:00:00,73.0,50.5,45.27,70.0,7.0,30.11,10.0,72.9
2021-07-11 17:00:00,74.0,49.6,42.33,60.0,6.0,30.1,10.0,73.9
2021-07-11 18:00:00,74.7,50.2,42.14,40.0,8.0,30.09,10.0,74.7
2021-07-11 19:00:00,76.0,53.0,44.44,50.0,7.0,30.09,10.0,76.1
2021-07-11 20:00:00,76.0,53.0,44.44,50.0,8.0,30.09,10.0,76.1
2021-07-11 21:00:00,75.4,52.7,45.15,50.0,5.0,30.09,10.0,75.4
2021-07-11 22:00:00,74.5,53.0,47.22,70.0,5.0,30.08,10.0,74.5
2021-07-11 23:00:00,73.0,55.0,53.41,60.0,3.0,30.07,10.0,72.9
2021-07-12 00:00:00,69.8,57.0,63.8,100.0,4.0,30.08,10.0,69.8
2021-07-12 01:00:00,62.6,56.3,79.86,120.0,3.0,30.1,10.0,62.6
2021-07-12 02:00:00,60.4,54.3,80.27,0.0,0.0,30.12,10.0,60.4
2021-07-12 03:00:00,60.4,54.3,80.27,0.0,0.0,30.12,10.0,60.4
2021-07-12 04:00:00,55.4,53.6,93.65,0.0,0.0,30.14,10.0,55.4
2021-07-12 05:00:00,53.2,52.0,95.68,360.0,3.0,30.14,10.0,53.2
2021-07-12 06:00:00,53.0,51.0,92.89,0.0,0.0,30.14,10.0,52.9
2021-07-12 07:00:00,51.4,49.3,92.5,0.0,0.0,30.14,10.0,51.4
2021-07-12 08:00:00,51.0,48.4,91.11,0.0,0.0,30.13,10.0,50.9
2021-07-12 09:00:00,49.0,47.3,93.47,0.0,0.0,30.13,10.0,49.1
2021-07-12 10:00:00,49.8,47.0,90.38,0.0,0.0,30.14,10.0,49.8
2021-07-12 11:00:00,54.5,51.3,88.91,0.0,0.0,30.15,10.0,54.5
2021-07-12 12:00:00,62.6,54.0,73.45,60.0,3.0,30.16,10.0,62.6
2021-07-12 13:00:00,66.2,56.0,69.4,80.0,5.0,30.16,10.0,66.2
2021-07-12 14:00:00,68.2,55.8,64.53,120.0,6.0,30.17,10.0,68.2
2021-07-12 15:00:00,70.7,52.0,51.56,130.0,8.0,30.16,10.0,70.7
2021-07-12 16:00:00,71.8,52.0,49.67,110.0,8.0,30.16,10.0,71.8
2021-07-12 17:00:00,73.0,53.4,50.38,100.0,7.0,30.15,10.0,72.9
2021-07-12 18:00:00,74.5,51.8,45.01,130.0,7.0,30.14,10.0,74.5
2021-07-12 19:00:00,75.2,51.8,43.97,120.0,8.0,30.12,10.0,75.2
2021-07-12 20:00:00,74.0,56.5,54.53,130.0,9.0,30.11,10.0,73.9
2021-07-12 21:00:00,71.8,55.0,55.44,130.0,8.0,30.11,10.0,71.8
2021-07-12 22:00:00,70.3,57.0,62.72,130.0,4.0,30.09,10.0,70.3
2021-07-12 23:00:00,71.6,55.8,57.46,140.0,6.0,30.08,10.0,71.6
2021-07-13 00:00:00,70.2,58.0,65.01,0.0,0.0,30.09,10.0,70.2
2021-07-13 01:00:00,63.5,59.2,85.87,0.0,0.0,30.08,10.0,63.5
2021-07-13 02:00:00,60.4,58.8,94.45,0.0,0.0,30.09,10.0,60.4
2021-07-13 03:00:00,59.5,57.7,93.75,0.0,0.0,30.08,10.0,59.5
2021-07-13 04:00:00,60.4,59.0,95.13,0.0,0.0,30.08,10.0,60.4
2021-07-13 05:00:00,61.0,60.4,97.89,0.0,0.0,30.08,10.0,61.0
2021-07-13 06:00:00,61.3,60.6,97.55,0.0,0.0,30.07,10.0,61.3
2021-07-13 07:00:00,59.0,58.8,99.29,0.0,0.0,30.06,10.0,59.0
2021-07-13 08:00:00,60.0,59.5,98.58,0.0,0.0,30.05,10.0,59.9
2021-07-13 09:00:00,57.0,57.0,100.0,0.0,0.0,30.05,10.0,57.0
2021-07-13 10:00:00,55.6,55.6,100.0,0.0,0.0,30.05,7.0,55.6
2021-07-13 11:00:00,59.7,59.0,97.53,0.0,0.0,30.05,10.0,59.7
2021-07-13 12:00:00,65.7,60.3,82.7,0.0,0.0,30.05,10.0,65.7
2021-07-13 13:00:00,70.2,61.3,73.39,280.0,4.0,30.05,10.0,70.2
2021-07-13 14:00:00,71.8,62.0,71.0,0.0,0.0,30.05,10.0,71.8
2021-07-13 15:00:00,74.0,60.6,63.16,310.0,4.0,30.04,10.0,73.9
2021-07-13 16:00:00,75.0,60.8,61.31,280.0,5.0,30.03,10.0,75.0
2021-07-13 17:00:00,77.0,59.0,53.8,250.0,5.0,30.03,10.0,77.0
2021-07-13 18:00:00,77.5,58.8,52.54,250.0,3.0,30.02,10.0,77.5
2021-07-13 19:00:00,78.6,60.6,54.02,270.0,6.0,30.02,10.0,78.6
2021-07-13 20:00:00,78.3,58.0,49.9,230.0,10.0,30.01,10.0,78.3
2021-07-13 21:00:00,77.5,59.0,52.92,240.0,10.0,30.02,10.0,77.5
2021-07-13 22:00:00,75.4,58.6,55.93,250.0,7.0,30.01,10.0,75.4
2021-07-13 23:00:00,74.5,59.0,58.47,250.0,7.0,30.01,10.0,74.5
2021-07-14 00:00:00,71.2,59.0,65.36,250.0,5.0,30.02,10.0,71.2
2021-07-14 01:00:00,67.8,59.7,75.28,240.0,5.0,30.03,10.0,67.8
2021-07-14 02:00:00,67.0,59.5,76.57,240.0,6.0,30.04,10.0,67.1
2021-07-14 03:00:00,65.3,59.7,82.09,230.0,4.0,30.04,10.0,65.3
2021-07-14 04:00:00,62.4,60.0,91.52,0.0,0.0,30.05,10.0,62.4
2021-07-14 05:00:00,63.0,59.2,87.09,240.0,3.0,30.05,10.0,63.1
2021-07-14 06:00:00,62.0,59.5,91.83,240.0,3.0,30.05,10.0,61.9
2021-07-14 07:00:00,61.0,58.6,91.8,0.0,0.0,30.05,10.0,61.0
2021-07-14 08:00:00,59.0,57.4,94.42,0.0,0.0,30.04,10.0,59.0
2021-07-14 09:00:00,58.0,57.7,98.57,0.0,0.0,30.05,10.0,58.1
2021-07-14 10:00:00,59.4,58.8,97.88,0.0,0.0,30.06,10.0,59.4
2021-07-14 11:00:00,63.5,62.2,95.53,0.0,0.0,30.06,10.0,63.5
2021-07-14 12:00:00,68.0,64.6,88.88,240.0,7.0,30.09,10.0,68.0
2021-07-14 13:00:00,72.0,65.8,80.84,240.0,5.0,30.08,10.0,72.0
2021-07-14 14:00:00,75.0,67.0,75.92,220.0,6.0,30.06,10.0,75.0
2021-07-14 15:00:00,75.7,67.6,75.98,250.0,5.0,30.06,10.0,75.7
2021-07-14 16:00:00,76.5,67.0,72.72,220.0,3.0,30.05,10.0,76.5
2021-07-14 17:00:00,76.0,66.0,70.94,200.0,5.0,30.05,10.0,76.1
2021-07-14 18:00:00,74.5,66.4,75.88,190.0,7.0,30.04,10.0,74.5
2021-07-14 19:00:00,72.0,67.0,83.99,180.0,7.0,30.03,10.0,72.0
2021-07-14 20:00:00,64.6,64.4,99.3,0.0,0.0,30.05,5.0,64.6
2021-07-14 21:00:00,65.3,65.3,100.0,110.0,4.0,29.99,10.0,65.3
2021-07-14 22:00:00,64.4,63.7,97.58,140.0,4.0,29.99,5.0,64.4
2021-07-14 23:00:00,64.0,64.0,100.0,150.0,4.0,29.99,7.0,63.9
2021-07-15 00:00:00,63.5,63.5,100.0,0.0,0.0,29.98,3.0,63.5
2021-07-15 01:00:00,62.8,62.8,100.0,360.0,3.0,29.98,5.0,62.8
2021-07-15 02:00:00,62.0,62.0,100.0,70.0,4.0,29.96,5.0,61.9
2021-07-15 03:00:00,61.7,61.7,100.0,60.0,3.0,29.95,7.0,61.7
2021-07-15 04:00:00,62.0,62.0,100.0,80.0,3.0,29.95,10.0,61.9
2021-07-15 05:00:00,61.7,61.7,100.0,60.0,4.0,29.92,10.0,61.7
2021-07-15 06:00:00,61.7,61.7,100.0,360.0,6.0,29.92,10.0,61.7
2021-07-15 07:00:00,61.7,61.7,100.0,350.0,7.0,29.91,10.0,61.7
2021-07-15 08:00:00,60.4,60.4,100.0,10.0,7.0,29.92,10.0,60.4
2021-07-15 09:00:00,60.3,60.0,99.29,360.0,5.0,29.93,10.0,60.3
2021-07-15 10:00:00,60.0,60.0,100.0,340.0,7.0,29.95,10.0,60.1
2021-07-15 11:00:00,61.5,60.4,96.17,350.0,8.0,29.97,10.0,61.5
2021-07-15 12:00:00,62.6,59.0,88.0,360.0,11.0,29.98,10.0,62.6
2021-07-15 13:00:00,64.4,58.5,81.15,360.0,7.0,30.0,10.0,64.4
2021-07-15 14:00:00,67.0,56.0,67.76,350.0,10.0,30.02,10.0,67.1
2021-07-15 15:00:00,69.3,56.0,62.82,350.0,11.0,30.02,10.0,69.3
2021-07-15 16:00:00,70.5,54.3,56.48,340.0,13.0,30.03,10.0,70.5
2021-07-15 17:00:00,72.0,55.8,56.49,330.0,8.0,30.03,10.0,72.1
2021-07-15 18:00:00,72.0,55.4,55.87,300.0,5.0,30.03,10.0,72.0
2021-07-15 19:00:00,74.0,55.4,52.05,340.0,8.0,30.02,10.0,74.1
2021-07-15 20:00:00,74.0,54.5,50.37,0.0,0.0,30.02,10.0,74.1
2021-07-15 21:00:00,71.6,54.0,54.01,10.0,3.0,30.02,10.0,71.6
2021-07-15 22:00:00,74.0,52.7,47.48,20.0,3.0,30.02,10.0,73.9
2021-07-15 23:00:00,73.6,52.3,47.26,0.0,0.0,30.01,10.0,73.6
2021-07-16 00:00:00,70.0,57.7,64.98,0.0,0.0,30.02,10.0,70.0
2021-07-16 01:00:00,65.0,60.0,84.44,0.0,0.0,30.04,10.0,64.9
2021-07-16 02:00:00,61.2,58.5,90.83,0.0,0.0,30.05,10.0,61.2
2021-07-16 03:00:00,59.0,58.3,97.52,0.0,0.0,30.05,10.0,59.0
2021-07-16 04:00:00,57.6,57.4,99.28,40.0,3.0,30.05,10.0,57.6
2021-07-16 05:00:00,56.0,55.2,97.49,60.0,5.0,30.05,10.0,55.9
2021-07-16 06:00:00,60.0,59.7,98.58,100.0,6.0,30.06,10.0,60.1
2021-07-16 07:00:00,62.0,61.3,97.21,130.0,4.0,30.06,10.0,62.1
2021-07-16 08:00:00,59.0,58.5,98.23,170.0,3.0,30.07,10.0,59.0
2021-07-16 09:00:00,57.7,57.0,97.51,120.0,3.0,30.07,10.0,57.7
2021-07-16 10:00:00,56.0,56.0,100.0,0.0,0.0,30.09,5.0,56.1
2021-07-16 11:00:00,60.3,59.5,97.19,0.0,0.0,30.09,7.0,60.3
2021-07-16 12:00:00,64.4,59.0,82.62,150.0,5.0,30.1,10.0,64.4
2021-07-16 13:00:00,67.0,56.8,69.5,150.0,5.0,30.11,10.0,67.1
2021-07-16 14:00:00,69.0,54.5,60.09,160.0,3.0,30.12,10.0,68.9
2021-07-16 15:00:00,71.0,57.2,61.9,0.0,0.0,30.11,10.0,70.9
2021-07-16 16:00:00,72.3,58.0,60.53,0.0,0.0,30.1,10.0,72.3
2021-07-16 17:00:00,73.6,54.5,51.23,0.0,0.0,30.1,10.0,73.6
2021-07-16 18:00:00,74.5,57.0,54.42,0.0,0.0,30.09,10.0,74.5
2021-07-16 19:00:00,74.0,55.6,52.78,0.0,0.0,30.08,10.0,73.9
2021-07-16 20:00:00,75.7,54.7,48.1,50.0,4.0,30.08,10.0,75.7
2021-07-16 21:00:00,76.0,52.5,44.08,0.0,0.0,30.08,10.0,75.9
2021-07-16 22:00:00,74.3,54.7,50.4,90.0,5.0,30.07,10.0,74.3
2021-07-16 23:00:00,72.3,55.2,54.9,110.0,6.0,30.07,10.0,72.3
2021-07-17 00:00:00,68.0,56.7,67.13,120.0,7.0,30.08,10.0,68.0
2021-07-17 01:00:00,62.0,56.7,82.46,110.0,4.0,30.09,10.0,62.1
2021-07-17 02:00:00,62.6,55.0,76.18,0.0,0.0,30.11,10.0,62.6
2021-07-17 03:00:00,57.4,55.4,93.02,0.0,0.0,30.12,10.0,57.4
2021-07-17 04:00:00,55.8,55.0,96.78,0.0,0.0,30.13,10.0,55.8
2021-07-17 05:00:00,53.0,53.0,100.0,0.0,0.0,30.13,10.0,53.1
2021-07-17 06:00:00,52.3,52.3,100.0,0.0,0.0,30.13,10.0,52.3
2021-07-17 07:00:00,51.4,51.4,100.0,0.0,0.0,30.14,10.0,51.4
2021-07-17 08:00:00,50.4,50.4,100.0,0.0,0.0,30.14,7.0,50.4
2021-07-17 09:00:00,49.0,49.0,100.0,0.0,0.0,30.15,10.0,49.1
2021-07-17 10:00:00,50.0,50.0,100.0,0.0,0.0,30.17,7.0,50.0
2021-07-17 11:00:00,54.0,53.8,99.27,0.0,0.0,30.19,10.0,54.0
2021-07-17 12:00:00,60.8,58.5,92.12,0.0,0.0,30.2,10.0,60.8
2021-07-17 13:00:00,66.7,59.4,77.36,10.0,3.0,30.21,10.0,66.7
2021-07-17 14:00:00,70.2,57.0,62.93,40.0,6.0,30.21,10.0,70.2
2021-07-17 15:00:00,72.5,57.2,58.63,90.0,6.0,30.21,10.0,72.5
2021-07-17 16:00:00,73.6,56.5,55.08,100.0,4.0,30.21,10.0,73.6
2021-07-17 17:00:00,74.7,56.3,52.71,100.0,5.0,30.22,10.0,74.7
2021-07-17 18:00:00,75.6,56.0,50.78,0.0,0.0,30.22,10.0,75.6
2021-07-17 19:00:00,76.3,56.7,50.69,140.0,3.0,30.21,10.0,76.3
2021-07-17 20:00:00,76.5,55.2,47.69,120.0,4.0,30.21,10.0,76.5
2021-07-17 21:00:00,76.3,56.5,50.33,100.0,6.0,30.21,10.0,76.3
2021-07-17 22:00:00,75.4,56.0,51.12,0.0,0.0,30.21,10.0,75.4
2021-07-17 23:00:00,73.6,60.0,62.24,100.0,4.0,30.2,7.0,73.6
2021-07-18 00:00:00,69.0,60.8,74.87,110.0,4.0,30.21,10.0,69.1
2021-07-18 01:00:00,63.5,58.5,83.75,110.0,4.0,30.22,10.0,63.5
2021-07-18 02:00:00,61.3,56.0,83.01,0.0,0.0,30.24,10.0,61.3
2021-07-18 03:00:00,57.7,56.3,95.07,0.0,0.0,30.25,10.0,57.7
2021-07-18 04:00:00,56.5,55.8,97.5,0.0,0.0,30.26,10.0,56.5
2021-07-18 05:00:00,55.0,54.5,98.19,0.0,0.0,30.28,10.0,55.0
2021-07-18 06:00:00,53.2,53.0,99.63,0.0,0.0,30.27,10.0,53.2
2021-07-18 07:00:00,52.0,51.8,99.26,0.0,0.0,30.28,10.0,52.0
2021-07-18 08:00:00,51.0,51.0,99.26,0.0,0.0,30.28,10.0,51.1
2021-07-18 09:00:00,51.0,50.4,98.16,0.0,0.0,30.28,10.0,50.9
2021-07-18 10:00:00,50.0,50.0,100.0,0.0,0.0,30.31,10.0,50.0
2021-07-18 11:00:00,54.0,53.2,97.11,0.0,0.0,30.31,10.0,54.0
2021-07-18 12:00:00,59.0,56.8,92.4,0.0,0.0,30.31,10.0,59.0
2021-07-18 13:00:00,66.0,60.8,83.31,0.0,0.0,30.31,10.0,66.0
2021-07-18 14:00:00,70.5,58.3,65.28,0.0,0.0,30.31,10.0,70.5
2021-07-18 15:00:00,73.2,56.8,56.44,0.0,0.0,30.3,10.0,73.2
2021-07-18 16:00:00,74.5,58.0,56.21,220.0,3.0,30.3,10.0,74.5
2021-07-18 17:00:00,76.0,59.4,56.23,180.0,3.0,30.29,10.0,76.1
2021-07-18 18:00:00,76.5,56.5,50.0,0.0,0.0,30.28,10.0,76.5
2021-07-18 19:00:00,77.5,56.7,48.72,0.0,0.0,30.27,10.0,77.5
2021-07-18 20:00:00,77.0,57.7,51.35,0.0,0.0,30.27,10.0,77.0
2021-07-18 21:00:00,77.2,58.8,53.06,0.0,0.0,30.26,10.0,77.2
2021-07-18 22:00:00,75.4,62.0,62.9,0.0,0.0,30.26,10.0,75.4
2021-07-18 23:00:00,73.6,60.6,63.8,270.0,4.0,30.26,10.0,73.6
2021-07-19 00:00:00,71.8,62.6,72.77,0.0,0.0,30.25,10.0,71.8
2021-07-19 01:00:00,67.0,62.8,86.07,0.0,0.0,30.25,10.0,67.1
2021-07-19 02:00:00,64.0,61.2,90.61,0.0,0.0,30.25,10.0,64.0
2021-07-19 03:00:00,62.6,61.0,94.5,0.0,0.0,30.25,10.0,62.6
2021-07-19 04:00:00,60.8,60.8,100.0,0.0,0.0,30.25,10.0,60.8
2021-07-19 05:00:00,59.0,59.0,100.0,0.0,0.0,30.24,10.0,59.0
2021-07-19 06:00:00,58.0,58.0,100.0,0.0,0.0,30.24,10.0,57.9
2021-07-19 07:00:00,57.4,57.4,100.0,0.0,0.0,30.23,10.0,57.4
2021-07-19 08:00:00,56.7,56.7,100.0,0.0,0.0,30.22,10.0,56.7
2021-07-19 09:00:00,56.3,56.3,100.0,0.0,0.0,30.23,1.0,56.3
2021-07-19 10:00:00,55.2,55.2,100.0,0.0,0.0,30.24,10.0,55.2
2021-07-19 11:00:00,57.7,57.7,100.0,0.0,0.0,30.24,10.0,57.7
2021-07-19 12:00:00,64.2,61.5,90.94,0.0,0.0,30.25,10.0,64.2
2021-07-19 13:00:00,67.3,61.2,80.79,300.0,3.0,30.24,10.0,67.3
2021-07-19 14:00:00,71.8,62.0,71.5,270.0,6.0,30.23,10.0,71.8
2021-07-19 15:00:00,74.3,62.0,65.26,290.0,6.0,30.22,10.0,74.3
2021-07-19 16:00:00,75.2,61.7,62.88,270.0,9.0,30.24,10.0,75.2
2021-07-19 17:00:00,77.2,62.0,59.67,280.0,5.0,30.21,10.0,77.2
2021-07-19 18:00:00,78.0,62.0,57.92,280.0,6.0,30.19,10.0,78.1
2021-07-19 19:00:00,79.3,62.0,55.67,280.0,8.0,30.17,10.0,79.3
2021-07-19 20:00:00,79.7,63.0,56.92,230.0,4.0,30.15,10.0,79.7
2021-07-19 21:00:00,76.8,63.3,63.07,250.0,7.0,30.15,10.0,76.8
2021-07-19 22:00:00,78.0,64.8,63.67,230.0,5.0,30.14,10.0,78.1
2021-07-19 23:00:00,76.6,64.2,65.53,260.0,5.0,30.13,10.0,76.6
2021-07-20 00:00:00,73.4,63.5,71.16,270.0,5.0,30.14,10.0,73.4
2021-07-20 01:00:00,69.0,63.7,82.93,260.0,5.0,30.13,10.0,69.1
2021-07-20 02:00:00,69.0,63.5,82.92,260.0,5.0,30.13,10.0,68.9
2021-07-20 03:00:00,67.0,62.8,86.07,260.0,5.0,30.12,10.0,67.1
2021-07-20 04:00:00,67.0,63.0,86.99,270.0,6.0,30.12,10.0,67.1
2021-07-20 05:00:00,65.5,62.8,90.98,270.0,5.0,30.11,10.0,65.5
2021-07-20 06:00:00,64.4,62.6,93.88,280.0,5.0,30.1,10.0,64.4
2021-07-20 07:00:00,62.2,61.2,96.53,0.0,0.0,30.09,10.0,62.2
2021-07-20 08:00:00,60.3,60.0,99.29,290.0,3.0,30.08,7.0,60.3
2021-07-20 09:00:00,62.0,61.2,97.55,310.0,5.0,30.09,10.0,61.9
2021-07-20 10:00:00,61.0,60.8,99.29,320.0,5.0,30.1,10.0,61.0
2021-07-20 11:00:00,62.6,62.2,98.6,320.0,4.0,30.11,7.0,62.6
2021-07-20 12:00:00,66.2,64.2,93.27,330.0,3.0,30.11,7.0,66.2
2021-07-20 13:00:00,70.7,65.0,82.46,360.0,8.0,30.12,5.0,70.7
2021-07-20 14:00:00,72.5,64.6,76.23,20.0,7.0,30.12,5.0,72.5
2021-07-20 15:00:00,75.2,65.5,71.84,360.0,6.0,30.12,5.0,75.2
2021-07-20 16:00:00,76.0,65.0,69.21,10.0,8.0,30.12,5.0,75.9
2021-07-20 17:00:00,75.6,65.5,70.89,360.0,10.0,30.12,5.0,75.6
2021-07-20 18:00:00,74.7,63.7,68.6,350.0,6.0,30.12,5.0,74.7
2021-07-20 19:00:00,75.2,63.0,65.83,340.0,6.0,30.11,5.0,75.2
2021-07-20 20:00:00,74.0,63.3,69.49,350.0,6.0,30.11,5.0,73.9
2021-07-20 21:00:00,73.2,60.0,63.08,360.0,10.0,30.12,7.0,73.2
2021-07-20 22:00:00,72.0,61.0,68.31,360.0,8.0,30.11,7.0,72.0
2021-07-20 23:00:00,70.5,60.0,69.61,360.0,7.0,30.13,7.0,70.5
2021-07-21 00:00:00,66.2,60.3,81.28,360.0,5.0,30.13,7.0,66.2
2021-07-21 01:00:00,63.5,59.0,85.26,360.0,5.0,30.15,10.0,63.5
2021-07-21 02:00:00,61.3,59.2,92.8,0.0,0.0,30.15,7.0,61.3
2021-07-21 03:00:00,61.0,58.3,90.82,70.0,6.0,30.17,10.0,61.0
2021-07-21 04:00:00,56.8,54.5,91.99,50.0,3.0,30.17,10.0,56.8
2021-07-21 05:00:00,54.7,51.4,88.59,0.0,0.0,30.17,10.0,54.7
2021-07-21 06:00:00,52.5,48.6,86.53,0.0,0.0,30.17,10.0,52.5
2021-07-21 07:00:00,50.0,48.7,95.27,0.0,0.0,30.17,10.0,50.0
2021-07-21 08:00:00,48.4,47.0,94.52,0.0,0.0,30.18,10.0,48.4
2021-07-21 09:00:00,49.3,47.7,94.19,0.0,0.0,30.19,10.0,49.3
2021-07-21 10:00:00,50.4,48.7,93.86,0.0,0.0,30.2,10.0,50.4
2021-07-21 11:00:00,51.4,48.4,89.44,0.0,0.0,30.21,10.0,51.4
2021-07-21 12:00:00,53.0,49.8,89.17,0.0,0.0,30.22,10.0,52.9
2021-07-21 13:00:00,59.5,50.2,71.27,90.0,4.0,30.23,10.0,59.5
2021-07-21 14:00:00,62.8,50.4,63.87,100.0,4.0,30.24,10.0,62.8
2021-07-21 15:00:00,66.0,52.5,61.72,110.0,4.0,30.24,10.0,66.0
2021-07-21 16:00:00,67.0,51.6,57.48,90.0,4.0,30.23,10.0,67.1
2021-07-21 17:00:00,69.4,54.0,58.0,170.0,4.0,30.22,10.0,69.4
2021-07-21 18:00:00,70.5,53.6,55.05,130.0,8.0,30.2,10.0,70.5
2021-07-21 19:00:00,71.6,52.5,50.93,0.0,0.0,30.2,10.0,71.6
2021-07-21 20:00:00,71.0,53.2,53.52,160.0,3.0,30.19,10.0,70.9
2021-07-21 21:00:00,70.3,55.6,59.62,100.0,5.0,30.18,10.0,70.3
2021-07-21 22:00:00,68.4,56.3,65.26,160.0,6.0,30.17,10.0,68.4
2021-07-21 23:00:00,66.4,56.5,70.43,160.0,3.0,30.17,10.0,66.4
2021-07-22 00:00:00,64.0,57.7,80.24,110.0,4.0,30.19,10.0,63.9
2021-07-22 01:00:00,62.0,56.5,82.45,130.0,5.0,30.19,10.0,61.9
2021-07-22 02:00:00,61.0,55.4,81.79,130.0,5.0,30.2,10.0,61.0
2021-07-22 03:00:00,60.4,55.4,83.55,150.0,5.0,30.19,10.0,60.4
2021-07-22 04:00:00,59.7,55.0,84.12,0.0,0.0,30.2,10.0,59.7
2021-07-22 05:00:00,58.0,54.5,87.78,160.0,3.0,30.2,10.0,58.1
2021-07-22 06:00:00,58.0,53.6,84.94,0.0,0.0,30.2,10.0,58.1
2021-07-22 07:00:00,58.0,52.5,82.17,160.0,4.0,30.2,10.0,57.9
2021-07-22 08:00:00,57.4,52.7,84.28,0.0,0.0,30.19,10.0,57.4
2021-07-22 09:00:00,58.0,51.8,79.51,180.0,4.0,30.19,10.0,58.1
2021-07-22 10:00:00,60.0,52.7,77.06,190.0,3.0,30.19,10.0,59.9
2021-07-22 11:00:00,60.0,54.0,80.25,170.0,4.0,30.19,10.0,60.1
2021-07-22 12:00:00,60.6,53.0,75.72,140.0,3.0,30.2,10.0,60.6
2021-07-22 13:00:00,62.0,54.3,76.11,160.0,4.0,30.19,10.0,61.9
2021-07-22 14:00:00,63.0,55.8,77.06,130.0,6.0,30.19,10.0,63.1
2021-07-22 15:00:00,64.0,56.8,77.41,160.0,7.0,30.18,10.0,64.0
2021-07-22 16:00:00,65.3,59.4,81.22,140.0,6.0,30.18,10.0,65.3
2021-07-22 17:00:00,68.2,62.4,81.71,160.0,7.0,30.17,10.0,68.2
2021-07-22 18:00:00,70.0,64.0,81.27,150.0,4.0,30.15,7.0,70.0
2021-07-22 19:00:00,71.8,65.5,80.55,180.0,4.0,30.15,10.0,71.8
2021-07-22 20:00:00,72.5,66.4,81.16,180.0,6.0,30.14,10.0,72.5
2021-07-22 21:00:00,73.0,66.6,80.36,170.0,4.0,30.14,10.0,73.0
2021-07-22 22:00:00,72.5,67.0,82.58,140.0,6.0,30.13,10.0,72.5
2021-07-22 23:00:00,71.6,67.0,85.72,140.0,6.0,30.13,10.0,71.6
2021-07-23 00:00:00,69.3,66.6,91.12,140.0,4.0,30.12,7.0,69.3
2021-07-23 01:00:00,68.0,66.6,95.28,110.0,3.0,30.13,7.0,68.0
2021-07-23 02:00:00,66.6,66.2,98.62,150.0,3.0,30.14,5.0,66.6
2021-07-23 03:00:00,67.5,67.0,97.95,130.0,3.0,30.14,5.0,67.5
2021-07-23 04:00:00,66.7,66.4,98.97,220.0,9.0,30.15,4.0,66.7
2021-07-23 05:00:00,66.2,66.2,100.0,100.0,4.0,30.12,7.0,66.2
2021-07-23 06:00:00,65.8,65.8,100.0,100.0,4.0,30.12,5.0,65.8
2021-07-23 07:00:00,66.2,65.5,97.6,0.0,0.0,30.1,7.0,66.2
2021-07-23 08:00:00,65.7,65.7,100.0,0.0,0.0,30.09,4.0,65.7
2021-07-23 09:00:00,64.0,64.0,100.0,0.0,0.0,30.1,0.75,63.9
2021-07-23 10:00:00,64.4,64.4,100.0,140.0,4.0,30.11,0.25,64.4
2021-07-23 11:00:00,65.3,65.3,100.0,130.0,6.0,30.11,0.25,65.3
2021-07-23 12:00:00,65.8,65.8,100.0,120.0,5.0,30.11,1.0,65.8
2021-07-23 13:00:00,66.4,66.4,100.0,150.0,4.0,30.11,3.0,66.4
2021-07-23 14:00:00,70.0,68.7,95.65,150.0,5.0,30.1,4.0,70.0
2021-07-23 15:00:00,72.7,70.0,91.24,160.0,4.0,30.09,7.0,72.7
2021-07-23 16:00:00,76.6,71.0,82.57,170.0,3.0,30.08,10.0,76.6
2021-07-23 17:00:00,78.6,70.7,76.76,190.0,5.0,30.06,10.0,78.6
2021-07-23 18:00:00,80.6,71.4,73.61,150.0,9.0,30.05,10.0,84.49
2021-07-23 19:00:00,81.5,69.3,66.55,190.0,9.0,30.03,10.0,84.86
2021-07-23 20:00:00,81.3,68.0,64.06,210.0,11.0,30.02,10.0,84.11
2021-07-23 21:00:00,81.5,67.0,61.7,210.0,11.0,29.99,10.0,84.01
2021-07-23 22:00:00,80.6,66.2,61.58,200.0,10.0,29.97,10.0,82.75
2021-07-23 23:00:00,79.0,67.0,66.49,190.0,5.0,29.96,10.0,79.0
2021-07-24 00:00:00,75.6,67.0,74.93,190.0,5.0,29.96,10.0,75.6
2021-07-24 01:00:00,72.0,67.0,84.28,170.0,5.0,29.95,10.0,72.1
2021-07-24 02:00:00,71.6,67.0,85.72,190.0,4.0,29.95,10.0,71.6
2021-07-24 03:00:00,72.5,67.0,83.15,200.0,5.0,29.93,10.0,72.5
2021-07-24 04:00:00,71.6,67.0,85.72,210.0,6.0,29.91,10.0,71.6
2021-07-24 05:00:00,72.3,67.6,85.17,220.0,8.0,29.9,10.0,72.3
2021-07-24 06:00:00,72.7,68.4,86.38,220.0,7.0,29.88,10.0,72.7
2021-07-24 07:00:00,72.7,69.0,88.48,220.0,7.0,29.84,10.0,72.7
2021-07-24 08:00:00,71.2,71.0,98.99,310.0,5.0,29.84,7.0,71.2
2021-07-24 09:00:00,67.5,67.5,100.0,0.0,0.0,29.82,3.0,67.5
2021-07-24 10:00:00,67.8,67.8,100.0,340.0,12.0,29.83,1.5,67.8
2021-07-24 11:00:00,67.0,67.0,100.0,0.0,0.0,29.84,5.0,67.1
2021-07-24 12:00:00,67.5,67.5,100.0,0.0,0.0,29.81,10.0,67.5
2021-07-24 13:00:00,67.3,66.6,97.61,270.0,6.0,29.84,10.0,67.3
2021-07-24 14:00:00,68.0,66.6,95.28,280.0,8.0,29.85,10.0,68.0
2021-07-24 15:00:00,72.7,67.6,84.03,280.0,8.0,29.84,10.0,72.7
2021-07-24 16:00:00,76.0,69.0,78.95,260.0,7.0,29.84,10.0,76.1
2021-07-24 17:00:00,78.6,67.5,68.79,280.0,10.0,29.83,10.0,78.6
2021-07-24 18:00:00,81.0,68.0,64.69,290.0,13.0,29.83,10.0,83.76
2021-07-24 19:00:00,80.0,65.5,61.1,300.0,13.0,29.84,10.0,82.05
2021-07-24 20:00:00,82.4,65.3,56.29,310.0,12.0,29.84,10.0,84.3
2021-07-24 21:00:00,78.8,61.7,55.8,300.0,9.0,29.85,10.0,78.8
2021-07-24 22:00:00,78.8,62.0,56.6,300.0,9.0,29.86,10.0,78.8
2021-07-24 23:00:00,77.4,61.2,57.42,290.0,9.0,29.87,10.0,77.4
2021-07-25 00:00:00,72.7,58.6,61.24,290.0,6.0,29.88,10.0,72.7
2021-07-25 01:00:00,68.0,58.0,70.6,280.0,4.0,29.88,10.0,68.0
2021-07-25 02:00:00,64.4,56.7,76.06,270.0,4.0,29.9,10.0,64.4
2021-07-25 03:00:00,62.6,56.7,81.02,260.0,3.0,29.9,10.0,62.6
2021-07-25 04:00:00,62.0,56.3,81.28,280.0,3.0,29.91,10.0,62.1
2021-07-25 05:00:00,60.6,56.3,85.71,250.0,3.0,29.92,10.0,60.6
2021-07-25 06:00:00,58.6,54.7,86.85,0.0,0.0,29.93,10.0,58.6
2021-07-25 07:00:00,57.2,54.7,91.34,270.0,3.0,29.93,10.0,57.2
2021-07-25 08:00:00,56.7,54.0,90.99,0.0,0.0,29.94,10.0,56.7
2021-07-25 09:00:00,54.5,54.0,98.55,0.0,0.0,29.95,10.0,54.5
2021-07-25 10:00:00,54.7,53.4,95.36,0.0,0.0,29.95,10.0,54.7
2021-07-25 11:00:00,58.5,56.0,91.05,0.0,0.0,29.96,10.0,58.5
2021-07-25 12:00:00,64.0,58.5,82.58,0.0,0.0,29.97,10.0,63.9
2021-07-25 13:00:00,70.3,58.5,66.2,0.0,0.0,29.97,10.0,70.3
2021-07-25 14:00:00,74.5,59.4,59.32,270.0,7.0,29.97,10.0,74.5
2021-07-25 15:00:00,77.7,59.5,53.51,270.0,5.0,29.97,10.0,77.7
2021-07-25 16:00:00,78.4,56.8,47.46,270.0,12.0,29.97,10.0,78.4
2021-07-25 17:00:00,79.7,58.0,47.31,270.0,13.0,29.97,10.0,79.7
2021-07-25 18:00:00,80.0,54.5,41.29,280.0,12.0,29.96,10.0,80.11
2021-07-25 19:00:00,80.6,56.0,42.74,280.0,12.0,29.96,10.0,80.61
2021-07-25 20:00:00,80.4,56.0,43.33,300.0,13.0,29.95,10.0,80.51
2021-07-25 21:00:00,80.6,55.4,41.97,290.0,11.0,29.94,10.0,80.53
2021-07-25 22:00:00,79.3,53.8,41.32,290.0,11.0,29.93,10.0,79.3
2021-07-25 23:00:00,78.0,56.7,48.08,270.0,7.0,29.94,10.0,77.9
2021-07-26 00:00:00,72.3,59.2,63.42,260.0,4.0,29.95,10.0,72.3
2021-07-26 01:00:00,67.3,58.6,73.64,260.0,4.0,29.96,10.0,67.3
2021-07-26 02:00:00,64.0,58.8,83.48,0.0,0.0,29.98,10.0,63.9
2021-07-26 03:00:00,62.0,58.0,86.73,0.0,0.0,29.99,10.0,62.1
2021-07-26 04:00:00,60.6,57.6,89.83,0.0,0.0,30.01,10.0,60.6
2021-07-26 05:00:00,58.5,56.7,93.73,0.0,0.0,30.01,10.0,58.5
2021-07-26 06:00:00,57.2,55.8,95.06,0.0,0.0,30.01,10.0,57.2
2021-07-26 07:00:00,56.0,55.4,98.2,0.0,0.0,30.0,10.0,55.9
2021-07-26 08:00:00,55.0,55.0,100.0,0.0,0.0,30.01,10.0,54.9
2021-07-26 09:00:00,55.0,55.0,99.64,0.0,0.0,30.02,10.0,55.0
2021-07-26 10:00:00,55.0,54.5,98.19,0.0,0.0,30.02,10.0,55.0
2021-07-26 11:00:00,59.0,58.0,96.83,0.0,0.0,30.04,10.0,59.0
2021-07-26 12:00:00,66.6,59.7,78.47,0.0,0.0,30.04,10.0,66.6
2021-07-26 13:00:00,71.4,60.0,67.52,280.0,3.0,30.04,10.0,71.4
2021-07-26 14:00:00,75.7,62.0,62.28,270.0,7.0,30.04,10.0,75.7
2021-07-26 15:00:00,79.0,64.0,60.11,240.0,5.0,30.03,10.0,79.0
2021-07-26 16:00:00,81.7,65.7,58.39,260.0,5.0,30.02,10.0,83.73
2021-07-26 17:00:00,82.8,68.4,61.86,220.0,6.0,30.02,10.0,86.02
2021-07-26 18:00:00,83.8,67.3,57.66,250.0,6.0,30.02,10.0,86.6
2021-07-26 19:00:00,83.8,63.0,49.64,270.0,10.0,30.01,10.0,84.8
2021-07-26 20:00:00,83.8,64.0,51.41,250.0,10.0,30.0,10.0,85.17
2021-07-26 21:00:00,83.5,62.0,48.22,270.0,8.0,29.99,10.0,84.16
2021-07-26 22:00:00,81.5,65.8,58.98,260.0,9.0,29.98,10.0,83.56
2021-07-26 23:00:00,79.5,65.5,62.31,250.0,6.0,29.97,10.0,79.5
2021-07-27 00:00:00,75.4,65.5,71.36,210.0,4.0,29.97,10.0,75.4
2021-07-27 01:00:00,71.8,65.3,79.99,220.0,5.0,29.97,10.0,71.8
2021-07-27 02:00:00,69.4,64.8,85.3,220.0,7.0,29.97,10.0,69.4
2021-07-27 03:00:00,72.0,64.4,76.99,260.0,8.0,30.0,10.0,72.0
2021-07-27 04:00:00,72.0,64.4,76.99,260.0,8.0,30.0,10.0,72.0
2021-07-27 05:00:00,72.0,64.4,76.99,260.0,8.0,30.0,10.0,72.0
2021-07-27 06:00:00,72.0,64.4,76.99,260.0,8.0,30.0,10.0,72.0
2021-07-27 07:00:00,72.0,64.4,76.99,260.0,8.0,30.0,10.0,72.0
2021-07-27 08:00:00,72.0,64.4,76.99,260.0,8.0,30.0,10.0,72.0
2021-07-27 09:00:00,72.0,64.4,76.99,260.0,8.0,30.0,10.0,72.0
2021-07-27 10:00:00,72.0,64.4,76.99,260.0,8.0,30.0,10.0,72.0
2021-07-27 11:00:00,72.0,64.4,76.99,260.0,8.0,30.0,10.0,72.0
2021-07-27 12:00:00,72.0,64.4,76.99,260.0,8.0,30.0,10.0,72.0
2021-07-27 13:00:00,72.0,64.4,76.99,260.0,8.0,30.0,10.0,72.0
2021-07-27 14:00:00,72.0,64.4,76.99,260.0,8.0,30.0,10.0,72.0
2021-07-27 15:00:00,73.0,66.0,78.97,260.0,9.0,30.04,10.0,72.9
2021-07-27 16:00:00,75.4,65.0,70.38,270.0,10.0,30.04,10.0,75.4
2021-07-27 17:00:00,77.4,66.0,67.94,300.0,7.0,30.02,10.0,77.4
2021-07-27 18:00:00,77.7,65.5,66.11,250.0,6.0,30.03,10.0,77.7
2021-07-27 19:00:00,78.3,65.8,65.5,290.0,5.0,30.03,10.0,78.3
2021-07-27 20:00:00,79.3,66.2,64.26,0.0,0.0,30.02,10.0,79.3
2021-07-27 21:00:00,79.0,68.2,69.54,40.0,6.0,30.03,10.0,79.0
2021-07-27 22:00:00,77.0,67.0,71.53,0.0,0.0,30.05,10.0,77.0
2021-07-27 23:00:00,76.0,69.0,78.93,0.0,0.0,30.04,10.0,75.9
2021-07-28 00:00:00,73.4,69.0,85.82,0.0,0.0,30.05,10.0,73.4
2021-07-28 01:00:00,69.0,67.5,95.3,130.0,3.0,30.05,10.0,68.9
2021-07-28 02:00:00,68.0,67.8,99.31,140.0,3.0,30.06,10.0,68.0
2021-07-28 03:00:00,67.0,67.0,100.0,0.0,0.0,30.06,10.0,67.1
2021-07-28 04:00:00,65.7,65.7,100.0,100.0,3.0,30.07,10.0,65.7
2021-07-28 05:00:00,65.0,65.0,100.0,0.0,0.0,30.07,10.0,64.9
2021-07-28 06:00:00,63.0,63.0,100.0,0.0,0.0,30.08,7.0,63.0
2021-07-28 07:00:00,62.0,62.0,100.0,0.0,0.0,30.07,10.0,62.1
2021-07-28 08:00:00,60.3,60.3,100.0,0.0,0.0,30.07,10.0,60.3
2021-07-28 09:00:00,59.7,59.7,100.0,0.0,0.0,30.08,7.0,59.7
2021-07-28 10:00:00,59.2,59.2,100.0,0.0,0.0,30.08,10.0,59.2
2021-07-28 11:00:00,63.3,63.0,98.95,90.0,3.0,30.07,10.0,63.3
2021-07-28 12:00:00,66.2,64.2,93.27,130.0,7.0,30.09,10.0,66.2
2021-07-28 13:00:00,69.0,64.8,86.78,130.0,6.0,30.1,10.0,68.9
2021-07-28 14:00:00,70.7,65.5,83.61,140.0,5.0,30.09,10.0,70.7
2021-07-28 15:00:00,73.6,67.5,81.24,0.0,0.0,30.1,10.0,73.6
2021-07-28 16:00:00,76.5,68.5,76.32,210.0,3.0,30.07,10.0,76.5
2021-07-28 17:00:00,77.7,69.6,76.16,220.0,7.0,30.05,10.0,77.7
2021-07-28 18:00:00,78.0,69.4,75.14,210.0,3.0,30.0,10.0,77.9
2021-07-28 19:00:00,74.8,70.7,87.08,210.0,4.0,30.01,10.0,74.8
2021-07-28 20:00:00,72.7,70.3,92.18,250.0,6.0,29.98,10.0,72.7
2021-07-28 21:00:00,71.6,69.8,94.06,120.0,5.0,29.96,10.0,71.6
2021-07-28 22:00:00,71.8,71.0,97.65,200.0,6.0,29.93,10.0,71.8
2021-07-28 23:00:00,72.0,72.0,100.0,50.0,4.0,29.95,7.0,72.1
2021-07-29 00:00:00,71.2,71.0,99.66,350.0,6.0,29.95,7.0,71.2
2021-07-29 01:00:00,69.3,67.6,94.33,100.0,6.0,29.93,5.0,69.3
2021-07-29 02:00:00,68.0,68.0,100.0,210.0,6.0,29.91,5.0,68.0
2021-07-29 03:00:00,67.0,66.4,97.61,80.0,4.0,29.88,10.0,67.1
2021-07-29 04:00:00,67.0,67.0,100.0,150.0,5.0,29.88,10.0,67.1
2021-07-29 05:00:00,67.0,66.6,98.29,150.0,3.0,29.85,10.0,67.1
2021-07-29 06:00:00,66.4,66.4,100.0,0.0,0.0,29.87,10.0,66.4
2021-07-29 07:00:00,64.4,64.4,100.0,0.0,0.0,29.86,4.0,64.4
2021-07-29 08:00:00,64.0,64.0,100.0,320.0,4.0,29.86,5.0,63.9
2021-07-29 09:00:00,63.0,63.0,100.0,320.0,4.0,29.88,7.0,63.0
2021-07-29 10:00:00,63.0,63.0,100.0,300.0,5.0,29.9,5.0,63.0
2021-07-29 11:00:00,64.4,64.4,100.0,290.0,6.0,29.93,7.0,64.4
2021-07-29 12:00:00,67.6,65.7,93.63,340.0,7.0,29.95,10.0,67.6
2021-07-29 13:00:00,70.0,66.7,89.28,350.0,11.0,29.97,10.0,70.0
2021-07-29 14:00:00,69.0,65.7,88.93,350.0,10.0,29.99,10.0,69.1
2021-07-29 15:00:00,70.2,65.0,83.29,330.0,9.0,30.02,10.0,70.2
2021-07-29 16:00:00,72.0,64.2,76.46,360.0,6.0,30.02,10.0,72.0
2021-07-29 17:00:00,74.0,62.6,67.34,350.0,12.0,30.02,10.0,74.1
2021-07-29 18:00:00,74.8,60.8,61.72,10.0,10.0,30.03,10.0,74.8
2021-07-29 19:00:00,76.0,57.7,53.26,350.0,12.0,30.04,10.0,75.9
2021-07-29 20:00:00,76.5,59.2,55.09,360.0,10.0,30.05,10.0,76.5
2021-07-29 21:00:00,75.4,59.2,57.15,350.0,6.0,30.05,7.0,75.4
2021-07-29 22:00:00,73.4,59.2,61.11,360.0,8.0,30.06,10.0,73.4
2021-07-29 23:00:00,70.7,60.0,69.14,360.0,6.0,30.08,10.0,70.7
2021-07-30 00:00:00,65.3,59.4,81.22,360.0,6.0,30.1,7.0,65.3
2021-07-30 01:00:00,65.3,59.4,81.22,360.0,6.0,30.1,7.0,65.3
2021-07-30 02:00:00,61.0,56.3,84.5,20.0,5.0,30.13,10.0,61.0
2021-07-30 03:00:00,57.7,56.7,96.46,20.0,4.0,30.15,7.0,57.7
2021-07-30 04:00:00,56.3,56.0,98.56,0.0,0.0,30.16,7.0,56.3
2021-07-30 05:00:00,55.0,54.5,98.19,0.0,0.0,30.17,10.0,55.0
2021-07-30 06:00:00,54.0,53.2,97.11,70.0,5.0,30.19,10.0,54.0
2021-07-30 07:00:00,52.0,50.5,94.6,50.0,3.0,30.19,10.0,52.0
2021-07-30 08:00:00,50.0,49.5,98.16,40.0,3.0,30.2,10.0,50.0
2021-07-30 09:00:00,49.0,49.0,100.0,0.0,0.0,30.22,10.0,49.1
2021-07-30 10:00:00,48.4,48.4,100.0,0.0,0.0,30.22,10.0,48.4
2021-07-30 11:00:00,51.3,50.4,96.72,0.0,0.0,30.24,10.0,51.3
2021-07-30 12:00:00,54.7,52.0,90.58,0.0,0.0,30.25,10.0,54.7
2021-07-30 13:00:00,58.5,48.4,69.07,0.0,0.0,30.25,10.0,58.5
2021-07-30 14:00:00,60.4,47.7,62.86,0.0,0.0,30.25,10.0,60.4
2021-07-30 15:00:00,63.3,50.0,61.83,0.0,0.0,30.24,10.0,63.3
2021-07-30 16:00:00,65.8,51.3,59.46,0.0,0.0,30.22,10.0,65.8
2021-07-30 17:00:00,68.0,54.0,61.08,330.0,6.0,30.2,10.0,68.0
2021-07-30 18:00:00,69.0,54.3,59.65,0.0,0.0,30.17,10.0,68.9
2021-07-30 19:00:00,70.5,55.0,57.94,250.0,5.0,30.17,10.0,70.5
2021-07-30 20:00:00,71.2,54.5,55.55,250.0,4.0,30.15,10.0,71.2
2021-07-30 21:00:00,72.0,54.7,54.28,260.0,6.0,30.14,10.0,72.1
2021-07-30 22:00:00,69.8,56.7,63.11,230.0,4.0,30.13,10.0,69.8
2021-07-30 23:00:00,68.7,57.0,66.25,250.0,6.0,30.13,10.0,68.7
2021-07-31 00:00:00,64.6,58.3,80.01,240.0,5.0,30.11,10.0,64.6
2021-07-31 01:00:00,62.6,57.6,83.69,240.0,5.0,30.12,10.0,62.6
2021-07-31 02:00:00,60.8,57.7,89.51,230.0,5.0,30.11,10.0,60.8
2021-07-31 03:00:00,60.0,58.3,93.77,230.0,5.0,30.09,10.0,60.1
2021-07-31 04:00:00,59.5,58.3,95.8,230.0,7.0,30.09,10.0,59.5
2021-07-31 05:00:00,58.3,57.7,97.87,240.0,3.0,30.08,10.0,58.3
2021-07-31 06:00:00,58.6,58.0,98.22,250.0,5.0,30.07,10.0,58.6
2021-07-31 07:00:00,58.3,58.3,100.0,260.0,5.0,30.06,7.0,58.3
2021-07-31 08:00:00,59.0,59.0,100.0,250.0,7.0,30.03,4.0,59.0
2021-07-31 09:00:00,60.4,60.4,100.0,260.0,8.0,30.02,4.0,60.4
2021-07-31 10:00:00,61.0,61.0,100.0,280.0,6.0,30.04,3.0,61.0
2021-07-31 11:00:00,60.8,60.8,100.0,290.0,4.0,30.02,2.5,60.8
2021-07-31 12:00:00,62.4,61.3,96.19,250.0,8.0,29.99,2.5,62.4
2021-07-31 13:00:00,63.7,61.3,91.89,270.0,10.0,29.99,3.0,63.7
2021-07-31 14:00:00,68.2,62.0,80.85,280.0,8.0,29.99,4.0,68.2
2021-07-31 15:00:00,71.6,62.4,72.75,300.0,9.0,29.99,4.0,71.6
2021-07-31 16:00:00,72.5,62.0,69.83,300.0,8.0,29.99,4.0,72.5
2021-07-31 17:00:00,71.0,61.5,71.68,320.0,6.0,29.98,4.0,71.1
2021-07-31 18:00:00,72.5,62.8,71.57,260.0,7.0,29.98,5.0,72.5
2021-07-31 19:00:00,75.0,63.0,66.5,250.0,6.0,29.96,4.0,75.0
2021-07-31 20:00:00,76.0,64.0,65.93,270.0,7.0,29.95,5.0,76.1
2021-07-31 21:00:00,76.5,58.8,54.31,320.0,7.0,29.94,10.0,76.5
2021-07-31 22:00:00,72.7,56.7,57.19,330.0,5.0,29.95,10.0,72.7
2021-07-31 23:00:00,69.0,56.0,62.8,330.0,6.0,29.95,10.0,69.1
2021-08-01 00:00:00,67.5,55.8,66.11,330.0,5.0,29.97,10.0,67.5
2021-08-01 01:00:00,62.0,55.6,79.24,310.0,4.0,29.99,10.0,62.1
2021-08-01 02:00:00,59.5,55.8,87.54,360.0,3.0,30.0,10.0,59.5
2021-08-01 03:00:00,59.2,55.8,88.48,0.0,0.0,30.0,10.0,59.2
2021-08-01 04:00:00,56.5,55.0,94.36,0.0,0.0,30.01,10.0,56.5
2021-08-01 05:00:00,55.0,53.6,95.36,0.0,0.0,30.02,10.0,54.9
2021-08-01 06:00:00,53.8,53.0,96.75,0.0,0.0,30.03,10.0,53.8
2021-08-01 07:00:00,53.0,52.7,98.54,330.0,3.0,30.04,10.0,53.1
2021-08-01 08:00:00,52.0,51.4,97.81,340.0,3.0,30.04,7.0,52.0
2021-08-01 09:00:00,52.0,51.4,97.81,340.0,3.0,30.04,7.0,52.0
2021-08-01 10:00:00,52.0,51.4,97.81,340.0,3.0,30.04,7.0,52.0
2021-08-01 11:00:00,52.0,51.4,97.81,340.0,3.0,30.04,7.0,52.0
2021-08-01 12:00:00,52.0,51.4,97.81,340.0,3.0,30.04,7.0,52.0
2021-08-01 13:00:00,60.0,54.0,80.82,330.0,11.0,30.11,7.0,59.9
2021-08-01 14:00:00,63.0,53.2,70.33,350.0,8.0,30.13,10.0,63.0
2021-08-01 15:00:00,64.0,53.0,67.16,360.0,13.0,30.14,10.0,64.0
2021-08-01 16:00:00,66.7,53.0,61.59,10.0,9.0,30.15,10.0,66.7
2021-08-01 17:00:00,64.6,51.6,62.69,360.0,7.0,30.15,10.0,64.6
2021-08-01 18:00:00,67.0,52.3,58.98,350.0,8.0,30.14,10.0,67.1
2021-08-01 19:00:00,67.8,50.7,54.27,340.0,6.0,30.15,10.0,67.8
2021-08-01 20:00:00,70.7,53.0,53.29,330.0,8.0,30.15,10.0,70.7
2021-08-01 21:00:00,67.6,52.3,57.97,360.0,8.0,30.15,10.0,67.6
2021-08-01 22:00:00,65.7,52.0,61.23,340.0,6.0,30.15,10.0,65.7
2021-08-01 23:00:00,64.0,52.3,65.7,350.0,5.0,30.15,10.0,64.0
2021-08-02 00:00:00,61.7,53.0,73.36,340.0,4.0,30.16,10.0,61.7
2021-08-02 01:00:00,58.8,53.8,83.45,340.0,4.0,30.17,10.0,58.8
2021-08-02 02:00:00,55.8,52.2,87.67,0.0,0.0,30.18,10.0,55.8
2021-08-02 03:00:00,53.6,52.2,94.99,0.0,0.0,30.18,10.0,53.6
2021-08-02 04:00:00,52.0,51.6,98.53,0.0,0.0,30.18,10.0,52.0
2021-08-02 05:00:00,50.7,50.2,98.16,0.0,0.0,30.18,10.0,50.7
2021-08-02 06:00:00,49.3,49.3,100.0,0.0,0.0,30.18,10.0,49.3
2021-08-02 07:00:00,49.3,49.3,100.0,0.0,0.0,30.19,10.0,49.3
2021-08-02 08:00:00,48.0,48.0,100.0,0.0,0.0,30.19,10.0,48.0
2021-08-02 09:00:00,48.4,48.4,100.0,0.0,0.0,30.19,10.0,48.4
2021-08-02 10:00:00,46.6,46.6,100.0,0.0,0.0,30.2,7.0,46.6
2021-08-02 11:00:00,49.8,49.8,100.0,0.0,0.0,30.21,10.0,49.8
2021-08-02 12:00:00,56.8,55.0,93.68,0.0,0.0,30.21,10.0,56.8
2021-08-02 13:00:00,63.0,54.7,74.03,300.0,3.0,30.21,10.0,63.1
2021-08-02 14:00:00,66.6,52.3,60.01,290.0,5.0,30.21,10.0,66.6
2021-08-02 15:00:00,69.4,51.3,52.52,270.0,5.0,30.2,10.0,69.4
2021-08-02 16:00:00,70.0,51.4,51.64,0.0,0.0,30.18,10.0,70.0
2021-08-02 17:00:00,72.0,53.8,52.52,310.0,5.0,30.16,10.0,72.1
2021-08-02 18:00:00,73.8,55.2,52.2,230.0,6.0,30.15,10.0,73.8
2021-08-02 19:00:00,72.5,55.0,54.14,220.0,3.0,30.13,10.0,72.5
2021-08-02 20:00:00,74.5,53.6,48.09,270.0,4.0,30.12,10.0,74.5
2021-08-02 21:00:00,74.3,56.8,54.39,240.0,7.0,30.11,10.0,74.3
2021-08-02 22:00:00,73.0,57.2,57.65,280.0,5.0,30.1,10.0,73.0
2021-08-02 23:00:00,69.0,56.3,63.71,250.0,5.0,30.1,10.0,69.1
2021-08-03 00:00:00,65.3,57.2,75.05,240.0,4.0,30.1,10.0,65.3
2021-08-03 01:00:00,62.8,56.7,80.45,240.0,6.0,30.1,10.0,62.8
2021-08-03 02:00:00,60.8,56.5,85.72,240.0,4.0,30.11,10.0,60.8
2021-08-03 03:00:00,58.3,56.0,92.38,0.0,0.0,30.11,10.0,58.3
2021-08-03 04:00:00,56.8,55.6,95.75,0.0,0.0,30.11,10.0,56.8
2021-08-03 05:00:00,56.5,55.2,95.4,0.0,0.0,30.1,10.0,56.5
2021-08-03 06:00:00,55.0,54.0,96.77,0.0,0.0,30.1,10.0,55.0
2021-08-03 07:00:00,54.0,54.0,100.0,0.0,0.0,30.1,7.0,54.0
2021-08-03 08:00:00,53.6,53.4,99.27,0.0,0.0,30.1,10.0,53.6
2021-08-03 09:00:00,52.3,52.3,100.0,0.0,0.0,30.1,10.0,52.3
2021-08-03 10:00:00,52.3,52.3,100.0,0.0,0.0,30.1,5.0,52.3
2021-08-03 11:00:00,53.4,53.4,100.0,0.0,0.0,30.1,7.0,53.4
2021-08-03 12:00:00,60.0,58.0,93.76,0.0,0.0,30.11,10.0,59.9
2021-08-03 13:00:00,65.0,58.5,79.19,270.0,4.0,30.11,10.0,65.1
2021-08-03 14:00:00,69.4,57.2,65.15,300.0,5.0,30.11,10.0,69.4
2021-08-03 15:00:00,71.8,59.2,64.5,290.0,5.0,30.11,7.0,71.8
2021-08-03 16:00:00,72.3,60.6,66.66,270.0,4.0,30.1,10.0,72.3
2021-08-03 17:00:00,75.7,60.0,58.42,280.0,8.0,30.09,10.0,75.7
2021-08-03 18:00:00,76.3,58.0,53.32,290.0,5.0,30.08,7.0,76.3
2021-08-03 19:00:00,75.6,58.8,55.96,260.0,6.0,30.08,10.0,75.6
2021-08-03 20:00:00,75.2,58.8,56.71,260.0,8.0,30.08,10.0,75.2
2021-08-03 21:00:00,74.0,60.4,62.3,230.0,6.0,30.08,7.0,74.1
2021-08-03 22:00:00,73.6,59.7,61.79,270.0,4.0,30.08,7.0,73.6
2021-08-03 23:00:00,71.4,60.8,69.22,270.0,5.0,30.08,10.0,71.4
2021-08-04 00:00:00,67.3,60.4,78.52,260.0,4.0,30.08,7.0,67.3
2021-08-04 01:00:00,64.2,59.2,83.79,270.0,3.0,30.1,10.0,64.2
2021-08-04 02:00:00,62.6,59.2,88.64,0.0,0.0,30.1,7.0,62.6
2021-08-04 03:00:00,59.2,58.3,96.83,0.0,0.0,30.1,7.0,59.2
2021-08-04 04:00:00,58.3,57.4,96.82,0.0,0.0,30.11,7.0,58.3
2021-08-04 05:00:00,56.7,56.3,98.56,0.0,0.0,30.11,7.0,56.7
2021-08-04 06:00:00,55.0,55.0,100.0,0.0,0.0,30.11,5.0,55.0
2021-08-04 07:00:00,55.0,55.0,100.0,0.0,0.0,30.1,7.0,54.9
2021-08-04 08:00:00,54.0,54.0,100.0,0.0,0.0,30.11,2.5,54.0
2021-08-04 09:00:00,53.8,53.8,100.0,0.0,0.0,30.11,2.5,53.8
2021-08-04 10:00:00,52.7,52.7,100.0,0.0,0.0,30.12,2.5,52.7
2021-08-04 11:00:00,55.2,55.2,100.0,0.0,0.0,30.14,5.0,55.2
2021-08-04 12:00:00,61.2,60.0,96.17,0.0,0.0,30.15,5.0,61.2
2021-08-04 13:00:00,67.0,61.2,81.91,260.0,3.0,30.15,7.0,66.9
2021-08-04 14:00:00,72.0,62.0,70.78,0.0,0.0,30.15,10.0,72.1
2021-08-04 15:00:00,75.4,62.4,64.02,260.0,8.0,30.15,10.0,75.4
2021-08-04 16:00:00,77.0,62.0,60.06,0.0,0.0,30.15,10.0,77.0
2021-08-04 17:00:00,78.0,61.7,57.11,250.0,7.0,30.13,10.0,78.1
2021-08-04 18:00:00,79.3,62.4,56.27,230.0,8.0,30.12,10.0,79.3
2021-08-04 19:00:00,77.7,60.8,56.05,260.0,9.0,30.11,10.0,77.7
2021-08-04 20:00:00,78.8,61.0,54.44,230.0,5.0,30.1,10.0,78.8
2021-08-04 21:00:00,77.7,61.0,56.45,210.0,8.0,30.09,10.0,77.7
2021-08-04 22:00:00,76.5,60.3,57.3,240.0,7.0,30.09,10.0,76.5
2021-08-04 23:00:00,73.4,60.6,64.24,240.0,6.0,30.09,10.0,73.4
2021-08-05 00:00:00,69.0,61.2,76.46,220.0,4.0,30.09,10.0,68.9
2021-08-05 01:00:00,66.4,61.0,82.75,210.0,3.0,30.1,10.0,66.4
2021-08-05 02:00:00,63.5,60.0,88.05,0.0,0.0,30.11,10.0,63.5
2021-08-05 03:00:00,61.5,58.3,89.22,0.0,0.0,30.1,10.0,61.5
2021-08-05 04:00:00,59.5,57.4,92.75,0.0,0.0,30.1,10.0,59.5
2021-08-05 05:00:00,60.8,59.0,93.79,0.0,0.0,30.1,10.0,60.8
2021-08-05 06:00:00,58.5,58.0,98.58,0.0,0.0,30.09,10.0,58.5
2021-08-05 07:00:00,58.5,57.0,94.75,0.0,0.0,30.08,10.0,58.5
2021-08-05 08:00:00,56.3,56.0,98.56,0.0,0.0,30.08,7.0,56.3
2021-08-05 09:00:00,60.0,57.7,91.77,200.0,3.0,30.07,10.0,60.1
2021-08-05 10:00:00,60.4,59.0,95.13,200.0,4.0,30.07,7.0,60.4
2021-08-05 11:00:00,61.3,60.0,95.83,210.0,4.0,30.08,7.0,61.3
2021-08-05 12:00:00,64.6,61.0,88.1,190.0,4.0,30.08,10.0,64.6
2021-08-05 13:00:00,69.6,60.3,72.3,220.0,10.0,30.08,10.0,69.6
2021-08-05 14:00:00,69.0,60.6,74.85,220.0,10.0,30.08,10.0,68.9
2021-08-05 15:00:00,72.5,61.7,68.85,210.0,8.0,30.07,10.0,72.5
2021-08-05 16:00:00,74.0,60.6,63.16,210.0,11.0,30.05,10.0,73.9
2021-08-05 17:00:00,74.3,59.5,59.93,200.0,12.0,30.03,10.0,74.3
2021-08-05 18:00:00,73.2,59.2,61.52,220.0,9.0,30.02,10.0,73.2
2021-08-05 19:00:00,72.7,60.3,65.07,220.0,7.0,30.02,10.0,72.7
2021-08-05 20:00:00,68.2,61.7,79.72,250.0,8.0,30.01,10.0,68.2
2021-08-05 21:00:00,67.3,62.0,82.81,250.0,8.0,30.01,10.0,67.3
2021-08-05 22:00:00,64.4,63.0,95.55,220.0,4.0,30.0,10.0,64.4
2021-08-05 23:00:00,64.4,61.0,88.72,220.0,8.0,29.98,10.0,64.4
2021-08-06 00:00:00,63.5,61.5,93.19,190.0,9.0,29.98,10.0,63.5
2021-08-06 01:00:00,62.6,59.4,89.27,200.0,11.0,29.97,10.0,62.6
2021-08-06 02:00:00,62.6,59.2,88.64,210.0,6.0,29.98,10.0,62.6
2021-08-06 03:00:00,62.6,58.5,86.44,200.0,10.0,29.97,10.0,62.6
2021-08-06 04:00:00,63.0,58.5,85.23,200.0,5.0,29.97,10.0,63.0
2021-08-06 05:00:00,62.0,58.8,89.56,210.0,6.0,29.95,10.0,61.9
2021-08-06 06:00:00,61.7,59.4,92.15,200.0,5.0,29.93,10.0,61.7
2021-08-06 07:00:00,61.7,60.3,95.16,0.0,0.0,29.92,10.0,61.7
2021-08-06 08:00:00,60.0,59.5,98.58,180.0,4.0,29.92,10.0,59.9
2021-08-06 09:00:00,61.0,60.8,99.29,210.0,4.0,29.92,10.0,61.0
2021-08-06 10:00:00,62.0,62.0,100.0,240.0,4.0,29.93,3.0,61.9
2021-08-06 11:00:00,62.6,62.6,100.0,250.0,4.0,29.93,4.0,62.6
2021-08-06 12:00:00,64.4,63.0,95.55,240.0,6.0,29.93,7.0,64.4
2021-08-06 13:00:00,65.7,63.0,90.99,260.0,4.0,29.94,10.0,65.7
2021-08-06 14:00:00,67.0,63.7,88.84,270.0,5.0,29.95,10.0,67.1
2021-08-06 15:00:00,68.7,64.4,86.16,280.0,4.0,29.95,10.0,68.7
2021-08-06 16:00:00,72.3,65.5,79.2,270.0,4.0,29.95,10.0,72.3
2021-08-06 17:00:00,73.0,65.0,75.75,290.0,5.0,29.95,10.0,73.0
2021-08-06 18:00:00,74.3,64.8,72.26,0.0,0.0,29.95,7.0,74.3
2021-08-06 19:00:00,75.4,64.8,69.64,330.0,4.0,29.94,10.0,75.4
2021-08-06 20:00:00,76.5,64.6,66.67,0.0,0.0,29.94,10.0,76.5
2021-08-06 21:00:00,76.0,63.7,65.47,320.0,4.0,29.93,10.0,76.1
2021-08-06 22:00:00,75.6,65.8,71.63,200.0,3.0,29.93,10.0,75.6
2021-08-06 23:00:00,74.5,66.6,76.41,0.0,0.0,29.94,10.0,74.5
2021-08-07 00:00:00,69.8,67.5,92.41,0.0,0.0,29.94,10.0,69.8
2021-08-07 01:00:00,65.7,65.3,98.62,0.0,0.0,29.96,7.0,65.7
2021-08-07 02:00:00,67.0,65.5,95.26,0.0,0.0,29.97,7.0,66.9
2021-08-07 03:00:00,66.2,65.0,95.58,0.0,0.0,29.98,7.0,66.2
2021-08-07 04:00:00,64.0,64.0,99.65,60.0,4.0,30.0,7.0,64.0
2021-08-07 05:00:00,65.3,65.0,98.62,90.0,5.0,30.0,7.0,65.3
2021-08-07 06:00:00,64.0,64.0,100.0,90.0,4.0,29.99,10.0,64.0
2021-08-07 07:00:00,62.6,61.7,96.87,110.0,3.0,29.98,10.0,62.6
2021-08-07 08:00:00,61.7,61.3,98.59,100.0,3.0,29.97,10.0,61.7
2021-08-07 09:00:00,61.7,60.8,96.86,100.0,4.0,29.99,10.0,61.7
2021-08-07 10:00:00,60.8,59.2,94.46,100.0,8.0,29.99,10.0,60.8
2021-08-07 11:00:00,60.4,59.5,96.84,90.0,8.0,30.04,10.0,60.4
2021-08-07 12:00:00,60.8,60.0,96.85,100.0,9.0,30.03,10.0,60.8
2021-08-07 13:00:00,62.0,59.0,89.57,100.0,9.0,30.02,10.0,62.1
2021-08-07 14:00:00,64.4,61.2,89.35,110.0,7.0,30.01,10.0,64.4
2021-08-07 15:00:00,65.0,62.0,90.0,140.0,7.0,30.03,10.0,64.9
2021-08-07 16:00:00,65.7,63.5,92.6,140.0,9.0,30.0,10.0,65.7
2021-08-07 17:00:00,66.0,63.7,92.29,110.0,8.0,29.96,10.0,66.0
2021-08-07 18:00:00,65.5,64.6,96.91,130.0,8.0,29.96,10.0,65.5
2021-08-07 19:00:00,64.8,64.8,100.0,160.0,7.0,29.99,3.0,64.8
2021-08-07 20:00:00,65.7,65.7,100.0,150.0,16.0,29.93,5.0,65.7
2021-08-07 21:00:00,66.4,66.4,100.0,160.0,13.0,29.93,4.0,66.4
2021-08-07 22:00:00,66.7,66.7,100.0,140.0,7.0,29.9,5.0,66.7
2021-08-07 23:00:00,66.6,66.6,100.0,140.0,8.0,29.9,3.0,66.6
2021-08-08 00:00:00,66.4,66.4,100.0,130.0,7.0,29.88,5.0,66.4
2021-08-08 01:00:00,66.4,66.4,100.0,140.0,11.0,29.87,5.0,66.4
2021-08-08 02:00:00,66.2,65.7,98.28,70.0,3.0,29.9,7.0,66.2
2021-08-08 03:00:00,65.5,65.5,100.0,140.0,5.0,29.88,3.0,65.5
2021-08-08 04:00:00,65.0,65.0,100.0,130.0,3.0,29.85,3.0,64.9
2021-08-08 05:00:00,65.5,65.5,100.0,140.0,4.0,29.86,3.0,65.5
2021-08-08 06:00:00,65.3,65.3,100.0,150.0,5.0,29.85,5.0,65.3
2021-08-08 07:00:00,65.0,65.0,100.0,140.0,4.0,29.84,7.0,64.9
2021-08-08 08:00:00,64.8,64.8,100.0,120.0,4.0,29.83,5.0,64.8
2021-08-08 09:00:00,64.8,64.8,100.0,140.0,5.0,29.82,4.0,64.8
2021-08-08 10:00:00,65.0,65.0,100.0,140.0,8.0,29.82,1.0,65.1
2021-08-08 11:00:00,65.0,65.0,100.0,200.0,22.0,29.84,1.5,64.9
2021-08-08 12:00:00,66.4,66.0,98.62,220.0,11.0,29.84,10.0,66.4
2021-08-08 13:00:00,67.0,67.0,100.0,270.0,9.0,29.86,7.0,67.1
2021-08-08 14:00:00,67.5,67.5,100.0,30.0,10.0,29.83,10.0,67.5
2021-08-08 15:00:00,68.5,68.5,100.0,160.0,8.0,29.87,10.0,68.5
2021-08-08 16:00:00,71.0,68.4,91.81,160.0,9.0,29.86,10.0,70.9
2021-08-08 17:00:00,72.0,68.7,89.36,160.0,9.0,29.85,10.0,72.0
2021-08-08 18:00:00,75.6,69.3,80.82,160.0,11.0,29.82,10.0,75.6
2021-08-08 19:00:00,77.0,69.8,78.48,190.0,9.0,29.81,10.0,77.0
2021-08-08 20:00:00,76.6,70.0,80.07,180.0,8.0,29.79,10.0,76.6
2021-08-08 21:00:00,75.4,71.6,88.0,160.0,4.0,29.81,10.0,75.4
2021-08-08 22:00:00,73.4,72.7,97.67,0.0,0.0,29.8,4.0,73.4
2021-08-08 23:00:00,67.3,67.0,99.31,130.0,8.0,29.81,1.25,67.3
2021-08-09 00:00:00,67.3,67.3,100.0,140.0,7.0,29.81,10.0,67.3
2021-08-09 01:00:00,66.2,66.2,100.0,170.0,5.0,29.82,10.0,66.2
2021-08-09 02:00:00,66.0,66.0,100.0,180.0,6.0,29.83,10.0,66.0
2021-08-09 03:00:00,66.4,66.4,100.0,200.0,6.0,29.83,10.0,66.4
2021-08-09 04:00:00,66.4,66.4,100.0,200.0,4.0,29.85,7.0,66.4
2021-08-09 05:00:00,65.7,65.7,100.0,210.0,4.0,29.84,5.0,65.7
2021-08-09 06:00:00,65.3,65.3,100.0,0.0,0.0,29.84,3.0,65.3
2021-08-09 07:00:00,65.5,65.5,100.0,180.0,4.0,29.85,7.0,65.5
2021-08-09 08:00:00,65.8,65.8,100.0,0.0,0.0,29.84,5.0,65.8
2021-08-09 09:00:00,63.7,63.7,100.0,0.0,0.0,29.84,10.0,63.7
2021-08-09 10:00:00,62.4,62.4,100.0,0.0,0.0,29.85,7.0,62.4
2021-08-09 11:00:00,64.2,64.2,100.0,0.0,0.0,29.85,7.0,64.2
2021-08-09 12:00:00,66.4,66.4,100.0,130.0,6.0,29.85,7.0,66.4
2021-08-09 13:00:00,68.0,68.0,100.0,120.0,3.0,29.86,5.0,68.0
2021-08-09 14:00:00,68.4,68.0,98.63,100.0,5.0,29.86,7.0,68.4
2021-08-09 15:00:00,68.7,68.4,98.97,80.0,4.0,29.88,5.0,68.7
2021-08-09 16:00:00,73.4,68.2,83.78,110.0,4.0,29.87,10.0,73.4
2021-08-09 17:00:00,74.3,66.7,77.19,0.0,0.0,29.87,10.0,74.3
2021-08-09 18:00:00,76.5,67.3,73.23,0.0,0.0,29.86,10.0,76.5
2021-08-09 19:00:00,77.0,68.7,75.58,110.0,7.0,29.85,10.0,77.0
2021-08-09 20:00:00,77.0,67.6,72.77,80.0,6.0,29.85,10.0,77.0
2021-08-09 21:00:00,77.7,67.0,69.89,100.0,5.0,29.85,10.0,77.7
2021-08-09 22:00:00,77.0,66.4,69.81,110.0,4.0,29.85,10.0,77.0
2021-08-09 23:00:00,74.5,67.3,78.28,120.0,3.0,29.85,10.0,74.5
2021-08-10 00:00:00,71.0,68.2,90.56,0.0,0.0,29.86,10.0,71.1
2021-08-10 01:00:00,67.8,67.6,99.31,0.0,0.0,29.9,7.0,67.8
2021-08-10 02:00:00,65.7,65.5,99.31,0.0,0.0,29.91,10.0,65.7
2021-08-10 03:00:00,63.5,63.5,100.0,0.0,0.0,29.91,7.0,63.5
2021-08-10 04:00:00,62.4,62.4,100.0,0.0,0.0,29.9,0.25,62.4
2021-08-10 05:00:00,61.3,61.3,100.0,0.0,0.0,29.9,1.25,61.3
2021-08-10 06:00:00,61.0,61.0,100.0,0.0,0.0,29.9,0.25,61.0
2021-08-10 07:00:00,60.4,60.4,100.0,0.0,0.0,29.9,0.5,60.4
2021-08-10 08:00:00,60.0,60.0,100.0,0.0,0.0,29.9,0.25,59.9
2021-08-10 09:00:00,59.0,59.0,100.0,0.0,0.0,29.88,0.25,59.0
2021-08-10 10:00:00,58.0,58.0,100.0,0.0,0.0,29.89,0.25,58.1
2021-08-10 11:00:00,60.3,60.3,100.0,0.0,0.0,29.89,0.25,60.3
2021-08-10 12:00:00,66.0,66.0,100.0,0.0,0.0,29.9,4.0,66.0
2021-08-10 13:00:00,70.5,70.5,100.0,180.0,5.0,29.9,10.0,70.5
2021-08-10 14:00:00,76.0,68.2,76.54,170.0,8.0,29.9,10.0,76.1
2021-08-10 15:00:00,78.0,68.7,72.88,180.0,8.0,29.87,10.0,78.1
2021-08-10 16:00:00,77.5,69.8,77.19,180.0,8.0,29.86,10.0,77.5
2021-08-10 17:00:00,80.0,71.4,74.83,180.0,8.0,29.83,10.0,83.74
2021-08-10 18:00:00,79.0,72.7,81.07,190.0,12.0,29.79,10.0,79.0
2021-08-10 19:00:00,78.8,74.3,86.11,210.0,9.0,29.8,10.0,78.8
2021-08-10 20:00:00,81.0,74.5,80.4,230.0,11.0,29.81,10.0,86.74
2021-08-10 21:00:00,80.0,73.4,80.59,250.0,9.0,29.79,10.0,79.9
2021-08-10 22:00:00,78.3,73.6,85.51,260.0,8.0,29.8,10.0,78.3
2021-08-10 23:00:00,77.0,74.0,90.17,260.0,5.0,29.82,10.0,77.0
2021-08-11 00:00:00,74.7,73.4,95.73,250.0,4.0,29.76,10.0,74.7
2021-08-11 01:00:00,73.4,73.2,99.33,240.0,5.0,29.79,7.0,73.4
2021-08-11 02:00:00,73.4,73.4,100.0,220.0,7.0,29.83,7.0,73.4
2021-08-11 03:00:00,73.0,73.0,100.0,220.0,7.0,29.82,5.0,72.9
2021-08-11 04:00:00,70.2,69.0,95.65,200.0,4.0,29.82,10.0,70.2
2021-08-11 05:00:00,68.0,65.8,92.67,190.0,5.0,29.84,10.0,68.0
2021-08-11 06:00:00,66.2,64.8,95.25,230.0,5.0,29.82,10.0,66.2
2021-08-11 07:00:00,66.4,65.3,96.25,210.0,5.0,29.81,10.0,66.4
2021-08-11 08:00:00,64.4,64.2,99.3,190.0,4.0,29.79,10.0,64.4
2021-08-11 09:00:00,62.8,62.8,100.0,180.0,4.0,29.78,5.0,62.8
2021-08-11 10:00:00,64.4,64.4,100.0,190.0,4.0,29.76,0.75,64.4
2021-08-11 11:00:00,65.3,65.3,100.0,200.0,4.0,29.74,1.75,65.3
2021-08-11 12:00:00,65.3,65.3,100.0,200.0,5.0,29.73,1.5,65.3
2021-08-11 13:00:00,66.7,66.7,100.0,200.0,4.0,29.72,2.5,66.7
2021-08-11 14:00:00,68.4,68.4,100.0,190.0,6.0,29.71,0.5,68.4
2021-08-11 15:00:00,70.0,70.0,100.0,170.0,9.0,29.73,1.25,70.0
2021-08-11 16:00:00,73.0,73.0,100.0,210.0,10.0,29.74,2.5,73.0
2021-08-11 17:00:00,74.3,70.5,87.95,180.0,13.0,29.71,10.0,74.3
2021-08-11 18:00:00,63.0,63.0,100.0,190.0,5.0,29.69,10.0,63.0
2021-08-11 19:00:00,67.0,67.0,100.0,190.0,10.0,29.69,10.0,66.9
2021-08-11 20:00:00,72.7,69.0,87.87,220.0,13.0,29.69,10.0,72.7
2021-08-11 21:00:00,77.0,69.6,77.94,220.0,8.0,29.69,10.0,77.0
2021-08-11 22:00:00,78.0,69.4,74.65,250.0,7.0,29.69,10.0,78.1
2021-08-11 23:00:00,76.3,65.5,69.26,270.0,7.0,29.69,10.0,76.3
2021-08-12 00:00:00,71.8,63.7,75.64,290.0,10.0,29.71,10.0,71.8
2021-08-12 01:00:00,68.4,60.8,76.69,300.0,8.0,29.74,10.0,68.4
2021-08-12 02:00:00,64.0,59.0,84.08,280.0,3.0,29.76,10.0,63.9
2021-08-12 03:00:00,61.0,58.0,90.17,240.0,5.0,29.79,10.0,61.0
2021-08-12 04:00:00,59.5,58.0,95.11,250.0,5.0,29.81,10.0,59.5
2021-08-12 05:00:00,60.0,56.3,87.87,240.0,6.0,29.81,10.0,59.9
2021-08-12 06:00:00,60.0,55.0,83.52,240.0,6.0,29.81,10.0,59.9
2021-08-12 07:00:00,58.0,55.0,89.72,0.0,0.0,29.8,10.0,57.9
2021-08-12 08:00:00,55.4,54.3,96.07,0.0,0.0,29.8,10.0,55.4
2021-08-12 09:00:00,56.7,55.0,93.68,0.0,0.0,29.8,10.0,56.7
2021-08-12 10:00:00,54.0,53.8,98.91,190.0,3.0,29.83,10.0,54.1
2021-08-12 11:00:00,58.0,55.6,91.37,230.0,4.0,29.85,10.0,58.1
2021-08-12 12:00:00,63.5,57.0,79.35,230.0,7.0,29.86,10.0,63.5
2021-08-12 13:00:00,65.5,57.7,75.89,230.0,5.0,29.87,10.0,65.5
2021-08-12 14:00:00,68.0,59.4,73.97,210.0,8.0,29.86,10.0,68.0
2021-08-12 15:00:00,66.4,59.7,79.01,240.0,8.0,29.91,10.0,66.4
2021-08-12 16:00:00,64.0,60.8,89.33,250.0,3.0,29.91,10.0,64.0
2021-08-12 17:00:00,67.6,62.6,84.01,220.0,6.0,29.88,10.0,67.6
2021-08-12 18:00:00,73.8,62.0,66.83,260.0,9.0,29.88,10.0,73.8
2021-08-12 19:00:00,76.0,59.7,56.84,260.0,11.0,29.88,10.0,76.1
2021-08-12 20:00:00,77.0,56.5,49.17,270.0,14.0,29.89,10.0,77.0
2021-08-12 21:00:00,76.0,56.0,49.58,260.0,13.0,29.9,10.0,76.1
2021-08-12 22:00:00,74.8,55.8,51.59,260.0,11.0,29.9,10.0,74.8
2021-08-12 23:00:00,72.7,55.0,53.77,270.0,7.0,29.9,10.0,72.7
2021-08-13 00:00:00,66.2,55.6,68.65,270.0,4.0,29.93,10.0,66.2
2021-08-13 01:00:00,62.6,51.6,67.25,300.0,7.0,29.95,10.0,62.6
2021-08-13 02:00:00,61.2,50.0,66.59,280.0,6.0,29.97,10.0,61.2
2021-08-13 03:00:00,58.0,50.4,75.49,280.0,4.0,29.98,10.0,58.1
2021-08-13 04:00:00,55.4,50.4,83.22,290.0,4.0,30.01,10.0,55.4
2021-08-13 05:00:00,53.6,50.4,88.87,0.0,0.0,30.02,10.0,53.6
2021-08-13 06:00:00,50.7,49.5,95.64,0.0,0.0,30.02,10.0,50.7
2021-08-13 07:00:00,49.0,49.0,100.0,0.0,0.0,30.03,10.0,49.1
2021-08-13 08:00:00,47.3,47.3,100.0,0.0,0.0,30.05,10.0,47.3
2021-08-13 09:00:00,47.0,47.0,99.25,0.0,0.0,30.05,10.0,47.1
2021-08-13 10:00:00,46.4,46.4,100.0,0.0,0.0,30.07,10.0,46.4
2021-08-13 11:00:00,49.3,49.3,100.0,0.0,0.0,30.08,10.0,49.3
2021-08-13 12:00:00,56.7,51.4,82.39,0.0,0.0,30.08,10.0,56.7
2021-08-13 13:00:00,62.4,51.0,66.48,220.0,6.0,30.08,10.0,62.4
2021-08-13 14:00:00,66.7,51.8,58.71,240.0,9.0,30.08,10.0,66.7
2021-08-13 15:00:00,68.0,52.3,57.18,290.0,14.0,30.09,10.0,68.0
2021-08-13 16:00:00,69.0,49.6,50.16,330.0,11.0,30.1,10.0,68.9
2021-08-13 17:00:00,70.2,47.8,44.85,270.0,12.0,30.1,10.0,70.2
2021-08-13 18:00:00,69.6,47.3,44.93,310.0,8.0,30.11,10.0,69.6
2021-08-13 19:00:00,70.3,48.0,45.04,280.0,10.0,30.11,10.0,70.3
2021-08-13 20:00:00,69.3,47.0,45.05,320.0,7.0,30.11,10.0,69.3
2021-08-13 21:00:00,70.0,46.8,43.49,290.0,8.0,30.12,10.0,70.0
2021-08-13 22:00:00,68.4,46.4,45.25,300.0,8.0,30.13,10.0,68.4
2021-08-13 23:00:00,66.0,48.4,53.01,310.0,5.0,30.14,10.0,66.0
2021-08-14 00:00:00,60.3,51.0,71.62,300.0,3.0,30.15,10.0,60.3
2021-08-14 01:00:00,55.4,51.3,86.05,0.0,0.0,30.17,10.0,55.4
2021-08-14 02:00:00,53.2,51.4,93.59,0.0,0.0,30.19,10.0,53.2
2021-08-14 03:00:00,52.7,51.3,94.97,0.0,0.0,30.19,10.0,52.7
2021-08-14 04:00:00,51.3,50.4,96.72,0.0,0.0,30.2,10.0,51.3
2021-08-14 05:00:00,49.0,49.0,99.26,0.0,0.0,30.21,10.0,49.1
2021-08-14 06:00:00,48.7,48.6,99.63,0.0,0.0,30.21,7.0,48.7
2021-08-14 07:00:00,48.2,48.0,99.25,0.0,0.0,30.22,10.0,48.2
2021-08-14 08:00:00,46.4,46.4,100.0,0.0,0.0,30.22,10.0,46.4
2021-08-14 09:00:00,45.7,45.7,100.0,0.0,0.0,30.24,10.0,45.7
2021-08-14 10:00:00,44.0,44.0,100.0,0.0,0.0,30.25,10.0,44.1
2021-08-14 11:00:00,47.7,47.7,100.0,0.0,0.0,30.27,10.0,47.7
2021-08-14 12:00:00,54.7,52.3,91.58,0.0,0.0,30.27,10.0,54.7
2021-08-14 13:00:00,62.0,53.0,72.33,0.0,0.0,30.28,10.0,62.1
2021-08-14 14:00:00,67.3,53.6,61.44,0.0,0.0,30.28,10.0,67.3
2021-08-14 15:00:00,71.0,47.8,43.5,230.0,6.0,30.29,10.0,71.1
2021-08-14 16:00:00,73.2,48.0,40.82,260.0,4.0,30.27,10.0,73.2
2021-08-14 17:00:00,74.3,49.0,40.69,300.0,7.0,30.26,10.0,74.3
2021-08-14 18:00:00,75.0,48.6,39.3,300.0,3.0,30.26,10.0,75.0
2021-08-14 19:00:00,75.7,49.8,40.15,290.0,4.0,30.26,10.0,75.7
2021-08-14 20:00:00,75.7,49.3,39.41,240.0,7.0,30.24,10.0,75.7
2021-08-14 21:00:00,75.4,47.8,37.64,250.0,5.0,30.24,10.0,75.4
2021-08-14 22:00:00,74.0,48.7,40.93,220.0,5.0,30.22,10.0,73.9
2021-08-14 23:00:00,71.0,52.3,51.78,220.0,6.0,30.22,10.0,70.9
2021-08-15 00:00:00,65.8,54.0,65.91,210.0,4.0,30.21,10.0,65.8
2021-08-15 01:00:00,60.3,53.8,79.1,200.0,4.0,30.22,10.0,60.3
2021-08-15 02:00:00,56.5,53.0,88.35,0.0,0.0,30.24,10.0,56.5
2021-08-15 03:00:00,55.4,53.0,91.94,0.0,0.0,30.24,10.0,55.4
2021-08-15 04:00:00,54.5,52.7,93.62,0.0,0.0,30.24,10.0,54.5
2021-08-15 05:00:00,53.2,52.3,96.75,0.0,0.0,30.24,10.0,53.2
2021-08-15 06:00:00,54.0,52.0,92.58,0.0,0.0,30.24,10.0,54.1
2021-08-15 07:00:00,52.3,50.7,94.26,0.0,0.0,30.24,10.0,52.3
2021-08-15 08:00:00,52.2,50.7,94.61,0.0,0.0,30.24,10.0,52.2
2021-08-15 09:00:00,52.0,51.0,96.73,0.0,0.0,30.24,10.0,52.0
2021-08-15 10:00:00,51.0,50.2,97.44,0.0,0.0,30.24,10.0,50.9
2021-08-15 11:00:00,53.0,52.5,98.54,0.0,0.0,30.25,10.0,52.9
2021-08-15 12:00:00,61.2,57.0,86.06,0.0,0.0,30.25,10.0,61.2
2021-08-15 13:00:00,68.4,56.7,66.21,270.0,4.0,30.25,10.0,68.4
2021-08-15 14:00:00,72.0,57.6,60.29,250.0,5.0,30.25,10.0,72.1
2021-08-15 15:00:00,73.8,57.7,57.14,200.0,8.0,30.25,10.0,73.8
2021-08-15 16:00:00,75.4,57.0,52.81,220.0,10.0,30.24,10.0,75.4
2021-08-15 17:00:00,76.3,58.0,52.93,200.0,10.0,30.22,10.0,76.3
2021-08-15 18:00:00,76.6,58.0,52.79,220.0,7.0,30.21,10.0,76.6
2021-08-15 19:00:00,77.4,57.7,50.67,220.0,7.0,30.2,10.0,77.4
2021-08-15 20:00:00,77.0,57.4,50.8,210.0,7.0,30.18,10.0,77.0
2021-08-15 21:00:00,76.8,58.5,53.2,200.0,7.0,30.17,10.0,76.8
2021-08-15 22:00:00,75.4,58.0,54.94,210.0,6.0,30.17,10.0,75.4
2021-08-15 23:00:00,72.7,58.3,60.58,220.0,4.0,30.15,10.0,72.7
2021-08-16 00:00:00,67.0,59.5,77.1,170.0,4.0,30.15,10.0,66.9
2021-08-16 01:00:00,62.0,58.3,87.35,180.0,4.0,30.15,10.0,62.1
2021-08-16 02:00:00,61.2,57.4,87.31,0.0,0.0,30.16,7.0,61.2
2021-08-16 03:00:00,59.0,57.2,93.74,0.0,0.0,30.15,10.0,59.0
2021-08-16 04:00:00,57.7,55.6,92.69,0.0,0.0,30.15,10.0,57.7
2021-08-16 05:00:00,58.0,55.2,90.7,0.0,0.0,30.15,10.0,57.9
2021-08-16 06:00:00,55.6,54.0,94.34,0.0,0.0,30.14,10.0,55.6
2021-08-16 07:00:00,54.3,53.0,95.0,0.0,0.0,30.14,10.0,54.3
2021-08-16 08:00:00,53.8,52.7,96.05,0.0,0.0,30.14,10.0,53.8
2021-08-16 09:00:00,53.2,53.2,100.0,0.0,0.0,30.15,10.0,53.2
2021-08-16 10:00:00,50.2,50.0,99.26,0.0,0.0,30.14,10.0,50.2
2021-08-16 11:00:00,53.8,53.2,97.83,0.0,0.0,30.14,10.0,53.8
2021-08-16 12:00:00,61.5,57.0,85.15,0.0,0.0,30.15,10.0,61.5
2021-08-16 13:00:00,68.0,57.6,69.35,210.0,3.0,30.15,10.0,68.0
2021-08-16 14:00:00,71.0,57.4,61.92,220.0,4.0,30.15,10.0,71.1
2021-08-16 15:00:00,73.0,56.8,57.01,220.0,8.0,30.15,10.0,72.9
2021-08-16 16:00:00,73.6,55.8,53.71,180.0,5.0,30.14,10.0,73.6
2021-08-16 17:00:00,75.2,56.8,52.78,150.0,8.0,30.12,10.0,75.2
2021-08-16 18:00:00,76.0,58.0,53.64,180.0,7.0,30.11,10.0,75.9
2021-08-16 19:00:00,76.0,58.0,53.67,160.0,8.0,30.1,10.0,76.1
2021-08-16 20:00:00,76.0,57.7,52.91,170.0,6.0,30.08,10.0,76.1
2021-08-16 21:00:00,75.7,58.6,55.38,190.0,8.0,30.07,10.0,75.7
2021-08-16 22:00:00,73.2,58.0,58.72,170.0,7.0,30.06,10.0,73.2
2021-08-16 23:00:00,71.2,58.5,64.2,160.0,5.0,30.05,10.0,71.2
2021-08-17 00:00:00,64.8,58.0,78.88,150.0,6.0,30.04,10.0,64.8
2021-08-17 01:00:00,61.2,56.3,83.91,160.0,3.0,30.05,10.0,61.2
2021-08-17 02:00:00,60.0,55.6,85.06,160.0,4.0,30.05,10.0,60.1
2021-08-17 03:00:00,59.0,55.4,87.83,180.0,3.0,30.05,10.0,59.0
2021-08-17 04:00:00,59.0,55.4,87.83,180.0,4.0,30.06,10.0,59.0
2021-08-17 05:00:00,57.6,55.6,93.03,150.0,3.0,30.06,10.0,57.6
2021-08-17 06:00:00,57.2,56.3,96.8,180.0,4.0,30.05,10.0,57.2
2021-08-17 07:00:00,56.0,55.6,98.92,190.0,3.0,30.05,10.0,55.9
2021-08-17 08:00:00,55.6,55.4,99.28,190.0,4.0,30.05,10.0,55.6
2021-08-17 09:00:00,55.4,55.4,100.0,200.0,3.0,30.05,10.0,55.4
2021-08-17 10:00:00,53.6,53.2,98.54,0.0,0.0,30.06,7.0,53.6
2021-08-17 11:00:00,55.4,55.0,98.2,0.0,0.0,30.07,10.0,55.4
2021-08-17 12:00:00,62.2,59.2,89.89,190.0,3.0,30.08,10.0,62.2
2021-08-17 13:00:00,67.5,61.3,80.51,210.0,5.0,30.07,10.0,67.5
2021-08-17 14:00:00,70.7,60.0,69.14,220.0,7.0,30.07,10.0,70.7
2021-08-17 15:00:00,73.8,61.5,65.43,200.0,7.0,30.07,10.0,73.8
2021-08-17 16:00:00,72.5,60.3,65.51,220.0,7.0,30.06,10.0,72.5
2021-08-17 17:00:00,75.6,59.7,57.79,210.0,9.0,30.05,10.0,75.6
2021-08-17 18:00:00,76.8,60.6,57.34,210.0,9.0,30.04,10.0,76.8
2021-08-17 19:00:00,76.3,60.4,57.88,190.0,8.0,30.03,10.0,76.3
2021-08-17 20:00:00,77.7,61.3,57.05,210.0,7.0,30.02,10.0,77.7
2021-08-17 21:00:00,78.0,61.7,57.48,190.0,8.0,30.02,10.0,77.9
2021-08-17 22:00:00,75.6,61.2,60.96,180.0,6.0,30.02,10.0,75.6
2021-08-17 23:00:00,73.0,62.4,69.39,180.0,3.0,30.02,10.0,73.0
2021-08-18 00:00:00,67.0,62.2,84.86,0.0,0.0,30.03,10.0,66.9
2021-08-18 01:00:00,63.0,61.2,93.51,0.0,0.0,30.05,10.0,63.1
2021-08-18 02:00:00,63.0,60.8,92.2,0.0,0.0,30.06,10.0,63.1
2021-08-18 03:00:00,61.0,59.4,94.46,0.0,0.0,30.06,10.0,61.0
2021-08-18 04:00:00,59.7,59.4,98.94,0.0,0.0,30.06,10.0,59.7
2021-08-18 05:00:00,60.0,58.6,94.78,0.0,0.0,30.07,10.0,60.1
2021-08-18 06:00:00,58.5,58.0,98.58,0.0,0.0,30.07,10.0,58.5
2021-08-18 07:00:00,57.6,57.6,100.0,0.0,0.0,30.09,4.0,57.6
2021-08-18 08:00:00,58.0,58.0,100.0,0.0,0.0,30.1,4.0,58.1
2021-08-18 09:00:00,55.4,55.4,100.0,0.0,0.0,30.1,0.25,55.4
2021-08-18 10:00:00,54.5,54.5,100.0,0.0,0.0,30.12,1.75,54.5
2021-08-18 11:00:00,55.2,55.2,100.0,0.0,0.0,30.13,7.0,55.2
2021-08-18 12:00:00,64.0,62.6,95.2,0.0,0.0,30.15,10.0,64.0
2021-08-18 13:00:00,71.2,63.5,76.66,210.0,4.0,30.15,10.0,71.2
2021-08-18 14:00:00,74.5,64.0,69.79,190.0,5.0,30.15,10.0,74.5
2021-08-18 15:00:00,77.0,63.3,62.66,230.0,5.0,30.15,10.0,77.0
2021-08-18 16:00:00,77.5,62.0,59.08,200.0,4.0,30.15,10.0,77.5
2021-08-18 17:00:00,78.0,62.6,59.34,220.0,4.0,30.15,10.0,77.9
2021-08-18 18:00:00,80.2,61.7,53.3,230.0,3.0,30.14,10.0,81.32
2021-08-18 19:00:00,80.8,62.6,53.95,210.0,4.0,30.14,10.0,82.01
2021-08-18 20:00:00,81.0,62.8,53.98,140.0,4.0,30.13,10.0,82.23
2021-08-18 21:00:00,80.6,61.7,52.6,160.0,5.0,30.13,10.0,81.64
2021-08-18 22:00:00,79.3,62.0,55.67,190.0,4.0,30.13,10.0,79.3
2021-08-18 23:00:00,76.8,63.0,62.63,190.0,3.0,30.11,10.0,76.8
2021-08-19 00:00:00,70.3,64.0,80.16,0.0,0.0,30.12,10.0,70.3
2021-08-19 01:00:00,66.2,62.6,88.18,0.0,0.0,30.13,10.0,66.2
2021-08-19 02:00:00,65.0,62.0,90.64,0.0,0.0,30.14,10.0,64.9
2021-08-19 03:00:00,62.0,60.8,95.5,0.0,0.0,30.15,10.0,62.1
2021-08-19 04:00:00,60.4,60.0,98.24,0.0,0.0,30.15,10.0,60.4
2021-08-19 05:00:00,60.4,58.8,94.45,0.0,0.0,30.15,10.0,60.4
2021-08-19 06:00:00,61.7,60.6,96.18,0.0,0.0,30.14,10.0,61.7
2021-08-19 07:00:00,59.2,59.0,99.29,0.0,0.0,30.14,10.0,59.2
2021-08-19 08:00:00,59.0,59.0,100.0,0.0,0.0,30.14,7.0,59.0
2021-08-19 09:00:00,57.4,57.4,100.0,0.0,0.0,30.13,0.5,57.4
2021-08-19 10:00:00,57.6,57.6,100.0,0.0,0.0,30.14,0.25,57.6
2021-08-19 11:00:00,58.0,58.0,100.0,0.0,0.0,30.15,0.25,58.1
2021-08-19 12:00:00,63.0,63.0,100.0,0.0,0.0,30.16,0.5,63.0
2021-08-19 13:00:00,68.0,68.0,100.0,0.0,0.0,30.16,10.0,68.0
2021-08-19 14:00:00,76.3,65.0,67.82,0.0,0.0,30.16,10.0,76.3
2021-08-19 15:00:00,79.0,62.8,57.63,260.0,5.0,30.15,10.0,79.0
2021-08-19 16:00:00,78.8,60.0,52.72,0.0,0.0,30.14,10.0,78.8
2021-08-19 17:00:00,80.6,60.6,50.59,210.0,4.0,30.13,10.0,81.42
2021-08-19 18:00:00,82.0,57.6,43.42,220.0,4.0,30.11,10.0,81.86
2021-08-19 19:00:00,82.6,58.3,43.67,180.0,5.0,30.1,10.0,82.46
2021-08-19 20:00:00,82.6,60.0,46.57,210.0,5.0,30.1,10.0,82.89
2021-08-19 21:00:00,82.0,61.5,50.07,200.0,3.0,30.08,10.0,82.67
2021-08-19 22:00:00,80.6,60.8,50.95,210.0,4.0,30.07,10.0,81.46
2021-08-19 23:00:00,78.0,65.0,63.9,0.0,0.0,30.06,10.0,78.1
2021-08-20 00:00:00,71.0,66.0,83.93,0.0,0.0,30.06,10.0,71.1
2021-08-20 01:00:00,67.0,64.2,90.41,0.0,0.0,30.06,10.0,67.1
2021-08-20 02:00:00,64.4,63.0,95.21,0.0,0.0,30.07,10.0,64.4
2021-08-20 03:00:00,64.0,62.6,95.2,0.0,0.0,30.07,10.0,64.0
2021-08-20 04:00:00,66.2,65.8,98.62,160.0,4.0,30.06,7.0,66.2
2021-08-20 05:00:00,65.8,65.7,99.65,180.0,4.0,30.06,7.0,65.8
2021-08-20 06:00:00,64.6,64.6,100.0,0.0,0.0,30.05,4.0,64.6
2021-08-20 07:00:00,65.0,65.0,100.0,0.0,0.0,30.05,0.75,64.9
2021-08-20 08:00:00,62.0,62.0,100.0,0.0,0.0,30.03,2.5,61.9
2021-08-20 09:00:00,59.7,59.7,100.0,0.0,0.0,30.04,0.25,59.7
2021-08-20 10:00:00,58.0,58.0,100.0,0.0,0.0,30.04,0.25,58.1
2021-08-20 11:00:00,60.0,60.0,100.0,0.0,0.0,30.04,0.25,59.9
2021-08-20 12:00:00,67.6,67.6,100.0,140.0,3.0,30.03,3.0,67.6
2021-08-20 13:00:00,70.3,69.8,98.31,140.0,3.0,30.03,7.0,70.3
2021-08-20 14:00:00,76.3,69.6,79.78,150.0,4.0,30.03,10.0,76.3
2021-08-20 15:00:00,79.3,67.3,66.76,130.0,10.0,30.02,10.0,79.3
2021-08-20 16:00:00,80.6,66.6,62.44,170.0,8.0,30.01,10.0,82.87
2021-08-20 17:00:00,82.0,66.0,58.62,170.0,8.0,29.99,10.0,84.04
2021-08-20 18:00:00,82.0,65.8,58.03,140.0,11.0,29.96,10.0,84.07
2021-08-20 19:00:00,80.8,65.0,58.48,150.0,13.0,29.95,10.0,82.59
2021-08-20 20:00:00,82.8,65.5,55.95,150.0,15.0,29.92,10.0,84.77
2021-08-20 21:00:00,81.5,66.7,60.85,150.0,14.0,29.91,10.0,83.87
2021-08-20 22:00:00,79.0,66.2,64.9,150.0,11.0,29.9,10.0,79.0
2021-08-20 23:00:00,76.8,66.4,70.28,140.0,6.0,29.9,10.0,76.8
2021-08-21 00:00:00,73.6,66.6,78.75,130.0,8.0,29.89,10.0,73.6
2021-08-21 01:00:00,71.6,66.4,83.67,130.0,8.0,29.88,10.0,71.6
2021-08-21 02:00:00,69.8,66.2,88.34,140.0,8.0,29.89,10.0,69.8
2021-08-21 03:00:00,69.0,66.6,92.38,130.0,8.0,29.88,10.0,68.9
2021-08-21 04:00:00,68.0,66.7,95.61,150.0,7.0,29.88,10.0,68.0
2021-08-21 05:00:00,68.0,66.7,95.61,150.0,9.0,29.86,10.0,68.0
2021-08-21 06:00:00,66.7,66.4,98.97,140.0,7.0,29.84,7.0,66.7
2021-08-21 07:00:00,66.2,66.2,100.0,160.0,6.0,29.84,5.0,66.2
2021-08-21 08:00:00,66.4,66.4,100.0,160.0,8.0,29.83,4.0,66.4
2021-08-21 09:00:00,66.6,66.6,100.0,140.0,9.0,29.8,4.0,66.6
2021-08-21 10:00:00,67.0,67.0,100.0,150.0,8.0,29.78,5.0,67.1
2021-08-21 11:00:00,68.0,67.6,98.63,180.0,5.0,29.81,4.0,68.0
2021-08-21 12:00:00,69.0,68.4,97.63,180.0,8.0,29.81,5.0,69.1
2021-08-21 13:00:00,70.2,68.2,93.38,220.0,8.0,29.82,10.0,70.2
2021-08-21 14:00:00,71.0,67.6,89.31,220.0,10.0,29.83,10.0,70.9
2021-08-21 15:00:00,72.5,67.5,84.31,220.0,11.0,29.83,10.0,72.5
2021-08-21 16:00:00,76.8,67.5,73.0,220.0,8.0,29.82,10.0,76.8
2021-08-21 17:00:00,79.2,65.3,62.49,220.0,11.0,29.84,10.0,79.2
2021-08-21 18:00:00,81.7,64.0,55.03,230.0,13.0,29.83,10.0,83.19
2021-08-21 19:00:00,80.8,64.2,57.07,260.0,12.0,29.84,10.0,82.41
2021-08-21 20:00:00,79.0,61.5,55.05,270.0,13.0,29.85,10.0,79.0
2021-08-21 21:00:00,77.7,60.6,55.65,270.0,13.0,29.86,10.0,77.7
2021-08-21 22:00:00,75.4,57.4,53.57,270.0,9.0,29.87,10.0,75.4
2021-08-21 23:00:00,71.8,57.7,61.12,280.0,11.0,29.88,10.0,71.8
2021-08-22 00:00:00,67.0,56.5,69.23,290.0,11.0,29.92,10.0,66.9
2021-08-22 01:00:00,64.0,55.2,73.31,310.0,8.0,29.95,10.0,63.9
2021-08-22 02:00:00,60.3,53.0,77.09,310.0,6.0,29.98,10.0,60.3
2021-08-22 03:00:00,58.0,52.0,80.67,320.0,6.0,29.99,10.0,57.9
2021-08-22 04:00:00,55.4,51.0,85.41,330.0,5.0,30.01,10.0,55.4
2021-08-22 05:00:00,53.2,50.0,88.85,310.0,4.0,30.02,10.0,53.2
2021-08-22 06:00:00,51.0,49.3,93.53,330.0,3.0,30.03,10.0,51.1
2021-08-22 07:00:00,51.0,49.5,94.93,0.0,0.0,30.04,10.0,50.9
2021-08-22 08:00:00,48.0,48.0,100.0,0.0,0.0,30.06,10.0,48.0
2021-08-22 09:00:00,49.0,48.4,98.15,0.0,0.0,30.08,10.0,48.9
2021-08-22 10:00:00,48.2,48.2,100.0,0.0,0.0,30.09,10.0,48.2
2021-08-22 11:00:00,48.0,48.0,100.0,0.0,0.0,30.11,10.0,48.0
2021-08-22 12:00:00,56.0,52.3,87.67,30.0,5.0,30.11,10.0,55.9
2021-08-22 13:00:00,60.0,50.0,69.74,40.0,11.0,30.12,10.0,59.9
2021-08-22 14:00:00,63.5,49.5,60.27,50.0,8.0,30.13,10.0,63.5
2021-08-22 15:00:00,66.6,50.0,55.11,70.0,5.0,30.13,10.0,66.6
2021-08-22 16:00:00,68.2,50.4,52.93,90.0,4.0,30.11,10.0,68.2
2021-08-22 17:00:00,69.4,50.4,50.8,0.0,0.0,30.09,10.0,69.4
2021-08-22 18:00:00,72.0,52.7,50.62,0.0,0.0,30.08,10.0,72.0
2021-08-22 19:00:00,72.7,51.6,47.47,140.0,3.0,30.06,10.0,72.7
2021-08-22 20:00:00,73.8,51.3,45.24,0.0,0.0,30.05,10.0,73.8
2021-08-22 21:00:00,73.6,51.8,46.39,0.0,0.0,30.04,10.0,73.6
2021-08-22 22:00:00,72.7,51.4,47.12,110.0,4.0,30.02,10.0,72.7
2021-08-22 23:00:00,69.8,54.3,57.84,0.0,0.0,30.02,10.0,69.8
2021-08-23 00:00:00,62.6,56.5,80.44,0.0,0.0,30.01,10.0,62.6
2021-08-23 01:00:00,58.8,55.8,89.75,0.0,0.0,30.02,10.0,58.8
2021-08-23 02:00:00,59.4,55.2,85.95,0.0,0.0,30.02,10.0,59.4
2021-08-23 03:00:00,57.6,55.0,90.69,170.0,3.0,30.01,10.0,57.6
2021-08-23 04:00:00,58.8,55.8,89.75,180.0,3.0,30.03,10.0,58.8
2021-08-23 05:00:00,59.2,56.0,88.8,180.0,6.0,30.02,10.0,59.2
2021-08-23 06:00:00,60.4,55.8,84.77,170.0,9.0,29.97,10.0,60.4
2021-08-23 07:00:00,59.5,55.6,86.9,170.0,3.0,29.98,10.0,59.5
2021-08-23 08:00:00,57.0,55.0,92.67,0.0,0.0,29.98,10.0,57.0
2021-08-23 09:00:00,55.4,54.3,96.07,0.0,0.0,29.98,10.0,55.4
2021-08-23 10:00:00,55.4,55.4,100.0,0.0,0.0,29.96,10.0,55.4
2021-08-23 11:00:00,57.0,57.0,100.0,0.0,0.0,29.97,7.0,57.0
2021-08-23 12:00:00,61.0,60.0,96.85,170.0,4.0,29.98,10.0,61.0
2021-08-23 13:00:00,65.0,61.2,87.19,190.0,9.0,29.99,10.0,65.1
2021-08-23 14:00:00,67.6,62.4,83.42,210.0,8.0,29.98,10.0,67.6
2021-08-23 15:00:00,73.0,63.7,72.88,220.0,8.0,29.97,10.0,72.9
2021-08-23 16:00:00,75.6,65.7,71.38,230.0,5.0,29.95,10.0,75.6
2021-08-23 17:00:00,78.8,67.3,67.86,200.0,6.0,29.94,10.0,78.8
2021-08-23 18:00:00,80.4,68.2,66.42,230.0,8.0,29.93,10.0,83.12
2021-08-23 19:00:00,79.7,67.0,65.43,240.0,10.0,29.93,10.0,79.7
2021-08-23 20:00:00,81.3,68.4,64.94,240.0,7.0,29.93,10.0,84.26
2021-08-23 21:00:00,79.5,68.4,68.88,220.0,7.0,29.92,10.0,79.5
2021-08-23 22:00:00,79.2,68.7,70.28,230.0,8.0,29.92,10.0,79.2
2021-08-23 23:00:00,78.8,69.0,72.2,260.0,8.0,29.91,10.0,78.8
2021-08-24 00:00:00,73.4,68.7,85.24,240.0,4.0,29.92,10.0,73.4
2021-08-24 01:00:00,70.3,67.5,90.84,240.0,5.0,29.94,10.0,70.3
2021-08-24 02:00:00,67.3,66.6,97.61,230.0,3.0,29.96,10.0,67.3
2021-08-24 03:00:00,64.2,64.0,99.3,0.0,0.0,29.97,10.0,64.2
2021-08-24 04:00:00,63.7,63.7,100.0,0.0,0.0,29.98,7.0,63.7
2021-08-24 05:00:00,63.7,63.7,100.0,0.0,0.0,29.98,7.0,63.7
2021-08-24 06:00:00,59.7,59.7,100.0,0.0,0.0,29.98,0.25,59.7
2021-08-24 07:00:00,58.5,58.5,100.0,0.0,0.0,29.98,0.25,58.5
2021-08-24 08:00:00,58.8,58.8,100.0,0.0,0.0,29.99,0.5,58.8
2021-08-24 09:00:00,57.7,57.7,100.0,0.0,0.0,29.97,0.25,57.7
2021-08-24 10:00:00,58.5,58.5,100.0,0.0,0.0,29.96,0.25,58.5
2021-08-24 11:00:00,59.2,59.2,100.0,0.0,0.0,29.98,0.25,59.2
2021-08-24 12:00:00,64.8,64.8,100.0,0.0,0.0,29.99,7.0,64.8
2021-08-24 13:00:00,66.4,66.4,100.0,0.0,0.0,30.01,7.0,66.4
2021-08-24 14:00:00,63.5,63.5,100.0,290.0,11.0,30.06,5.0,63.5
2021-08-24 15:00:00,62.2,62.2,100.0,360.0,12.0,29.99,5.0,62.2
2021-08-24 16:00:00,62.6,62.0,98.25,0.0,0.0,30.05,2.0,62.6
2021-08-24 17:00:00,64.6,64.6,100.0,90.0,4.0,29.97,10.0,64.6
2021-08-24 18:00:00,67.0,65.3,93.95,150.0,11.0,29.93,10.0,67.1
2021-08-24 19:00:00,68.0,67.0,96.28,170.0,14.0,29.88,10.0,68.0
2021-08-24 20:00:00,71.0,67.5,88.4,200.0,5.0,29.93,10.0,71.1
2021-08-24 21:00:00,71.6,65.5,81.1,170.0,6.0,29.93,10.0,71.6
2021-08-24 22:00:00,71.0,65.3,82.47,130.0,3.0,29.91,10.0,70.9
2021-08-24 23:00:00,68.4,65.5,90.46,0.0,0.0,29.92,10.0,68.4
2021-08-25 00:00:00,65.5,65.0,97.93,110.0,4.0,29.94,10.0,65.5
2021-08-25 01:00:00,64.0,64.0,100.0,130.0,4.0,29.97,10.0,64.0
2021-08-25 02:00:00,62.8,62.8,100.0,140.0,4.0,29.98,10.0,62.8
2021-08-25 03:00:00,64.0,64.0,100.0,110.0,5.0,29.98,10.0,64.0
2021-08-25 04:00:00,63.3,63.3,100.0,0.0,0.0,30.0,7.0,63.3
2021-08-25 05:00:00,62.2,62.2,100.0,0.0,0.0,30.01,1.5,62.2
2021-08-25 06:00:00,60.0,60.0,100.0,0.0,0.0,30.01,0.75,59.9
2021-08-25 07:00:00,62.0,62.0,100.0,0.0,0.0,30.0,0.5,61.9
2021-08-25 08:00:00,62.0,62.0,100.0,0.0,0.0,30.0,0.5,61.9
2021-08-25 09:00:00,60.8,60.8,100.0,0.0,0.0,30.01,0.25,60.8
2021-08-25 10:00:00,60.6,60.6,100.0,0.0,0.0,30.01,3.0,60.6
2021-08-25 11:00:00,60.4,60.4,100.0,0.0,0.0,30.02,0.25,60.4
2021-08-25 12:00:00,63.5,63.5,100.0,0.0,0.0,30.05,10.0,63.5
2021-08-25 13:00:00,65.3,65.3,100.0,0.0,0.0,30.07,10.0,65.3
2021-08-25 14:00:00,68.5,68.2,98.97,280.0,4.0,30.08,10.0,68.5
2021-08-25 15:00:00,75.4,67.0,75.44,250.0,4.0,30.09,10.0,75.4
2021-08-25 16:00:00,75.6,67.3,75.45,260.0,5.0,30.09,10.0,75.6
2021-08-25 17:00:00,79.3,68.4,69.34,270.0,5.0,30.09,10.0,79.3
2021-08-25 18:00:00,81.0,67.5,63.37,280.0,9.0,30.08,10.0,83.71
2021-08-25 19:00:00,83.3,68.2,60.45,280.0,6.0,30.08,10.0,86.49
2021-08-25 20:00:00,83.3,66.4,56.81,290.0,8.0,30.08,10.0,85.65
2021-08-25 21:00:00,81.0,66.7,61.65,310.0,4.0,30.08,10.0,83.44
2021-08-25 22:00:00,81.3,66.0,59.78,300.0,5.0,30.08,10.0,83.42
2021-08-25 23:00:00,77.2,65.5,67.22,310.0,6.0,30.09,10.0,77.2
2021-08-26 00:00:00,72.0,65.5,80.0,300.0,4.0,30.1,10.0,72.0
2021-08-26 01:00:00,68.4,64.2,86.45,300.0,7.0,30.14,10.0,68.4
2021-08-26 02:00:00,64.8,64.0,96.9,340.0,4.0,30.15,10.0,64.8
2021-08-26 03:00:00,64.0,60.6,88.7,340.0,5.0,30.16,10.0,64.0
2021-08-26 04:00:00,60.6,59.2,95.13,350.0,5.0,30.17,10.0,60.6
2021-08-26 05:00:00,59.5,58.3,95.8,0.0,0.0,30.19,10.0,59.5
2021-08-26 06:00:00,57.2,56.5,97.5,0.0,0.0,30.19,10.0,57.2
2021-08-26 07:00:00,55.8,55.8,100.0,0.0,0.0,30.2,10.0,55.8
2021-08-26 08:00:00,54.3,54.3,100.0,0.0,0.0,30.21,7.0,54.3
2021-08-26 09:00:00,53.8,53.8,100.0,360.0,3.0,30.21,7.0,53.8
2021-08-26 10:00:00,52.7,52.7,100.0,360.0,4.0,30.2,7.0,52.7
2021-08-26 11:00:00,53.6,53.6,100.0,0.0,0.0,30.21,10.0,53.6
2021-08-26 12:00:00,59.2,57.0,92.4,20.0,3.0,30.22,5.0,59.2
2021-08-26 13:00:00,63.7,57.6,80.52,30.0,7.0,30.22,4.0,63.7
2021-08-26 14:00:00,69.0,58.0,67.96,60.0,3.0,30.21,4.0,68.9
2021-08-26 15:00:00,72.5,53.8,51.82,90.0,6.0,30.22,5.0,72.5
2021-08-26 16:00:00,74.5,54.3,49.34,100.0,5.0,30.22,7.0,74.5
2021-08-26 17:00:00,73.0,56.0,55.4,80.0,5.0,30.22,7.0,73.0
2021-08-26 18:00:00,73.4,57.6,57.7,100.0,3.0,30.22,7.0,73.4
2021-08-26 19:00:00,72.7,57.6,59.08,110.0,5.0,30.21,10.0,72.7
2021-08-26 20:00:00,71.8,59.0,64.04,120.0,3.0,30.2,10.0,71.8
2021-08-26 21:00:00,72.0,58.6,62.71,0.0,0.0,30.2,10.0,72.0
2021-08-26 22:00:00,71.8,62.2,71.75,60.0,6.0,30.16,10.0,71.8
2021-08-26 23:00:00,67.6,59.2,74.46,80.0,7.0,30.12,10.0,67.6
2021-08-27 00:00:00,66.4,59.2,77.61,100.0,6.0,30.13,10.0,66.4
2021-08-27 01:00:00,67.3,58.5,73.37,110.0,9.0,30.16,10.0,67.3
2021-08-27 02:00:00,65.5,56.7,73.2,90.0,6.0,30.17,10.0,65.5
2021-08-27 03:00:00,65.3,57.2,75.05,70.0,5.0,30.18,10.0,65.3
2021-08-27 04:00:00,61.3,59.0,92.14,70.0,11.0,30.17,2.5,61.3
2021-08-27 05:00:00,58.5,56.0,91.72,90.0,9.0,30.17,7.0,58.5
2021-08-27 06:00:00,56.3,55.6,97.49,100.0,12.0,30.11,10.0,56.3
2021-08-27 07:00:00,56.5,56.0,98.56,40.0,5.0,30.15,10.0,56.5
2021-08-27 08:00:00,57.0,56.5,98.21,50.0,3.0,30.15,10.0,57.0
2021-08-27 09:00:00,57.6,57.2,98.57,70.0,5.0,30.13,10.0,57.6
2021-08-27 10:00:00,58.0,57.2,96.81,60.0,7.0,30.14,10.0,58.1
2021-08-27 11:00:00,57.7,57.6,99.64,90.0,6.0,30.14,7.0,57.7
2021-08-27 12:00:00,58.5,58.5,100.0,100.0,8.0,30.13,7.0,58.5
2021-08-27 13:00:00,59.5,59.5,100.0,100.0,11.0,30.1,10.0,59.5
2021-08-27 14:00:00,61.3,61.3,100.0,110.0,9.0,30.08,10.0,61.3
2021-08-27 15:00:00,62.2,62.2,100.0,110.0,11.0,30.08,7.0,62.2
2021-08-27 16:00:00,63.3,63.3,100.0,110.0,8.0,30.08,5.0,63.3
2021-08-27 17:00:00,64.0,64.0,100.0,110.0,6.0,30.08,5.0,63.9
2021-08-27 18:00:00,64.6,64.6,100.0,110.0,5.0,30.07,7.0,64.6
2021-08-27 19:00:00,65.8,65.8,100.0,0.0,0.0,30.05,10.0,65.8
2021-08-27 20:00:00,68.0,67.6,98.63,130.0,10.0,29.99,10.0,68.0
2021-08-27 21:00:00,69.0,67.8,96.29,160.0,7.0,30.01,10.0,68.9
2021-08-27 22:00:00,69.0,68.0,96.29,170.0,4.0,30.04,10.0,69.1
2021-08-27 23:00:00,68.2,68.2,100.0,120.0,10.0,29.98,5.0,68.2
2021-08-28 00:00:00,68.5,68.2,98.97,170.0,4.0,30.03,10.0,68.5
2021-08-28 01:00:00,67.6,67.6,100.0,150.0,5.0,30.03,10.0,67.6
2021-08-28 02:00:00,66.2,65.8,98.62,0.0,0.0,30.01,10.0,66.2
2021-08-28 03:00:00,65.5,65.5,100.0,210.0,3.0,30.04,10.0,65.5
2021-08-28 04:00:00,66.2,66.2,100.0,180.0,5.0,30.03,10.0,66.2
2021-08-28 05:00:00,65.7,65.7,100.0,150.0,9.0,30.03,10.0,65.7
2021-08-28 06:00:00,65.0,65.0,100.0,160.0,3.0,30.01,10.0,64.9
2021-08-28 07:00:00,64.6,64.6,100.0,140.0,4.0,30.02,1.0,64.6
2021-08-28 08:00:00,64.4,64.4,100.0,0.0,0.0,30.03,10.0,64.4
2021-08-28 09:00:00,62.6,62.6,100.0,0.0,0.0,30.02,0.75,62.6
2021-08-28 10:00:00,65.0,65.0,100.0,160.0,4.0,30.03,10.0,65.1
2021-08-28 11:00:00,64.6,64.6,100.0,140.0,4.0,30.04,10.0,64.6
2021-08-28 12:00:00,66.2,66.2,100.0,160.0,3.0,30.05,10.0,66.2
2021-08-28 13:00:00,71.6,66.6,84.25,190.0,7.0,30.06,10.0,71.6
2021-08-28 14:00:00,74.3,67.5,79.35,170.0,5.0,30.05,10.0,74.3
2021-08-28 15:00:00,76.5,67.8,74.5,180.0,9.0,30.05,10.0,76.5
2021-08-28 16:00:00,78.0,69.3,74.88,190.0,6.0,30.05,10.0,77.9
2021-08-28 17:00:00,78.0,69.6,75.66,190.0,9.0,30.06,10.0,77.9
2021-08-28 18:00:00,78.0,70.0,76.7,190.0,6.0,30.05,10.0,77.9
2021-08-28 19:00:00,78.6,69.8,74.44,210.0,9.0,30.05,10.0,78.6
2021-08-28 20:00:00,78.3,70.3,76.47,190.0,7.0,30.04,10.0,78.3
2021-08-28 21:00:00,79.7,71.0,75.05,170.0,5.0,30.03,10.0,79.7
2021-08-28 22:00:00,79.0,70.3,74.73,190.0,4.0,30.01,10.0,79.0
2021-08-28 23:00:00,76.0,69.8,81.4,190.0,4.0,30.03,10.0,75.9
2021-08-29 00:00:00,71.4,69.0,91.82,190.0,3.0,30.05,10.0,71.4
2021-08-29 01:00:00,68.4,68.0,98.63,0.0,0.0,30.04,10.0,68.4
2021-08-29 02:00:00,68.5,68.5,100.0,140.0,5.0,30.0,10.0,68.5
2021-08-29 03:00:00,68.7,68.7,100.0,140.0,6.0,29.99,10.0,68.7
2021-08-29 04:00:00,71.0,70.7,99.32,170.0,10.0,29.98,10.0,70.9
2021-08-29 05:00:00,68.7,67.8,96.95,170.0,21.0,29.98,7.0,68.7
2021-08-29 06:00:00,68.0,66.6,95.28,140.0,5.0,29.99,4.0,68.0
2021-08-29 07:00:00,66.6,66.6,100.0,130.0,6.0,29.96,10.0,66.6
2021-08-29 08:00:00,66.2,65.8,98.62,150.0,9.0,29.95,10.0,66.2
2021-08-29 09:00:00,66.6,66.6,100.0,180.0,8.0,29.93,10.0,66.6
2021-08-29 10:00:00,67.3,67.3,100.0,170.0,7.0,29.91,10.0,67.3
2021-08-29 11:00:00,67.0,67.0,100.0,160.0,14.0,29.83,1.0,67.1
2021-08-29 12:00:00,68.0,68.0,100.0,250.0,8.0,29.91,5.0,68.0
2021-08-29 13:00:00,72.0,67.3,85.16,250.0,14.0,29.91,10.0,72.0
2021-08-29 14:00:00,71.4,64.8,79.68,250.0,15.0,29.92,10.0,71.4
2021-08-29 15:00:00,69.0,64.8,86.18,250.0,15.0,29.93,7.0,69.1
2021-08-29 16:00:00,73.0,64.8,75.48,250.0,15.0,29.93,10.0,73.0
2021-08-29 17:00:00,75.6,62.8,64.5,270.0,15.0,29.92,10.0,75.6
2021-08-29 18:00:00,75.6,59.5,57.38,280.0,14.0,29.92,10.0,75.6
2021-08-29 19:00:00,76.8,59.7,55.53,270.0,15.0,29.92,10.0,76.8
2021-08-29 20:00:00,75.0,58.0,55.28,260.0,10.0,29.91,10.0,75.0
2021-08-29 21:00:00,74.3,58.8,58.45,280.0,13.0,29.92,10.0,74.3
2021-08-29 22:00:00,73.8,58.3,58.38,270.0,11.0,29.93,10.0,73.8
2021-08-29 23:00:00,70.3,58.0,65.25,250.0,7.0,29.93,10.0,70.3
2021-08-30 00:00:00,65.3,58.5,78.64,240.0,6.0,29.95,10.0,65.3
2021-08-30 01:00:00,63.7,58.8,84.06,230.0,6.0,29.97,10.0,63.7
2021-08-30 02:00:00,63.5,59.2,85.87,230.0,6.0,29.98,10.0,63.5
2021-08-30 03:00:00,62.0,59.2,90.21,230.0,7.0,29.98,10.0,62.1
2021-08-30 04:00:00,61.0,59.0,93.12,230.0,6.0,29.99,10.0,61.0
2021-08-30 05:00:00,60.0,58.5,95.12,240.0,7.0,30.0,10.0,59.9
2021-08-30 06:00:00,59.4,58.0,95.45,260.0,5.0,29.99,10.0,59.4
2021-08-30 07:00:00,59.2,57.6,94.42,260.0,5.0,30.0,10.0,59.2
2021-08-30 08:00:00,58.0,57.2,96.81,280.0,5.0,29.99,10.0,58.1
2021-08-30 09:00:00,57.6,56.5,96.11,280.0,6.0,29.98,10.0,57.6
2021-08-30 10:00:00,56.8,56.0,96.8,280.0,6.0,29.98,10.0,56.8
2021-08-30 11:00:00,57.2,55.8,95.06,270.0,6.0,29.99,10.0,57.2
2021-08-30 12:00:00,61.0,57.0,86.67,270.0,7.0,30.0,10.0,61.0
2021-08-30 13:00:00,64.0,57.4,79.38,290.0,8.0,30.01,10.0,63.9
2021-08-30 14:00:00,67.6,58.0,71.07,300.0,9.0,30.0,10.0,67.6
2021-08-30 15:00:00,71.0,57.0,61.04,280.0,13.0,29.99,10.0,71.1
2021-08-30 16:00:00,73.4,56.8,56.06,290.0,13.0,29.98,10.0,73.4
2021-08-30 17:00:00,74.8,56.0,52.15,280.0,13.0,29.96,10.0,74.8
2021-08-30 18:00:00,74.0,54.7,50.74,300.0,11.0,29.95,10.0,74.1
2021-08-30 19:00:00,76.3,53.6,45.29,290.0,12.0,29.94,10.0,76.3
2021-08-30 20:00:00,76.3,54.0,45.96,290.0,11.0,29.93,10.0,76.3
2021-08-30 21:00:00,74.5,53.0,47.22,310.0,11.0,29.92,10.0,74.5
2021-08-30 22:00:00,73.4,52.2,47.4,320.0,9.0,29.93,10.0,73.4
2021-08-30 23:00:00,68.2,54.0,60.44,330.0,4.0,29.94,10.0,68.2
2021-08-31 00:00:00,64.0,54.5,71.21,360.0,3.0,29.95,10.0,64.0
2021-08-31 01:00:00,60.0,55.6,85.67,0.0,0.0,29.96,10.0,59.9
2021-08-31 02:00:00,56.3,55.0,95.04,30.0,3.0,29.96,10.0,56.3
2021-08-31 03:00:00,56.3,54.0,92.31,40.0,3.0,29.96,10.0,56.3
2021-08-31 04:00:00,54.7,54.0,97.48,0.0,0.0,29.97,10.0,54.7
2021-08-31 05:00:00,54.5,54.0,98.19,0.0,0.0,29.96,10.0,54.5
2021-08-31 06:00:00,54.0,53.8,99.27,20.0,3.0,29.95,10.0,54.0
2021-08-31 07:00:00,52.7,52.7,100.0,0.0,0.0,29.94,10.0,52.7
2021-08-31 08:00:00,52.3,52.3,100.0,20.0,3.0,29.93,10.0,52.3
2021-08-31 09:00:00,53.6,53.6,100.0,0.0,0.0,29.93,10.0,53.6
2021-08-31 10:00:00,54.5,54.5,100.0,0.0,0.0,29.95,10.0,54.5
2021-08-31 11:00:00,56.3,56.0,98.56,0.0,0.0,29.97,10.0,56.3
2021-08-31 12:00:00,58.8,57.6,95.78,0.0,0.0,29.97,10.0,58.8
2021-08-31 13:00:00,62.2,59.4,90.54,50.0,4.0,29.98,10.0,62.2
2021-08-31 14:00:00,66.2,57.7,74.06,60.0,5.0,29.98,10.0,66.2
2021-08-31 15:00:00,66.6,56.8,70.71,40.0,6.0,29.98,10.0,66.6
2021-08-31 16:00:00,68.5,56.0,64.1,70.0,6.0,29.98,10.0,68.5
2021-08-31 17:00:00,68.7,54.3,60.06,50.0,5.0,29.98,10.0,68.7
2021-08-31 18:00:00,68.7,53.0,57.48,60.0,5.0,29.96,10.0,68.7
2021-08-31 19:00:00,72.0,52.7,50.62,30.0,5.0,29.95,10.0,72.0
2021-08-31 20:00:00,72.5,53.2,50.69,30.0,10.0,29.94,10.0,72.5
2021-08-31 21:00:00,71.0,53.2,53.52,110.0,6.0,29.94,10.0,70.9
2021-08-31 22:00:00,71.0,53.2,53.52,110.0,6.0,29.94,10.0,70.9
2021-08-31 23:00:00,71.0,53.2,53.52,110.0,6.0,29.94,10.0,70.9
2021-09-01 00:00:00,71.0,53.2,53.52,110.0,6.0,29.94,10.0,70.9
2021-09-01 01:00:00,71.0,53.2,53.52,110.0,6.0,29.94,10.0,70.9
2021-09-01 02:00:00,56.3,55.0,95.04,50.0,3.0,29.99,10.0,56.3
2021-09-01 03:00:00,55.0,54.0,96.77,60.0,4.0,30.01,10.0,55.0
2021-09-01 04:00:00,53.2,51.4,93.59,60.0,4.0,30.02,10.0,53.2
2021-09-01 05:00:00,51.6,50.2,94.95,40.0,4.0,30.02,10.0,51.6
2021-09-01 06:00:00,50.4,49.5,96.71,30.0,4.0,30.03,10.0,50.4
2021-09-01 07:00:00,49.0,48.6,98.15,0.0,0.0,30.03,10.0,49.1
2021-09-01 08:00:00,47.3,47.0,98.5,0.0,0.0,30.03,10.0,47.3
2021-09-01 09:00:00,46.8,46.8,100.0,0.0,0.0,30.04,10.0,46.8
2021-09-01 10:00:00,45.3,45.3,100.0,0.0,0.0,30.05,10.0,45.3
2021-09-01 11:00:00,45.5,45.5,100.0,40.0,3.0,30.06,10.0,44.12
2021-09-01 12:00:00,51.6,50.0,94.24,360.0,3.0,30.08,10.0,51.6
2021-09-01 13:00:00,57.2,51.3,80.62,40.0,5.0,30.1,10.0,57.2
2021-09-01 14:00:00,60.8,50.4,68.55,40.0,7.0,30.1,10.0,60.8
2021-09-01 15:00:00,64.8,47.3,53.03,50.0,6.0,30.1,10.0,64.8
2021-09-01 16:00:00,66.7,48.4,51.74,60.0,5.0,30.11,10.0,66.7
2021-09-01 17:00:00,68.5,46.2,44.76,0.0,0.0,30.1,10.0,68.5
2021-09-01 18:00:00,70.0,45.3,41.09,30.0,5.0,30.1,10.0,70.0
2021-09-01 19:00:00,71.0,47.0,42.34,30.0,3.0,30.09,10.0,70.9
2021-09-01 20:00:00,71.6,47.0,41.66,10.0,3.0,30.08,10.0,71.6
2021-09-01 21:00:00,71.0,47.3,42.69,40.0,3.0,30.08,10.0,71.1
2021-09-01 22:00:00,70.0,47.5,44.65,100.0,5.0,30.09,10.0,70.0
2021-09-01 23:00:00,67.0,51.0,56.42,0.0,0.0,30.09,10.0,67.1
2021-09-02 00:00:00,57.7,53.2,84.92,0.0,0.0,30.09,10.0,57.7
2021-09-02 01:00:00,55.2,53.4,93.64,0.0,0.0,30.11,10.0,55.2
2021-09-02 02:00:00,53.4,51.3,92.56,40.0,6.0,30.11,10.0,53.4
2021-09-02 03:00:00,52.7,49.5,88.83,0.0,0.0,30.13,10.0,52.7
2021-09-02 04:00:00,54.0,50.5,87.58,100.0,6.0,30.14,10.0,54.1
2021-09-02 05:00:00,53.4,47.0,78.53,50.0,3.0,30.15,10.0,53.4
2021-09-02 06:00:00,51.4,46.4,82.95,0.0,0.0,30.16,10.0,51.4
2021-09-02 07:00:00,48.2,45.0,88.62,40.0,3.0,30.16,10.0,47.21
2021-09-02 08:00:00,47.3,44.4,89.6,0.0,0.0,30.17,10.0,47.3
2021-09-02 09:00:00,48.4,43.7,83.7,0.0,0.0,30.18,10.0,48.4
2021-09-02 10:00:00,46.0,44.2,93.39,0.0,0.0,30.19,10.0,46.0
2021-09-02 11:00:00,46.6,44.6,92.7,0.0,0.0,30.19,10.0,46.6
2021-09-02 12:00:00,53.4,47.8,81.24,0.0,0.0,30.21,10.0,53.4
2021-09-02 13:00:00,59.2,47.0,64.15,0.0,0.0,30.21,10.0,59.2
2021-09-02 14:00:00,63.3,48.7,58.91,0.0,0.0,30.21,10.0,63.3
2021-09-02 15:00:00,66.0,52.0,60.6,0.0,0.0,30.21,10.0,66.0
2021-09-02 16:00:00,68.0,52.2,56.97,0.0,0.0,30.2,10.0,68.0
2021-09-02 17:00:00,68.4,50.4,52.57,190.0,3.0,30.2,10.0,68.4
2021-09-02 18:00:00,69.8,50.7,50.67,0.0,0.0,30.19,10.0,69.8
2021-09-02 19:00:00,69.0,50.2,50.94,0.0,0.0,30.18,10.0,69.1
2021-09-02 20:00:00,69.0,51.8,54.42,130.0,3.0,30.17,10.0,68.9
2021-09-02 21:00:00,67.5,51.6,56.69,140.0,4.0,30.16,10.0,67.5
2021-09-02 22:00:00,66.6,54.0,63.87,160.0,4.0,30.17,10.0,66.6
2021-09-02 23:00:00,63.7,54.5,71.96,150.0,3.0,30.16,10.0,63.7
2021-09-03 00:00:00,61.0,56.0,83.29,0.0,0.0,30.17,10.0,61.0
2021-09-03 01:00:00,60.0,54.7,82.91,110.0,6.0,30.15,10.0,59.9
2021-09-03 02:00:00,58.5,54.5,86.53,180.0,3.0,30.17,10.0,58.5
2021-09-03 03:00:00,58.0,52.3,80.98,90.0,6.0,30.15,10.0,58.1
2021-09-03 04:00:00,57.2,54.0,89.36,0.0,0.0,30.15,10.0,57.2
2021-09-03 05:00:00,56.0,54.0,93.66,140.0,4.0,30.14,10.0,55.9
2021-09-03 06:00:00,56.3,53.6,90.64,140.0,4.0,30.14,10.0,56.3
2021-09-03 07:00:00,56.0,53.2,89.97,90.0,4.0,30.14,10.0,56.1
2021-09-03 08:00:00,55.2,52.2,89.6,160.0,4.0,30.14,10.0,55.2
2021-09-03 09:00:00,55.0,52.7,92.27,90.0,5.0,30.13,10.0,54.9
2021-09-03 10:00:00,55.6,53.0,91.28,0.0,0.0,30.15,10.0,55.6
2021-09-03 11:00:00,56.0,53.2,89.97,0.0,0.0,30.15,10.0,56.1
2021-09-03 12:00:00,57.2,53.2,86.46,0.0,0.0,30.14,10.0,57.2
2021-09-03 13:00:00,58.3,54.3,86.52,110.0,6.0,30.13,10.0,58.3
2021-09-03 14:00:00,59.2,55.2,86.57,120.0,7.0,30.12,10.0,59.2
2021-09-03 15:00:00,59.5,56.3,89.14,130.0,6.0,30.13,10.0,59.5
2021-09-03 16:00:00,60.4,57.6,90.47,130.0,6.0,30.12,10.0,60.4
2021-09-03 17:00:00,60.4,59.0,95.13,150.0,4.0,30.12,10.0,60.4
2021-09-03 18:00:00,60.0,58.0,93.09,140.0,6.0,30.11,10.0,59.9
2021-09-03 19:00:00,60.4,57.7,90.8,180.0,6.0,30.1,10.0,60.4
2021-09-03 20:00:00,58.0,53.8,85.57,160.0,11.0,30.09,10.0,58.1
2021-09-03 21:00:00,56.7,55.8,96.79,130.0,7.0,30.07,7.0,56.7
2021-09-03 22:00:00,54.0,52.7,95.0,110.0,11.0,30.06,10.0,54.1
2021-09-03 23:00:00,54.5,53.0,94.31,120.0,8.0,30.05,10.0,54.5
2021-09-04 00:00:00,54.5,53.0,95.01,130.0,7.0,30.04,7.0,54.5
2021-09-04 01:00:00,54.5,53.6,96.76,120.0,11.0,30.05,7.0,54.5
2021-09-04 02:00:00,54.5,54.5,100.0,130.0,7.0,30.04,4.0,54.5
2021-09-04 03:00:00,55.0,55.0,100.0,130.0,11.0,30.02,3.0,55.0
2021-09-04 04:00:00,55.0,55.0,100.0,150.0,7.0,30.01,2.5,55.0
2021-09-04 05:00:00,55.0,55.0,100.0,130.0,6.0,29.99,2.5,55.0
2021-09-04 06:00:00,55.6,55.6,100.0,130.0,10.0,29.96,3.0,55.6
2021-09-04 07:00:00,56.3,56.3,100.0,140.0,9.0,29.93,2.0,56.3
2021-09-04 08:00:00,56.5,56.5,100.0,140.0,7.0,29.93,2.5,56.5
2021-09-04 09:00:00,57.0,57.0,100.0,150.0,7.0,29.92,2.5,57.0
2021-09-04 10:00:00,57.4,57.4,100.0,170.0,4.0,29.91,2.0,57.4
2021-09-04 11:00:00,57.7,57.7,100.0,190.0,4.0,29.9,1.75,57.7
2021-09-04 12:00:00,58.5,58.5,100.0,0.0,0.0,29.87,4.0,58.5
2021-09-04 13:00:00,59.0,59.0,100.0,250.0,3.0,29.87,7.0,59.0
2021-09-04 14:00:00,60.0,59.4,97.53,290.0,6.0,29.88,10.0,60.1
2021-09-04 15:00:00,60.8,59.2,94.46,310.0,4.0,29.86,10.0,60.8
2021-09-04 16:00:00,60.4,59.0,95.13,280.0,9.0,29.87,10.0,60.4
2021-09-04 17:00:00,61.7,58.6,89.55,280.0,11.0,29.86,10.0,61.7
2021-09-04 18:00:00,61.2,58.0,89.53,300.0,11.0,29.86,10.0,61.2
2021-09-04 19:00:00,63.5,57.4,80.5,290.0,14.0,29.85,10.0,63.5
2021-09-04 20:00:00,66.4,57.6,73.29,310.0,11.0,29.84,10.0,66.4
2021-09-04 21:00:00,67.6,56.8,68.31,300.0,8.0,29.84,10.0,67.6
2021-09-04 22:00:00,66.6,55.2,66.73,300.0,11.0,29.84,10.0,66.6
2021-09-04 23:00:00,63.7,56.5,77.39,280.0,4.0,29.84,10.0,63.7
2021-09-05 00:00:00,58.0,55.4,90.71,250.0,4.0,29.85,10.0,58.1
2021-09-05 01:00:00,57.4,55.4,93.02,240.0,5.0,29.86,10.0,57.4
2021-09-05 02:00:00,57.4,55.4,93.02,240.0,5.0,29.86,10.0,57.4
2021-09-05 03:00:00,57.2,55.0,92.0,250.0,8.0,29.86,10.0,57.2
2021-09-05 04:00:00,54.5,54.0,98.55,0.0,0.0,29.86,10.0,54.5
2021-09-05 05:00:00,52.3,52.3,100.0,250.0,4.0,29.86,10.0,52.3
2021-09-05 06:00:00,51.8,51.8,100.0,240.0,4.0,29.84,10.0,51.8
2021-09-05 07:00:00,51.3,51.3,100.0,250.0,3.0,29.83,10.0,51.3
2021-09-05 08:00:00,50.4,50.4,100.0,270.0,3.0,29.83,10.0,50.4
2021-09-05 09:00:00,51.0,51.0,100.0,260.0,5.0,29.82,10.0,50.9
2021-09-05 10:00:00,51.0,51.0,99.26,270.0,7.0,29.82,10.0,51.1
2021-09-05 11:00:00,51.0,50.5,98.53,280.0,6.0,29.83,10.0,50.9
2021-09-05 12:00:00,53.8,51.4,91.55,280.0,8.0,29.84,10.0,53.8
2021-09-05 13:00:00,58.0,53.4,84.93,300.0,8.0,29.86,10.0,57.9
2021-09-05 14:00:00,61.2,54.0,77.17,300.0,10.0,29.86,10.0,61.2
2021-09-05 15:00:00,64.0,53.0,67.89,280.0,12.0,29.86,10.0,63.9
2021-09-05 16:00:00,66.4,51.6,58.89,300.0,11.0,29.86,10.0,66.4
2021-09-05 17:00:00,68.2,51.8,55.75,280.0,10.0,29.85,10.0,68.2
2021-09-05 18:00:00,67.8,50.5,53.87,290.0,12.0,29.83,10.0,67.8
2021-09-05 19:00:00,67.8,50.4,53.67,290.0,11.0,29.82,10.0,67.8
2021-09-05 20:00:00,66.2,49.5,54.85,290.0,10.0,29.83,10.0,66.2
2021-09-05 21:00:00,65.7,49.5,55.81,290.0,13.0,29.83,10.0,65.7
2021-09-05 22:00:00,64.0,50.4,61.24,290.0,8.0,29.84,10.0,64.0
2021-09-05 23:00:00,62.0,49.5,63.31,320.0,7.0,29.84,10.0,62.1
2021-09-06 00:00:00,58.6,49.0,70.64,310.0,4.0,29.86,10.0,58.6
2021-09-06 01:00:00,56.5,49.0,76.19,290.0,4.0,29.87,10.0,56.5
2021-09-06 02:00:00,53.6,49.3,85.3,320.0,3.0,29.9,10.0,53.6
2021-09-06 03:00:00,51.0,49.0,92.83,280.0,4.0,29.9,10.0,51.1
2021-09-06 04:00:00,50.2,48.7,94.56,330.0,3.0,29.9,10.0,50.2
2021-09-06 05:00:00,48.4,47.8,97.77,250.0,3.0,29.91,10.0,47.44
2021-09-06 06:00:00,48.0,47.8,99.25,270.0,5.0,29.93,10.0,45.4
2021-09-06 07:00:00,47.5,47.3,99.25,280.0,5.0,29.93,10.0,44.8
2021-09-06 08:00:00,46.2,46.2,100.0,0.0,0.0,29.92,10.0,46.2
2021-09-06 09:00:00,42.8,42.8,100.0,0.0,0.0,29.93,1.75,42.8
2021-09-06 10:00:00,44.0,44.0,100.0,0.0,0.0,29.95,5.0,43.9
2021-09-06 11:00:00,43.2,43.2,100.0,0.0,0.0,29.96,10.0,43.2
2021-09-06 12:00:00,49.0,49.0,100.0,0.0,0.0,29.97,10.0,48.9
2021-09-06 13:00:00,55.0,52.2,90.26,290.0,6.0,29.98,10.0,55.0
2021-09-06 14:00:00,60.0,51.0,71.6,260.0,7.0,29.98,10.0,60.1
2021-09-06 15:00:00,63.0,50.7,64.14,290.0,6.0,29.98,10.0,63.0
2021-09-06 16:00:00,64.6,50.7,60.64,320.0,8.0,29.97,10.0,64.6
2021-09-06 17:00:00,66.4,51.0,57.38,290.0,8.0,29.96,10.0,66.4
2021-09-06 18:00:00,67.0,50.4,54.98,270.0,5.0,29.95,10.0,67.1
2021-09-06 19:00:00,69.0,51.3,53.43,280.0,4.0,29.93,10.0,68.9
2021-09-06 20:00:00,70.5,51.3,50.58,280.0,5.0,29.91,10.0,70.5
2021-09-06 21:00:00,70.3,51.0,50.18,270.0,5.0,29.9,10.0,70.3
2021-09-06 22:00:00,69.3,52.0,54.08,230.0,6.0,29.88,10.0,69.3
2021-09-06 23:00:00,64.2,53.0,67.18,210.0,5.0,29.87,10.0,64.2
2021-09-07 00:00:00,57.7,52.0,81.25,170.0,4.0,29.87,10.0,57.7
2021-09-07 01:00:00,56.3,52.2,86.1,0.0,0.0,29.87,10.0,56.3
2021-09-07 02:00:00,55.2,51.3,86.67,180.0,5.0,29.87,10.0,55.2
2021-09-07 03:00:00,55.6,51.3,85.42,190.0,4.0,29.86,10.0,55.6
2021-09-07 04:00:00,53.8,50.7,89.21,180.0,5.0,29.83,10.0,53.8
2021-09-07 05:00:00,53.8,51.0,89.87,170.0,6.0,29.8,10.0,53.8
2021-09-07 06:00:00,54.7,51.0,86.97,170.0,5.0,29.78,10.0,54.7
2021-09-07 07:00:00,56.5,51.0,82.07,170.0,11.0,29.71,10.0,56.5
2021-09-07 08:00:00,57.2,51.0,80.02,170.0,11.0,29.67,10.0,57.2
2021-09-07 09:00:00,58.0,52.2,81.27,340.0,19.0,29.71,10.0,57.9
2021-09-07 10:00:00,57.4,57.4,100.0,160.0,3.0,29.71,10.0,57.4
2021-09-07 11:00:00,56.8,56.8,100.0,170.0,4.0,29.67,10.0,56.8
2021-09-07 12:00:00,58.5,58.0,97.87,110.0,3.0,29.65,10.0,58.5
2021-09-07 13:00:00,59.4,58.3,96.14,0.0,0.0,29.69,10.0,59.4
2021-09-07 14:00:00,65.3,60.0,82.68,280.0,11.0,29.67,10.0,65.3
2021-09-07 15:00:00,66.2,57.6,73.8,310.0,10.0,29.68,10.0,66.2
2021-09-07 16:00:00,68.4,57.2,67.42,280.0,7.0,29.67,10.0,68.4
2021-09-07 17:00:00,71.6,55.6,57.04,300.0,11.0,29.65,10.0,71.6
2021-09-07 18:00:00,71.4,51.4,49.24,300.0,15.0,29.67,10.0,71.4
2021-09-07 19:00:00,73.0,50.2,44.77,310.0,12.0,29.67,10.0,72.9
2021-09-07 20:00:00,72.5,49.0,43.23,300.0,13.0,29.66,10.0,72.5
2021-09-07 21:00:00,72.3,49.6,44.68,290.0,16.0,29.67,10.0,72.3
2021-09-07 22:00:00,70.2,50.5,49.61,290.0,11.0,29.68,10.0,70.2
2021-09-07 23:00:00,66.0,50.0,56.27,270.0,8.0,29.69,10.0,66.0
2021-09-08 00:00:00,57.7,50.0,75.45,290.0,8.0,29.72,10.0,57.7
2021-09-08 01:00:00,56.3,49.3,77.32,310.0,17.0,29.76,10.0,56.3
2021-09-08 02:00:00,54.0,50.7,88.56,280.0,6.0,29.73,10.0,54.0
2021-09-08 03:00:00,52.3,50.0,91.84,270.0,8.0,29.74,10.0,52.3
2021-09-08 04:00:00,51.8,49.0,90.46,270.0,6.0,29.72,10.0,51.8
2021-09-08 05:00:00,51.8,48.2,87.47,270.0,5.0,29.73,10.0,51.8
2021-09-08 06:00:00,51.0,47.7,88.09,270.0,7.0,29.72,10.0,51.1
2021-09-08 07:00:00,50.7,47.8,89.74,260.0,7.0,29.71,10.0,50.7
2021-09-08 08:00:00,51.0,48.0,89.75,260.0,8.0,29.71,10.0,50.9
2021-09-08 09:00:00,49.8,47.7,92.45,260.0,7.0,29.71,10.0,46.48
2021-09-08 10:00:00,50.0,48.2,93.5,280.0,9.0,29.71,10.0,50.0
2021-09-08 11:00:00,50.2,48.7,94.56,280.0,9.0,29.72,10.0,50.2
2021-09-08 12:00:00,52.2,51.0,95.31,280.0,7.0,29.74,10.0,52.2
2021-09-08 13:00:00,55.6,52.3,88.63,300.0,14.0,29.74,10.0,55.6
2021-09-08 14:00:00,59.4,52.3,77.3,300.0,11.0,29.76,10.0,59.4
2021-09-08 15:00:00,61.7,51.3,68.65,310.0,13.0,29.78,10.0,61.7
2021-09-08 16:00:00,63.0,50.7,63.91,300.0,15.0,29.78,10.0,63.1
2021-09-08 17:00:00,65.5,48.7,54.55,320.0,19.0,29.78,10.0,65.5
2021-09-08 18:00:00,66.4,47.5,50.54,330.0,14.0,29.8,10.0,66.4
2021-09-08 19:00:00,67.0,47.0,48.23,330.0,12.0,29.81,10.0,67.1
2021-09-08 20:00:00,67.3,48.0,49.92,320.0,11.0,29.83,10.0,67.3
2021-09-08 21:00:00,66.0,46.4,49.17,320.0,11.0,29.84,10.0,66.0
2021-09-08 22:00:00,62.8,47.0,56.46,330.0,8.0,29.86,10.0,62.8
2021-09-08 23:00:00,59.0,48.2,67.33,290.0,5.0,29.87,10.0,59.0
2021-09-09 00:00:00,55.4,48.7,78.11,290.0,5.0,29.9,10.0,55.4
2021-09-09 01:00:00,54.0,50.2,86.93,290.0,6.0,29.91,10.0,54.0
2021-09-09 02:00:00,53.2,50.4,90.18,300.0,4.0,29.92,10.0,53.2
2021-09-09 03:00:00,51.3,50.2,96.0,310.0,4.0,29.93,10.0,51.3
2021-09-09 04:00:00,50.2,50.0,99.26,320.0,3.0,29.93,10.0,50.2
2021-09-09 05:00:00,50.5,50.4,99.63,310.0,5.0,29.94,10.0,50.5
2021-09-09 06:00:00,46.8,46.8,100.0,0.0,0.0,29.94,10.0,46.8
2021-09-09 07:00:00,45.7,45.7,100.0,0.0,0.0,29.95,0.75,45.7
2021-09-09 08:00:00,43.7,43.7,100.0,0.0,0.0,29.96,1.0,43.7
2021-09-09 09:00:00,47.0,47.0,100.0,0.0,0.0,29.97,0.25,46.9
2021-09-09 10:00:00,46.2,46.2,100.0,0.0,0.0,29.98,0.25,46.2
2021-09-09 11:00:00,46.6,46.6,100.0,0.0,0.0,30.01,0.25,46.6
2021-09-09 12:00:00,48.2,48.2,100.0,0.0,0.0,30.02,0.25,48.2
2021-09-09 13:00:00,51.0,51.0,100.0,0.0,0.0,30.03,0.25,50.9
2021-09-09 14:00:00,54.7,54.7,100.0,0.0,0.0,30.04,10.0,54.7
2021-09-09 15:00:00,62.0,55.0,77.8,260.0,3.0,30.04,10.0,61.9
2021-09-09 16:00:00,65.8,53.0,63.07,310.0,6.0,30.03,10.0,65.8
2021-09-09 17:00:00,68.4,51.0,53.55,320.0,6.0,30.02,10.0,68.4
2021-09-09 18:00:00,68.0,50.4,53.3,320.0,7.0,30.01,10.0,68.0
2021-09-09 19:00:00,69.4,51.0,52.13,320.0,6.0,30.01,10.0,69.4
2021-09-09 20:00:00,68.4,51.3,54.35,350.0,6.0,30.01,10.0,68.4
2021-09-09 21:00:00,68.0,51.3,55.11,330.0,4.0,30.0,10.0,68.0
2021-09-09 22:00:00,65.7,52.0,61.23,0.0,0.0,30.01,10.0,65.7
2021-09-09 23:00:00,62.2,53.8,73.95,0.0,0.0,30.01,10.0,62.2
2021-09-10 00:00:00,56.5,55.4,96.09,0.0,0.0,30.02,10.0,56.5
2021-09-10 01:00:00,57.2,55.6,94.38,0.0,0.0,30.03,10.0,57.2
2021-09-10 02:00:00,54.3,54.3,100.0,0.0,0.0,30.05,10.0,54.3
2021-09-10 03:00:00,53.8,53.8,100.0,0.0,0.0,30.05,10.0,53.8
2021-09-10 04:00:00,50.2,50.2,100.0,0.0,0.0,30.06,10.0,50.2
2021-09-10 05:00:00,48.7,48.7,100.0,0.0,0.0,30.06,10.0,48.7
2021-09-10 06:00:00,47.0,47.0,100.0,360.0,3.0,30.06,10.0,45.72
2021-09-10 07:00:00,46.8,46.8,100.0,0.0,0.0,30.06,10.0,46.8
2021-09-10 08:00:00,46.6,46.6,100.0,0.0,0.0,30.06,10.0,46.6
2021-09-10 09:00:00,45.3,45.3,100.0,0.0,0.0,30.06,10.0,45.3
2021-09-10 10:00:00,44.6,44.6,100.0,0.0,0.0,30.07,10.0,44.6
2021-09-10 11:00:00,45.3,45.3,100.0,0.0,0.0,30.07,10.0,45.3
2021-09-10 12:00:00,51.3,50.5,97.08,0.0,0.0,30.08,10.0,51.3
2021-09-10 13:00:00,58.8,54.7,86.23,0.0,0.0,30.08,10.0,58.8
2021-09-10 14:00:00,65.0,53.6,66.77,220.0,5.0,30.08,10.0,64.9
2021-09-10 15:00:00,68.0,54.7,62.43,220.0,6.0,30.07,10.0,68.0
2021-09-10 16:00:00,70.0,53.0,54.58,190.0,8.0,30.06,10.0,70.0
2021-09-10 17:00:00,69.0,52.7,56.26,250.0,8.0,30.05,10.0,68.9
2021-09-10 18:00:00,71.6,52.3,50.56,220.0,8.0,30.02,10.0,71.6
2021-09-10 19:00:00,71.6,52.7,51.31,190.0,7.0,29.99,10.0,71.6
2021-09-10 20:00:00,72.3,53.0,50.48,220.0,6.0,29.98,10.0,72.3
2021-09-10 21:00:00,71.6,53.0,51.69,220.0,7.0,29.97,10.0,71.6
2021-09-10 22:00:00,68.5,53.8,59.38,220.0,3.0,29.97,10.0,68.5
2021-09-10 23:00:00,63.5,54.7,73.0,170.0,3.0,29.95,10.0,63.5
2021-09-11 00:00:00,59.4,53.6,81.08,190.0,4.0,29.95,10.0,59.4
2021-09-11 01:00:00,58.0,52.7,82.18,180.0,5.0,29.94,10.0,58.1
2021-09-11 02:00:00,57.4,52.7,84.28,0.0,0.0,29.95,10.0,57.4
2021-09-11 03:00:00,57.6,52.2,82.15,220.0,3.0,29.94,10.0,57.6
2021-09-11 04:00:00,57.4,52.7,84.28,200.0,4.0,29.93,10.0,57.4
2021-09-11 05:00:00,57.2,53.0,86.15,210.0,5.0,29.92,10.0,57.2
2021-09-11 06:00:00,57.2,53.0,85.52,200.0,5.0,29.9,10.0,57.2
2021-09-11 07:00:00,56.7,52.7,86.44,210.0,5.0,29.88,10.0,56.7
2021-09-11 08:00:00,58.0,53.8,85.57,230.0,8.0,29.88,10.0,58.1
2021-09-11 09:00:00,57.2,54.0,89.36,230.0,7.0,29.87,10.0,57.2
2021-09-11 10:00:00,56.5,54.5,92.99,230.0,6.0,29.86,10.0,56.5
2021-09-11 11:00:00,57.4,55.4,93.02,240.0,8.0,29.87,10.0,57.4
2021-09-11 12:00:00,60.0,56.8,89.48,220.0,8.0,29.86,10.0,59.9
2021-09-11 13:00:00,63.0,58.6,85.54,230.0,10.0,29.85,10.0,63.0
2021-09-11 14:00:00,67.3,60.3,78.24,240.0,8.0,29.83,10.0,67.3
2021-09-11 15:00:00,71.8,62.4,72.26,240.0,10.0,29.83,10.0,71.8
2021-09-11 16:00:00,73.4,64.2,72.93,250.0,9.0,29.83,10.0,73.4
2021-09-11 17:00:00,73.8,64.0,71.2,270.0,10.0,29.84,10.0,73.8
2021-09-11 18:00:00,75.6,63.0,64.95,300.0,9.0,29.84,10.0,75.6
2021-09-11 19:00:00,76.0,62.0,61.89,310.0,10.0,29.84,10.0,76.1
2021-09-11 20:00:00,75.4,58.3,55.34,320.0,8.0,29.84,10.0,75.4
2021-09-11 21:00:00,74.0,56.5,54.17,300.0,8.0,29.85,10.0,74.1
2021-09-11 22:00:00,71.6,53.6,53.03,310.0,6.0,29.88,10.0,71.6
2021-09-11 23:00:00,67.0,56.3,68.73,340.0,4.0,29.88,10.0,66.9
2021-09-12 00:00:00,62.4,54.5,75.33,0.0,0.0,29.9,10.0,62.4
2021-09-12 01:00:00,58.3,54.5,87.16,10.0,3.0,29.92,10.0,58.3
2021-09-12 02:00:00,56.7,55.0,94.02,0.0,0.0,29.93,10.0,56.7
2021-09-12 03:00:00,56.7,55.8,96.79,0.0,0.0,29.97,10.0,56.7
2021-09-12 04:00:00,57.2,53.0,86.15,360.0,3.0,29.97,10.0,57.2
2021-09-12 05:00:00,55.0,51.3,87.31,0.0,0.0,29.97,10.0,55.0
2021-09-12 06:00:00,52.3,49.5,90.15,350.0,4.0,29.97,10.0,52.3
2021-09-12 07:00:00,52.0,49.0,89.8,0.0,0.0,29.97,10.0,52.0
2021-09-12 08:00:00,51.0,48.4,90.43,0.0,0.0,29.98,10.0,51.1
2021-09-12 09:00:00,49.0,46.8,92.42,0.0,0.0,29.99,10.0,48.9
2021-09-12 10:00:00,47.0,45.7,95.56,360.0,3.0,30.0,10.0,45.72
2021-09-12 11:00:00,48.6,47.7,96.68,0.0,0.0,30.02,10.0,48.6
2021-09-12 12:00:00,52.2,49.5,90.48,360.0,4.0,30.04,10.0,52.2
2021-09-12 13:00:00,56.7,50.5,79.69,30.0,4.0,30.04,10.0,56.7
2021-09-12 14:00:00,61.7,51.4,68.91,0.0,0.0,30.06,10.0,61.7
2021-09-12 15:00:00,64.0,50.5,61.68,30.0,5.0,30.03,10.0,63.9
2021-09-12 16:00:00,62.6,47.5,57.72,0.0,0.0,30.06,10.0,62.6
2021-09-12 17:00:00,64.4,46.6,52.38,0.0,0.0,30.06,10.0,64.4
2021-09-12 18:00:00,64.4,48.7,56.68,10.0,4.0,30.04,10.0,64.4
2021-09-12 19:00:00,65.0,48.7,55.31,0.0,0.0,30.05,10.0,65.1
2021-09-12 20:00:00,63.7,48.0,56.58,290.0,5.0,30.06,10.0,63.7
2021-09-12 21:00:00,65.7,48.7,54.17,0.0,0.0,30.06,10.0,65.7
2021-09-12 22:00:00,64.0,50.2,61.0,310.0,5.0,30.06,10.0,63.9
2021-09-12 23:00:00,61.5,50.2,66.38,0.0,0.0,30.06,10.0,61.5
2021-09-13 00:00:00,54.7,51.0,86.97,0.0,0.0,30.09,10.0,54.7
2021-09-13 01:00:00,52.3,51.3,96.38,0.0,0.0,30.1,10.0,52.3
2021-09-13 02:00:00,51.0,50.5,98.53,0.0,0.0,30.12,10.0,50.9
2021-09-13 03:00:00,48.6,48.6,100.0,0.0,0.0,30.12,10.0,48.6
2021-09-13 04:00:00,49.6,49.6,100.0,40.0,3.0,30.11,10.0,48.81
2021-09-13 05:00:00,47.7,47.7,100.0,10.0,3.0,30.12,10.0,46.64
2021-09-13 06:00:00,49.0,49.0,100.0,0.0,0.0,30.13,10.0,48.9
2021-09-13 07:00:00,46.6,46.4,99.25,0.0,0.0,30.13,10.0,46.6
2021-09-13 08:00:00,45.5,45.5,100.0,30.0,4.0,30.11,10.0,43.18
2021-09-13 09:00:00,46.8,46.8,100.0,30.0,3.0,30.12,10.0,45.61
2021-09-13 10:00:00,50.0,50.0,100.0,100.0,3.0,30.14,10.0,50.0
2021-09-13 11:00:00,50.0,50.0,100.0,100.0,3.0,30.14,10.0,50.0
2021-09-13 12:00:00,53.4,53.4,100.0,130.0,4.0,30.15,0.25,53.4
2021-09-13 13:00:00,54.5,54.5,100.0,120.0,4.0,30.15,0.75,54.5
2021-09-13 14:00:00,57.0,57.0,100.0,90.0,4.0,30.13,10.0,57.0
2021-09-13 15:00:00,61.7,56.7,83.63,120.0,5.0,30.12,10.0,61.7
2021-09-13 16:00:00,64.2,55.4,73.07,80.0,5.0,30.1,7.0,64.2
2021-09-13 17:00:00,68.0,54.3,61.53,140.0,8.0,30.07,10.0,68.0
2021-09-13 18:00:00,69.0,54.3,59.65,130.0,6.0,30.05,10.0,68.9
2021-09-13 19:00:00,69.4,53.0,56.12,160.0,8.0,30.05,10.0,69.4
2021-09-13 20:00:00,69.8,54.0,57.42,120.0,4.0,30.02,10.0,69.8
2021-09-13 21:00:00,68.0,54.5,61.98,120.0,10.0,30.03,10.0,68.0
2021-09-13 22:00:00,65.0,55.4,70.81,120.0,8.0,30.01,10.0,65.1
2021-09-13 23:00:00,62.4,55.8,78.98,110.0,9.0,29.99,10.0,62.4
2021-09-14 00:00:00,60.0,56.0,85.99,120.0,9.0,29.98,10.0,60.1
2021-09-14 01:00:00,59.7,55.4,85.66,110.0,11.0,29.95,10.0,59.7
2021-09-14 02:00:00,58.0,55.0,89.4,120.0,7.0,29.94,10.0,58.1
2021-09-14 03:00:00,57.6,54.5,89.38,120.0,12.0,29.9,10.0,57.6
2021-09-14 04:00:00,57.2,54.7,91.34,130.0,14.0,29.86,10.0,57.2
2021-09-14 05:00:00,57.2,55.8,95.06,130.0,17.0,29.8,10.0,57.2
2021-09-14 06:00:00,57.4,57.2,99.28,140.0,16.0,29.75,5.0,57.4
2021-09-14 07:00:00,58.5,58.5,100.0,140.0,14.0,29.71,5.0,58.5
2021-09-14 08:00:00,59.7,59.7,100.0,150.0,4.0,29.69,10.0,59.7
2021-09-14 09:00:00,61.2,61.2,100.0,200.0,6.0,29.65,7.0,61.2
2021-09-14 10:00:00,62.6,62.4,99.3,230.0,10.0,29.64,7.0,62.6
2021-09-14 11:00:00,62.0,59.5,91.83,240.0,16.0,29.65,10.0,61.9
2021-09-14 12:00:00,61.0,59.0,93.12,250.0,13.0,29.66,10.0,61.0
2021-09-14 13:00:00,60.0,56.7,89.15,250.0,14.0,29.68,10.0,59.9
2021-09-14 14:00:00,60.4,56.8,87.9,280.0,15.0,29.71,10.0,60.4
2021-09-14 15:00:00,62.0,55.2,78.65,300.0,16.0,29.74,10.0,61.9
2021-09-14 16:00:00,64.0,55.4,73.58,280.0,15.0,29.76,10.0,64.0
2021-09-14 17:00:00,64.4,55.0,71.51,290.0,11.0,29.78,10.0,64.4
2021-09-14 18:00:00,64.6,55.2,71.53,290.0,12.0,29.8,10.0,64.6
2021-09-14 19:00:00,62.6,57.2,82.5,280.0,10.0,29.81,10.0,62.6
2021-09-14 20:00:00,63.3,57.0,79.91,290.0,9.0,29.81,10.0,63.3
2021-09-14 21:00:00,63.3,54.3,72.45,290.0,14.0,29.83,10.0,63.3
2021-09-14 22:00:00,61.7,54.5,77.22,290.0,6.0,29.86,10.0,61.7
2021-09-14 23:00:00,59.7,54.5,82.9,280.0,5.0,29.87,10.0,59.7
2021-09-15 00:00:00,58.6,54.7,86.85,0.0,0.0,29.87,10.0,58.6
2021-09-15 01:00:00,55.4,54.0,95.03,240.0,4.0,29.88,10.0,55.4
2021-09-15 02:00:00,56.3,54.0,92.31,270.0,6.0,29.88,10.0,56.3
2021-09-15 03:00:00,54.7,53.2,94.66,290.0,6.0,29.9,10.0,54.7
2021-09-15 04:00:00,51.0,51.0,100.0,0.0,0.0,29.91,10.0,50.9
2021-09-15 05:00:00,49.0,49.0,100.0,240.0,3.0,29.93,10.0,48.24
2021-09-15 06:00:00,49.0,49.0,100.0,0.0,0.0,29.93,4.0,49.1
2021-09-15 07:00:00,46.4,46.4,100.0,0.0,0.0,29.94,0.25,46.4
2021-09-15 08:00:00,44.8,44.8,100.0,0.0,0.0,29.95,0.5,44.8
2021-09-15 09:00:00,43.2,43.2,100.0,0.0,0.0,29.95,0.25,43.2
2021-09-15 10:00:00,41.4,41.4,100.0,0.0,0.0,29.98,0.25,41.4
2021-09-15 11:00:00,41.4,41.4,100.0,0.0,0.0,30.0,0.25,41.4
2021-09-15 12:00:00,48.0,48.0,100.0,0.0,0.0,30.02,7.0,48.0
2021-09-15 13:00:00,53.6,53.6,100.0,0.0,0.0,30.02,10.0,53.6
2021-09-15 14:00:00,62.0,50.5,65.71,270.0,3.0,30.04,10.0,62.1
2021-09-15 15:00:00,66.0,49.3,54.82,250.0,6.0,30.04,10.0,66.0
2021-09-15 16:00:00,68.5,46.0,44.25,260.0,7.0,30.04,10.0,68.5
2021-09-15 17:00:00,69.8,42.0,36.61,230.0,7.0,30.04,10.0,69.8
2021-09-15 18:00:00,70.3,42.4,36.41,250.0,10.0,30.03,10.0,70.3
2021-09-15 19:00:00,71.0,42.8,35.98,250.0,9.0,30.02,10.0,71.1
2021-09-15 20:00:00,70.7,42.0,35.5,240.0,5.0,30.02,10.0,70.7
2021-09-15 21:00:00,69.8,41.2,35.36,270.0,4.0,30.02,10.0,69.8
2021-09-15 22:00:00,68.0,42.0,38.64,230.0,6.0,30.02,10.0,68.0
2021-09-15 23:00:00,61.0,46.8,59.49,190.0,4.0,30.03,10.0,61.0
2021-09-16 00:00:00,54.5,46.4,74.03,160.0,3.0,30.05,10.0,54.5
2021-09-16 01:00:00,54.0,45.7,73.42,180.0,6.0,30.05,10.0,54.0
2021-09-16 02:00:00,53.0,45.5,75.31,170.0,4.0,30.05,10.0,53.1
2021-09-16 03:00:00,53.6,46.0,75.07,180.0,5.0,30.05,10.0,53.6
2021-09-16 04:00:00,52.7,45.5,76.42,180.0,5.0,30.06,10.0,52.7
2021-09-16 05:00:00,52.0,45.0,76.94,170.0,4.0,30.07,10.0,52.0
2021-09-16 06:00:00,51.6,45.5,79.58,170.0,5.0,30.07,10.0,51.6
2021-09-16 07:00:00,50.0,45.5,84.45,180.0,4.0,30.07,10.0,50.0
2021-09-16 08:00:00,50.0,45.0,83.17,170.0,6.0,30.07,10.0,50.0
2021-09-16 09:00:00,51.0,44.8,79.53,180.0,6.0,30.07,10.0,50.9
2021-09-16 10:00:00,50.7,45.5,82.28,170.0,5.0,30.07,10.0,50.7
2021-09-16 11:00:00,51.4,47.0,84.53,160.0,5.0,30.08,10.0,51.4
2021-09-16 12:00:00,54.5,48.2,79.22,170.0,7.0,30.08,10.0,54.5
2021-09-16 13:00:00,59.2,49.8,70.97,180.0,11.0,30.07,10.0,59.2
2021-09-16 14:00:00,64.6,51.3,62.0,180.0,8.0,30.06,10.0,64.6
2021-09-16 15:00:00,65.7,50.7,58.36,170.0,9.0,30.05,10.0,65.7
2021-09-16 16:00:00,69.3,51.0,52.31,180.0,11.0,30.04,10.0,69.3
2021-09-16 17:00:00,72.3,52.0,48.83,160.0,14.0,30.02,10.0,72.3
2021-09-16 18:00:00,73.2,53.6,50.24,160.0,15.0,30.0,10.0,73.2
2021-09-16 19:00:00,74.0,53.6,49.07,170.0,14.0,29.98,10.0,73.9
2021-09-16 20:00:00,74.0,53.4,48.71,180.0,14.0,29.97,10.0,73.9
2021-09-16 21:00:00,73.4,53.0,49.0,170.0,16.0,29.96,10.0,73.4
2021-09-16 22:00:00,71.6,52.7,51.31,170.0,10.0,29.95,10.0,71.6
2021-09-16 23:00:00,68.0,52.2,56.97,160.0,10.0,29.95,10.0,68.0
2021-09-17 00:00:00,64.6,52.7,65.29,160.0,12.0,29.93,10.0,64.6
2021-09-17 01:00:00,64.8,52.2,63.65,160.0,11.0,29.96,10.0,64.8
2021-09-17 02:00:00,62.8,52.2,68.27,170.0,7.0,29.97,10.0,62.8
2021-09-17 03:00:00,60.0,51.8,74.55,180.0,4.0,29.98,10.0,59.9
2021-09-17 04:00:00,59.7,51.8,75.08,170.0,5.0,29.97,10.0,59.7
2021-09-17 05:00:00,58.0,51.8,79.51,170.0,6.0,29.95,10.0,58.1
2021-09-17 06:00:00,57.4,51.8,81.53,170.0,6.0,29.94,10.0,57.4
2021-09-17 07:00:00,54.0,50.5,87.9,0.0,0.0,29.95,10.0,54.0
2021-09-17 08:00:00,56.3,51.4,83.59,200.0,6.0,29.95,10.0,56.3
2021-09-17 09:00:00,62.0,52.0,69.95,210.0,13.0,29.95,10.0,61.9
2021-09-17 10:00:00,63.5,52.3,66.86,250.0,12.0,29.98,10.0,63.5
2021-09-17 11:00:00,61.0,53.0,74.65,240.0,7.0,29.99,10.0,61.0
2021-09-17 12:00:00,62.6,54.7,75.35,140.0,4.0,29.96,10.0,62.6
2021-09-17 13:00:00,66.2,56.0,69.91,230.0,8.0,29.98,10.0,66.2
2021-09-17 14:00:00,69.8,58.0,65.9,230.0,7.0,30.0,10.0,69.8
2021-09-17 15:00:00,71.6,57.7,61.54,250.0,10.0,30.04,10.0,71.6
2021-09-17 16:00:00,73.2,58.0,58.72,270.0,12.0,30.05,10.0,73.2
2021-09-17 17:00:00,68.5,56.7,65.99,310.0,12.0,30.07,10.0,68.5
2021-09-17 18:00:00,64.4,46.6,52.38,320.0,12.0,30.1,10.0,64.4
2021-09-17 19:00:00,65.8,43.5,44.34,0.0,0.0,30.09,10.0,65.8
2021-09-17 20:00:00,66.6,44.0,44.13,300.0,8.0,30.1,10.0,66.6
2021-09-17 21:00:00,67.0,44.0,43.04,310.0,7.0,30.11,10.0,67.1
2021-09-17 22:00:00,65.5,44.8,47.08,300.0,7.0,30.13,10.0,65.5
2021-09-17 23:00:00,59.7,44.0,56.23,310.0,4.0,30.15,10.0,59.7
2021-09-18 00:00:00,53.8,44.6,70.93,0.0,0.0,30.17,10.0,53.8
2021-09-18 01:00:00,50.5,43.5,76.81,320.0,3.0,30.19,10.0,50.5
2021-09-18 02:00:00,49.0,43.0,79.98,320.0,4.0,30.21,10.0,47.16
2021-09-18 03:00:00,49.0,43.0,79.98,0.0,0.0,30.21,10.0,48.9
2021-09-18 04:00:00,43.7,42.0,94.04,0.0,0.0,30.22,10.0,43.7
2021-09-18 05:00:00,41.2,40.3,96.57,0.0,0.0,30.24,10.0,41.2
2021-09-18 06:00:00,41.5,41.0,98.09,0.0,0.0,30.25,10.0,41.5
2021-09-18 07:00:00,41.7,41.2,98.09,0.0,0.0,30.25,10.0,41.7
2021-09-18 08:00:00,40.6,40.3,98.84,0.0,0.0,30.26,10.0,40.6
2021-09-18 09:00:00,40.0,39.7,98.46,0.0,0.0,30.26,10.0,40.1
2021-09-18 10:00:00,38.7,38.3,98.45,0.0,0.0,30.27,10.0,38.7
2021-09-18 11:00:00,38.5,38.5,100.0,0.0,0.0,30.28,10.0,38.5
2021-09-18 12:00:00,44.6,43.0,94.07,0.0,0.0,30.29,10.0,44.6
2021-09-18 13:00:00,53.2,49.0,85.28,0.0,0.0,30.3,10.0,53.2
2021-09-18 14:00:00,60.0,47.5,63.06,130.0,6.0,30.3,10.0,60.1
2021-09-18 15:00:00,61.7,44.6,53.39,140.0,7.0,30.29,10.0,61.7
2021-09-18 16:00:00,65.0,44.0,46.46,170.0,6.0,30.28,10.0,64.9
2021-09-18 17:00:00,66.0,44.0,45.05,180.0,7.0,30.26,10.0,66.0
2021-09-18 18:00:00,68.2,44.2,41.91,160.0,6.0,30.23,10.0,68.2
2021-09-18 19:00:00,68.5,44.8,42.44,200.0,5.0,30.22,10.0,68.5
2021-09-18 20:00:00,69.3,44.4,40.67,180.0,5.0,30.2,10.0,69.3
2021-09-18 21:00:00,68.7,46.2,44.45,170.0,6.0,30.18,10.0,68.7
2021-09-18 22:00:00,66.7,48.2,51.35,150.0,7.0,30.17,10.0,66.7
2021-09-18 23:00:00,60.0,50.4,70.28,150.0,4.0,30.17,10.0,60.1
2021-09-19 00:00:00,55.0,49.3,81.05,150.0,6.0,30.16,10.0,55.0
2021-09-19 01:00:00,53.0,48.6,84.64,130.0,4.0,30.17,10.0,53.1
2021-09-19 02:00:00,54.5,51.0,88.26,130.0,6.0,30.16,10.0,54.5
2021-09-19 03:00:00,53.6,50.5,89.2,150.0,6.0,30.16,10.0,53.6
2021-09-19 04:00:00,51.0,46.6,85.14,130.0,5.0,30.16,10.0,50.9
2021-09-19 05:00:00,52.7,46.0,77.88,150.0,4.0,30.15,10.0,52.7
2021-09-19 06:00:00,52.2,44.8,75.8,160.0,5.0,30.16,10.0,52.2
2021-09-19 07:00:00,51.0,45.5,81.07,150.0,6.0,30.15,10.0,51.1
2021-09-19 08:00:00,51.0,46.0,82.92,160.0,3.0,30.15,10.0,50.9
2021-09-19 09:00:00,51.0,45.7,81.69,150.0,4.0,30.14,10.0,51.1
2021-09-19 10:00:00,51.6,46.4,82.34,160.0,5.0,30.14,10.0,51.6
2021-09-19 11:00:00,53.2,47.7,81.53,150.0,5.0,30.13,10.0,53.2
2021-09-19 12:00:00,56.3,49.3,77.32,160.0,9.0,30.13,10.0,56.3
2021-09-19 13:00:00,61.2,53.0,74.12,180.0,10.0,30.11,10.0,61.2
2021-09-19 14:00:00,66.6,56.8,70.71,180.0,10.0,30.11,10.0,66.6
2021-09-19 15:00:00,71.4,59.5,66.09,180.0,8.0,30.1,10.0,71.4
2021-09-19 16:00:00,76.0,62.8,63.43,170.0,11.0,30.07,10.0,76.1
2021-09-19 17:00:00,78.0,64.0,62.33,180.0,13.0,30.05,10.0,77.9
2021-09-19 18:00:00,80.4,65.0,59.66,180.0,13.0,30.03,10.0,82.26
2021-09-19 19:00:00,81.0,65.5,59.13,180.0,14.0,30.02,10.0,83.06
2021-09-19 20:00:00,80.6,64.6,58.25,170.0,11.0,30.0,10.0,82.32
2021-09-19 21:00:00,80.0,63.7,57.37,180.0,11.0,29.99,10.0,81.64
2021-09-19 22:00:00,78.3,63.7,60.87,160.0,8.0,29.98,10.0,78.3
2021-09-19 23:00:00,72.3,63.0,72.57,150.0,7.0,29.97,10.0,72.3
2021-09-20 00:00:00,69.6,62.8,78.99,150.0,6.0,29.97,10.0,69.6
2021-09-20 01:00:00,68.4,62.8,82.3,150.0,7.0,29.98,10.0,68.4
2021-09-20 02:00:00,66.2,63.5,91.01,150.0,6.0,29.99,10.0,66.2
2021-09-20 03:00:00,65.3,63.5,93.9,140.0,6.0,29.98,10.0,65.3
2021-09-20 04:00:00,64.6,63.0,94.55,140.0,7.0,29.98,10.0,64.6
2021-09-20 05:00:00,63.5,62.6,96.89,150.0,4.0,29.97,10.0,63.5
2021-09-20 06:00:00,63.5,62.6,96.89,160.0,6.0,29.95,10.0,63.5
2021-09-20 07:00:00,63.0,62.6,98.26,160.0,7.0,29.93,10.0,63.1
2021-09-20 08:00:00,62.0,61.7,98.6,160.0,5.0,29.92,7.0,62.1
2021-09-20 09:00:00,61.7,61.5,99.29,150.0,6.0,29.9,7.0,61.7
2021-09-20 10:00:00,62.0,61.7,99.3,170.0,4.0,29.9,7.0,61.9
2021-09-20 11:00:00,61.0,61.0,100.0,160.0,5.0,29.88,5.0,61.0
2021-09-20 12:00:00,63.3,62.6,97.57,160.0,6.0,29.9,7.0,63.3
2021-09-20 13:00:00,67.5,64.0,88.55,190.0,8.0,29.91,10.0,67.5
2021-09-20 14:00:00,71.2,64.4,79.11,170.0,14.0,29.91,10.0,71.2
2021-09-20 15:00:00,68.5,64.0,85.25,190.0,10.0,29.91,10.0,68.5
2021-09-20 16:00:00,69.0,64.0,84.38,180.0,7.0,29.88,10.0,68.9
2021-09-20 17:00:00,71.8,65.3,79.99,150.0,13.0,29.85,10.0,71.8
2021-09-20 18:00:00,70.3,65.0,83.01,160.0,7.0,29.83,10.0,70.3
2021-09-20 19:00:00,72.7,65.3,77.59,170.0,12.0,29.8,10.0,72.7
2021-09-20 20:00:00,73.2,65.3,76.29,160.0,13.0,29.79,10.0,73.2
2021-09-20 21:00:00,74.0,66.0,76.36,150.0,11.0,29.74,10.0,73.9
2021-09-20 22:00:00,71.8,65.8,81.39,160.0,14.0,29.72,10.0,71.8
2021-09-20 23:00:00,69.8,66.0,87.73,150.0,12.0,29.72,10.0,69.8
2021-09-21 00:00:00,68.5,66.4,93.01,140.0,11.0,29.71,10.0,68.5
2021-09-21 01:00:00,68.0,67.6,98.63,210.0,6.0,29.75,4.0,68.0
2021-09-21 02:00:00,67.0,66.6,98.29,170.0,11.0,29.71,10.0,67.1
2021-09-21 03:00:00,65.5,65.3,99.31,250.0,9.0,29.72,5.0,65.5
2021-09-21 04:00:00,62.6,61.7,96.87,250.0,13.0,29.74,10.0,62.6
2021-09-21 05:00:00,59.2,58.6,97.88,260.0,15.0,29.78,10.0,59.2
2021-09-21 06:00:00,57.2,55.8,95.06,290.0,17.0,29.81,7.0,57.2
2021-09-21 07:00:00,56.0,55.0,96.78,290.0,11.0,29.81,10.0,55.9
2021-09-21 08:00:00,55.4,53.6,93.65,300.0,13.0,29.85,10.0,55.4
2021-09-21 09:00:00,53.6,50.7,89.86,310.0,15.0,29.88,10.0,53.6
2021-09-21 10:00:00,52.3,49.3,89.48,300.0,9.0,29.92,10.0,52.3
2021-09-21 11:00:00,52.3,49.3,89.48,300.0,10.0,29.96,10.0,52.3
2021-09-21 12:00:00,52.2,47.5,83.95,310.0,10.0,30.0,10.0,52.2
2021-09-21 13:00:00,53.2,48.6,84.33,310.0,10.0,30.03,10.0,53.2
2021-09-21 14:00:00,56.0,48.7,76.71,320.0,11.0,30.07,10.0,55.9
2021-09-21 15:00:00,57.0,48.7,73.72,330.0,11.0,30.09,10.0,57.0
2021-09-21 16:00:00,58.8,47.5,66.06,330.0,9.0,30.12,10.0,58.8
2021-09-21 17:00:00,62.0,47.3,58.3,340.0,12.0,30.13,10.0,62.1
2021-09-21 18:00:00,60.8,46.4,59.01,330.0,10.0,30.14,10.0,60.8
2021-09-21 19:00:00,61.0,47.0,59.71,320.0,9.0,30.15,10.0,61.0
2021-09-21 20:00:00,61.0,45.0,55.78,330.0,9.0,30.16,10.0,61.0
2021-09-21 21:00:00,61.5,43.7,51.95,350.0,10.0,30.18,10.0,61.5
2021-09-21 22:00:00,60.0,43.0,53.53,350.0,9.0,30.2,10.0,59.9
2021-09-21 23:00:00,54.3,43.7,67.3,350.0,7.0,30.22,10.0,54.3
2021-09-22 00:00:00,49.8,43.7,79.44,360.0,4.0,30.24,10.0,48.21
2021-09-22 01:00:00,47.5,43.5,85.92,0.0,0.0,30.25,10.0,47.5
2021-09-22 02:00:00,46.6,43.2,87.87,330.0,5.0,30.25,10.0,43.73
2021-09-22 03:00:00,45.0,42.4,90.19,0.0,0.0,30.26,10.0,45.1
2021-09-22 04:00:00,44.0,42.3,93.33,0.0,0.0,30.27,10.0,44.1
2021-09-22 05:00:00,42.8,42.3,98.1,0.0,0.0,30.27,10.0,42.8
2021-09-22 06:00:00,42.4,42.3,99.62,0.0,0.0,30.27,10.0,42.4
2021-09-22 07:00:00,41.0,41.0,100.0,0.0,0.0,30.26,10.0,41.0
2021-09-22 08:00:00,40.6,40.6,100.0,0.0,0.0,30.27,10.0,40.6
2021-09-22 09:00:00,39.0,39.0,100.0,0.0,0.0,30.26,10.0,39.0
2021-09-22 10:00:00,40.0,40.0,100.0,0.0,0.0,30.27,10.0,39.9
2021-09-22 11:00:00,39.2,39.2,100.0,0.0,0.0,30.3,5.0,39.2
2021-09-22 12:00:00,40.0,40.0,100.0,0.0,0.0,30.29,10.0,40.1
2021-09-22 13:00:00,45.0,45.0,100.0,10.0,5.0,30.29,10.0,41.95
2021-09-22 14:00:00,51.0,46.6,85.14,30.0,7.0,30.3,10.0,50.9
2021-09-22 15:00:00,54.0,44.0,69.09,30.0,11.0,30.3,10.0,54.0
2021-09-22 16:00:00,55.6,43.0,62.49,360.0,11.0,30.29,10.0,55.6
2021-09-22 17:00:00,59.2,44.0,57.25,360.0,9.0,30.26,10.0,59.2
2021-09-22 18:00:00,58.0,42.8,56.66,360.0,11.0,30.24,10.0,58.1
2021-09-22 19:00:00,60.0,42.3,51.74,360.0,10.0,30.22,10.0,60.1
2021-09-22 20:00:00,60.0,42.3,51.74,10.0,8.0,30.21,10.0,60.1
2021-09-22 21:00:00,60.4,41.5,49.64,10.0,9.0,30.2,10.0,60.4
2021-09-22 22:00:00,58.0,42.0,55.15,50.0,6.0,30.2,10.0,58.1
2021-09-22 23:00:00,51.8,43.2,72.36,340.0,3.0,30.19,10.0,51.8
2021-09-23 00:00:00,49.8,42.4,75.58,0.0,0.0,30.2,10.0,49.8
2021-09-23 01:00:00,44.8,42.4,91.23,0.0,0.0,30.2,10.0,44.8
2021-09-23 02:00:00,43.7,41.5,91.89,50.0,4.0,30.2,10.0,41.08
2021-09-23 03:00:00,41.7,40.6,95.83,10.0,3.0,30.18,10.0,39.78
2021-09-23 04:00:00,41.0,40.5,98.08,0.0,0.0,30.17,10.0,41.0
2021-09-23 05:00:00,40.0,40.0,100.0,360.0,3.0,30.16,10.0,37.72
2021-09-23 06:00:00,39.6,39.2,98.45,350.0,4.0,30.14,10.0,36.3
2021-09-23 07:00:00,38.7,38.3,98.45,0.0,0.0,30.12,10.0,38.7
2021-09-23 08:00:00,38.5,37.6,96.53,360.0,3.0,30.1,10.0,36.12
2021-09-23 09:00:00,38.0,37.4,97.29,10.0,3.0,30.09,10.0,35.66
2021-09-23 10:00:00,37.6,37.4,99.22,0.0,0.0,30.09,10.0,37.6
2021-09-23 11:00:00,33.6,33.0,98.02,0.0,0.0,30.1,10.0,33.6
2021-09-23 12:00:00,41.2,40.0,95.83,0.0,0.0,30.09,10.0,41.2
2021-09-23 13:00:00,48.6,42.0,78.13,360.0,8.0,30.08,10.0,44.56
2021-09-23 14:00:00,53.6,43.3,67.99,350.0,10.0,30.08,10.0,53.6
2021-09-23 15:00:00,57.4,43.0,58.55,360.0,8.0,30.07,10.0,57.4
2021-09-23 16:00:00,60.8,43.2,52.25,350.0,13.0,30.04,10.0,60.8
2021-09-23 17:00:00,62.8,42.6,47.57,360.0,9.0,30.01,10.0,62.8
2021-09-23 18:00:00,62.8,42.6,47.57,360.0,9.0,30.01,10.0,62.8
2021-09-23 19:00:00,65.0,42.3,43.39,340.0,13.0,29.95,10.0,65.1
2021-09-23 20:00:00,65.3,42.6,43.59,350.0,16.0,29.95,10.0,65.3
2021-09-23 21:00:00,65.0,43.3,45.09,350.0,11.0,29.94,10.0,65.1
2021-09-23 22:00:00,62.4,44.2,51.3,360.0,9.0,29.93,10.0,62.4
2021-09-23 23:00:00,56.7,44.2,62.87,310.0,5.0,29.92,10.0,56.7
2021-09-24 00:00:00,55.4,43.0,62.94,340.0,7.0,29.92,10.0,55.4
2021-09-24 01:00:00,52.0,41.2,66.51,330.0,7.0,29.91,10.0,52.0
2021-09-24 02:00:00,49.3,41.5,74.37,320.0,5.0,29.92,10.0,46.94
2021-09-24 03:00:00,44.0,40.8,88.76,0.0,0.0,29.92,10.0,43.9
2021-09-24 04:00:00,40.3,39.6,97.31,0.0,0.0,29.93,10.0,40.3
2021-09-24 05:00:00,40.3,40.3,100.0,0.0,0.0,29.92,10.0,40.3
2021-09-24 06:00:00,40.3,40.0,99.23,0.0,0.0,29.91,10.0,40.3
2021-09-24 07:00:00,40.3,40.0,99.23,0.0,0.0,29.9,10.0,40.3
2021-09-24 08:00:00,39.2,39.2,100.0,0.0,0.0,29.9,10.0,39.2
2021-09-24 09:00:00,38.7,38.7,100.0,0.0,0.0,29.9,10.0,38.7
2021-09-24 10:00:00,38.0,38.0,100.0,0.0,0.0,29.9,10.0,37.9
2021-09-24 11:00:00,38.5,38.5,100.0,0.0,0.0,29.9,10.0,38.5
2021-09-24 12:00:00,44.4,44.0,98.86,0.0,0.0,29.89,10.0,44.4
2021-09-24 13:00:00,53.2,47.3,80.31,0.0,0.0,29.87,10.0,53.2
2021-09-24 14:00:00,61.5,48.0,61.14,210.0,6.0,29.86,10.0,61.5
2021-09-24 15:00:00,65.7,46.0,48.94,190.0,8.0,29.85,10.0,65.7
2021-09-24 16:00:00,68.0,46.6,46.23,190.0,7.0,29.83,10.0,68.0
2021-09-24 17:00:00,69.6,48.7,47.35,170.0,7.0,29.8,10.0,69.6
2021-09-24 18:00:00,71.0,49.0,45.33,190.0,7.0,29.76,10.0,71.1
2021-09-24 19:00:00,72.7,51.0,46.6,180.0,9.0,29.73,10.0,72.7
2021-09-24 20:00:00,68.2,51.4,54.93,200.0,7.0,29.73,10.0,68.2
2021-09-24 21:00:00,63.5,51.8,65.64,280.0,8.0,29.72,10.0,63.5
2021-09-24 22:00:00,51.0,48.4,90.43,300.0,16.0,29.78,7.0,51.1
2021-09-24 23:00:00,47.5,47.0,97.77,330.0,11.0,29.81,5.0,42.05
2021-09-25 00:00:00,46.8,46.4,98.5,320.0,10.0,29.8,10.0,41.53
2021-09-25 01:00:00,46.6,45.5,95.92,300.0,11.0,29.83,10.0,40.92
2021-09-25 02:00:00,45.7,45.0,97.75,300.0,9.0,29.84,10.0,40.55
2021-09-25 03:00:00,44.2,44.0,99.62,280.0,9.0,29.86,10.0,38.68
2021-09-25 04:00:00,44.0,44.0,100.0,290.0,11.0,29.86,10.0,37.5
2021-09-25 05:00:00,44.6,44.6,100.0,280.0,10.0,29.87,7.0,38.77
2021-09-25 06:00:00,45.3,44.8,98.12,280.0,9.0,29.87,10.0,40.05
2021-09-25 07:00:00,43.7,43.7,100.0,260.0,7.0,29.87,10.0,39.04
2021-09-25 08:00:00,42.0,42.0,100.0,250.0,5.0,29.87,10.0,38.39
2021-09-25 09:00:00,40.5,40.5,100.0,240.0,5.0,29.87,10.0,36.49
2021-09-25 10:00:00,39.2,39.2,100.0,230.0,4.0,29.88,10.0,35.83
2021-09-25 11:00:00,38.7,38.7,100.0,250.0,4.0,29.89,10.0,35.24
2021-09-25 12:00:00,42.0,41.2,97.33,250.0,6.0,29.9,10.0,37.45
2021-09-25 13:00:00,44.4,41.2,88.44,270.0,6.0,29.9,10.0,40.46
2021-09-25 14:00:00,47.3,41.4,79.85,290.0,10.0,29.91,10.0,42.15
2021-09-25 15:00:00,47.3,41.4,79.85,290.0,10.0,29.91,10.0,42.15
2021-09-25 16:00:00,56.3,44.0,63.54,280.0,11.0,29.89,10.0,56.3
2021-09-25 17:00:00,57.6,42.4,56.8,270.0,17.0,29.88,10.0,57.6
2021-09-25 18:00:00,60.4,43.2,52.99,260.0,19.0,29.86,10.0,60.4
2021-09-25 19:00:00,60.8,44.6,55.12,260.0,13.0,29.85,10.0,60.8
2021-09-25 20:00:00,59.0,42.0,52.99,260.0,13.0,29.85,10.0,59.0
2021-09-25 21:00:00,57.4,41.2,54.63,250.0,13.0,29.86,10.0,57.4
2021-09-25 22:00:00,56.0,43.0,61.81,240.0,15.0,29.86,10.0,55.9
2021-09-25 23:00:00,52.5,42.8,69.45,240.0,9.0,29.88,10.0,52.5
2021-09-26 00:00:00,49.0,42.0,76.67,250.0,7.0,29.88,10.0,45.38
2021-09-26 01:00:00,45.7,41.0,83.52,240.0,5.0,29.88,10.0,42.67
2021-09-26 02:00:00,44.4,40.8,87.08,240.0,6.0,29.88,10.0,40.46
2021-09-26 03:00:00,46.0,42.0,85.5,240.0,5.0,29.89,10.0,43.02
2021-09-26 04:00:00,47.0,41.7,82.01,220.0,5.0,29.88,10.0,44.09
2021-09-26 05:00:00,46.8,40.6,78.89,230.0,7.0,29.88,10.0,42.82
2021-09-26 06:00:00,47.3,40.3,76.52,0.0,0.0,29.86,10.0,47.3
2021-09-26 07:00:00,47.3,40.0,75.93,230.0,5.0,29.85,10.0,44.57
2021-09-26 08:00:00,49.3,39.7,69.36,220.0,5.0,29.84,10.0,46.94
2021-09-26 09:00:00,48.2,39.4,71.43,240.0,4.0,29.83,10.0,46.34
2021-09-26 10:00:00,48.2,40.0,73.4,0.0,0.0,29.84,10.0,48.2
2021-09-26 11:00:00,44.6,39.6,82.48,0.0,0.0,29.83,10.0,44.6
2021-09-26 12:00:00,48.7,41.5,76.06,0.0,0.0,29.83,10.0,48.7
2021-09-26 13:00:00,52.0,40.8,65.49,0.0,0.0,29.84,10.0,52.0
2021-09-26 14:00:00,57.7,43.5,59.04,250.0,4.0,29.83,10.0,57.7
2021-09-26 15:00:00,61.3,47.0,59.53,180.0,3.0,29.83,10.0,61.3
2021-09-26 16:00:00,65.3,50.2,58.09,210.0,5.0,29.81,10.0,65.3
2021-09-26 17:00:00,65.0,51.0,60.45,210.0,6.0,29.81,10.0,64.9
2021-09-26 18:00:00,65.7,51.3,59.67,200.0,6.0,29.78,10.0,65.7
2021-09-26 19:00:00,66.2,53.4,63.36,190.0,4.0,29.76,10.0,66.2
2021-09-26 20:00:00,64.6,53.6,67.48,200.0,7.0,29.76,10.0,64.6
2021-09-26 21:00:00,63.7,53.2,68.62,210.0,8.0,29.75,10.0,63.7
2021-09-26 22:00:00,63.3,54.0,71.92,0.0,0.0,29.76,10.0,63.3
2021-09-26 23:00:00,58.8,53.8,83.45,180.0,5.0,29.74,10.0,58.8
2021-09-27 00:00:00,54.5,53.0,95.01,0.0,0.0,29.74,10.0,54.5
2021-09-27 01:00:00,55.0,52.0,89.92,0.0,0.0,29.75,10.0,54.9
2021-09-27 02:00:00,51.4,51.0,98.17,0.0,0.0,29.75,10.0,51.4
2021-09-27 03:00:00,51.6,51.4,99.26,0.0,0.0,29.74,10.0,51.6
2021-09-27 04:00:00,49.8,49.8,100.0,0.0,0.0,29.74,10.0,49.8
2021-09-27 05:00:00,49.0,49.0,100.0,0.0,0.0,29.73,10.0,48.9
2021-09-27 06:00:00,48.2,48.2,100.0,0.0,0.0,29.73,10.0,48.2
2021-09-27 07:00:00,47.0,47.0,100.0,0.0,0.0,29.74,10.0,47.1
2021-09-27 08:00:00,46.2,46.2,100.0,360.0,3.0,29.73,7.0,44.92
2021-09-27 09:00:00,45.0,45.0,100.0,0.0,0.0,29.75,7.0,45.1
2021-09-27 10:00:00,45.7,45.7,100.0,0.0,0.0,29.77,10.0,45.7
2021-09-27 11:00:00,46.0,46.0,100.0,360.0,3.0,29.79,10.0,44.69
2021-09-27 12:00:00,52.7,51.6,96.03,50.0,5.0,29.81,10.0,52.7
2021-09-27 13:00:00,57.0,52.3,84.26,40.0,7.0,29.82,10.0,57.0
2021-09-27 14:00:00,59.5,51.0,73.69,40.0,10.0,29.84,10.0,59.5
2021-09-27 15:00:00,61.3,51.0,69.12,30.0,7.0,29.86,10.0,61.3
2021-09-27 16:00:00,64.4,47.8,54.8,40.0,9.0,29.88,5.0,64.4
2021-09-27 17:00:00,65.8,49.6,55.83,40.0,6.0,29.9,10.0,65.8
2021-09-27 18:00:00,66.4,46.6,48.86,30.0,7.0,29.9,10.0,66.4
2021-09-27 19:00:00,67.0,47.3,48.96,20.0,3.0,29.9,10.0,67.1
2021-09-27 20:00:00,67.5,46.4,46.68,40.0,4.0,29.9,10.0,67.5
2021-09-27 21:00:00,67.0,46.2,47.3,40.0,5.0,29.91,3.0,66.9
2021-09-27 22:00:00,64.2,47.7,54.98,0.0,0.0,29.93,10.0,64.2
2021-09-27 23:00:00,55.4,49.0,78.7,0.0,0.0,29.94,5.0,55.4
2021-09-28 00:00:00,51.4,49.0,91.81,360.0,3.0,29.95,10.0,51.4
2021-09-28 01:00:00,49.5,47.8,93.84,60.0,4.0,29.97,10.0,47.86
2021-09-28 02:00:00,50.0,46.4,87.37,40.0,4.0,29.98,10.0,50.0
2021-09-28 03:00:00,49.6,46.0,87.02,100.0,4.0,30.0,10.0,47.97
2021-09-28 04:00:00,49.6,47.7,93.14,120.0,5.0,30.0,10.0,47.3
2021-09-28 05:00:00,48.4,47.5,96.68,0.0,0.0,30.01,10.0,48.4
2021-09-28 06:00:00,46.8,46.8,100.0,0.0,0.0,30.02,10.0,46.8
2021-09-28 07:00:00,46.6,45.0,94.48,0.0,0.0,30.02,10.0,46.6
2021-09-28 08:00:00,43.5,43.5,100.0,0.0,0.0,30.03,10.0,43.5
2021-09-28 09:00:00,41.5,41.5,100.0,0.0,0.0,30.04,10.0,41.5
2021-09-28 10:00:00,41.5,41.5,100.0,0.0,0.0,30.04,10.0,41.5
2021-09-28 11:00:00,40.0,40.0,100.0,0.0,0.0,30.05,10.0,40.1
2021-09-28 12:00:00,44.8,44.8,100.0,0.0,0.0,30.06,10.0,44.8
2021-09-28 13:00:00,51.8,49.0,89.79,140.0,3.0,30.07,10.0,51.8
2021-09-28 14:00:00,55.2,48.0,76.65,150.0,4.0,30.08,10.0,55.2
2021-09-28 15:00:00,59.0,48.7,68.61,170.0,7.0,30.07,10.0,59.0
2021-09-28 16:00:00,62.4,49.5,62.65,150.0,7.0,30.06,10.0,62.4
2021-09-28 17:00:00,64.0,48.7,57.48,180.0,7.0,30.05,10.0,64.0
2021-09-28 18:00:00,66.7,47.5,50.02,140.0,8.0,30.04,10.0,66.7
2021-09-28 19:00:00,67.3,47.7,49.36,200.0,4.0,30.03,10.0,67.3
2021-09-28 20:00:00,68.0,46.4,45.88,140.0,5.0,30.01,10.0,68.0
2021-09-28 21:00:00,67.0,47.0,48.59,170.0,5.0,30.01,10.0,67.1
2021-09-28 22:00:00,64.4,47.3,53.78,170.0,3.0,30.01,7.0,64.4
2021-09-28 23:00:00,56.8,48.4,73.42,140.0,4.0,30.01,10.0,56.8
2021-09-29 00:00:00,53.8,47.5,79.16,140.0,3.0,30.02,10.0,53.8
2021-09-29 01:00:00,52.0,47.5,84.57,0.0,0.0,30.03,10.0,52.0
2021-09-29 02:00:00,50.7,46.8,86.43,0.0,0.0,30.03,10.0,50.7
2021-09-29 03:00:00,48.0,46.2,93.44,0.0,0.0,30.03,10.0,48.0
2021-09-29 04:00:00,48.2,45.0,88.62,0.0,0.0,30.03,10.0,48.2
2021-09-29 05:00:00,48.4,45.0,88.29,0.0,0.0,30.04,10.0,48.4
2021-09-29 06:00:00,48.2,44.2,85.96,0.0,0.0,30.05,10.0,48.2
2021-09-29 07:00:00,47.5,44.4,88.92,0.0,0.0,30.05,10.0,47.5
2021-09-29 08:00:00,46.6,44.0,90.25,0.0,0.0,30.07,10.0,46.6
2021-09-29 09:00:00,44.6,43.2,94.79,0.0,0.0,30.08,10.0,44.6
2021-09-29 10:00:00,43.2,42.8,98.48,0.0,0.0,30.09,10.0,43.2
2021-09-29 11:00:00,42.0,41.4,98.09,0.0,0.0,30.1,10.0,41.9
2021-09-29 12:00:00,47.8,46.6,95.58,0.0,0.0,30.11,10.0,47.8
2021-09-29 13:00:00,56.5,49.3,76.76,0.0,0.0,30.11,10.0,56.5
2021-09-29 14:00:00,62.0,47.5,58.75,140.0,3.0,30.11,10.0,62.1
2021-09-29 15:00:00,66.4,46.0,47.76,170.0,5.0,30.12,10.0,66.4
2021-09-29 16:00:00,69.0,47.8,46.89,150.0,5.0,30.12,10.0,68.9
2021-09-29 17:00:00,70.7,50.2,48.23,140.0,5.0,30.11,10.0,70.7
2021-09-29 18:00:00,72.0,51.0,47.37,140.0,5.0,30.11,10.0,72.0
2021-09-29 19:00:00,72.7,51.0,46.6,140.0,4.0,30.1,10.0,72.7
2021-09-29 20:00:00,73.0,51.0,46.13,160.0,6.0,30.1,10.0,73.0
2021-09-29 21:00:00,72.5,51.3,47.27,150.0,4.0,30.1,10.0,72.5
2021-09-29 22:00:00,68.0,52.7,58.03,140.0,3.0,30.11,10.0,68.0
2021-09-29 23:00:00,60.0,53.0,78.2,110.0,4.0,30.12,10.0,59.9
2021-09-30 00:00:00,55.2,51.4,86.99,0.0,0.0,30.14,10.0,55.2
2021-09-30 01:00:00,53.6,50.4,88.87,0.0,0.0,30.15,7.0,53.6
2021-09-30 02:00:00,54.0,50.0,86.29,0.0,0.0,30.15,10.0,54.0
2021-09-30 03:00:00,54.7,52.0,90.58,110.0,6.0,30.15,10.0,54.7
2021-09-30 04:00:00,53.6,51.8,93.6,0.0,0.0,30.17,10.0,53.6
2021-09-30 05:00:00,51.0,50.5,97.8,0.0,0.0,30.18,10.0,51.1
2021-09-30 06:00:00,52.3,48.7,87.49,0.0,0.0,30.19,10.0,52.3
2021-09-30 07:00:00,52.7,49.5,88.83,0.0,0.0,30.2,10.0,52.7
2021-09-30 08:00:00,46.2,46.0,99.25,0.0,0.0,30.2,10.0,46.2
2021-09-30 09:00:00,46.4,46.4,100.0,0.0,0.0,30.2,10.0,46.4
2021-09-30 10:00:00,45.5,45.5,100.0,0.0,0.0,30.2,10.0,45.5
2021-09-30 11:00:00,44.6,44.6,100.0,0.0,0.0,30.2,10.0,44.6
2021-09-30 12:00:00,48.0,47.3,97.4,0.0,0.0,30.21,10.0,48.0
2021-09-30 13:00:00,56.3,52.7,87.69,0.0,0.0,30.22,10.0,56.3
2021-09-30 14:00:00,62.6,53.4,71.85,150.0,4.0,30.22,10.0,62.6
2021-09-30 15:00:00,66.0,53.6,64.27,140.0,3.0,30.23,10.0,66.0
2021-09-30 16:00:00,69.0,55.8,62.57,0.0,0.0,30.23,10.0,69.1
2021-09-30 17:00:00,72.3,56.0,56.32,160.0,3.0,30.21,10.0,72.3
2021-09-30 18:00:00,74.3,56.0,52.65,180.0,3.0,30.19,10.0,74.3
2021-09-30 19:00:00,75.0,55.0,49.78,150.0,3.0,30.18,10.0,75.0
2021-09-30 20:00:00,76.5,56.7,50.36,170.0,4.0,30.18,10.0,76.5
2021-09-30 21:00:00,74.5,56.8,54.03,150.0,6.0,30.18,10.0,74.5
2021-09-30 22:00:00,70.5,56.7,61.62,140.0,5.0,30.19,10.0,70.5
2021-09-30 23:00:00,62.2,55.4,78.39,130.0,5.0,30.2,10.0,62.2
2021-10-01 00:00:00,59.7,54.0,81.4,0.0,0.0,30.2,10.0,59.7
2021-10-01 01:00:00,59.4,53.8,81.68,0.0,0.0,30.21,10.0,59.4
2021-10-01 02:00:00,59.4,53.8,81.68,0.0,0.0,30.21,10.0,59.4
2021-10-01 03:00:00,57.0,54.0,90.01,140.0,4.0,30.22,10.0,57.0
2021-10-01 04:00:00,56.0,54.3,94.35,140.0,3.0,30.21,10.0,55.9
2021-10-01 05:00:00,54.0,53.8,98.91,0.0,0.0,30.2,10.0,54.1
2021-10-01 06:00:00,52.7,52.7,100.0,0.0,0.0,30.21,10.0,52.7
2021-10-01 07:00:00,51.0,51.0,100.0,0.0,0.0,30.2,10.0,51.1
2021-10-01 08:00:00,48.6,48.6,100.0,0.0,0.0,30.2,7.0,48.6
2021-10-01 09:00:00,50.4,50.4,100.0,0.0,0.0,30.19,10.0,50.4
2021-10-01 10:00:00,50.0,49.8,99.26,0.0,0.0,30.2,10.0,50.0
2021-10-01 11:00:00,50.0,49.6,98.52,0.0,0.0,30.2,10.0,50.0
2021-10-01 12:00:00,54.5,53.2,95.36,0.0,0.0,30.2,10.0,54.5
2021-10-01 13:00:00,63.3,55.0,74.05,130.0,3.0,30.2,10.0,63.3
2021-10-01 14:00:00,67.8,55.4,64.49,190.0,4.0,30.19,10.0,67.8
2021-10-01 15:00:00,71.6,56.7,59.36,180.0,4.0,30.19,10.0,71.6
2021-10-01 16:00:00,75.7,58.6,55.38,190.0,8.0,30.17,10.0,75.7
2021-10-01 17:00:00,75.7,58.6,55.38,190.0,8.0,30.17,10.0,75.7
2021-10-01 18:00:00,78.4,60.0,53.42,210.0,7.0,30.14,10.0,78.4
2021-10-01 19:00:00,79.3,60.0,51.5,200.0,7.0,30.12,10.0,79.3
2021-10-01 20:00:00,79.2,60.8,53.35,200.0,6.0,30.11,10.0,79.2
2021-10-01 21:00:00,75.6,60.6,59.67,190.0,4.0,30.11,10.0,75.6
2021-10-01 22:00:00,72.7,62.2,69.6,170.0,4.0,30.1,10.0,72.7
2021-10-01 23:00:00,69.0,61.0,75.4,180.0,4.0,30.1,10.0,69.1
2021-10-02 00:00:00,66.0,60.3,81.85,170.0,4.0,30.1,10.0,66.0
2021-10-02 01:00:00,62.6,59.5,89.59,180.0,3.0,30.09,10.0,62.6
2021-10-02 02:00:00,62.0,60.0,93.82,190.0,4.0,30.08,10.0,61.9
2021-10-02 03:00:00,61.7,59.4,92.15,0.0,0.0,30.07,10.0,61.7
2021-10-02 04:00:00,63.3,60.4,90.26,0.0,0.0,30.05,10.0,63.3
2021-10-02 05:00:00,64.4,61.5,90.3,170.0,4.0,30.04,10.0,64.4
2021-10-02 06:00:00,64.0,61.7,92.55,220.0,8.0,30.05,10.0,63.9
2021-10-02 07:00:00,62.6,62.0,97.56,260.0,3.0,30.04,7.0,62.6
2021-10-02 08:00:00,61.7,61.7,100.0,0.0,0.0,30.01,2.5,61.7
2021-10-02 09:00:00,61.7,61.7,100.0,0.0,0.0,30.01,5.0,61.7
2021-10-02 10:00:00,61.7,61.7,100.0,160.0,5.0,29.99,4.0,61.7
2021-10-02 11:00:00,62.2,62.2,100.0,190.0,5.0,29.98,5.0,62.2
2021-10-02 12:00:00,62.8,62.8,100.0,200.0,4.0,29.98,4.0,62.8
2021-10-02 13:00:00,63.7,63.7,100.0,210.0,5.0,29.97,3.0,63.7
2021-10-02 14:00:00,64.6,64.6,100.0,220.0,7.0,29.96,4.0,64.6
2021-10-02 15:00:00,65.7,65.0,97.93,230.0,7.0,29.96,7.0,65.7
2021-10-02 16:00:00,69.0,65.0,87.69,240.0,7.0,29.95,10.0,68.9
2021-10-02 17:00:00,70.5,64.2,80.45,230.0,10.0,29.94,10.0,70.5
2021-10-02 18:00:00,71.0,63.0,76.09,240.0,6.0,29.92,10.0,70.9
2021-10-02 19:00:00,73.6,62.2,67.52,240.0,10.0,29.9,10.0,73.6
2021-10-02 20:00:00,72.7,61.2,67.18,260.0,7.0,29.9,10.0,72.7
2021-10-02 21:00:00,71.6,60.8,68.75,230.0,4.0,29.88,10.0,71.6
2021-10-02 22:00:00,70.2,59.4,68.6,240.0,6.0,29.88,10.0,70.2
2021-10-02 23:00:00,63.7,58.3,82.57,230.0,3.0,29.88,10.0,63.7
2021-10-03 00:00:00,60.8,58.6,92.45,0.0,0.0,29.88,10.0,60.8
2021-10-03 01:00:00,59.0,58.6,98.58,0.0,0.0,29.88,10.0,59.0
2021-10-03 02:00:00,57.7,57.7,100.0,0.0,0.0,29.89,10.0,57.7
2021-10-03 03:00:00,56.5,56.5,100.0,0.0,0.0,29.88,10.0,56.5
2021-10-03 04:00:00,54.3,54.3,100.0,0.0,0.0,29.87,10.0,54.3
2021-10-03 05:00:00,52.7,52.7,100.0,0.0,0.0,29.86,0.75,52.7
2021-10-03 06:00:00,53.4,53.4,100.0,0.0,0.0,29.86,1.0,53.4
2021-10-03 07:00:00,52.3,52.3,100.0,0.0,0.0,29.85,0.75,52.3
2021-10-03 08:00:00,54.0,54.0,100.0,0.0,0.0,29.85,5.0,54.1
2021-10-03 09:00:00,55.0,55.0,100.0,0.0,0.0,29.85,7.0,54.9
2021-10-03 10:00:00,53.6,53.6,100.0,0.0,0.0,29.85,3.0,53.6
2021-10-03 11:00:00,55.4,55.4,100.0,0.0,0.0,29.86,7.0,55.4
2021-10-03 12:00:00,56.3,56.3,100.0,0.0,0.0,29.86,5.0,56.3
2021-10-03 13:00:00,60.0,60.0,100.0,0.0,0.0,29.86,7.0,59.9
2021-10-03 14:00:00,61.5,61.2,98.94,0.0,0.0,29.87,10.0,61.5
2021-10-03 15:00:00,64.4,63.0,95.21,20.0,5.0,29.87,10.0,64.4
2021-10-03 16:00:00,66.7,63.0,87.89,20.0,6.0,29.86,10.0,66.7
2021-10-03 17:00:00,68.0,63.0,84.03,330.0,4.0,29.85,10.0,68.0
2021-10-03 18:00:00,67.5,63.0,85.79,320.0,7.0,29.85,10.0,67.5
2021-10-03 19:00:00,67.0,62.8,86.07,120.0,6.0,29.85,10.0,67.1
2021-10-03 20:00:00,66.6,62.8,87.58,320.0,8.0,29.85,10.0,66.6
2021-10-03 21:00:00,64.4,62.2,92.56,340.0,7.0,29.86,10.0,64.4
2021-10-03 22:00:00,64.0,61.7,92.23,340.0,9.0,29.87,10.0,64.0
2021-10-03 23:00:00,64.0,61.7,92.23,340.0,9.0,29.87,10.0,64.0
2021-10-04 00:00:00,61.0,60.0,96.85,350.0,6.0,29.91,10.0,61.0
2021-10-04 01:00:00,59.2,58.0,96.14,360.0,10.0,29.92,10.0,59.2
2021-10-04 02:00:00,58.5,57.6,96.82,350.0,11.0,29.92,10.0,58.5
2021-10-04 03:00:00,58.0,57.4,97.51,340.0,9.0,29.93,10.0,58.1
2021-10-04 04:00:00,57.4,57.2,99.28,350.0,6.0,29.93,10.0,57.4
2021-10-04 05:00:00,57.4,57.2,99.28,360.0,7.0,29.94,10.0,57.4
2021-10-04 06:00:00,57.0,57.0,100.0,360.0,7.0,29.95,10.0,57.0
2021-10-04 07:00:00,57.0,57.0,100.0,10.0,7.0,29.95,10.0,57.0
2021-10-04 08:00:00,56.8,56.8,100.0,350.0,5.0,29.97,10.0,56.8
2021-10-04 09:00:00,56.8,56.8,100.0,360.0,5.0,29.98,10.0,56.8
2021-10-04 10:00:00,57.2,56.8,98.57,360.0,7.0,29.99,10.0,57.2
2021-10-04 11:00:00,57.2,57.2,100.0,360.0,4.0,30.02,10.0,57.2
2021-10-04 12:00:00,57.4,57.2,99.28,350.0,8.0,30.04,10.0,57.4
2021-10-04 13:00:00,58.0,57.6,98.22,20.0,8.0,30.05,10.0,58.1
2021-10-04 14:00:00,59.0,58.0,96.83,10.0,8.0,30.08,10.0,59.0
2021-10-04 15:00:00,60.0,58.5,94.44,10.0,8.0,30.09,10.0,60.1
2021-10-04 16:00:00,61.2,58.5,90.83,20.0,6.0,30.09,10.0,61.2
2021-10-04 17:00:00,62.8,59.2,88.01,10.0,7.0,30.1,10.0,62.8
2021-10-04 18:00:00,64.4,59.2,83.21,10.0,5.0,30.1,10.0,64.4
2021-10-04 19:00:00,64.0,58.6,82.88,20.0,4.0,30.1,10.0,63.9
2021-10-04 20:00:00,64.4,58.3,80.57,20.0,7.0,30.11,10.0,64.4
2021-10-04 21:00:00,64.4,58.8,82.03,10.0,4.0,30.12,10.0,64.4
2021-10-04 22:00:00,63.0,59.0,86.47,10.0,5.0,30.14,10.0,63.1
2021-10-04 23:00:00,61.7,59.0,90.84,360.0,3.0,30.15,10.0,61.7
2021-10-05 00:00:00,61.0,59.0,93.12,360.0,3.0,30.16,10.0,61.0
2021-10-05 01:00:00,61.0,59.2,93.79,30.0,3.0,30.18,10.0,61.0
2021-10-05 02:00:00,60.8,59.2,94.46,30.0,5.0,30.19,10.0,60.8
2021-10-05 03:00:00,60.0,59.5,97.88,0.0,0.0,30.2,10.0,60.1
2021-10-05 04:00:00,60.0,58.5,94.44,70.0,5.0,30.21,10.0,60.1
2021-10-05 05:00:00,59.0,57.2,93.74,60.0,3.0,30.23,10.0,59.0
2021-10-05 06:00:00,55.2,55.2,100.0,0.0,0.0,30.23,10.0,55.2
2021-10-05 07:00:00,53.0,53.0,100.0,0.0,0.0,30.25,4.0,52.9
2021-10-05 08:00:00,50.7,50.7,100.0,360.0,4.0,30.25,0.5,50.7
2021-10-05 09:00:00,54.0,54.0,100.0,60.0,3.0,30.27,0.25,54.0
2021-10-05 10:00:00,53.8,53.8,100.0,0.0,0.0,30.29,0.5,53.8
2021-10-05 11:00:00,52.7,52.7,100.0,0.0,0.0,30.3,2.5,52.7
2021-10-05 12:00:00,54.3,54.3,100.0,0.0,0.0,30.31,5.0,54.3
2021-10-05 13:00:00,55.6,55.4,99.28,0.0,0.0,30.32,10.0,55.6
2021-10-05 14:00:00,55.6,55.4,99.28,0.0,0.0,30.32,10.0,55.6
2021-10-05 15:00:00,64.0,53.0,67.89,0.0,0.0,30.34,10.0,63.9
2021-10-05 16:00:00,66.6,53.2,62.03,90.0,5.0,30.32,10.0,66.6
2021-10-05 17:00:00,68.2,54.0,60.44,0.0,0.0,30.32,10.0,68.2
2021-10-05 18:00:00,69.3,54.5,59.27,90.0,6.0,30.31,10.0,69.3
2021-10-05 19:00:00,70.2,54.5,57.48,140.0,7.0,30.3,10.0,70.2
2021-10-05 20:00:00,65.7,54.5,67.11,150.0,6.0,30.3,10.0,65.7
2021-10-05 21:00:00,66.2,54.3,65.48,180.0,6.0,30.3,10.0,66.2
2021-10-05 22:00:00,62.6,55.4,77.29,150.0,5.0,30.31,10.0,62.6
2021-10-05 23:00:00,59.4,54.0,82.58,0.0,0.0,30.31,10.0,59.4
2021-10-06 00:00:00,56.3,54.3,92.99,0.0,0.0,30.32,10.0,56.3
2021-10-06 01:00:00,53.8,53.6,99.27,0.0,0.0,30.33,10.0,53.8
2021-10-06 02:00:00,51.8,51.6,99.26,0.0,0.0,30.33,10.0,51.8
2021-10-06 03:00:00,52.5,52.5,100.0,0.0,0.0,30.34,10.0,52.5
2021-10-06 04:00:00,50.4,50.4,100.0,0.0,0.0,30.33,10.0,50.4
2021-10-06 05:00:00,49.5,49.5,100.0,0.0,0.0,30.33,10.0,49.5
2021-10-06 06:00:00,48.2,48.2,100.0,90.0,3.0,30.33,10.0,47.21
2021-10-06 07:00:00,52.3,51.0,94.96,100.0,3.0,30.33,10.0,52.3
2021-10-06 08:00:00,53.2,51.4,93.59,0.0,0.0,30.33,10.0,53.2
2021-10-06 09:00:00,55.0,52.2,90.26,130.0,3.0,30.34,10.0,55.0
2021-10-06 10:00:00,54.7,52.7,92.94,100.0,3.0,30.35,10.0,54.7
2021-10-06 11:00:00,54.5,54.3,99.27,0.0,0.0,30.35,10.0,54.5
2021-10-06 12:00:00,54.5,54.5,100.0,100.0,5.0,30.35,0.5,54.5
2021-10-06 13:00:00,56.0,56.0,100.0,0.0,0.0,30.35,10.0,56.1
2021-10-06 14:00:00,58.3,57.6,97.52,130.0,3.0,30.36,10.0,58.3
2021-10-06 15:00:00,63.0,58.0,84.02,150.0,6.0,30.34,10.0,63.0
2021-10-06 16:00:00,66.4,57.6,73.29,120.0,7.0,30.33,10.0,66.4
2021-10-06 17:00:00,68.5,56.5,65.51,140.0,8.0,30.32,10.0,68.5
2021-10-06 18:00:00,69.3,56.7,64.2,150.0,7.0,30.3,10.0,69.3
2021-10-06 19:00:00,69.8,56.0,61.76,160.0,7.0,30.28,10.0,69.8
2021-10-06 20:00:00,69.4,55.6,61.48,140.0,8.0,30.27,10.0,69.4
2021-10-06 21:00:00,68.2,55.6,64.07,120.0,5.0,30.26,10.0,68.2
2021-10-06 22:00:00,65.0,55.8,72.35,100.0,4.0,30.26,10.0,64.9
2021-10-06 23:00:00,61.7,55.4,79.79,100.0,7.0,30.26,10.0,61.7
2021-10-07 00:00:00,60.0,55.0,82.93,120.0,8.0,30.27,10.0,60.1
2021-10-07 01:00:00,57.6,54.0,88.08,120.0,6.0,30.28,10.0,57.6
2021-10-07 02:00:00,54.7,52.3,91.58,110.0,6.0,30.27,10.0,54.7
2021-10-07 03:00:00,52.7,51.4,95.32,0.0,0.0,30.27,10.0,52.7
2021-10-07 04:00:00,52.0,51.0,96.02,100.0,3.0,30.26,10.0,52.0
2021-10-07 05:00:00,50.2,50.2,100.0,0.0,0.0,30.24,10.0,50.2
2021-10-07 06:00:00,49.0,49.0,100.0,0.0,0.0,30.24,10.0,49.1
2021-10-07 07:00:00,47.5,47.5,100.0,60.0,3.0,30.24,7.0,46.41
2021-10-07 08:00:00,47.8,47.8,100.0,50.0,3.0,30.24,5.0,46.75
2021-10-07 09:00:00,50.7,50.7,100.0,0.0,0.0,30.23,5.0,50.7
2021-10-07 10:00:00,51.8,51.8,100.0,0.0,0.0,30.24,0.75,51.8
2021-10-07 11:00:00,53.0,53.0,100.0,0.0,0.0,30.24,5.0,52.9
2021-10-07 12:00:00,53.8,53.8,100.0,0.0,0.0,30.24,7.0,53.8
2021-10-07 13:00:00,56.5,56.3,99.28,0.0,0.0,30.22,10.0,56.5
2021-10-07 14:00:00,59.7,57.4,92.09,110.0,8.0,30.22,10.0,59.7
2021-10-07 15:00:00,58.6,57.2,95.09,100.0,5.0,30.21,10.0,58.6
2021-10-07 16:00:00,59.0,58.0,96.83,90.0,5.0,30.2,4.0,59.0
2021-10-07 17:00:00,59.5,59.0,98.23,100.0,8.0,30.19,10.0,59.5
2021-10-07 18:00:00,60.4,59.4,96.5,90.0,5.0,30.16,10.0,60.4
2021-10-07 19:00:00,62.6,58.8,87.38,90.0,6.0,30.14,10.0,62.6
2021-10-07 20:00:00,62.6,57.7,83.99,100.0,6.0,30.13,10.0,62.6
2021-10-07 21:00:00,62.2,58.8,88.62,70.0,4.0,30.1,10.0,62.2
2021-10-07 22:00:00,61.0,60.0,96.85,50.0,3.0,30.1,7.0,61.0
2021-10-07 23:00:00,60.8,60.0,97.54,110.0,8.0,30.1,10.0,60.8
2021-10-08 00:00:00,59.4,59.4,100.0,100.0,8.0,30.1,3.0,59.4
2021-10-08 01:00:00,59.0,59.0,100.0,90.0,7.0,30.1,1.75,59.0
2021-10-08 02:00:00,58.5,58.5,100.0,90.0,4.0,30.09,1.75,58.5
2021-10-08 03:00:00,58.0,58.0,100.0,90.0,4.0,30.09,2.5,58.1
2021-10-08 04:00:00,58.0,58.0,100.0,90.0,4.0,30.09,2.0,58.1
2021-10-08 05:00:00,58.0,58.0,100.0,80.0,4.0,30.08,1.75,58.1
2021-10-08 06:00:00,58.0,58.0,100.0,90.0,5.0,30.06,1.0,58.1
2021-10-08 07:00:00,58.5,58.5,100.0,100.0,4.0,30.06,1.25,58.5
2021-10-08 08:00:00,58.6,58.6,100.0,110.0,4.0,30.05,1.0,58.6
2021-10-08 09:00:00,58.6,58.6,100.0,90.0,3.0,30.05,1.0,58.6
2021-10-08 10:00:00,59.0,59.0,100.0,110.0,3.0,30.06,4.0,59.0
2021-10-08 11:00:00,59.0,59.0,100.0,0.0,0.0,30.05,0.75,59.0
2021-10-08 12:00:00,59.2,59.2,100.0,0.0,0.0,30.06,1.25,59.2
2021-10-08 13:00:00,60.0,60.0,100.0,0.0,0.0,30.06,5.0,59.9
2021-10-08 14:00:00,60.6,60.6,100.0,0.0,0.0,30.06,7.0,60.6
2021-10-08 15:00:00,62.2,60.6,94.49,0.0,0.0,30.06,5.0,62.2
2021-10-08 16:00:00,64.4,62.0,91.59,0.0,0.0,30.05,10.0,64.4
2021-10-08 17:00:00,66.2,61.2,83.92,130.0,5.0,30.03,10.0,66.2
2021-10-08 18:00:00,66.4,61.7,84.83,120.0,6.0,30.02,10.0,66.4
2021-10-08 19:00:00,68.7,61.0,76.44,90.0,6.0,29.99,10.0,68.7
2021-10-08 20:00:00,68.7,61.2,76.98,120.0,5.0,29.98,10.0,68.7
2021-10-08 21:00:00,66.6,60.8,81.6,110.0,3.0,29.98,10.0,66.6
2021-10-08 22:00:00,65.0,62.0,90.01,0.0,0.0,29.98,10.0,65.1
2021-10-08 23:00:00,63.5,61.5,93.19,0.0,0.0,29.99,10.0,63.5
2021-10-09 00:00:00,62.8,60.8,93.17,0.0,0.0,29.99,10.0,62.8
2021-10-09 01:00:00,58.5,58.5,100.0,70.0,3.0,29.99,10.0,58.5
2021-10-09 02:00:00,57.7,57.7,100.0,0.0,0.0,29.99,5.0,57.7
2021-10-09 03:00:00,58.3,58.3,100.0,120.0,3.0,29.99,4.0,58.3
2021-10-09 04:00:00,59.5,59.5,100.0,130.0,5.0,29.98,0.25,59.5
2021-10-09 05:00:00,60.0,60.0,100.0,130.0,3.0,29.99,0.25,60.1
2021-10-09 06:00:00,60.0,60.0,100.0,0.0,0.0,29.98,0.5,59.9
2021-10-09 07:00:00,60.0,60.0,100.0,210.0,4.0,29.98,1.0,59.9
2021-10-09 08:00:00,59.4,59.4,100.0,0.0,0.0,29.97,0.75,59.4
2021-10-09 09:00:00,59.2,59.2,100.0,0.0,0.0,29.96,2.0,59.2
2021-10-09 10:00:00,59.0,59.0,100.0,130.0,3.0,29.96,1.0,59.0
2021-10-09 11:00:00,58.5,58.5,100.0,130.0,3.0,29.95,0.5,58.5
2021-10-09 12:00:00,58.5,58.5,100.0,0.0,0.0,29.96,0.25,58.5
2021-10-09 13:00:00,59.0,59.0,100.0,0.0,0.0,29.97,1.5,59.0
2021-10-09 14:00:00,59.7,59.7,100.0,140.0,5.0,29.96,3.0,59.7
2021-10-09 15:00:00,60.0,60.0,100.0,150.0,5.0,29.96,4.0,59.9
2021-10-09 16:00:00,61.0,61.0,100.0,180.0,3.0,29.96,10.0,61.0
2021-10-09 17:00:00,65.0,60.0,83.85,140.0,9.0,29.94,10.0,65.1
2021-10-09 18:00:00,65.3,60.0,83.27,140.0,6.0,29.92,10.0,65.3
2021-10-09 19:00:00,64.4,59.5,84.11,150.0,7.0,29.9,10.0,64.4
2021-10-09 20:00:00,62.6,59.0,88.0,130.0,8.0,29.9,10.0,62.6
2021-10-09 21:00:00,60.8,59.0,93.79,140.0,6.0,29.88,10.0,60.8
2021-10-09 22:00:00,60.3,58.6,94.11,130.0,7.0,29.88,10.0,60.3
2021-10-09 23:00:00,60.4,58.5,93.44,140.0,6.0,29.9,10.0,60.4
2021-10-10 00:00:00,59.0,58.0,96.83,100.0,5.0,29.87,7.0,59.0
2021-10-10 01:00:00,59.0,58.5,98.23,110.0,7.0,29.85,7.0,59.0
2021-10-10 02:00:00,60.0,60.0,100.0,120.0,10.0,29.84,5.0,59.9
2021-10-10 03:00:00,60.0,59.5,98.58,120.0,10.0,29.83,5.0,59.9
2021-10-10 04:00:00,58.5,58.3,99.29,130.0,9.0,29.82,5.0,58.5
2021-10-10 05:00:00,59.0,58.5,98.23,120.0,13.0,29.79,7.0,59.0
2021-10-10 06:00:00,60.0,59.4,98.23,110.0,14.0,29.76,5.0,59.9
2021-10-10 07:00:00,60.3,60.0,99.29,110.0,15.0,29.74,5.0,60.3
2021-10-10 08:00:00,60.3,60.3,100.0,120.0,12.0,29.71,4.0,60.3
2021-10-10 09:00:00,60.8,60.8,100.0,130.0,11.0,29.7,3.0,60.8
2021-10-10 10:00:00,61.3,61.3,100.0,130.0,8.0,29.69,2.5,61.3
2021-10-10 11:00:00,62.0,62.0,100.0,130.0,11.0,29.69,2.5,61.9
2021-10-10 12:00:00,62.0,62.0,100.0,130.0,11.0,29.69,2.5,61.9
2021-10-10 13:00:00,63.5,63.5,100.0,130.0,10.0,29.66,2.5,63.5
2021-10-10 14:00:00,64.4,64.4,100.0,150.0,10.0,29.64,4.0,64.4
2021-10-10 15:00:00,65.8,64.4,95.24,180.0,6.0,29.65,7.0,65.8
2021-10-10 16:00:00,66.7,64.2,91.67,200.0,7.0,29.68,10.0,66.7
2021-10-10 17:00:00,69.6,64.8,84.72,160.0,13.0,29.64,10.0,69.6
2021-10-10 18:00:00,71.8,64.4,77.52,170.0,13.0,29.61,10.0,71.8
2021-10-10 19:00:00,75.4,63.0,65.62,180.0,17.0,29.58,10.0,75.4
2021-10-10 20:00:00,73.6,61.2,65.18,200.0,9.0,29.59,10.0,73.6
2021-10-10 21:00:00,71.6,60.0,67.06,190.0,13.0,29.59,10.0,71.6
2021-10-10 22:00:00,68.0,59.0,72.92,180.0,15.0,29.6,10.0,68.0
2021-10-10 23:00:00,66.0,58.6,77.03,170.0,10.0,29.61,10.0,66.0
2021-10-11 00:00:00,65.0,59.0,81.19,170.0,9.0,29.62,10.0,64.9
2021-10-11 01:00:00,64.4,58.6,81.44,180.0,15.0,29.64,10.0,64.4
2021-10-11 02:00:00,64.4,59.0,82.62,200.0,15.0,29.66,10.0,64.4
2021-10-11 03:00:00,64.0,59.0,84.08,180.0,8.0,29.65,10.0,63.9
2021-10-11 04:00:00,63.5,58.5,83.75,200.0,9.0,29.64,10.0,63.5
2021-10-11 05:00:00,62.6,57.2,82.5,220.0,9.0,29.64,10.0,62.6
2021-10-11 06:00:00,60.6,57.2,88.54,220.0,8.0,29.64,10.0,60.6
2021-10-11 07:00:00,59.0,53.2,81.05,270.0,7.0,29.64,10.0,59.0
2021-10-11 08:00:00,56.5,50.5,80.27,250.0,6.0,29.65,10.0,56.5
2021-10-11 09:00:00,55.8,48.6,76.7,270.0,4.0,29.67,10.0,55.8
2021-10-11 10:00:00,54.5,49.5,83.16,280.0,3.0,29.65,10.0,54.5
2021-10-11 11:00:00,54.5,49.8,84.1,230.0,4.0,29.69,10.0,54.5
2021-10-11 12:00:00,54.5,49.5,83.16,0.0,0.0,29.69,10.0,54.5
2021-10-11 13:00:00,55.4,50.0,81.99,240.0,6.0,29.71,10.0,55.4
2021-10-11 14:00:00,57.2,49.6,75.69,230.0,5.0,29.71,10.0,57.2
2021-10-11 15:00:00,60.3,51.3,72.15,220.0,6.0,29.72,10.0,60.3
2021-10-11 16:00:00,60.4,51.0,71.36,250.0,4.0,29.71,10.0,60.4
2021-10-11 17:00:00,60.8,51.0,70.35,220.0,6.0,29.71,10.0,60.8
2021-10-11 18:00:00,63.0,52.7,69.05,140.0,3.0,29.7,10.0,63.0
2021-10-11 19:00:00,62.0,52.3,70.23,130.0,9.0,29.71,10.0,62.1
2021-10-11 20:00:00,60.0,52.2,75.12,140.0,7.0,29.71,10.0,60.1
2021-10-11 21:00:00,58.5,54.5,86.53,0.0,0.0,29.72,7.0,58.5
2021-10-11 22:00:00,57.6,55.8,93.7,0.0,0.0,29.73,10.0,57.6
2021-10-11 23:00:00,57.4,56.3,96.11,30.0,3.0,29.72,10.0,57.4
2021-10-12 00:00:00,57.4,56.0,94.72,40.0,3.0,29.73,10.0,57.4
2021-10-12 01:00:00,57.0,56.3,97.5,0.0,0.0,29.74,5.0,57.0
2021-10-12 02:00:00,56.3,56.3,100.0,360.0,4.0,29.74,10.0,56.3
2021-10-12 03:00:00,56.0,56.0,100.0,0.0,0.0,29.74,10.0,55.9
2021-10-12 04:00:00,56.5,56.5,100.0,350.0,6.0,29.74,7.0,56.5
2021-10-12 05:00:00,56.3,56.3,100.0,360.0,7.0,29.74,5.0,56.3
2021-10-12 06:00:00,55.4,55.4,100.0,10.0,9.0,29.75,3.0,55.4
2021-10-12 07:00:00,55.8,55.8,100.0,10.0,9.0,29.75,10.0,55.8
2021-10-12 08:00:00,56.0,56.0,100.0,10.0,8.0,29.75,10.0,55.9
2021-10-12 09:00:00,55.8,55.8,100.0,10.0,9.0,29.75,10.0,55.8
2021-10-12 10:00:00,55.6,55.6,100.0,10.0,7.0,29.77,10.0,55.6
2021-10-12 11:00:00,55.6,55.6,100.0,10.0,5.0,29.8,10.0,55.6
2021-10-12 12:00:00,55.8,55.8,100.0,350.0,6.0,29.81,5.0,55.8
2021-10-12 13:00:00,56.0,56.0,100.0,350.0,8.0,29.83,7.0,55.9
2021-10-12 14:00:00,56.0,56.0,100.0,350.0,8.0,29.83,7.0,55.9
2021-10-12 15:00:00,56.8,56.8,100.0,360.0,7.0,29.84,7.0,56.8
2021-10-12 16:00:00,57.4,57.4,100.0,340.0,8.0,29.85,3.0,57.4
2021-10-12 17:00:00,58.5,57.2,95.43,340.0,6.0,29.86,10.0,58.5
2021-10-12 18:00:00,58.5,56.3,92.38,330.0,9.0,29.87,10.0,58.5
2021-10-12 19:00:00,60.0,56.0,87.24,320.0,9.0,29.88,10.0,59.9
2021-10-12 20:00:00,60.4,55.8,84.77,340.0,8.0,29.89,10.0,60.4
2021-10-12 21:00:00,60.0,55.8,85.68,320.0,7.0,29.91,10.0,60.1
2021-10-12 22:00:00,59.4,56.0,88.17,320.0,4.0,29.91,10.0,59.4
2021-10-12 23:00:00,57.4,55.2,92.35,310.0,3.0,29.93,10.0,57.4
2021-10-13 00:00:00,55.8,54.5,95.38,0.0,0.0,29.93,10.0,55.8
2021-10-13 01:00:00,54.5,54.5,100.0,270.0,3.0,29.95,10.0,54.5
2021-10-13 02:00:00,56.3,55.6,97.49,290.0,3.0,29.97,10.0,56.3
2021-10-13 03:00:00,54.0,54.0,100.0,340.0,3.0,29.95,10.0,54.0
2021-10-13 04:00:00,52.5,52.5,100.0,0.0,0.0,29.95,10.0,52.5
2021-10-13 05:00:00,51.0,51.0,100.0,0.0,0.0,29.97,10.0,51.1
2021-10-13 06:00:00,53.0,53.0,100.0,0.0,0.0,29.98,10.0,53.1
2021-10-13 07:00:00,53.0,53.0,100.0,0.0,0.0,29.97,10.0,53.1
2021-10-13 08:00:00,53.0,53.0,100.0,0.0,0.0,29.97,10.0,53.1
2021-10-13 09:00:00,53.0,53.0,100.0,0.0,0.0,29.97,10.0,53.1
2021-10-13 10:00:00,53.0,53.0,100.0,0.0,0.0,29.97,10.0,53.1
2021-10-13 11:00:00,53.0,53.0,100.0,0.0,0.0,29.97,10.0,53.1
2021-10-13 12:00:00,53.0,53.0,100.0,0.0,0.0,29.97,10.0,53.1
2021-10-13 13:00:00,55.4,55.4,100.0,140.0,5.0,29.95,10.0,55.4
2021-10-13 14:00:00,57.0,56.0,96.8,130.0,9.0,29.95,10.0,57.0
2021-10-13 15:00:00,58.0,55.2,90.05,150.0,9.0,29.95,10.0,58.1
2021-10-13 16:00:00,58.0,55.0,89.4,150.0,8.0,29.93,10.0,58.1
2021-10-13 17:00:00,58.0,56.3,93.72,100.0,10.0,29.82,10.0,58.1
2021-10-13 18:00:00,58.5,55.4,89.42,120.0,13.0,29.8,10.0,58.5
2021-10-13 19:00:00,60.0,56.0,86.62,130.0,15.0,29.79,10.0,60.1
2021-10-13 20:00:00,60.8,56.0,83.88,140.0,14.0,29.77,10.0,60.8
2021-10-13 21:00:00,60.3,55.8,85.08,150.0,13.0,29.76,10.0,60.3
2021-10-13 22:00:00,60.0,55.2,84.44,140.0,12.0,29.76,10.0,59.9
2021-10-13 23:00:00,58.8,54.0,84.37,150.0,15.0,29.76,10.0,58.8
2021-10-14 00:00:00,57.4,56.0,95.41,150.0,12.0,29.76,7.0,57.4
2021-10-14 01:00:00,57.2,57.2,100.0,140.0,11.0,29.75,5.0,57.2
2021-10-14 02:00:00,58.0,58.0,100.0,140.0,11.0,29.75,5.0,57.9
2021-10-14 03:00:00,59.0,58.5,98.23,170.0,6.0,29.75,7.0,59.0
2021-10-14 04:00:00,59.4,59.0,98.58,180.0,9.0,29.74,10.0,59.4
2021-10-14 05:00:00,59.4,58.6,97.18,180.0,11.0,29.73,10.0,59.4
2021-10-14 06:00:00,58.8,57.7,96.13,190.0,10.0,29.73,10.0,58.8
2021-10-14 07:00:00,58.8,57.7,96.13,190.0,10.0,29.73,10.0,58.8
2021-10-14 08:00:00,56.0,49.5,79.03,220.0,10.0,29.73,10.0,55.9
2021-10-14 09:00:00,52.3,45.0,76.1,180.0,5.0,29.73,10.0,52.3
2021-10-14 10:00:00,53.0,44.4,72.75,210.0,9.0,29.74,10.0,52.9
2021-10-14 11:00:00,51.4,42.8,72.32,180.0,6.0,29.75,10.0,51.4
2021-10-14 12:00:00,51.0,41.0,68.23,220.0,14.0,29.77,10.0,51.1
2021-10-14 13:00:00,51.0,40.0,66.38,230.0,14.0,29.78,10.0,50.9
2021-10-14 14:00:00,53.4,42.4,66.16,220.0,13.0,29.79,10.0,53.4
2021-10-14 15:00:00,55.0,42.0,61.69,230.0,12.0,29.8,10.0,55.0
2021-10-14 16:00:00,55.8,42.4,60.62,230.0,14.0,29.81,10.0,55.8
2021-10-14 17:00:00,57.0,43.0,59.4,240.0,14.0,29.81,10.0,57.0
2021-10-14 18:00:00,58.5,44.0,58.25,230.0,9.0,29.81,10.0,58.5
2021-10-14 19:00:00,59.4,44.0,56.84,220.0,10.0,29.8,10.0,59.4
2021-10-14 20:00:00,59.4,43.5,55.55,250.0,14.0,29.81,10.0,59.4
2021-10-14 21:00:00,58.0,42.4,56.2,230.0,12.0,29.83,10.0,57.9
2021-10-14 22:00:00,54.7,42.4,63.1,250.0,8.0,29.84,10.0,54.7
2021-10-14 23:00:00,49.6,41.5,73.54,240.0,4.0,29.85,10.0,47.97
2021-10-15 00:00:00,46.4,41.7,83.57,0.0,0.0,29.86,10.0,46.4
2021-10-15 01:00:00,46.4,40.8,80.71,220.0,3.0,29.88,10.0,45.15
2021-10-15 02:00:00,43.2,40.0,88.72,260.0,3.0,29.88,10.0,41.49
2021-10-15 03:00:00,44.8,40.6,85.1,270.0,5.0,29.88,10.0,41.6
2021-10-15 04:00:00,43.2,40.0,88.04,280.0,3.0,29.9,10.0,41.49
2021-10-15 05:00:00,42.4,39.2,88.34,300.0,8.0,29.9,10.0,36.92
2021-10-15 06:00:00,41.0,38.3,90.02,300.0,7.0,29.9,10.0,35.75
2021-10-15 07:00:00,40.5,37.4,88.59,290.0,3.0,29.9,10.0,38.41
2021-10-15 08:00:00,38.8,36.5,91.36,0.0,0.0,29.9,10.0,38.8
2021-10-15 09:00:00,36.5,36.0,98.43,0.0,0.0,29.9,10.0,36.5
2021-10-15 10:00:00,37.4,37.0,98.05,0.0,0.0,29.9,10.0,37.4
2021-10-15 11:00:00,35.0,35.0,100.0,0.0,0.0,29.9,10.0,34.9
2021-10-15 12:00:00,36.5,36.5,100.0,0.0,0.0,29.91,10.0,36.5
2021-10-15 13:00:00,43.0,39.6,87.68,250.0,3.0,29.92,10.0,41.26
2021-10-15 14:00:00,44.0,40.0,85.72,230.0,5.0,29.93,10.0,40.77
2021-10-15 15:00:00,46.8,39.7,76.18,220.0,6.0,29.93,10.0,43.35
2021-10-15 16:00:00,51.0,40.0,65.89,220.0,9.0,29.92,10.0,51.1
2021-10-15 17:00:00,54.0,38.7,55.87,220.0,7.0,29.88,10.0,54.1
2021-10-15 18:00:00,55.0,36.3,49.2,240.0,14.0,29.86,10.0,55.0
2021-10-15 19:00:00,56.3,36.3,46.93,220.0,13.0,29.85,10.0,56.3
2021-10-15 20:00:00,56.7,37.0,47.55,250.0,9.0,29.83,10.0,56.7
2021-10-15 21:00:00,55.0,35.0,46.54,260.0,13.0,29.85,10.0,55.0
2021-10-15 22:00:00,51.4,36.3,56.14,270.0,8.0,29.86,10.0,51.4
2021-10-15 23:00:00,49.3,34.5,56.51,260.0,6.0,29.87,10.0,46.37
2021-10-16 00:00:00,48.2,34.5,58.88,270.0,9.0,29.86,10.0,43.66
2021-10-16 01:00:00,47.7,34.3,59.52,290.0,10.0,29.87,10.0,42.66
2021-10-16 02:00:00,46.4,33.0,59.58,280.0,10.0,29.87,10.0,41.03
2021-10-16 03:00:00,43.0,33.8,69.74,270.0,8.0,29.87,10.0,37.66
2021-10-16 04:00:00,40.0,33.3,76.46,260.0,6.0,29.86,10.0,35.29
2021-10-16 05:00:00,37.4,33.0,84.3,250.0,6.0,29.86,10.0,32.03
2021-10-16 06:00:00,38.0,34.0,85.69,260.0,6.0,29.87,10.0,32.64
2021-10-16 07:00:00,39.0,35.0,85.08,260.0,5.0,29.87,10.0,34.71
2021-10-16 08:00:00,37.2,34.7,90.57,260.0,6.0,29.86,10.0,31.79
2021-10-16 09:00:00,37.0,35.2,93.49,270.0,8.0,29.86,10.0,30.15
2021-10-16 10:00:00,38.7,37.6,95.78,270.0,8.0,29.87,10.0,32.37
2021-10-16 11:00:00,39.6,38.3,95.05,280.0,9.0,29.88,10.0,32.96
2021-10-16 12:00:00,40.0,37.8,91.41,270.0,9.0,29.88,10.0,33.59
2021-10-16 13:00:00,42.0,38.3,86.28,280.0,13.0,29.89,10.0,34.51
2021-10-16 14:00:00,44.8,37.0,73.64,290.0,13.0,29.9,10.0,37.97
2021-10-16 15:00:00,48.6,35.0,58.94,290.0,17.0,29.91,10.0,41.82
2021-10-16 16:00:00,51.6,33.8,50.46,320.0,16.0,29.91,10.0,51.6
2021-10-16 17:00:00,51.0,32.4,48.59,300.0,16.0,29.91,10.0,51.1
2021-10-16 18:00:00,54.0,32.7,44.2,290.0,11.0,29.91,10.0,54.0
2021-10-16 19:00:00,53.2,31.1,42.67,310.0,11.0,29.91,10.0,53.2
2021-10-16 20:00:00,54.3,31.5,41.66,290.0,16.0,29.93,10.0,54.3
2021-10-16 21:00:00,53.6,32.0,43.61,280.0,14.0,29.94,10.0,53.6
2021-10-16 22:00:00,49.6,32.0,50.55,290.0,7.0,29.95,10.0,46.23
2021-10-16 23:00:00,46.0,31.8,57.41,270.0,5.0,29.96,10.0,43.02
2021-10-17 00:00:00,43.7,31.6,62.15,240.0,4.0,29.98,10.0,41.08
2021-10-17 01:00:00,41.0,32.0,70.08,250.0,5.0,29.98,10.0,37.08
2021-10-17 02:00:00,41.5,32.0,68.74,240.0,4.0,29.98,10.0,38.51
2021-10-17 03:00:00,40.5,32.0,71.45,280.0,6.0,30.0,10.0,35.77
2021-10-17 04:00:00,40.0,32.0,72.57,280.0,7.0,30.01,10.0,34.65
2021-10-17 05:00:00,38.7,31.6,75.41,280.0,6.0,30.02,10.0,33.6
2021-10-17 06:00:00,37.0,30.6,77.42,260.0,4.0,30.02,10.0,33.26
2021-10-17 07:00:00,36.5,30.6,78.96,260.0,4.0,30.02,10.0,32.68
2021-10-17 08:00:00,35.6,30.2,80.51,270.0,4.0,30.02,10.0,31.62
2021-10-17 09:00:00,35.0,30.2,82.12,270.0,6.0,30.03,10.0,29.26
2021-10-17 10:00:00,33.6,29.5,84.74,260.0,4.0,30.03,10.0,29.29
2021-10-17 11:00:00,34.7,30.0,82.76,270.0,6.0,30.04,10.0,28.78
2021-10-17 12:00:00,37.0,31.1,79.32,280.0,6.0,30.05,10.0,31.43
2021-10-17 13:00:00,42.4,33.3,69.96,280.0,10.0,30.06,10.0,36.01
2021-10-17 14:00:00,47.8,34.7,60.25,290.0,11.0,30.06,10.0,42.43
2021-10-17 15:00:00,53.0,34.7,49.49,280.0,10.0,30.07,10.0,53.1
2021-10-17 16:00:00,58.3,33.6,39.22,310.0,13.0,30.07,10.0,58.3
2021-10-17 17:00:00,59.4,33.4,37.4,300.0,16.0,30.06,10.0,59.4
2021-10-17 18:00:00,61.0,32.4,33.94,310.0,13.0,30.05,10.0,61.0
2021-10-17 19:00:00,62.0,32.2,32.62,290.0,13.0,30.04,10.0,61.9
2021-10-17 20:00:00,62.4,33.0,32.96,290.0,12.0,30.04,10.0,62.4
2021-10-17 21:00:00,61.0,31.3,32.47,300.0,10.0,30.04,10.0,61.0
2021-10-17 22:00:00,56.8,31.8,38.51,300.0,7.0,30.04,10.0,56.8
2021-10-17 23:00:00,50.7,31.3,47.18,280.0,5.0,30.04,10.0,50.7
2021-10-18 00:00:00,45.3,32.0,59.43,240.0,5.0,30.05,10.0,42.19
2021-10-18 01:00:00,45.5,32.4,59.94,260.0,6.0,30.07,10.0,41.79
2021-10-18 02:00:00,43.5,32.5,64.94,260.0,5.0,30.08,10.0,40.05
2021-10-18 03:00:00,40.3,33.0,74.66,0.0,0.0,30.08,10.0,40.3
2021-10-18 04:00:00,37.0,33.0,85.29,0.0,0.0,30.08,10.0,36.9
2021-10-18 05:00:00,36.0,33.0,88.37,0.0,0.0,30.08,10.0,36.0
2021-10-18 06:00:00,35.0,32.4,89.76,0.0,0.0,30.08,10.0,35.1
2021-10-18 07:00:00,33.6,31.8,93.02,0.0,0.0,30.08,10.0,33.6
2021-10-18 08:00:00,33.0,32.0,95.67,0.0,0.0,30.08,10.0,33.1
2021-10-18 09:00:00,32.0,31.8,99.2,0.0,0.0,30.09,10.0,32.0
2021-10-18 10:00:00,32.0,31.1,96.43,0.0,0.0,30.1,10.0,32.0
2021-10-18 11:00:00,30.6,29.7,96.41,0.0,0.0,30.1,10.0,30.6
2021-10-18 12:00:00,32.4,31.3,95.66,0.0,0.0,30.1,10.0,32.4
2021-10-18 13:00:00,42.0,38.0,86.26,0.0,0.0,30.11,10.0,41.9
2021-10-18 14:00:00,53.6,41.5,63.44,0.0,0.0,30.1,10.0,53.6
2021-10-18 15:00:00,60.0,37.2,42.73,0.0,0.0,30.1,10.0,59.9
2021-10-18 16:00:00,62.6,33.8,33.93,190.0,6.0,30.1,10.0,62.6
2021-10-18 17:00:00,64.4,38.0,37.47,190.0,3.0,30.08,10.0,64.4
2021-10-18 18:00:00,65.5,38.5,36.92,150.0,4.0,30.06,10.0,65.5
2021-10-18 19:00:00,67.0,39.7,36.6,190.0,6.0,30.04,10.0,67.1
2021-10-18 20:00:00,67.0,41.5,39.25,200.0,7.0,30.03,10.0,67.1
2021-10-18 21:00:00,65.0,42.8,44.54,180.0,7.0,30.03,10.0,64.9
2021-10-18 22:00:00,59.0,42.8,54.86,180.0,5.0,30.02,10.0,59.0
2021-10-18 23:00:00,56.5,42.0,57.98,180.0,4.0,30.03,10.0,56.5
2021-10-19 00:00:00,52.7,42.0,67.11,160.0,4.0,30.02,10.0,52.7
2021-10-19 01:00:00,52.7,41.4,65.32,180.0,5.0,30.02,10.0,52.7
2021-10-19 02:00:00,50.5,41.2,70.3,190.0,4.0,30.03,10.0,50.5
2021-10-19 03:00:00,49.6,40.5,70.75,210.0,4.0,30.03,10.0,47.97
2021-10-19 04:00:00,49.5,40.3,70.47,200.0,3.0,30.03,10.0,48.69
2021-10-19 05:00:00,45.7,38.8,76.67,230.0,4.0,30.03,10.0,43.42
2021-10-19 06:00:00,47.8,39.6,73.08,0.0,0.0,30.04,10.0,47.8
2021-10-19 07:00:00,44.6,38.7,79.63,0.0,0.0,30.03,10.0,44.6
2021-10-19 08:00:00,39.0,36.5,90.65,0.0,0.0,30.03,10.0,39.0
2021-10-19 09:00:00,38.0,37.0,95.39,0.0,0.0,30.03,10.0,38.1
2021-10-19 10:00:00,38.7,37.0,93.18,0.0,0.0,30.03,10.0,38.7
2021-10-19 11:00:00,39.0,37.4,93.92,0.0,0.0,30.02,10.0,39.0
2021-10-19 12:00:00,40.8,38.0,90.01,0.0,0.0,30.02,10.0,40.8
2021-10-19 13:00:00,51.0,45.0,79.54,0.0,0.0,30.03,10.0,51.1
2021-10-19 14:00:00,57.0,46.0,66.34,230.0,4.0,30.03,10.0,57.0
2021-10-19 15:00:00,62.6,46.6,55.79,220.0,7.0,30.03,10.0,62.6
2021-10-19 16:00:00,64.6,45.0,48.95,230.0,11.0,30.02,10.0,64.6
2021-10-19 17:00:00,67.3,46.0,46.12,230.0,9.0,29.99,10.0,67.3
2021-10-19 18:00:00,66.2,45.3,46.83,230.0,8.0,29.98,10.0,66.2
2021-10-19 19:00:00,68.4,45.0,43.08,230.0,11.0,29.98,10.0,68.4
2021-10-19 20:00:00,68.2,46.0,44.88,210.0,9.0,29.97,10.0,68.2
2021-10-19 21:00:00,66.2,46.0,48.09,210.0,7.0,29.97,10.0,66.2
2021-10-19 22:00:00,62.4,44.2,51.3,200.0,4.0,29.98,10.0,62.4
2021-10-19 23:00:00,62.4,44.2,51.3,200.0,4.0,29.98,10.0,62.4
2021-10-20 00:00:00,53.0,42.6,67.91,200.0,3.0,29.99,10.0,52.9
2021-10-20 01:00:00,52.0,42.8,70.74,210.0,3.0,29.99,10.0,52.0
2021-10-20 02:00:00,54.0,43.3,66.76,220.0,4.0,30.01,10.0,54.1
2021-10-20 03:00:00,53.6,44.6,71.45,240.0,5.0,30.02,10.0,53.6
2021-10-20 04:00:00,54.0,47.3,77.71,240.0,4.0,30.02,10.0,54.1
2021-10-20 05:00:00,52.7,47.8,83.35,0.0,0.0,30.02,10.0,52.7
2021-10-20 06:00:00,52.3,46.6,80.85,0.0,0.0,30.02,10.0,52.3
2021-10-20 07:00:00,47.7,46.0,93.79,0.0,0.0,30.02,10.0,47.7
2021-10-20 08:00:00,46.6,45.7,96.65,0.0,0.0,30.02,10.0,46.6
2021-10-20 09:00:00,44.8,44.4,98.49,0.0,0.0,30.02,10.0,44.8
2021-10-20 10:00:00,46.0,46.0,100.0,20.0,4.0,30.02,10.0,43.65
2021-10-20 11:00:00,46.8,45.3,94.48,0.0,0.0,30.02,10.0,46.8
2021-10-20 12:00:00,47.0,46.0,95.93,40.0,5.0,30.02,10.0,44.33
2021-10-20 13:00:00,51.3,46.8,84.53,40.0,5.0,30.04,10.0,51.3
2021-10-20 14:00:00,51.3,46.8,84.53,40.0,5.0,30.04,10.0,51.3
2021-10-20 15:00:00,52.7,47.0,80.58,30.0,6.0,30.07,10.0,52.7
2021-10-20 16:00:00,51.0,48.0,89.09,50.0,8.0,30.04,10.0,51.1
2021-10-20 17:00:00,51.6,49.5,92.5,60.0,8.0,29.99,10.0,51.6
2021-10-20 18:00:00,54.0,49.0,83.44,110.0,12.0,29.97,10.0,54.0
2021-10-20 19:00:00,54.5,49.3,82.54,90.0,8.0,29.95,10.0,54.5
2021-10-20 20:00:00,52.0,50.2,93.55,60.0,8.0,29.97,10.0,52.0
2021-10-20 21:00:00,50.0,48.6,94.91,50.0,6.0,29.98,10.0,50.0
2021-10-20 22:00:00,48.7,48.4,98.88,60.0,8.0,29.95,10.0,44.68
2021-10-20 23:00:00,47.5,47.3,99.25,70.0,4.0,29.97,7.0,45.52
2021-10-21 00:00:00,46.8,46.4,98.5,80.0,6.0,29.93,10.0,43.35
2021-10-21 01:00:00,46.0,46.0,100.0,70.0,10.0,29.91,10.0,40.52
2021-10-21 02:00:00,45.5,45.5,100.0,70.0,9.0,29.9,7.0,40.3
2021-10-21 03:00:00,45.5,45.5,100.0,70.0,9.0,29.88,5.0,40.3
2021-10-21 04:00:00,45.7,45.7,100.0,60.0,7.0,29.87,10.0,41.48
2021-10-21 05:00:00,45.0,45.0,100.0,60.0,8.0,29.85,7.0,40.25
2021-10-21 06:00:00,45.0,45.0,100.0,50.0,11.0,29.82,3.0,38.89
2021-10-21 07:00:00,44.4,44.4,100.0,40.0,11.0,29.81,5.0,38.14
2021-10-21 08:00:00,43.7,43.7,100.0,40.0,10.0,29.81,7.0,37.64
2021-10-21 09:00:00,44.0,44.0,100.0,30.0,7.0,29.82,7.0,39.28
2021-10-21 10:00:00,43.2,42.8,98.48,10.0,8.0,29.83,10.0,37.91
2021-10-21 11:00:00,42.4,41.5,96.59,10.0,11.0,29.85,10.0,35.61
2021-10-21 12:00:00,41.2,40.6,97.7,10.0,13.0,29.87,10.0,33.35
2021-10-21 13:00:00,40.6,40.0,98.08,10.0,13.0,29.89,10.0,32.59
2021-10-21 14:00:00,40.3,38.3,92.5,10.0,13.0,29.92,10.0,32.2
2021-10-21 15:00:00,38.8,37.0,93.18,360.0,17.0,29.94,10.0,28.98
2021-10-21 16:00:00,40.5,34.2,78.04,360.0,15.0,29.96,10.0,31.8
2021-10-21 17:00:00,42.8,34.2,71.41,330.0,15.0,29.97,10.0,34.78
2021-10-21 18:00:00,43.5,32.7,65.47,350.0,15.0,29.98,10.0,35.69
2021-10-21 19:00:00,45.0,32.0,60.11,360.0,13.0,29.98,10.0,38.22
2021-10-21 20:00:00,45.3,32.0,59.43,330.0,12.0,29.99,10.0,38.93
2021-10-21 21:00:00,44.4,31.6,60.51,340.0,9.0,30.01,10.0,38.93
2021-10-21 22:00:00,40.3,31.1,69.44,330.0,6.0,30.03,10.0,35.53
2021-10-21 23:00:00,37.4,31.3,78.4,350.0,7.0,30.05,10.0,31.36
2021-10-22 00:00:00,35.0,30.7,84.48,350.0,6.0,30.06,10.0,29.02
2021-10-22 01:00:00,34.0,30.0,85.11,360.0,7.0,30.06,10.0,27.22
2021-10-22 02:00:00,32.5,29.7,89.28,360.0,5.0,30.07,10.0,26.99
2021-10-22 03:00:00,31.8,29.7,91.84,0.0,0.0,30.08,10.0,31.8
2021-10-22 04:00:00,31.3,29.3,92.2,0.0,0.0,30.07,10.0,31.3
2021-10-22 05:00:00,28.9,28.2,97.17,0.0,0.0,30.06,10.0,28.9
2021-10-22 06:00:00,29.3,29.1,99.19,0.0,0.0,30.06,10.0,29.3
2021-10-22 07:00:00,29.3,29.1,99.19,0.0,0.0,30.06,10.0,29.3
2021-10-22 08:00:00,29.3,29.1,99.19,0.0,0.0,30.06,10.0,29.3
2021-10-22 09:00:00,30.2,29.7,97.99,0.0,0.0,30.07,10.0,30.2
2021-10-22 10:00:00,30.9,30.2,97.2,0.0,0.0,30.06,10.0,30.9
2021-10-22 11:00:00,31.8,30.7,95.65,0.0,0.0,30.06,10.0,31.8
2021-10-22 12:00:00,32.2,31.8,98.4,0.0,0.0,30.07,10.0,32.2
2021-10-22 13:00:00,34.2,31.6,90.09,0.0,0.0,30.07,10.0,34.2
2021-10-22 14:00:00,35.6,32.0,86.59,0.0,0.0,30.08,10.0,35.6
2021-10-22 15:00:00,37.0,30.9,78.37,0.0,0.0,30.08,10.0,37.0
2021-10-22 16:00:00,38.5,30.2,71.81,270.0,4.0,30.07,10.0,35.01
2021-10-22 17:00:00,40.0,31.1,69.98,240.0,4.0,30.05,10.0,36.88
2021-10-22 18:00:00,41.2,30.0,64.13,280.0,3.0,30.03,10.0,39.21
2021-10-22 19:00:00,40.8,29.5,63.82,300.0,3.0,30.02,10.0,38.75
2021-10-22 20:00:00,41.0,29.1,62.3,260.0,4.0,30.02,10.0,37.93
2021-10-22 21:00:00,39.7,32.0,73.71,0.0,0.0,30.02,10.0,39.7
2021-10-22 22:00:00,38.7,33.0,80.11,0.0,0.0,30.02,10.0,38.7
2021-10-22 23:00:00,38.7,32.0,76.64,0.0,0.0,30.02,10.0,38.7
2021-10-23 00:00:00,38.5,32.0,77.24,280.0,3.0,30.02,10.0,36.12
2021-10-23 01:00:00,38.0,30.9,75.64,0.0,0.0,30.02,10.0,37.9
2021-10-23 02:00:00,37.4,30.7,76.52,0.0,0.0,30.02,10.0,37.4
2021-10-23 03:00:00,36.5,30.2,77.69,320.0,3.0,30.02,10.0,33.83
2021-10-23 04:00:00,35.0,31.1,85.18,320.0,3.0,30.02,10.0,32.23
2021-10-23 05:00:00,35.6,32.7,89.07,340.0,4.0,30.02,10.0,31.62
2021-10-23 06:00:00,35.4,33.4,92.33,0.0,0.0,30.02,10.0,35.4
2021-10-23 07:00:00,35.0,33.8,94.95,330.0,3.0,30.02,10.0,32.23
2021-10-23 08:00:00,34.7,34.0,97.25,340.0,3.0,30.01,10.0,31.78
2021-10-23 09:00:00,34.7,33.8,96.47,310.0,3.0,30.02,10.0,31.78
2021-10-23 10:00:00,34.7,33.0,93.81,0.0,0.0,30.02,10.0,34.7
2021-10-23 11:00:00,32.0,31.8,99.2,310.0,3.0,30.03,10.0,28.69
2021-10-23 12:00:00,31.3,31.3,100.0,320.0,3.0,30.04,10.0,27.89
2021-10-23 13:00:00,34.7,32.5,91.57,330.0,4.0,30.05,10.0,30.57
2021-10-23 14:00:00,39.7,34.7,82.13,330.0,6.0,30.06,10.0,34.8
2021-10-23 15:00:00,43.0,33.3,68.36,350.0,5.0,30.05,10.0,39.46
2021-10-23 16:00:00,42.4,31.5,65.07,0.0,0.0,30.05,10.0,42.4
2021-10-23 17:00:00,46.6,31.8,56.12,0.0,0.0,30.03,10.0,46.6
2021-10-23 18:00:00,46.0,30.0,53.37,270.0,5.0,30.01,10.0,43.02
2021-10-23 19:00:00,45.7,30.9,55.99,340.0,5.0,30.01,10.0,42.67
2021-10-23 20:00:00,44.6,31.1,58.85,300.0,4.0,30.01,10.0,42.13
2021-10-23 21:00:00,44.8,31.8,60.08,290.0,4.0,30.01,10.0,42.37
2021-10-23 22:00:00,42.0,31.1,64.77,330.0,3.0,30.0,10.0,40.23
2021-10-23 23:00:00,42.0,31.1,64.77,330.0,3.0,30.0,10.0,40.23
2021-10-24 00:00:00,35.6,32.2,87.29,0.0,0.0,30.01,10.0,35.6
2021-10-24 01:00:00,35.6,32.2,87.29,0.0,0.0,30.01,10.0,35.6
2021-10-24 02:00:00,32.0,29.7,91.1,0.0,0.0,30.02,10.0,32.0
2021-10-24 03:00:00,32.0,29.7,91.1,0.0,0.0,30.02,10.0,32.0
2021-10-24 04:00:00,32.0,29.7,91.1,0.0,0.0,30.02,10.0,32.0
2021-10-24 05:00:00,32.0,29.7,91.1,0.0,0.0,30.02,10.0,32.0
2021-10-24 06:00:00,32.0,29.7,91.1,0.0,0.0,30.02,10.0,32.0
2021-10-24 07:00:00,32.0,29.7,91.1,0.0,0.0,30.02,10.0,32.0
2021-10-24 08:00:00,32.0,29.7,91.1,0.0,0.0,30.02,10.0,32.0
2021-10-24 09:00:00,27.1,27.1,100.0,0.0,0.0,30.01,10.0,27.1
2021-10-24 10:00:00,26.4,26.4,100.0,0.0,0.0,30.01,10.0,26.4
2021-10-24 11:00:00,26.1,25.9,99.17,0.0,0.0,30.01,10.0,26.1
2021-10-24 12:00:00,26.4,26.4,100.0,20.0,3.0,30.03,10.0,22.29
2021-10-24 13:00:00,32.0,31.8,99.2,40.0,3.0,30.04,10.0,28.69
2021-10-24 14:00:00,38.3,35.0,87.44,30.0,4.0,30.05,10.0,34.78
2021-10-24 15:00:00,43.0,34.5,71.72,20.0,6.0,30.05,10.0,38.78
2021-10-24 16:00:00,45.0,33.8,64.37,50.0,6.0,30.05,10.0,41.31
2021-10-24 17:00:00,46.0,33.4,61.45,30.0,7.0,30.04,10.0,41.72
2021-10-24 18:00:00,46.4,33.0,59.58,30.0,10.0,30.0,10.0,41.03
2021-10-24 19:00:00,46.8,32.7,57.75,50.0,9.0,29.98,10.0,41.92
2021-10-24 20:00:00,46.0,32.0,57.87,60.0,10.0,29.98,10.0,40.52
2021-10-24 21:00:00,44.6,32.0,61.03,70.0,8.0,29.99,10.0,39.63
2021-10-24 22:00:00,43.0,31.5,63.59,70.0,7.0,29.99,10.0,38.19
2021-10-24 23:00:00,43.0,31.5,63.59,70.0,7.0,29.99,10.0,38.19
2021-10-25 00:00:00,41.4,31.3,67.08,70.0,14.0,30.02,10.0,33.28
2021-10-25 01:00:00,38.7,31.5,75.11,70.0,12.0,30.03,10.0,30.53
2021-10-25 02:00:00,37.2,30.0,74.96,60.0,13.0,30.02,10.0,28.23
2021-10-25 03:00:00,37.2,30.0,74.96,60.0,13.0,30.02,10.0,28.23
2021-10-25 04:00:00,37.2,30.0,74.96,60.0,13.0,30.02,10.0,28.23
2021-10-25 05:00:00,37.2,30.0,74.96,60.0,13.0,30.02,10.0,28.23
2021-10-25 06:00:00,37.2,30.0,74.96,60.0,13.0,30.02,10.0,28.23
2021-10-25 07:00:00,34.2,30.0,84.43,30.0,11.0,30.03,10.0,25.25
2021-10-25 08:00:00,34.3,30.7,86.52,30.0,11.0,30.03,10.0,25.37
2021-10-25 09:00:00,34.7,30.2,83.44,30.0,12.0,30.04,10.0,25.44
2021-10-25 10:00:00,34.7,29.7,81.76,30.0,12.0,30.04,10.0,25.44
2021-10-25 11:00:00,34.7,29.7,81.76,30.0,12.0,30.04,10.0,25.44
2021-10-25 12:00:00,33.0,29.8,87.51,30.0,10.0,30.1,10.0,24.35
2021-10-25 13:00:00,33.8,31.3,90.44,30.0,14.0,30.1,10.0,23.48
2021-10-25 14:00:00,38.0,32.2,79.1,40.0,14.0,30.1,10.0,29.03
2021-10-25 15:00:00,40.3,32.5,73.47,50.0,16.0,30.11,10.0,31.24
2021-10-25 16:00:00,43.7,32.5,64.45,30.0,14.0,30.11,10.0,36.24
2021-10-25 17:00:00,46.4,33.8,61.28,360.0,11.0,30.1,10.0,40.66
2021-10-25 18:00:00,48.4,32.7,54.38,20.0,9.0,30.1,10.0,43.91
2021-10-25 19:00:00,49.0,32.7,53.37,30.0,12.0,30.1,10.0,43.51
2021-10-25 20:00:00,49.0,32.5,52.55,20.0,10.0,30.1,10.0,44.41
2021-10-25 21:00:00,47.3,32.0,55.1,30.0,7.0,30.12,10.0,43.43
2021-10-25 22:00:00,42.6,32.0,65.89,10.0,7.0,30.13,10.0,37.7
2021-10-25 23:00:00,37.0,31.6,80.94,20.0,5.0,30.14,10.0,32.21
2021-10-26 00:00:00,35.4,30.9,83.49,30.0,5.0,30.15,10.0,30.43
2021-10-26 01:00:00,33.8,29.8,85.09,40.0,5.0,30.16,10.0,28.53
2021-10-26 02:00:00,33.8,29.8,85.09,40.0,5.0,30.16,10.0,28.53
2021-10-26 03:00:00,31.5,28.9,89.97,360.0,3.0,30.16,10.0,28.12
2021-10-26 04:00:00,31.5,28.9,89.97,360.0,3.0,30.16,10.0,28.12
2021-10-26 05:00:00,31.5,28.9,89.97,360.0,3.0,30.16,10.0,28.12
2021-10-26 06:00:00,26.6,25.9,97.14,20.0,4.0,30.17,10.0,21.11
2021-10-26 07:00:00,26.6,25.9,97.14,20.0,4.0,30.17,10.0,21.11
2021-10-26 08:00:00,26.6,25.9,97.14,20.0,4.0,30.17,10.0,21.11
2021-10-26 09:00:00,26.6,25.9,97.14,20.0,4.0,30.17,10.0,21.11
2021-10-26 10:00:00,26.6,25.9,97.14,20.0,4.0,30.17,10.0,21.11
2021-10-26 11:00:00,26.2,26.2,100.0,40.0,5.0,30.17,10.0,19.51
2021-10-26 12:00:00,26.2,26.2,100.0,40.0,5.0,30.17,10.0,19.51
2021-10-26 13:00:00,32.2,32.0,99.2,50.0,5.0,30.17,10.0,26.63
2021-10-26 14:00:00,37.4,34.3,88.44,40.0,3.0,30.17,10.0,34.86
2021-10-26 15:00:00,42.3,33.8,71.65,10.0,5.0,30.16,10.0,38.63
2021-10-26 16:00:00,45.0,33.6,64.1,30.0,6.0,30.14,10.0,41.19
2021-10-26 17:00:00,47.0,32.7,57.1,60.0,3.0,30.09,10.0,45.95
2021-10-26 18:00:00,48.7,33.4,55.31,120.0,3.0,30.09,10.0,47.78
2021-10-26 19:00:00,48.4,33.0,54.82,0.0,0.0,30.09,10.0,48.4
2021-10-26 20:00:00,47.5,32.4,55.58,100.0,6.0,30.06,10.0,44.2
2021-10-26 21:00:00,47.0,32.7,57.54,130.0,6.0,30.07,10.0,43.48
2021-10-26 22:00:00,43.0,32.0,64.88,100.0,4.0,30.07,10.0,40.27
2021-10-26 23:00:00,38.7,32.0,76.64,90.0,6.0,30.08,10.0,33.6
2021-10-27 00:00:00,38.7,32.0,76.64,90.0,6.0,30.08,10.0,33.6
2021-10-27 01:00:00,37.4,30.2,74.98,100.0,6.0,30.08,10.0,32.03
2021-10-27 02:00:00,35.0,32.0,89.03,120.0,4.0,30.08,10.0,30.81
2021-10-27 03:00:00,35.0,32.7,91.58,90.0,5.0,30.07,10.0,29.84
2021-10-27 04:00:00,34.5,32.0,90.46,80.0,6.0,30.06,10.0,28.54
2021-10-27 05:00:00,33.8,32.0,93.03,80.0,7.0,30.06,10.0,26.97
2021-10-27 06:00:00,33.4,32.4,96.06,80.0,6.0,30.05,10.0,27.22
2021-10-27 07:00:00,33.8,33.4,98.41,80.0,6.0,30.05,10.0,27.7
2021-10-27 08:00:00,35.0,35.0,100.0,100.0,6.0,30.06,10.0,29.02
2021-10-27 09:00:00,34.7,34.7,100.0,90.0,4.0,30.06,7.0,30.57
2021-10-27 10:00:00,34.7,34.7,100.0,0.0,0.0,30.07,10.0,34.7
2021-10-27 11:00:00,36.0,36.0,100.0,100.0,8.0,30.05,10.0,29.04
2021-10-27 12:00:00,36.7,36.0,97.66,110.0,6.0,30.06,10.0,31.19
2021-10-27 13:00:00,40.0,38.3,93.94,100.0,8.0,30.05,10.0,33.84
2021-10-27 14:00:00,44.4,40.0,84.74,120.0,9.0,30.03,10.0,38.93
2021-10-27 15:00:00,46.0,39.7,78.52,140.0,11.0,30.03,10.0,40.16
2021-10-27 16:00:00,47.0,39.6,75.03,150.0,11.0,30.02,10.0,41.55
2021-10-27 17:00:00,47.3,40.0,75.34,140.0,7.0,29.98,10.0,43.43
2021-10-27 18:00:00,47.7,40.3,75.38,110.0,9.0,29.96,10.0,43.04
2021-10-27 19:00:00,49.3,40.5,71.55,110.0,13.0,29.93,10.0,43.73
2021-10-27 20:00:00,49.5,40.0,69.92,100.0,10.0,29.91,10.0,44.91
2021-10-27 21:00:00,46.4,38.7,74.38,110.0,10.0,29.92,10.0,41.03
2021-10-27 22:00:00,44.0,38.5,80.53,100.0,9.0,29.91,10.0,38.56
2021-10-27 23:00:00,44.6,38.3,78.4,110.0,12.0,29.92,10.0,38.04
2021-10-28 00:00:00,43.7,38.3,81.14,120.0,10.0,29.9,10.0,37.64
2021-10-28 01:00:00,42.8,38.5,84.64,120.0,16.0,29.9,10.0,34.5
2021-10-28 02:00:00,42.3,38.7,86.96,120.0,11.0,29.9,10.0,35.48
2021-10-28 03:00:00,42.0,38.5,86.95,130.0,13.0,29.88,10.0,34.51
2021-10-28 04:00:00,42.0,39.2,89.37,150.0,8.0,29.88,10.0,36.55
2021-10-28 05:00:00,41.2,41.2,100.0,110.0,3.0,29.86,3.0,39.21
2021-10-28 06:00:00,41.5,41.5,100.0,100.0,4.0,29.84,3.0,38.51
2021-10-28 07:00:00,42.8,42.8,100.0,120.0,4.0,29.84,4.0,40.03
2021-10-28 08:00:00,43.0,43.0,100.0,0.0,0.0,29.83,10.0,43.0
2021-10-28 09:00:00,43.3,43.3,100.0,80.0,4.0,29.83,7.0,40.62
2021-10-28 10:00:00,43.7,43.7,100.0,80.0,4.0,29.82,5.0,41.08
2021-10-28 11:00:00,44.0,44.0,100.0,80.0,3.0,29.81,3.0,42.52
2021-10-28 12:00:00,43.7,43.7,100.0,50.0,3.0,29.81,1.5,42.06
2021-10-28 13:00:00,45.0,45.0,100.0,70.0,10.0,29.78,1.25,39.4
2021-10-28 14:00:00,46.0,46.0,100.0,80.0,10.0,29.76,5.0,40.4
2021-10-28 15:00:00,46.8,46.2,97.76,100.0,8.0,29.76,10.0,42.34
2021-10-28 16:00:00,47.7,47.3,98.51,80.0,7.0,29.76,10.0,43.92
2021-10-28 17:00:00,48.6,47.3,95.24,90.0,7.0,29.74,10.0,45.01
2021-10-28 18:00:00,49.6,48.0,94.19,40.0,6.0,29.72,10.0,46.73
2021-10-28 19:00:00,50.0,46.2,86.72,70.0,5.0,29.72,10.0,50.0
2021-10-28 20:00:00,50.0,46.4,87.37,50.0,9.0,29.72,10.0,50.0
2021-10-28 21:00:00,49.6,46.8,90.03,40.0,7.0,29.73,10.0,46.23
2021-10-28 22:00:00,49.5,46.8,90.37,20.0,6.0,29.74,10.0,46.61
2021-10-28 23:00:00,48.7,46.8,93.11,20.0,8.0,29.75,10.0,44.68
2021-10-29 00:00:00,48.6,46.4,92.06,20.0,6.0,29.75,10.0,45.52
2021-10-29 01:00:00,48.2,46.6,94.16,10.0,8.0,29.76,10.0,44.07
2021-10-29 02:00:00,48.2,46.2,92.75,10.0,8.0,29.77,10.0,44.07
2021-10-29 03:00:00,47.5,46.8,97.4,360.0,11.0,29.75,10.0,42.05
2021-10-29 04:00:00,47.5,47.0,97.77,20.0,7.0,29.76,10.0,43.67
2021-10-29 05:00:00,47.0,46.8,99.62,360.0,12.0,29.74,10.0,40.97
2021-10-29 06:00:00,47.0,45.7,95.56,20.0,9.0,29.75,10.0,42.04
2021-10-29 07:00:00,46.4,45.3,95.92,360.0,8.0,29.75,10.0,41.85
2021-10-29 08:00:00,46.4,45.7,97.39,360.0,9.0,29.75,10.0,41.42
2021-10-29 09:00:00,47.0,46.2,97.39,20.0,8.0,29.76,10.0,42.47
2021-10-29 10:00:00,47.3,46.4,96.66,20.0,10.0,29.77,10.0,42.15
2021-10-29 11:00:00,47.3,45.7,94.14,10.0,11.0,29.78,10.0,41.8
2021-10-29 12:00:00,47.3,45.5,93.42,20.0,10.0,29.8,10.0,42.15
2021-10-29 13:00:00,47.3,45.5,93.42,30.0,15.0,29.81,10.0,40.61
2021-10-29 14:00:00,48.2,45.5,90.32,10.0,12.0,29.82,10.0,42.62
2021-10-29 15:00:00,49.8,45.0,83.79,20.0,12.0,29.83,10.0,44.66
2021-10-29 16:00:00,50.0,44.8,82.23,10.0,13.0,29.84,10.0,50.0
2021-10-29 17:00:00,50.0,44.0,80.06,10.0,18.0,29.83,10.0,50.0
2021-10-29 18:00:00,52.0,43.0,71.28,20.0,13.0,29.82,10.0,52.0
2021-10-29 19:00:00,51.4,42.4,71.22,10.0,14.0,29.82,10.0,51.4
2021-10-29 20:00:00,52.3,43.0,70.5,10.0,17.0,29.81,10.0,52.3
2021-10-29 21:00:00,50.2,41.4,71.64,10.0,16.0,29.83,10.0,50.2
2021-10-29 22:00:00,47.8,40.3,75.09,20.0,9.0,29.85,10.0,43.16
2021-10-29 23:00:00,46.6,39.7,76.75,30.0,12.0,29.85,10.0,40.58
2021-10-30 00:00:00,44.0,41.2,90.14,360.0,8.0,29.84,10.0,38.77
2021-10-30 01:00:00,44.4,41.0,87.76,360.0,9.0,29.84,10.0,38.93
2021-10-30 02:00:00,42.8,41.0,93.3,360.0,10.0,29.84,10.0,36.51
2021-10-30 03:00:00,43.2,40.5,90.11,10.0,11.0,29.84,10.0,36.62
2021-10-30 04:00:00,43.5,40.3,88.39,360.0,9.0,29.83,10.0,37.81
2021-10-30 05:00:00,43.0,40.0,88.71,360.0,9.0,29.82,10.0,37.19
2021-10-30 06:00:00,42.3,40.3,92.56,360.0,9.0,29.81,10.0,36.32
2021-10-30 07:00:00,42.3,40.8,94.37,10.0,9.0,29.81,10.0,36.32
2021-10-30 08:00:00,41.7,40.8,96.58,350.0,7.0,29.81,10.0,36.6
2021-10-30 09:00:00,40.0,40.0,100.0,360.0,6.0,29.81,10.0,35.04
2021-10-30 10:00:00,41.2,41.0,99.23,340.0,6.0,29.8,10.0,36.61
2021-10-30 11:00:00,42.0,41.4,97.34,360.0,9.0,29.79,10.0,36.07
2021-10-30 12:00:00,42.8,42.0,96.6,20.0,7.0,29.8,10.0,37.94
2021-10-30 13:00:00,43.7,42.4,95.14,350.0,7.0,29.8,10.0,39.04
2021-10-30 14:00:00,45.0,43.2,93.36,360.0,8.0,29.79,10.0,40.13
2021-10-30 15:00:00,45.7,43.3,91.26,30.0,7.0,29.79,10.0,41.48
2021-10-30 16:00:00,47.5,44.2,88.25,20.0,5.0,29.79,10.0,44.8
2021-10-30 17:00:00,49.6,44.4,82.2,0.0,0.0,29.76,10.0,49.6
2021-10-30 18:00:00,51.4,44.2,76.3,0.0,0.0,29.74,10.0,51.4
2021-10-30 19:00:00,53.8,44.6,70.93,0.0,0.0,29.72,10.0,53.8
2021-10-30 20:00:00,55.0,44.4,67.62,10.0,4.0,29.71,10.0,54.9
2021-10-30 21:00:00,55.0,43.2,64.36,310.0,5.0,29.71,10.0,55.0
2021-10-30 22:00:00,50.2,42.4,74.46,0.0,0.0,29.72,10.0,50.2
2021-10-30 23:00:00,43.5,41.0,90.83,0.0,0.0,29.73,10.0,43.5
2021-10-31 00:00:00,41.0,40.5,98.08,0.0,0.0,29.73,10.0,41.0
2021-10-31 01:00:00,39.0,38.8,99.22,0.0,0.0,29.73,10.0,39.0
2021-10-31 02:00:00,37.8,37.8,100.0,0.0,0.0,29.73,10.0,37.8
2021-10-31 03:00:00,35.8,35.8,100.0,0.0,0.0,29.74,10.0,35.8
2021-10-31 04:00:00,37.4,37.2,99.22,320.0,4.0,29.74,10.0,33.73
2021-10-31 05:00:00,39.0,38.3,97.3,0.0,0.0,29.74,10.0,39.0
2021-10-31 06:00:00,40.3,39.2,95.81,320.0,5.0,29.74,10.0,36.25
2021-10-31 07:00:00,41.4,39.7,93.62,310.0,7.0,29.76,10.0,36.24
2021-10-31 08:00:00,42.8,40.6,91.86,320.0,7.0,29.76,10.0,37.94
2021-10-31 09:00:00,43.0,41.0,92.58,300.0,9.0,29.79,10.0,37.19
2021-10-31 10:00:00,41.4,39.4,92.53,320.0,13.0,29.81,10.0,33.61
2021-10-31 11:00:00,40.3,35.8,83.82,320.0,14.0,29.83,10.0,31.86
2021-10-31 12:00:00,38.7,33.0,79.47,330.0,13.0,29.86,10.0,30.15
2021-10-31 13:00:00,38.8,35.0,86.43,310.0,9.0,29.88,10.0,31.97
2021-10-31 14:00:00,38.8,34.2,83.38,320.0,12.0,29.9,10.0,30.66
2021-10-31 15:00:00,40.3,33.0,74.66,310.0,13.0,29.92,10.0,32.2
2021-10-31 16:00:00,43.5,29.8,58.22,310.0,15.0,29.92,10.0,35.69
2021-10-31 17:00:00,42.3,27.9,56.41,320.0,12.0,29.93,10.0,35.11
2021-10-31 18:00:00,42.0,26.2,53.0,310.0,15.0,29.94,10.0,33.87
2021-10-31 19:00:00,41.5,23.5,48.47,300.0,16.0,29.95,10.0,32.8
2021-10-31 20:00:00,41.5,22.8,47.06,300.0,14.0,29.96,10.0,33.41
2021-10-31 21:00:00,40.6,23.0,49.14,310.0,14.0,29.98,10.0,32.25
2021-10-31 22:00:00,38.7,22.8,52.47,300.0,12.0,30.0,10.0,30.53
2021-10-31 23:00:00,36.0,22.8,58.12,280.0,7.0,30.01,10.0,29.78
2021-11-01 00:00:00,34.7,23.0,61.96,280.0,8.0,30.02,10.0,27.44
2021-11-01 01:00:00,35.8,27.9,72.71,310.0,11.0,30.04,10.0,27.27
2021-11-01 02:00:00,34.7,27.1,73.49,290.0,11.0,30.06,10.0,25.88
2021-11-01 03:00:00,33.3,26.6,76.13,280.0,8.0,30.06,10.0,25.71
2021-11-01 04:00:00,32.0,26.4,79.56,270.0,8.0,30.06,10.0,24.11
2021-11-01 05:00:00,31.3,25.3,78.19,260.0,7.0,30.07,10.0,23.93
2021-11-01 06:00:00,31.5,24.8,75.96,270.0,9.0,30.06,10.0,22.89
2021-11-01 07:00:00,30.4,24.6,78.76,260.0,7.0,30.07,10.0,22.83
2021-11-01 08:00:00,29.8,24.4,80.04,260.0,7.0,30.08,10.0,22.1
2021-11-01 09:00:00,29.1,24.3,82.01,260.0,6.0,30.09,10.0,22.04
2021-11-01 10:00:00,28.9,24.4,83.03,270.0,8.0,30.1,10.0,20.29
2021-11-01 11:00:00,28.8,24.6,84.07,270.0,8.0,30.11,10.0,20.17
2021-11-01 12:00:00,28.9,25.0,85.14,270.0,8.0,30.13,10.0,20.29
2021-11-01 13:00:00,31.5,26.2,80.51,270.0,10.0,30.15,10.0,22.34
2021-11-01 14:00:00,33.8,26.4,74.01,280.0,11.0,30.15,10.0,24.74
2021-11-01 15:00:00,36.7,26.1,65.14,300.0,13.0,30.15,10.0,27.59
2021-11-01 16:00:00,36.5,24.8,62.21,280.0,13.0,30.16,10.0,27.33
2021-11-01 17:00:00,35.8,23.9,61.6,270.0,12.0,30.15,10.0,26.84
2021-11-01 18:00:00,35.6,23.4,60.8,280.0,9.0,30.16,10.0,27.99
2021-11-01 19:00:00,35.2,22.5,59.48,280.0,10.0,30.15,10.0,26.98
2021-11-01 20:00:00,34.5,24.8,67.35,270.0,6.0,30.15,7.0,28.54
2021-11-01 21:00:00,34.7,24.4,65.71,270.0,12.0,30.15,10.0,25.44
2021-11-01 22:00:00,32.0,26.4,79.56,260.0,6.0,30.16,10.0,25.53
2021-11-01 23:00:00,30.9,26.2,82.49,260.0,6.0,30.17,10.0,24.21
2021-11-02 00:00:00,32.0,25.9,77.93,280.0,5.0,30.18,10.0,26.4
2021-11-02 01:00:00,30.6,24.3,77.16,260.0,8.0,30.18,10.0,22.39
2021-11-02 02:00:00,28.4,23.5,81.62,250.0,6.0,30.19,10.0,21.19
2021-11-02 03:00:00,28.8,23.0,78.62,260.0,8.0,30.18,10.0,20.17
2021-11-02 04:00:00,28.4,21.9,76.3,270.0,8.0,30.18,10.0,19.68
2021-11-02 05:00:00,28.4,21.4,74.71,260.0,7.0,30.18,10.0,20.39
2021-11-02 06:00:00,28.4,21.7,75.66,270.0,8.0,30.19,10.0,19.68
2021-11-02 07:00:00,29.3,22.1,74.17,280.0,10.0,30.19,10.0,19.58
2021-11-02 08:00:00,28.0,22.6,79.89,280.0,8.0,30.19,10.0,19.19
2021-11-02 09:00:00,27.1,22.8,83.6,270.0,7.0,30.19,10.0,18.81
2021-11-02 10:00:00,27.1,23.0,84.31,280.0,9.0,30.2,10.0,17.42
2021-11-02 11:00:00,26.1,22.8,87.13,280.0,7.0,30.21,10.0,17.59
2021-11-02 12:00:00,26.4,22.1,83.56,290.0,9.0,30.22,10.0,16.55
2021-11-02 13:00:00,28.4,22.6,78.59,280.0,10.0,30.22,10.0,18.45
2021-11-02 14:00:00,31.1,23.5,73.12,290.0,13.0,30.24,10.0,20.42
2021-11-02 15:00:00,33.4,23.5,66.65,300.0,12.0,30.25,10.0,23.78
2021-11-02 16:00:00,32.5,21.9,64.6,310.0,8.0,30.27,10.0,24.73
2021-11-02 17:00:00,34.3,20.5,56.65,290.0,11.0,30.26,10.0,25.37
2021-11-02 18:00:00,35.6,20.8,54.48,310.0,11.0,30.25,10.0,27.02
2021-11-02 19:00:00,35.2,19.8,53.05,320.0,9.0,30.25,10.0,27.49
2021-11-02 20:00:00,35.0,19.4,52.77,310.0,8.0,30.25,10.0,27.69
2021-11-02 21:00:00,34.7,19.9,54.34,300.0,9.0,30.26,10.0,26.87
2021-11-02 22:00:00,33.8,20.7,58.28,290.0,9.0,30.26,10.0,25.75
2021-11-02 23:00:00,33.3,20.8,59.71,280.0,8.0,30.28,10.0,25.71
2021-11-03 00:00:00,30.0,20.7,67.94,270.0,5.0,30.28,10.0,24.02
2021-11-03 01:00:00,28.2,20.3,71.89,270.0,4.0,30.29,10.0,22.98
2021-11-03 02:00:00,25.5,19.6,78.0,260.0,4.0,30.29,10.0,19.83
2021-11-03 03:00:00,25.3,19.9,79.66,260.0,3.0,30.3,10.0,21.03
2021-11-03 04:00:00,23.7,18.9,81.6,0.0,0.0,30.31,10.0,23.7
2021-11-03 05:00:00,23.5,18.7,81.59,250.0,4.0,30.31,10.0,17.49
2021-11-03 06:00:00,24.3,19.2,80.61,0.0,0.0,30.32,10.0,24.3
2021-11-03 07:00:00,22.6,19.8,88.81,0.0,0.0,30.32,10.0,22.6
2021-11-03 08:00:00,25.7,20.3,79.7,0.0,0.0,30.32,10.0,25.7
2021-11-03 09:00:00,25.7,20.8,81.41,280.0,4.0,30.31,10.0,20.06
2021-11-03 10:00:00,25.2,21.4,85.26,0.0,0.0,30.31,10.0,25.2
2021-11-03 11:00:00,26.4,22.1,83.56,0.0,0.0,30.31,10.0,26.4
2021-11-03 12:00:00,27.1,22.6,82.9,0.0,0.0,30.32,10.0,27.1
2021-11-03 13:00:00,27.5,23.4,84.34,0.0,0.0,30.34,10.0,27.5
2021-11-03 14:00:00,30.4,24.4,78.11,0.0,0.0,30.35,10.0,30.4
2021-11-03 15:00:00,32.5,25.3,74.5,260.0,3.0,30.35,10.0,29.26
2021-11-03 16:00:00,34.3,24.8,67.89,250.0,5.0,30.35,10.0,29.13
2021-11-03 17:00:00,35.6,21.2,55.41,280.0,6.0,30.32,10.0,29.87
2021-11-03 18:00:00,35.2,19.8,53.05,270.0,6.0,30.3,10.0,29.38
2021-11-03 19:00:00,35.6,16.9,46.1,290.0,6.0,30.29,10.0,29.87
2021-11-03 20:00:00,35.2,16.2,45.44,310.0,5.0,30.28,10.0,30.2
2021-11-03 21:00:00,34.7,17.6,49.24,300.0,3.0,30.29,10.0,31.78
2021-11-03 22:00:00,33.0,20.5,59.43,0.0,0.0,30.28,10.0,33.1
2021-11-03 23:00:00,32.5,19.9,59.35,0.0,0.0,30.29,10.0,32.5
2021-11-04 00:00:00,30.9,23.5,73.71,0.0,0.0,30.28,10.0,30.9
2021-11-04 01:00:00,29.8,24.4,80.04,0.0,0.0,30.28,10.0,29.8
2021-11-04 02:00:00,30.9,21.2,66.9,0.0,0.0,30.28,10.0,30.9
2021-11-04 03:00:00,29.7,22.1,72.97,0.0,0.0,30.29,10.0,29.7
2021-11-04 04:00:00,29.7,21.9,72.36,230.0,5.0,30.29,10.0,23.66
2021-11-04 05:00:00,30.2,21.2,68.83,230.0,4.0,30.28,10.0,25.32
2021-11-04 06:00:00,29.8,20.7,68.49,220.0,3.0,30.28,10.0,26.17
2021-11-04 07:00:00,29.3,21.2,71.4,220.0,3.0,30.27,10.0,25.6
2021-11-04 08:00:00,29.1,21.0,71.38,220.0,3.0,30.27,10.0,25.37
2021-11-04 09:00:00,29.8,20.1,66.76,210.0,5.0,30.26,10.0,23.78
2021-11-04 10:00:00,28.9,20.8,71.36,0.0,0.0,30.26,10.0,28.9
2021-11-04 11:00:00,28.6,19.6,68.64,0.0,0.0,30.25,10.0,28.6
2021-11-04 12:00:00,27.5,21.0,76.22,0.0,0.0,30.26,10.0,27.5
2021-11-04 13:00:00,30.9,22.6,70.98,0.0,0.0,30.26,10.0,30.9
2021-11-04 14:00:00,35.6,22.3,58.05,190.0,6.0,30.26,10.0,29.87
2021-11-04 15:00:00,38.8,22.3,51.18,200.0,8.0,30.26,10.0,32.49
2021-11-04 16:00:00,41.0,24.4,51.31,190.0,7.0,30.25,10.0,35.75
2021-11-04 17:00:00,42.6,25.5,50.5,200.0,9.0,30.23,10.0,36.69
2021-11-04 18:00:00,44.2,26.4,49.3,210.0,7.0,30.21,10.0,39.65
2021-11-04 19:00:00,43.0,27.1,53.13,190.0,8.0,30.19,10.0,37.66
2021-11-04 20:00:00,43.7,29.5,57.08,240.0,7.0,30.19,10.0,39.04
2021-11-04 21:00:00,42.0,29.3,60.66,240.0,6.0,30.18,10.0,37.45
2021-11-04 22:00:00,37.4,29.3,72.28,210.0,5.0,30.18,10.0,32.81
2021-11-04 23:00:00,37.0,29.3,73.43,190.0,3.0,30.18,10.0,34.4
2021-11-05 00:00:00,31.6,27.7,85.31,190.0,4.0,30.17,10.0,26.95
2021-11-05 01:00:00,31.1,27.7,87.05,200.0,3.0,30.17,10.0,27.66
2021-11-05 02:00:00,31.3,27.5,85.64,180.0,4.0,30.18,10.0,26.6
2021-11-05 03:00:00,31.8,27.7,84.62,190.0,4.0,30.18,10.0,27.19
2021-11-05 04:00:00,30.9,27.9,88.48,180.0,4.0,30.18,10.0,26.14
2021-11-05 05:00:00,31.3,28.4,88.86,190.0,5.0,30.17,10.0,25.56
2021-11-05 06:00:00,31.6,28.6,88.51,200.0,5.0,30.18,10.0,25.92
2021-11-05 07:00:00,30.7,28.4,91.05,190.0,5.0,30.18,10.0,24.85
2021-11-05 08:00:00,31.8,29.3,90.35,200.0,5.0,30.18,10.0,26.16
2021-11-05 09:00:00,32.0,29.3,89.63,210.0,7.0,30.18,10.0,24.78
2021-11-05 10:00:00,31.8,28.9,88.89,210.0,5.0,30.19,10.0,26.16
2021-11-05 11:00:00,30.9,27.9,88.48,200.0,6.0,30.19,10.0,24.21
2021-11-05 12:00:00,30.0,27.1,88.8,190.0,5.0,30.19,10.0,24.02
2021-11-05 13:00:00,33.4,29.1,84.03,190.0,7.0,30.2,10.0,26.49
2021-11-05 14:00:00,38.3,30.2,72.38,200.0,10.0,30.19,10.0,30.87
2021-11-05 15:00:00,43.0,30.2,60.32,210.0,10.0,30.17,10.0,36.76
2021-11-05 16:00:00,47.3,32.2,55.55,210.0,19.0,30.17,10.0,39.67
2021-11-05 17:00:00,47.7,31.6,53.41,210.0,11.0,30.15,10.0,42.31
2021-11-05 18:00:00,48.2,31.3,51.78,200.0,15.0,30.13,10.0,41.78
2021-11-05 19:00:00,48.0,31.5,52.6,200.0,11.0,30.1,10.0,42.69
2021-11-05 20:00:00,48.6,31.1,50.6,190.0,14.0,30.09,10.0,42.56
2021-11-05 21:00:00,46.8,31.1,54.14,190.0,11.0,30.08,10.0,41.17
2021-11-05 22:00:00,45.3,30.6,56.16,180.0,11.0,30.06,10.0,39.27
2021-11-05 23:00:00,43.7,30.7,59.93,170.0,9.0,30.07,10.0,38.06
2021-11-06 00:00:00,43.5,30.6,60.15,180.0,12.0,30.06,10.0,36.64
2021-11-06 01:00:00,42.8,30.6,61.78,180.0,11.0,30.06,10.0,36.11
2021-11-06 02:00:00,42.8,30.2,60.79,190.0,15.0,30.05,10.0,34.78
2021-11-06 03:00:00,42.8,30.0,60.29,190.0,11.0,30.05,10.0,36.11
2021-11-06 04:00:00,42.6,30.2,61.26,190.0,12.0,30.04,10.0,35.49
2021-11-06 05:00:00,42.6,30.2,61.26,190.0,13.0,30.03,10.0,35.15
2021-11-06 06:00:00,42.3,30.6,62.98,200.0,12.0,30.03,10.0,35.11
2021-11-06 07:00:00,42.0,30.6,63.96,200.0,11.0,30.02,10.0,34.98
2021-11-06 08:00:00,40.3,30.9,68.88,200.0,9.0,30.01,10.0,33.83
2021-11-06 09:00:00,39.6,31.1,71.35,200.0,10.0,30.0,10.0,32.5
2021-11-06 10:00:00,38.7,31.1,73.9,200.0,8.0,29.99,10.0,32.37
2021-11-06 11:00:00,38.3,31.8,77.22,200.0,7.0,29.98,10.0,32.46
2021-11-06 12:00:00,38.3,32.0,77.85,200.0,7.0,29.98,10.0,32.46
2021-11-06 13:00:00,40.8,33.4,74.71,210.0,10.0,29.98,10.0,34.0
2021-11-06 14:00:00,42.8,34.7,72.85,230.0,11.0,29.99,10.0,36.11
2021-11-06 15:00:00,47.7,37.0,65.99,230.0,12.0,29.98,10.0,41.98
2021-11-06 16:00:00,51.3,38.3,60.96,220.0,10.0,29.97,10.0,51.3
2021-11-06 17:00:00,54.3,39.0,56.12,210.0,12.0,29.95,10.0,54.3
2021-11-06 18:00:00,57.2,39.7,51.91,240.0,11.0,29.95,10.0,57.2
2021-11-06 19:00:00,58.5,40.3,50.71,220.0,12.0,29.93,10.0,58.5
2021-11-06 20:00:00,58.5,40.3,50.71,250.0,13.0,29.94,10.0,58.5
2021-11-06 21:00:00,57.2,40.0,52.73,240.0,9.0,29.94,10.0,57.2
2021-11-06 22:00:00,49.8,38.8,65.73,240.0,6.0,29.96,10.0,46.97
2021-11-06 23:00:00,47.0,38.5,72.42,220.0,7.0,29.97,10.0,42.94
2021-11-07 00:00:00,47.8,39.2,71.95,230.0,7.0,29.98,10.0,44.04
2021-11-07 01:00:00,48.4,39.4,70.9,230.0,7.0,29.98,10.0,44.77
2021-11-07 02:00:00,47.5,39.4,73.33,220.0,8.0,29.98,10.0,43.21
2021-11-07 03:00:00,44.8,38.5,78.41,230.0,7.0,29.99,10.0,40.38
2021-11-07 04:00:00,42.0,37.4,83.92,240.0,5.0,30.0,10.0,38.15
2021-11-07 05:00:00,41.5,37.6,85.9,250.0,3.0,30.01,10.0,39.55
2021-11-07 06:00:00,36.7,35.8,96.5,0.0,0.0,30.01,10.0,36.7
2021-11-07 07:00:00,35.2,35.0,98.81,0.0,0.0,30.02,10.0,35.2
2021-11-07 08:00:00,33.3,33.3,100.0,0.0,0.0,30.02,0.75,33.3
2021-11-07 09:00:00,31.8,31.8,100.0,0.0,0.0,30.02,0.25,31.8
2021-11-07 10:00:00,30.4,30.4,100.0,0.0,0.0,30.02,0.5,30.4
2021-11-07 11:00:00,29.1,29.1,100.0,0.0,0.0,30.02,0.25,29.1
2021-11-07 12:00:00,30.2,30.2,100.0,0.0,0.0,30.03,0.25,30.2
2021-11-07 13:00:00,33.3,33.3,100.0,0.0,0.0,30.04,5.0,33.3
2021-11-07 14:00:00,43.3,43.3,100.0,160.0,4.0,30.04,10.0,40.62
2021-11-07 15:00:00,48.0,44.2,86.61,190.0,4.0,30.03,10.0,46.1
2021-11-07 16:00:00,54.5,45.0,70.47,170.0,7.0,30.02,10.0,54.5
2021-11-07 17:00:00,58.0,45.7,63.29,150.0,9.0,29.99,10.0,58.1
2021-11-07 18:00:00,62.6,47.0,56.86,170.0,9.0,29.98,10.0,62.6
2021-11-07 19:00:00,61.5,46.6,58.0,190.0,10.0,29.96,10.0,61.5
2021-11-07 20:00:00,58.6,46.4,63.83,160.0,9.0,29.95,10.0,58.6
2021-11-07 21:00:00,56.5,46.6,69.36,180.0,5.0,29.95,10.0,56.5
2021-11-07 22:00:00,53.0,45.5,75.86,170.0,6.0,29.95,10.0,52.9
2021-11-07 23:00:00,49.3,44.0,82.18,140.0,6.0,29.95,10.0,46.37
2021-11-08 00:00:00,47.7,43.5,85.28,150.0,8.0,29.93,10.0,43.45
2021-11-08 01:00:00,47.3,43.7,87.23,150.0,6.0,29.93,10.0,43.96
2021-11-08 02:00:00,47.3,43.7,87.23,180.0,4.0,29.94,10.0,45.29
2021-11-08 03:00:00,46.0,42.6,87.84,190.0,5.0,29.94,10.0,43.02
2021-11-08 04:00:00,45.0,42.0,88.81,190.0,5.0,29.93,10.0,41.83
2021-11-08 05:00:00,43.7,41.0,90.13,180.0,5.0,29.93,10.0,40.29
2021-11-08 06:00:00,44.0,41.4,90.84,190.0,3.0,29.92,10.0,42.29
2021-11-08 07:00:00,42.0,40.0,92.55,200.0,5.0,29.92,10.0,38.39
2021-11-08 08:00:00,41.7,39.0,90.05,0.0,0.0,29.91,10.0,41.7
2021-11-08 09:00:00,37.8,36.3,94.26,0.0,0.0,29.91,10.0,37.8
2021-11-08 10:00:00,36.0,35.6,98.04,0.0,0.0,29.94,10.0,36.1
2021-11-08 11:00:00,34.2,34.0,99.2,0.0,0.0,29.97,10.0,34.2
2021-11-08 12:00:00,35.0,35.0,100.0,0.0,0.0,29.99,7.0,34.9
2021-11-08 13:00:00,38.5,38.3,99.22,0.0,0.0,30.02,10.0,38.5
2021-11-08 14:00:00,46.2,43.5,90.24,330.0,4.0,30.02,10.0,44.0
2021-11-08 15:00:00,52.7,47.3,81.8,320.0,5.0,30.03,10.0,52.7
2021-11-08 16:00:00,57.4,46.2,66.14,330.0,6.0,30.05,10.0,57.4
2021-11-08 17:00:00,62.0,39.7,43.59,330.0,7.0,30.06,10.0,62.1
2021-11-08 18:00:00,63.0,37.8,39.2,320.0,11.0,30.06,10.0,63.0
2021-11-08 19:00:00,62.0,35.6,37.36,340.0,13.0,30.08,10.0,61.9
2021-11-08 20:00:00,58.6,36.5,43.54,350.0,11.0,30.09,10.0,58.6
2021-11-08 21:00:00,56.5,32.0,39.24,350.0,12.0,30.11,10.0,56.5
2021-11-08 22:00:00,51.3,28.6,41.34,340.0,8.0,30.13,10.0,51.3
2021-11-08 23:00:00,49.0,30.2,48.24,340.0,9.0,30.16,10.0,44.53
2021-11-09 00:00:00,45.7,27.7,49.13,330.0,4.0,30.18,10.0,43.42
2021-11-09 01:00:00,43.7,28.0,53.68,340.0,3.0,30.19,10.0,42.06
2021-11-09 02:00:00,42.0,27.1,55.0,0.0,0.0,30.2,10.0,42.1
2021-11-09 03:00:00,38.5,27.9,65.37,0.0,0.0,30.22,10.0,38.5
2021-11-09 04:00:00,38.0,32.4,79.74,0.0,0.0,30.24,10.0,38.1
2021-11-09 05:00:00,39.2,30.4,70.45,320.0,3.0,30.24,10.0,36.92
2021-11-09 06:00:00,33.4,30.0,87.17,0.0,0.0,30.23,10.0,33.4
2021-11-09 07:00:00,31.3,27.7,86.35,0.0,0.0,30.24,10.0,31.3
2021-11-09 08:00:00,28.4,25.7,89.46,0.0,0.0,30.23,10.0,28.4
2021-11-09 09:00:00,25.9,23.5,90.48,0.0,0.0,30.23,10.0,25.9
2021-11-09 10:00:00,24.6,23.2,94.31,0.0,0.0,30.24,10.0,24.6
2021-11-09 11:00:00,26.4,24.6,92.8,0.0,0.0,30.25,10.0,26.4
2021-11-09 12:00:00,27.0,24.8,91.28,0.0,0.0,30.27,10.0,27.0
2021-11-09 13:00:00,28.4,25.9,90.21,0.0,0.0,30.27,10.0,28.4
2021-11-09 14:00:00,32.7,29.7,88.57,0.0,0.0,30.27,10.0,32.7
2021-11-09 15:00:00,39.2,31.8,74.55,0.0,0.0,30.26,10.0,39.2
2021-11-09 16:00:00,45.5,28.4,50.95,0.0,0.0,30.26,10.0,45.5
2021-11-09 17:00:00,47.0,22.1,37.18,250.0,4.0,30.22,10.0,44.82
2021-11-09 18:00:00,47.7,22.3,36.39,260.0,5.0,30.2,10.0,45.04
2021-11-09 19:00:00,48.6,19.0,30.58,290.0,7.0,30.19,10.0,45.01
2021-11-09 20:00:00,49.0,19.8,31.29,290.0,6.0,30.18,10.0,45.88
2021-11-09 21:00:00,45.0,23.2,41.85,250.0,5.0,30.17,10.0,41.83
2021-11-09 22:00:00,38.0,22.6,53.69,230.0,4.0,30.17,10.0,34.31
2021-11-09 23:00:00,35.6,21.9,57.08,250.0,4.0,30.18,10.0,31.62
2021-11-10 00:00:00,34.7,22.1,59.66,240.0,4.0,30.17,10.0,30.57
2021-11-10 01:00:00,32.5,21.7,64.06,0.0,0.0,30.17,10.0,32.5
2021-11-10 02:00:00,28.8,22.8,77.97,0.0,0.0,30.17,10.0,28.8
2021-11-10 03:00:00,27.5,21.2,76.87,0.0,0.0,30.17,10.0,27.5
2021-11-10 04:00:00,26.1,21.7,83.18,0.0,0.0,30.17,10.0,26.1
2021-11-10 05:00:00,26.1,22.5,86.04,0.0,0.0,30.18,10.0,26.1
2021-11-10 06:00:00,23.7,21.2,90.0,0.0,0.0,30.17,10.0,23.7
2021-11-10 07:00:00,24.4,21.7,89.28,0.0,0.0,30.16,10.0,24.4
2021-11-10 08:00:00,24.6,22.3,90.81,0.0,0.0,30.16,10.0,24.6
2021-11-10 09:00:00,24.6,22.3,90.81,0.0,0.0,30.16,10.0,24.6
2021-11-10 10:00:00,22.3,20.8,93.85,0.0,0.0,30.17,10.0,22.3
2021-11-10 11:00:00,23.5,21.9,93.49,0.0,0.0,30.16,10.0,23.5
2021-11-10 12:00:00,24.8,22.6,91.2,0.0,0.0,30.17,10.0,24.8
2021-11-10 13:00:00,27.7,25.0,89.43,0.0,0.0,30.17,10.0,27.7
2021-11-10 14:00:00,27.7,25.0,89.43,0.0,0.0,30.17,10.0,27.7
2021-11-10 15:00:00,42.0,27.1,55.0,120.0,6.0,30.16,10.0,37.69
2021-11-10 16:00:00,45.5,25.0,44.27,130.0,9.0,30.17,10.0,40.3
2021-11-10 17:00:00,46.0,26.1,45.47,120.0,10.0,30.13,10.0,40.52
2021-11-10 18:00:00,46.4,27.5,47.46,120.0,12.0,30.11,10.0,40.33
2021-11-10 19:00:00,47.3,26.2,43.48,130.0,9.0,30.08,10.0,42.54
2021-11-10 20:00:00,46.6,27.5,47.1,110.0,9.0,30.06,10.0,41.67
2021-11-10 21:00:00,44.6,29.3,54.7,110.0,10.0,30.04,10.0,38.77
2021-11-10 22:00:00,43.0,32.0,64.88,100.0,10.0,30.02,10.0,36.76
2021-11-10 23:00:00,42.8,34.7,72.85,100.0,14.0,30.0,10.0,35.08
2021-11-11 00:00:00,43.0,34.3,71.15,110.0,16.0,29.97,10.0,34.76
2021-11-11 01:00:00,43.2,34.0,69.77,100.0,16.0,29.93,10.0,35.02
2021-11-11 02:00:00,42.3,35.0,75.46,110.0,13.0,29.92,10.0,34.76
2021-11-11 03:00:00,41.2,36.0,81.59,100.0,14.0,29.87,10.0,33.02
2021-11-11 04:00:00,40.3,37.4,89.28,100.0,17.0,29.83,5.0,30.95
2021-11-11 05:00:00,39.6,37.6,92.47,100.0,19.0,29.78,7.0,29.49
2021-11-11 06:00:00,39.2,38.3,96.54,110.0,18.0,29.75,3.0,29.23
2021-11-11 07:00:00,39.2,38.8,98.45,100.0,19.0,29.7,3.0,28.96
2021-11-11 08:00:00,40.6,40.6,100.0,110.0,18.0,29.64,3.0,31.07
2021-11-11 09:00:00,42.8,42.8,100.0,120.0,17.0,29.6,2.5,34.22
2021-11-11 10:00:00,44.0,44.0,100.0,110.0,19.0,29.55,2.5,35.17
2021-11-11 11:00:00,45.0,45.0,100.0,120.0,19.0,29.5,3.0,36.63
2021-11-11 12:00:00,46.4,46.4,100.0,120.0,19.0,29.46,4.0,38.48
2021-11-11 13:00:00,47.5,47.0,98.51,120.0,18.0,29.4,3.0,40.15
2021-11-11 14:00:00,47.3,47.0,98.5,110.0,21.0,29.35,2.0,39.26
2021-11-11 15:00:00,47.3,47.3,100.0,120.0,15.0,29.33,3.0,40.61
2021-11-11 16:00:00,47.8,47.8,100.0,130.0,16.0,29.28,4.0,41.01
2021-11-11 17:00:00,47.8,47.8,100.0,180.0,12.0,29.24,10.0,42.11
2021-11-11 18:00:00,41.2,41.2,100.0,230.0,19.0,29.28,10.0,31.6
2021-11-11 19:00:00,37.4,37.0,98.44,250.0,15.0,29.34,7.0,27.78
2021-11-11 20:00:00,38.5,36.5,92.44,250.0,13.0,29.37,10.0,29.9
2021-11-11 21:00:00,38.5,37.0,93.91,240.0,14.0,29.4,7.0,29.54
2021-11-11 22:00:00,37.4,35.0,90.58,250.0,15.0,29.44,10.0,27.78
2021-11-11 23:00:00,36.0,32.0,84.89,240.0,18.0,29.47,10.0,25.15
2021-11-12 00:00:00,35.0,30.6,83.47,220.0,11.0,29.49,10.0,26.38
2021-11-12 01:00:00,35.0,28.2,75.68,250.0,15.0,29.49,10.0,24.8
2021-11-12 02:00:00,32.4,27.9,83.28,210.0,8.0,29.49,10.0,24.61
2021-11-12 03:00:00,31.3,28.0,87.42,180.0,5.0,29.47,10.0,25.56
2021-11-12 04:00:00,30.6,28.4,91.42,170.0,7.0,29.47,10.0,23.07
2021-11-12 05:00:00,30.6,29.5,95.62,140.0,9.0,29.47,10.0,21.77
2021-11-12 06:00:00,31.1,30.2,96.42,150.0,7.0,29.47,10.0,23.68
2021-11-12 07:00:00,31.8,31.3,98.0,160.0,5.0,29.47,10.0,26.16
2021-11-12 08:00:00,32.0,31.5,98.0,210.0,6.0,29.47,10.0,25.53
2021-11-12 09:00:00,31.1,30.2,96.42,200.0,3.0,29.47,10.0,27.66
2021-11-12 10:00:00,32.0,31.1,96.43,180.0,5.0,29.47,10.0,26.4
2021-11-12 11:00:00,32.0,31.1,96.43,160.0,5.0,29.47,10.0,26.4
2021-11-12 12:00:00,31.6,31.5,99.6,170.0,5.0,29.48,5.0,25.92
2021-11-12 13:00:00,32.0,31.6,98.4,190.0,4.0,29.5,10.0,27.42
2021-11-12 14:00:00,32.0,31.8,99.2,0.0,0.0,29.52,4.0,32.0
2021-11-12 15:00:00,33.0,31.3,93.76,0.0,0.0,29.53,10.0,32.9
2021-11-12 16:00:00,33.0,30.7,90.77,0.0,0.0,29.55,10.0,33.1
2021-11-12 17:00:00,35.0,31.1,85.18,0.0,0.0,29.55,10.0,35.1
2021-11-12 18:00:00,35.8,30.0,79.22,320.0,5.0,29.56,10.0,30.91
2021-11-12 19:00:00,36.0,30.0,78.29,320.0,7.0,29.58,10.0,29.78
2021-11-12 20:00:00,35.6,29.1,76.98,330.0,6.0,29.6,10.0,29.87
2021-11-12 21:00:00,35.2,29.5,79.5,320.0,4.0,29.62,10.0,31.16
2021-11-12 22:00:00,33.8,29.3,83.38,290.0,3.0,29.64,10.0,30.75
2021-11-12 23:00:00,32.0,28.4,86.39,290.0,4.0,29.66,10.0,27.42
2021-11-13 00:00:00,33.0,28.4,82.65,300.0,8.0,29.67,10.0,25.47
2021-11-13 01:00:00,33.0,29.3,85.75,300.0,5.0,29.68,10.0,27.7
2021-11-13 02:00:00,33.8,30.6,87.91,300.0,8.0,29.69,10.0,26.33
2021-11-13 03:00:00,32.5,32.0,98.01,320.0,6.0,29.71,3.0,26.13
2021-11-13 04:00:00,32.2,31.8,98.4,310.0,8.0,29.72,5.0,24.36
2021-11-13 05:00:00,32.0,30.6,94.5,320.0,8.0,29.73,10.0,24.11
2021-11-13 06:00:00,32.0,29.7,91.1,310.0,9.0,29.74,10.0,23.51
2021-11-13 07:00:00,30.2,28.4,92.92,310.0,9.0,29.76,10.0,21.28
2021-11-13 08:00:00,30.4,28.2,91.41,300.0,8.0,29.77,10.0,22.14
2021-11-13 09:00:00,30.2,28.8,94.45,290.0,9.0,29.78,10.0,21.28
2021-11-13 10:00:00,30.0,27.5,90.28,310.0,9.0,29.8,10.0,21.03
2021-11-13 11:00:00,30.2,28.0,91.4,290.0,10.0,29.81,10.0,20.71
2021-11-13 12:00:00,29.7,28.0,93.28,290.0,9.0,29.83,7.0,20.65
2021-11-13 13:00:00,29.8,26.2,86.26,300.0,9.0,29.84,10.0,20.78
2021-11-13 14:00:00,30.6,26.4,84.19,310.0,10.0,29.85,10.0,21.21
2021-11-13 15:00:00,31.3,26.1,80.83,300.0,10.0,29.86,10.0,22.09
2021-11-13 16:00:00,32.0,25.0,75.07,310.0,9.0,29.86,10.0,23.51
2021-11-13 17:00:00,32.2,24.1,71.72,290.0,9.0,29.85,10.0,23.76
2021-11-13 18:00:00,32.4,23.7,69.96,280.0,8.0,29.83,10.0,24.61
2021-11-13 19:00:00,32.0,22.8,68.46,270.0,9.0,29.82,10.0,23.51
2021-11-13 20:00:00,31.8,22.1,67.01,270.0,8.0,29.83,10.0,23.87
2021-11-13 21:00:00,30.6,21.9,69.76,240.0,7.0,29.82,10.0,23.07
2021-11-13 22:00:00,29.3,21.6,72.62,250.0,10.0,29.82,10.0,19.58
2021-11-13 23:00:00,28.4,20.7,72.52,240.0,7.0,29.81,10.0,20.39
2021-11-14 00:00:00,28.4,21.0,73.45,250.0,8.0,29.82,10.0,19.68
2021-11-14 01:00:00,28.4,21.2,74.08,260.0,6.0,29.8,10.0,21.19
2021-11-14 02:00:00,28.0,21.0,74.67,0.0,0.0,29.77,10.0,28.0
2021-11-14 03:00:00,28.2,21.9,76.93,190.0,4.0,29.76,10.0,22.98
2021-11-14 04:00:00,27.1,23.9,87.55,180.0,3.0,29.73,3.0,23.09
2021-11-14 05:00:00,26.6,26.2,98.36,0.0,0.0,29.72,1.25,26.6
2021-11-14 06:00:00,26.4,26.4,100.0,90.0,4.0,29.69,1.0,20.88
2021-11-14 07:00:00,26.2,25.5,97.14,80.0,5.0,29.66,4.0,19.51
2021-11-14 08:00:00,26.4,25.7,97.14,90.0,3.0,29.65,2.0,22.29
2021-11-14 09:00:00,26.4,25.7,97.14,50.0,4.0,29.64,1.25,20.88
2021-11-14 10:00:00,26.1,25.7,98.36,30.0,7.0,29.64,4.0,17.59
2021-11-14 11:00:00,25.7,25.3,98.35,10.0,5.0,29.65,2.5,18.91
2021-11-14 12:00:00,25.5,24.6,96.32,360.0,8.0,29.67,7.0,16.11
2021-11-14 13:00:00,26.2,24.8,94.35,340.0,9.0,29.7,5.0,16.3
2021-11-14 14:00:00,27.9,25.2,89.44,350.0,12.0,29.72,10.0,16.78
2021-11-14 15:00:00,29.7,25.7,84.83,350.0,12.0,29.73,10.0,19.07
2021-11-14 16:00:00,29.8,26.2,86.26,340.0,13.0,29.75,7.0,18.75
2021-11-14 17:00:00,31.5,25.5,78.21,340.0,11.0,29.75,10.0,21.83
2021-11-14 18:00:00,30.4,28.2,91.41,320.0,11.0,29.76,4.0,20.44
2021-11-14 19:00:00,32.0,23.2,69.63,320.0,12.0,29.78,10.0,22.0
2021-11-14 20:00:00,31.1,22.6,70.4,310.0,11.0,29.81,10.0,21.33
2021-11-14 21:00:00,30.2,23.0,74.26,310.0,12.0,29.84,10.0,19.71
2021-11-14 22:00:00,29.1,21.2,71.99,320.0,10.0,29.86,10.0,19.33
2021-11-14 23:00:00,28.6,21.6,74.73,300.0,9.0,29.88,10.0,19.29
2021-11-15 00:00:00,27.5,21.0,76.22,300.0,8.0,29.9,10.0,18.57
2021-11-15 01:00:00,27.1,21.0,77.48,290.0,7.0,29.91,10.0,18.81
2021-11-15 02:00:00,27.0,20.5,76.17,290.0,8.0,29.92,10.0,17.95
2021-11-15 03:00:00,26.6,20.7,78.1,280.0,10.0,29.93,10.0,16.2
2021-11-15 04:00:00,26.4,20.7,78.75,280.0,10.0,29.93,10.0,15.95
2021-11-15 05:00:00,26.1,20.1,77.72,290.0,8.0,29.94,10.0,16.85
2021-11-15 06:00:00,25.7,19.9,78.35,290.0,9.0,29.95,10.0,15.68
2021-11-15 07:00:00,25.2,19.4,78.31,290.0,8.0,29.95,10.0,15.74
2021-11-15 08:00:00,25.2,19.4,78.31,290.0,8.0,29.95,10.0,15.74
2021-11-15 09:00:00,24.8,19.9,81.34,290.0,8.0,29.95,10.0,15.24
2021-11-15 10:00:00,24.6,19.9,82.02,300.0,6.0,29.96,10.0,16.62
2021-11-15 11:00:00,24.6,19.9,82.02,280.0,7.0,29.97,10.0,15.76
2021-11-15 12:00:00,20.1,16.7,86.42,280.0,4.0,29.98,10.0,13.52
2021-11-15 13:00:00,23.7,18.5,80.21,280.0,6.0,30.01,10.0,15.53
2021-11-15 14:00:00,24.8,19.4,79.62,300.0,7.0,30.02,10.0,16.0
2021-11-15 15:00:00,27.5,20.3,73.98,290.0,5.0,30.03,10.0,21.05
2021-11-15 16:00:00,30.6,20.5,65.74,290.0,4.0,30.02,10.0,25.79
2021-11-15 17:00:00,32.0,20.3,61.59,0.0,0.0,30.01,10.0,32.0
2021-11-15 18:00:00,33.0,20.7,59.94,250.0,3.0,30.0,10.0,29.95
2021-11-15 19:00:00,32.0,19.2,58.77,0.0,0.0,30.0,10.0,32.0
2021-11-15 20:00:00,33.8,19.6,55.61,0.0,0.0,30.01,10.0,33.8
2021-11-15 21:00:00,32.7,21.0,61.69,0.0,0.0,30.01,10.0,32.7
2021-11-15 22:00:00,30.2,23.0,74.26,0.0,0.0,30.03,10.0,30.2
2021-11-15 23:00:00,30.4,19.4,63.24,0.0,0.0,30.04,10.0,30.4
2021-11-16 00:00:00,27.0,18.3,69.33,280.0,3.0,30.05,10.0,22.97
2021-11-16 01:00:00,22.8,16.0,74.78,0.0,0.0,30.04,10.0,22.8
2021-11-16 02:00:00,20.3,17.8,89.85,0.0,0.0,30.05,10.0,20.3
2021-11-16 03:00:00,20.5,18.1,90.25,0.0,0.0,30.05,10.0,20.5
2021-11-16 04:00:00,18.0,16.7,94.54,0.0,0.0,30.06,10.0,18.0
2021-11-16 05:00:00,16.5,15.1,94.1,0.0,0.0,30.06,10.0,16.5
2021-11-16 06:00:00,16.7,15.4,94.51,0.0,0.0,30.05,10.0,16.7
2021-11-16 07:00:00,16.2,14.7,93.68,0.0,0.0,30.05,10.0,16.2
2021-11-16 08:00:00,15.8,14.0,92.44,40.0,3.0,30.05,10.0,10.17
2021-11-16 09:00:00,17.6,15.8,92.5,0.0,0.0,30.05,10.0,17.6
2021-11-16 10:00:00,19.4,17.6,92.57,0.0,0.0,30.05,10.0,19.4
2021-11-16 11:00:00,25.0,20.1,81.35,110.0,5.0,30.03,10.0,18.08
2021-11-16 12:00:00,25.7,20.1,79.02,110.0,7.0,30.03,10.0,17.1
2021-11-16 13:00:00,26.4,22.8,86.06,100.0,8.0,30.03,10.0,17.21
2021-11-16 14:00:00,28.2,24.6,86.16,130.0,10.0,30.03,10.0,18.2
2021-11-16 15:00:00,30.0,23.7,77.1,140.0,9.0,30.03,10.0,21.03
2021-11-16 16:00:00,30.9,23.9,74.96,130.0,13.0,29.99,10.0,20.16
2021-11-16 17:00:00,32.0,23.7,71.1,140.0,14.0,29.94,10.0,21.16
2021-11-16 18:00:00,33.3,25.7,73.35,130.0,15.0,29.91,10.0,22.47
2021-11-16 19:00:00,34.0,26.6,74.03,120.0,12.0,29.85,10.0,24.55
2021-11-16 20:00:00,33.8,28.2,79.71,130.0,11.0,29.83,10.0,24.74
2021-11-16 21:00:00,33.8,29.3,83.38,120.0,13.0,29.79,10.0,23.87
2021-11-16 22:00:00,34.3,30.2,84.78,130.0,14.0,29.75,10.0,24.13
2021-11-16 23:00:00,35.2,32.2,88.69,120.0,18.0,29.73,10.0,23.96
2021-11-17 00:00:00,36.5,34.5,92.37,120.0,15.0,29.71,10.0,26.61
2021-11-17 01:00:00,37.4,35.6,93.14,140.0,15.0,29.74,7.0,27.78
2021-11-17 02:00:00,38.3,36.7,93.9,150.0,11.0,29.72,7.0,30.43
2021-11-17 03:00:00,38.5,37.6,96.53,150.0,9.0,29.71,5.0,31.6
2021-11-17 04:00:00,39.2,38.0,95.04,150.0,9.0,29.68,5.0,32.47
2021-11-17 05:00:00,40.3,38.7,93.96,170.0,11.0,29.68,7.0,32.96
2021-11-17 06:00:00,40.3,38.7,93.96,160.0,5.0,29.66,5.0,36.25
2021-11-17 07:00:00,39.7,38.7,96.17,160.0,4.0,29.64,5.0,36.41
2021-11-17 08:00:00,39.2,38.7,98.07,0.0,0.0,29.66,4.0,39.2
2021-11-17 09:00:00,39.4,38.3,95.79,300.0,5.0,29.65,5.0,35.18
2021-11-17 10:00:00,39.2,38.3,96.54,310.0,5.0,29.65,5.0,34.95
2021-11-17 11:00:00,38.8,37.8,96.16,290.0,8.0,29.7,4.0,32.49
2021-11-17 12:00:00,37.6,36.7,96.52,280.0,5.0,29.72,4.0,33.05
2021-11-17 13:00:00,36.0,35.6,98.04,270.0,5.0,29.73,2.5,31.26
2021-11-17 14:00:00,37.2,35.2,92.39,280.0,7.0,29.74,4.0,31.12
2021-11-17 15:00:00,37.2,35.2,92.39,280.0,7.0,29.74,4.0,31.12
2021-11-17 16:00:00,37.2,35.2,92.39,280.0,7.0,29.74,4.0,31.12
2021-11-17 17:00:00,37.2,35.2,92.39,280.0,7.0,29.74,4.0,31.12
2021-11-17 18:00:00,37.2,35.2,92.39,280.0,7.0,29.74,4.0,31.12
2021-11-17 19:00:00,37.2,35.2,92.39,280.0,7.0,29.74,4.0,31.12
2021-11-17 20:00:00,39.6,25.3,56.24,260.0,16.0,29.74,10.0,30.32
2021-11-17 21:00:00,37.4,24.1,58.31,260.0,15.0,29.77,10.0,27.78
2021-11-17 22:00:00,36.5,23.2,58.18,250.0,19.0,29.79,10.0,25.39
2021-11-17 23:00:00,34.7,19.4,53.2,260.0,20.0,29.81,10.0,22.73
2021-11-18 00:00:00,33.0,18.5,54.56,260.0,19.0,29.84,10.0,20.89
2021-11-18 01:00:00,32.2,17.4,53.96,260.0,20.0,29.85,10.0,19.4
2021-11-18 02:00:00,31.6,19.6,60.76,260.0,18.0,29.86,10.0,19.22
2021-11-18 03:00:00,30.9,20.8,65.78,260.0,12.0,29.86,10.0,20.6
2021-11-18 04:00:00,30.2,18.9,62.4,260.0,16.0,29.86,10.0,18.07
2021-11-18 05:00:00,29.7,18.7,63.14,260.0,15.0,29.86,10.0,17.8
2021-11-18 06:00:00,28.9,18.5,64.68,250.0,17.0,29.85,10.0,16.01
2021-11-18 07:00:00,28.4,17.6,63.51,250.0,17.0,29.86,10.0,15.36
2021-11-18 08:00:00,28.4,17.1,62.16,250.0,10.0,29.86,10.0,18.45
2021-11-18 09:00:00,27.9,17.8,65.39,260.0,11.0,29.85,10.0,17.29
2021-11-18 10:00:00,27.5,18.1,67.34,260.0,13.0,29.86,10.0,15.8
2021-11-18 11:00:00,27.5,18.3,67.92,260.0,15.0,29.87,10.0,14.95
2021-11-18 12:00:00,27.3,17.4,65.88,270.0,16.0,29.88,10.0,14.29
2021-11-18 13:00:00,27.3,17.6,66.45,280.0,9.0,29.9,10.0,17.67
2021-11-18 14:00:00,27.5,17.1,64.5,280.0,10.0,29.92,10.0,17.33
2021-11-18 15:00:00,27.7,18.7,68.53,270.0,15.0,29.94,10.0,15.21
2021-11-18 16:00:00,27.5,18.9,69.69,280.0,15.0,29.95,10.0,14.95
2021-11-18 17:00:00,28.0,18.7,67.69,280.0,18.0,29.95,10.0,14.48
2021-11-18 18:00:00,28.0,18.3,66.54,270.0,17.0,29.97,10.0,14.83
2021-11-18 19:00:00,28.0,16.3,61.04,280.0,16.0,29.99,10.0,15.2
2021-11-18 20:00:00,27.3,15.4,60.41,310.0,15.0,30.03,10.0,14.69
2021-11-18 21:00:00,27.0,15.4,61.16,290.0,12.0,30.07,10.0,15.64
2021-11-18 22:00:00,26.4,15.6,63.24,300.0,18.0,30.1,10.0,12.38
2021-11-18 23:00:00,25.0,17.4,72.46,290.0,12.0,30.13,10.0,13.09
2021-11-19 00:00:00,24.3,16.2,70.83,290.0,10.0,30.16,10.0,13.31
2021-11-19 01:00:00,23.9,16.5,72.97,290.0,10.0,30.18,10.0,12.81
2021-11-19 02:00:00,24.4,17.4,74.3,290.0,9.0,30.2,10.0,14.06
2021-11-19 03:00:00,25.3,17.6,72.18,280.0,14.0,30.21,10.0,12.53
2021-11-19 04:00:00,26.4,18.1,70.47,280.0,10.0,30.24,10.0,15.95
2021-11-19 05:00:00,26.6,18.1,69.89,280.0,10.0,30.26,10.0,16.2
2021-11-19 06:00:00,25.7,17.6,70.99,280.0,8.0,30.27,10.0,16.35
2021-11-19 07:00:00,23.7,17.2,75.85,260.0,7.0,30.29,10.0,14.66
2021-11-19 08:00:00,22.6,16.7,77.74,270.0,7.0,30.31,10.0,13.32
2021-11-19 09:00:00,22.5,16.5,77.39,270.0,9.0,30.33,10.0,11.7
2021-11-19 10:00:00,19.4,14.9,82.34,250.0,4.0,30.34,10.0,12.71
2021-11-19 11:00:00,20.8,16.2,82.08,270.0,7.0,30.35,10.0,11.13
2021-11-19 12:00:00,19.9,16.2,85.29,240.0,4.0,30.36,10.0,13.29
2021-11-19 13:00:00,22.3,18.0,83.27,0.0,0.0,30.36,10.0,22.3
2021-11-19 14:00:00,25.2,17.6,72.48,240.0,3.0,30.38,10.0,20.91
2021-11-19 15:00:00,28.4,17.2,62.43,200.0,6.0,30.38,10.0,21.19
2021-11-19 16:00:00,28.4,16.7,61.09,200.0,9.0,30.36,10.0,19.04
2021-11-19 17:00:00,30.4,17.4,58.03,200.0,6.0,30.32,10.0,23.6
2021-11-19 18:00:00,31.8,18.1,56.52,190.0,7.0,30.3,10.0,24.54
2021-11-19 19:00:00,31.5,17.6,55.99,180.0,9.0,30.27,10.0,22.89
2021-11-19 20:00:00,31.6,17.8,56.24,160.0,8.0,30.25,10.0,23.62
2021-11-19 21:00:00,30.7,18.5,60.11,160.0,11.0,30.22,10.0,20.82
2021-11-19 22:00:00,29.1,18.5,64.16,140.0,9.0,30.21,10.0,19.91
2021-11-19 23:00:00,29.1,18.5,64.16,150.0,8.0,30.2,10.0,20.54
2021-11-20 00:00:00,28.9,18.9,65.8,150.0,9.0,30.18,10.0,19.66
2021-11-20 01:00:00,28.4,19.2,68.03,160.0,13.0,30.16,10.0,16.96
2021-11-20 02:00:00,27.1,19.2,71.76,160.0,9.0,30.16,10.0,17.42
2021-11-20 03:00:00,27.7,19.8,71.83,170.0,11.0,30.14,10.0,17.03
2021-11-20 04:00:00,27.3,20.3,74.6,170.0,10.0,30.12,10.0,17.07
2021-11-20 05:00:00,27.0,20.8,77.15,170.0,8.0,30.1,10.0,17.95
2021-11-20 06:00:00,26.4,21.2,80.44,160.0,6.0,30.07,10.0,18.79
2021-11-20 07:00:00,26.6,21.6,81.14,160.0,7.0,30.05,10.0,18.2
2021-11-20 08:00:00,27.5,21.9,79.18,160.0,7.0,30.04,10.0,19.29
2021-11-20 09:00:00,26.6,21.9,82.17,160.0,7.0,30.02,10.0,18.2
2021-11-20 10:00:00,27.1,22.5,82.56,160.0,3.0,30.02,10.0,23.09
2021-11-20 11:00:00,27.3,23.0,83.62,170.0,4.0,30.0,10.0,21.93
2021-11-20 12:00:00,27.9,23.0,81.58,180.0,4.0,30.0,10.0,22.63
2021-11-20 13:00:00,28.4,23.7,82.31,190.0,4.0,30.01,10.0,23.22
2021-11-20 14:00:00,31.6,24.4,74.4,210.0,9.0,30.0,10.0,23.02
2021-11-20 15:00:00,33.3,24.8,70.65,220.0,9.0,30.01,10.0,25.13
2021-11-20 16:00:00,35.2,24.8,65.5,250.0,7.0,30.0,10.0,28.68
2021-11-20 17:00:00,37.2,25.0,61.02,230.0,8.0,29.99,10.0,30.52
2021-11-20 18:00:00,38.0,25.5,60.14,250.0,5.0,29.99,10.0,33.64
2021-11-20 19:00:00,39.7,25.3,56.03,270.0,10.0,30.0,10.0,32.62
2021-11-20 20:00:00,40.5,25.7,55.22,270.0,8.0,30.01,10.0,34.58
2021-11-20 21:00:00,38.0,24.1,57.18,290.0,5.0,30.05,10.0,33.4
2021-11-20 22:00:00,35.6,23.9,62.09,300.0,5.0,30.08,10.0,30.67
2021-11-20 23:00:00,34.2,23.0,63.21,300.0,6.0,30.1,10.0,28.18
2021-11-21 00:00:00,32.0,22.3,67.04,320.0,4.0,30.11,10.0,27.42
2021-11-21 01:00:00,29.1,23.0,77.67,0.0,0.0,30.11,10.0,29.1
2021-11-21 02:00:00,24.1,21.2,88.51,0.0,0.0,30.13,10.0,24.1
2021-11-21 03:00:00,24.6,22.3,90.81,0.0,0.0,30.13,10.0,24.6
2021-11-21 04:00:00,23.9,23.0,96.3,0.0,0.0,30.13,10.0,23.9
2021-11-21 05:00:00,23.0,21.9,95.47,0.0,0.0,30.11,10.0,23.0
2021-11-21 06:00:00,22.1,21.0,95.45,0.0,0.0,30.08,10.0,22.1
2021-11-21 07:00:00,23.0,21.9,95.47,0.0,0.0,30.09,10.0,23.0
2021-11-21 08:00:00,23.4,22.5,96.29,0.0,0.0,30.06,10.0,23.4
2021-11-21 09:00:00,21.7,21.0,97.08,0.0,0.0,30.04,10.0,21.7
2021-11-21 10:00:00,22.5,21.2,94.66,0.0,0.0,30.0,10.0,22.5
2021-11-21 11:00:00,23.5,22.6,96.29,0.0,0.0,29.98,10.0,23.5
2021-11-21 12:00:00,25.9,24.6,94.74,210.0,4.0,29.96,10.0,20.3
2021-11-21 13:00:00,29.1,25.7,86.94,210.0,6.0,29.93,10.0,22.04
2021-11-21 14:00:00,30.0,25.2,82.08,230.0,9.0,29.88,10.0,21.03
2021-11-21 15:00:00,31.3,25.0,77.22,230.0,9.0,29.85,10.0,22.64
2021-11-21 16:00:00,34.5,27.0,73.78,240.0,12.0,29.81,10.0,25.18
2021-11-21 17:00:00,33.0,29.5,87.15,270.0,12.0,29.79,5.0,23.15
2021-11-21 18:00:00,31.6,29.3,91.08,270.0,16.0,29.81,7.0,19.9
2021-11-21 19:00:00,28.4,23.4,81.28,310.0,22.0,29.83,4.0,13.76
2021-11-21 20:00:00,28.8,19.8,68.66,300.0,19.0,29.86,4.0,15.21
2021-11-21 21:00:00,25.7,12.2,56.08,290.0,22.0,29.9,10.0,10.14
2021-11-21 22:00:00,24.1,9.9,54.12,300.0,13.0,29.94,10.0,11.45
2021-11-21 23:00:00,23.0,8.6,53.47,290.0,19.0,29.96,10.0,7.54
2021-11-22 00:00:00,21.4,9.1,58.5,290.0,15.0,29.97,10.0,7.04
2021-11-22 01:00:00,20.8,9.3,60.55,300.0,14.0,29.98,10.0,6.73
2021-11-22 02:00:00,21.2,9.9,61.15,300.0,21.0,30.0,10.0,4.45
2021-11-22 03:00:00,20.5,9.5,61.87,300.0,16.0,30.01,10.0,5.43
2021-11-22 04:00:00,19.2,9.5,65.4,280.0,15.0,30.03,10.0,4.19
2021-11-22 05:00:00,18.0,9.1,67.63,290.0,13.0,30.04,10.0,3.63
2021-11-22 06:00:00,16.7,8.6,69.95,280.0,14.0,30.04,10.0,1.44
2021-11-22 07:00:00,16.2,7.7,68.64,280.0,13.0,30.04,10.0,1.33
2021-11-22 08:00:00,14.9,7.3,71.33,290.0,7.0,30.04,10.0,3.94
2021-11-22 09:00:00,14.5,7.0,71.61,280.0,10.0,30.03,10.0,1.02
2021-11-22 10:00:00,13.6,7.0,74.49,290.0,11.0,30.04,10.0,-0.79
2021-11-22 11:00:00,13.1,6.3,73.76,280.0,10.0,30.05,10.0,-0.73
2021-11-22 12:00:00,12.4,5.5,73.35,280.0,12.0,30.06,10.0,-2.94
2021-11-22 13:00:00,13.1,5.4,70.8,280.0,13.0,30.07,10.0,-2.64
2021-11-22 14:00:00,15.6,5.0,62.31,290.0,9.0,30.08,10.0,3.12
2021-11-22 15:00:00,17.4,5.0,57.63,280.0,8.0,30.08,10.0,6.13
2021-11-22 16:00:00,20.3,5.5,52.08,280.0,10.0,30.08,10.0,8.3
2021-11-22 17:00:00,22.3,5.5,47.85,280.0,10.0,30.08,10.0,10.8
2021-11-22 18:00:00,23.2,4.0,43.21,280.0,11.0,30.07,10.0,11.35
2021-11-22 19:00:00,24.4,4.0,41.09,290.0,11.0,30.06,10.0,12.86
2021-11-22 20:00:00,24.8,2.7,37.88,280.0,10.0,30.07,10.0,13.94
2021-11-22 21:00:00,23.4,2.7,40.16,270.0,8.0,30.07,10.0,13.52
2021-11-22 22:00:00,21.9,2.5,42.39,270.0,6.0,30.08,10.0,13.37
2021-11-22 23:00:00,19.0,4.0,51.15,270.0,4.0,30.08,10.0,12.24
2021-11-23 00:00:00,18.5,4.0,52.74,280.0,6.0,30.1,10.0,9.27
2021-11-23 01:00:00,18.1,4.0,53.66,290.0,6.0,30.1,10.0,8.79
2021-11-23 02:00:00,17.2,4.0,55.78,300.0,3.0,30.11,10.0,11.77
2021-11-23 03:00:00,16.7,7.3,65.96,270.0,3.0,30.11,10.0,11.2
2021-11-23 04:00:00,18.1,6.8,60.7,270.0,3.0,30.09,10.0,12.8
2021-11-23 05:00:00,18.9,6.8,58.65,270.0,4.0,30.11,10.0,12.12
2021-11-23 06:00:00,19.6,7.5,58.76,0.0,0.0,30.11,10.0,19.6
2021-11-23 07:00:00,19.2,9.5,65.4,0.0,0.0,30.1,10.0,19.2
2021-11-23 08:00:00,17.1,9.1,70.31,0.0,0.0,30.1,10.0,17.1
2021-11-23 09:00:00,14.7,10.0,81.25,0.0,0.0,30.08,10.0,14.7
2021-11-23 10:00:00,12.9,9.3,85.21,190.0,3.0,30.08,10.0,6.85
2021-11-23 11:00:00,13.5,10.0,85.63,0.0,0.0,30.08,10.0,13.5
2021-11-23 12:00:00,14.9,10.4,81.99,180.0,4.0,30.08,10.0,7.45
2021-11-23 13:00:00,18.3,11.5,74.31,180.0,5.0,30.07,10.0,10.13
2021-11-23 14:00:00,23.7,12.2,60.96,160.0,7.0,30.06,10.0,14.66
2021-11-23 15:00:00,28.2,13.3,53.1,190.0,10.0,30.05,10.0,18.2
2021-11-23 16:00:00,33.0,14.9,47.07,190.0,10.0,30.02,10.0,24.1
2021-11-23 17:00:00,35.8,15.6,43.23,170.0,11.0,29.98,10.0,27.27
2021-11-23 18:00:00,38.5,17.1,41.48,180.0,11.0,29.93,10.0,30.68
2021-11-23 19:00:00,39.0,17.4,41.2,190.0,13.0,29.91,10.0,30.54
2021-11-23 20:00:00,38.0,16.9,41.77,170.0,10.0,29.9,10.0,30.62
2021-11-23 21:00:00,35.8,16.7,45.34,170.0,9.0,29.87,10.0,28.24
2021-11-23 22:00:00,32.4,16.7,51.93,160.0,10.0,29.85,10.0,23.47
2021-11-23 23:00:00,32.0,16.3,51.87,160.0,10.0,29.83,10.0,22.97
2021-11-24 00:00:00,32.0,15.8,50.75,160.0,10.0,29.82,10.0,22.97
2021-11-24 01:00:00,32.4,16.3,51.04,160.0,11.0,29.79,10.0,22.97
2021-11-24 02:00:00,32.0,16.7,52.78,170.0,9.0,29.78,10.0,23.51
2021-11-24 03:00:00,29.7,17.2,59.2,160.0,6.0,29.77,10.0,22.76
2021-11-24 04:00:00,27.9,17.8,65.39,160.0,4.0,29.78,10.0,22.63
2021-11-24 05:00:00,30.4,19.4,63.24,170.0,7.0,29.77,10.0,22.83
2021-11-24 06:00:00,30.7,20.1,64.37,170.0,6.0,29.76,10.0,23.96
2021-11-24 07:00:00,28.4,20.3,71.3,140.0,6.0,29.74,10.0,21.19
2021-11-24 08:00:00,25.9,19.9,77.7,160.0,6.0,29.74,10.0,18.18
2021-11-24 09:00:00,28.2,21.7,76.28,150.0,8.0,29.71,10.0,19.43
2021-11-24 10:00:00,30.0,22.6,73.62,160.0,9.0,29.71,10.0,21.03
2021-11-24 11:00:00,30.6,23.0,73.07,160.0,8.0,29.71,10.0,22.39
2021-11-24 12:00:00,30.2,23.0,74.26,160.0,7.0,29.72,10.0,22.59
2021-11-24 13:00:00,31.1,23.9,74.35,160.0,5.0,29.74,10.0,25.33
2021-11-24 14:00:00,33.0,24.8,71.8,160.0,8.0,29.72,10.0,25.22
2021-11-24 15:00:00,35.8,26.4,68.35,170.0,8.0,29.73,10.0,28.79
2021-11-24 16:00:00,38.0,27.9,66.93,190.0,6.0,29.74,10.0,32.64
2021-11-24 17:00:00,41.2,29.5,62.84,210.0,5.0,29.72,10.0,37.32
2021-11-24 18:00:00,44.4,30.7,58.35,240.0,7.0,29.72,10.0,39.89
2021-11-24 19:00:00,45.5,31.8,58.51,230.0,8.0,29.74,10.0,40.74
2021-11-24 20:00:00,43.7,31.8,62.66,260.0,8.0,29.78,10.0,38.53
2021-11-24 21:00:00,40.5,31.1,68.9,0.0,0.0,29.81,10.0,40.5
2021-11-24 22:00:00,33.0,29.1,85.05,0.0,0.0,29.84,10.0,33.1
2021-11-24 23:00:00,34.5,30.6,85.48,0.0,0.0,29.85,10.0,34.5
2021-11-25 00:00:00,35.0,30.9,85.16,0.0,0.0,29.88,10.0,34.9
2021-11-25 01:00:00,39.4,31.1,71.91,340.0,12.0,29.91,10.0,31.42
2021-11-25 02:00:00,37.6,31.8,79.38,340.0,9.0,29.93,10.0,30.48
2021-11-25 03:00:00,37.0,31.6,80.94,340.0,9.0,29.95,10.0,29.61
2021-11-25 04:00:00,35.6,30.2,80.51,350.0,10.0,29.98,10.0,27.48
2021-11-25 05:00:00,33.4,29.1,84.03,10.0,12.0,30.0,10.0,23.78
2021-11-25 06:00:00,32.5,28.6,85.36,340.0,11.0,30.01,10.0,23.1
2021-11-25 07:00:00,32.0,27.3,82.57,340.0,10.0,30.02,10.0,22.97
2021-11-25 08:00:00,32.0,27.5,83.25,340.0,9.0,30.04,10.0,23.51
2021-11-25 09:00:00,31.6,26.6,81.52,340.0,12.0,30.04,10.0,21.49
2021-11-25 10:00:00,31.6,26.1,79.85,340.0,9.0,30.05,10.0,23.02
2021-11-25 11:00:00,29.1,26.8,90.99,350.0,13.0,30.07,4.0,17.85
2021-11-25 12:00:00,27.1,23.9,87.55,340.0,11.0,30.09,10.0,16.27
2021-11-25 13:00:00,25.7,23.2,90.09,340.0,12.0,30.11,4.0,13.98
2021-11-25 14:00:00,24.8,21.0,85.23,330.0,13.0,30.12,10.0,12.34
2021-11-25 15:00:00,24.6,17.6,74.32,340.0,15.0,30.12,10.0,11.19
2021-11-25 16:00:00,24.3,19.4,81.3,330.0,9.0,30.12,10.0,13.94
2021-11-25 17:00:00,22.8,18.1,81.88,330.0,12.0,30.12,1.5,10.29
2021-11-25 18:00:00,21.7,17.1,82.15,330.0,14.0,30.12,1.5,7.89
2021-11-25 19:00:00,21.6,11.7,65.14,320.0,15.0,30.13,10.0,7.3
2021-11-25 20:00:00,20.5,10.4,64.41,340.0,11.0,30.14,10.0,7.93
2021-11-25 21:00:00,18.7,12.6,76.69,330.0,15.0,30.17,4.0,3.54
2021-11-25 22:00:00,16.7,7.0,65.07,340.0,10.0,30.18,10.0,3.78
2021-11-25 23:00:00,16.5,6.8,65.04,320.0,12.0,30.2,10.0,2.27
2021-11-26 00:00:00,15.3,6.6,67.9,340.0,13.0,30.21,10.0,0.17
2021-11-26 01:00:00,14.7,6.0,67.52,340.0,10.0,30.2,10.0,1.27
2021-11-26 02:00:00,14.0,6.0,69.62,320.0,7.0,30.19,10.0,2.84
2021-11-26 03:00:00,12.7,5.5,72.38,300.0,7.0,30.19,10.0,1.25
2021-11-26 04:00:00,11.7,3.4,68.7,300.0,7.0,30.19,10.0,0.03
2021-11-26 05:00:00,10.4,3.2,72.12,300.0,6.0,30.17,10.0,-0.48
2021-11-26 06:00:00,9.5,3.2,75.08,300.0,7.0,30.17,10.0,-2.65
2021-11-26 07:00:00,8.6,3.6,79.64,300.0,6.0,30.17,10.0,-2.65
2021-11-26 08:00:00,8.6,4.0,80.74,300.0,7.0,30.16,10.0,-3.74
2021-11-26 09:00:00,8.6,4.0,81.49,290.0,7.0,30.15,10.0,-3.74
2021-11-26 10:00:00,9.5,5.4,83.07,300.0,3.0,30.15,10.0,2.97
2021-11-26 11:00:00,11.3,6.8,81.71,290.0,5.0,30.15,10.0,1.81
2021-11-26 12:00:00,12.0,7.7,82.51,0.0,0.0,30.15,10.0,12.0
2021-11-26 13:00:00,13.1,8.4,81.12,0.0,0.0,30.15,10.0,13.1
2021-11-26 14:00:00,14.7,9.5,79.45,0.0,0.0,30.16,10.0,14.7
2021-11-26 15:00:00,17.6,10.4,72.93,0.0,0.0,30.15,10.0,17.6
2021-11-26 16:00:00,19.2,10.2,67.48,0.0,0.0,30.13,10.0,19.2
2021-11-26 17:00:00,22.6,9.9,57.64,190.0,4.0,30.08,10.0,16.44
2021-11-26 18:00:00,22.8,9.7,56.65,0.0,0.0,30.05,10.0,22.8
2021-11-26 19:00:00,23.7,10.8,57.29,0.0,0.0,30.03,10.0,23.7
2021-11-26 20:00:00,23.5,10.8,57.77,130.0,5.0,30.02,10.0,16.3
2021-11-26 21:00:00,23.2,9.7,55.7,150.0,6.0,30.0,10.0,14.93
2021-11-26 22:00:00,22.8,10.9,59.76,140.0,6.0,29.99,10.0,14.45
2021-11-26 23:00:00,22.1,11.5,63.21,140.0,8.0,29.98,10.0,11.92
2021-11-27 00:00:00,21.6,12.0,66.01,150.0,8.0,29.97,10.0,11.3
2021-11-27 01:00:00,21.6,12.0,66.01,150.0,8.0,29.96,10.0,11.3
2021-11-27 02:00:00,19.9,12.0,70.95,150.0,6.0,29.97,10.0,10.96
2021-11-27 03:00:00,19.9,11.8,70.32,140.0,6.0,29.96,10.0,10.96
2021-11-27 04:00:00,20.1,12.0,70.35,140.0,7.0,29.93,10.0,10.27
2021-11-27 05:00:00,19.9,12.0,70.95,150.0,8.0,29.92,10.0,9.21
2021-11-27 06:00:00,21.0,12.0,67.71,160.0,7.0,29.9,10.0,11.37
2021-11-27 07:00:00,21.2,12.9,69.86,140.0,5.0,29.86,10.0,13.57
2021-11-27 08:00:00,21.6,13.1,69.29,140.0,5.0,29.86,10.0,14.04
2021-11-27 09:00:00,21.7,13.5,70.23,140.0,4.0,29.83,10.0,15.39
2021-11-27 10:00:00,22.1,13.8,69.96,120.0,5.0,29.83,10.0,14.64
2021-11-27 11:00:00,22.1,13.3,68.44,120.0,4.0,29.83,10.0,15.86
2021-11-27 12:00:00,22.5,14.2,70.01,110.0,5.0,29.82,10.0,15.11
2021-11-27 13:00:00,22.6,14.7,71.26,100.0,5.0,29.81,10.0,15.23
2021-11-27 14:00:00,22.6,16.7,77.74,120.0,6.0,29.8,10.0,14.21
2021-11-27 15:00:00,22.5,18.9,85.82,100.0,5.0,29.81,1.5,15.11
2021-11-27 16:00:00,23.0,20.3,89.21,0.0,0.0,29.8,2.5,23.0
2021-11-27 17:00:00,24.6,21.9,89.29,50.0,3.0,29.78,1.25,20.23
2021-11-27 18:00:00,25.3,22.3,88.2,0.0,0.0,29.76,10.0,25.3
2021-11-27 19:00:00,26.2,22.3,84.96,360.0,5.0,29.78,10.0,19.51
2021-11-27 20:00:00,27.0,22.3,82.2,340.0,4.0,29.79,10.0,21.58
2021-11-27 21:00:00,27.0,22.1,81.51,310.0,5.0,29.81,10.0,20.46
2021-11-27 22:00:00,25.9,21.9,84.59,320.0,6.0,29.83,10.0,18.18
2021-11-27 23:00:00,25.2,21.2,84.54,310.0,4.0,29.85,10.0,19.48
2021-11-28 00:00:00,26.4,22.5,84.98,300.0,4.0,29.85,10.0,20.88
2021-11-28 01:00:00,26.4,22.5,84.98,300.0,4.0,29.85,10.0,20.88
2021-11-28 02:00:00,27.1,23.0,84.31,290.0,6.0,29.86,10.0,19.63
2021-11-28 03:00:00,27.5,23.0,82.93,280.0,5.0,29.84,10.0,21.05
2021-11-28 04:00:00,28.4,23.0,79.92,270.0,5.0,29.84,10.0,22.12
2021-11-28 05:00:00,28.0,21.9,77.57,290.0,9.0,29.83,10.0,18.54
2021-11-28 06:00:00,28.9,22.1,75.39,300.0,11.0,29.83,10.0,18.55
2021-11-28 07:00:00,28.4,21.2,74.08,300.0,12.0,29.83,10.0,17.42
2021-11-28 08:00:00,27.7,20.3,73.38,300.0,14.0,29.84,10.0,15.62
2021-11-28 09:00:00,27.5,19.2,70.59,300.0,11.0,29.85,10.0,16.78
2021-11-28 10:00:00,26.1,16.5,66.59,290.0,13.0,29.86,10.0,14.01
2021-11-28 11:00:00,25.2,16.5,69.12,290.0,11.0,29.87,10.0,13.87
2021-11-28 12:00:00,24.3,15.8,69.61,300.0,10.0,29.88,10.0,13.31
2021-11-28 13:00:00,24.6,16.2,69.95,290.0,12.0,29.9,10.0,12.58
2021-11-28 14:00:00,25.2,16.2,68.23,300.0,13.0,29.93,10.0,12.86
2021-11-28 15:00:00,27.9,17.6,64.83,320.0,14.0,29.94,10.0,15.88
2021-11-28 16:00:00,29.7,18.5,62.6,320.0,15.0,29.95,10.0,17.8
2021-11-28 17:00:00,31.1,18.7,59.65,320.0,14.0,29.96,10.0,20.0
2021-11-28 18:00:00,29.3,18.3,63.09,330.0,13.0,29.96,10.0,18.11
2021-11-28 19:00:00,30.7,18.0,58.83,310.0,11.0,29.97,10.0,20.82
2021-11-28 20:00:00,29.8,17.4,59.47,310.0,9.0,29.99,10.0,20.78
2021-11-28 21:00:00,28.4,16.3,60.04,300.0,8.0,30.0,10.0,19.68
2021-11-28 22:00:00,24.4,16.0,69.93,330.0,3.0,30.02,10.0,20.0
2021-11-28 23:00:00,22.6,15.4,73.47,0.0,0.0,30.02,10.0,22.6
2021-11-29 00:00:00,17.8,14.0,84.78,0.0,0.0,30.02,10.0,17.8
2021-11-29 01:00:00,17.2,14.0,87.0,0.0,0.0,30.03,10.0,17.2
2021-11-29 02:00:00,15.1,12.0,87.27,0.0,0.0,30.02,10.0,15.1
2021-11-29 03:00:00,14.2,11.8,89.97,0.0,0.0,30.02,10.0,14.2
2021-11-29 04:00:00,14.5,12.6,91.99,0.0,0.0,30.03,10.0,14.5
2021-11-29 05:00:00,12.9,10.2,88.71,0.0,0.0,30.02,10.0,12.9
2021-11-29 06:00:00,12.0,9.9,91.08,0.0,0.0,30.01,10.0,12.0
2021-11-29 07:00:00,12.2,10.0,90.68,0.0,0.0,30.01,10.0,12.2
2021-11-29 08:00:00,13.3,11.1,90.73,0.0,0.0,29.99,10.0,13.3
2021-11-29 09:00:00,16.9,14.9,91.68,0.0,0.0,29.98,10.0,16.9
2021-11-29 10:00:00,19.0,16.5,89.79,0.0,0.0,29.97,10.0,19.0
2021-11-29 11:00:00,20.5,17.4,87.57,0.0,0.0,29.97,10.0,20.5
2021-11-29 12:00:00,21.0,17.2,84.99,150.0,3.0,29.95,10.0,16.11
2021-11-29 13:00:00,22.3,17.6,81.84,170.0,3.0,29.94,10.0,17.6
2021-11-29 14:00:00,23.9,16.5,72.97,180.0,6.0,29.93,10.0,15.77
2021-11-29 15:00:00,23.9,19.4,82.67,180.0,8.0,29.92,2.5,14.14
2021-11-29 16:00:00,25.2,23.2,91.98,160.0,8.0,29.88,3.0,15.74
2021-11-29 17:00:00,25.5,23.9,93.55,150.0,9.0,29.83,0.75,15.43
2021-11-29 18:00:00,26.2,24.8,94.35,140.0,8.0,29.78,1.0,16.97
2021-11-29 19:00:00,27.1,25.7,94.37,130.0,11.0,29.73,1.75,16.27
2021-11-29 20:00:00,27.1,26.2,96.35,150.0,10.0,29.74,3.0,16.82
2021-11-29 21:00:00,27.5,27.0,97.96,180.0,7.0,29.74,1.25,19.29
2021-11-29 22:00:00,27.5,27.1,98.37,140.0,4.0,29.74,3.0,22.17
2021-11-29 23:00:00,27.9,27.3,97.56,0.0,0.0,29.75,3.0,27.9
2021-11-30 00:00:00,27.9,27.5,98.37,0.0,0.0,29.74,7.0,27.9
2021-11-30 01:00:00,27.9,27.5,98.37,0.0,0.0,29.76,7.0,27.9
2021-11-30 02:00:00,27.5,27.3,99.18,0.0,0.0,29.77,5.0,27.5
2021-11-30 03:00:00,25.0,25.0,100.0,0.0,0.0,29.78,5.0,25.0
2021-11-30 04:00:00,22.1,21.9,99.16,310.0,4.0,29.8,2.5,15.86
2021-11-30 05:00:00,23.2,23.0,99.16,320.0,4.0,29.81,7.0,17.14
2021-11-30 06:00:00,25.5,25.5,100.0,320.0,11.0,29.81,10.0,14.25
2021-11-30 07:00:00,25.7,25.2,97.94,290.0,4.0,29.82,10.0,20.06
2021-11-30 08:00:00,26.6,26.2,98.36,280.0,6.0,29.84,7.0,19.03
2021-11-30 09:00:00,27.5,27.5,100.0,300.0,9.0,29.85,4.0,17.92
2021-11-30 10:00:00,28.4,28.4,100.0,280.0,7.0,29.85,10.0,20.39
2021-11-30 11:00:00,26.6,25.5,95.54,270.0,8.0,29.85,10.0,17.46
2021-11-30 12:00:00,24.1,23.7,98.34,270.0,8.0,29.86,10.0,14.38
2021-11-30 13:00:00,23.9,23.0,96.3,270.0,10.0,29.86,10.0,12.81
2021-11-30 14:00:00,25.7,23.7,92.0,280.0,9.0,29.88,10.0,15.68
2021-11-30 15:00:00,29.3,26.1,87.67,290.0,11.0,29.9,10.0,19.05
2021-11-30 16:00:00,31.5,25.3,77.56,310.0,20.0,29.93,10.0,18.47
2021-11-30 17:00:00,32.0,25.0,75.07,310.0,14.0,29.93,10.0,21.16
2021-11-30 18:00:00,33.0,24.1,69.17,300.0,13.0,29.95,10.0,22.98
2021-11-30 19:00:00,33.8,22.6,63.16,290.0,13.0,29.96,10.0,23.87
2021-11-30 20:00:00,33.6,21.0,59.5,290.0,7.0,29.97,10.0,26.73
2021-11-30 21:00:00,32.0,20.3,61.59,280.0,8.0,29.98,10.0,24.11
2021-11-30 22:00:00,30.2,18.5,61.34,280.0,5.0,29.99,10.0,24.26
2021-11-30 23:00:00,29.7,17.4,59.71,280.0,7.0,30.01,10.0,21.98
2021-12-01 00:00:00,26.8,15.3,61.4,270.0,4.0,30.0,10.0,21.35
2021-12-01 01:00:00,23.0,14.7,70.07,0.0,0.0,30.01,10.0,23.0
2021-12-01 02:00:00,18.3,12.7,78.37,0.0,0.0,30.02,10.0,18.3
2021-12-01 03:00:00,17.4,12.4,80.39,0.0,0.0,30.03,10.0,17.4
2021-12-01 04:00:00,18.1,14.2,84.43,0.0,0.0,30.01,10.0,18.1
2021-12-01 05:00:00,19.8,15.3,82.37,0.0,0.0,29.97,10.0,19.8
2021-12-01 06:00:00,20.1,16.3,84.93,0.0,0.0,29.95,10.0,20.1
2021-12-01 07:00:00,19.9,15.4,82.37,0.0,0.0,29.96,10.0,19.9
2021-12-01 08:00:00,25.5,16.7,68.86,170.0,7.0,29.93,10.0,16.86
2021-12-01 09:00:00,26.6,17.4,67.81,170.0,6.0,29.93,10.0,19.03
2021-12-01 10:00:00,26.6,18.3,70.49,170.0,6.0,29.92,10.0,19.03
2021-12-01 11:00:00,24.8,22.6,91.2,150.0,8.0,29.89,2.0,15.24
2021-12-01 12:00:00,25.2,23.9,94.72,160.0,11.0,29.84,4.0,13.87
2021-12-01 13:00:00,26.4,26.1,98.77,160.0,11.0,29.81,7.0,15.39
2021-12-01 14:00:00,28.4,28.4,100.0,180.0,12.0,29.79,5.0,17.42
2021-12-01 15:00:00,29.7,28.8,96.39,180.0,8.0,29.78,10.0,21.28
2021-12-01 16:00:00,31.1,29.3,92.94,190.0,8.0,29.75,10.0,23.0
2021-12-01 17:00:00,32.0,29.3,89.63,200.0,7.0,29.71,10.0,24.78
2021-12-01 18:00:00,33.0,30.6,90.41,210.0,7.0,29.68,10.0,26.12
2021-12-01 19:00:00,34.5,32.0,90.46,220.0,8.0,29.64,10.0,27.19
2021-12-01 20:00:00,34.7,33.3,94.56,220.0,10.0,29.63,10.0,26.35
2021-12-01 21:00:00,35.0,34.7,98.42,230.0,6.0,29.62,7.0,29.26
2021-12-01 22:00:00,35.6,35.0,98.03,220.0,7.0,29.61,7.0,29.17
2021-12-01 23:00:00,36.5,36.0,98.43,200.0,12.0,29.52,10.0,27.73
2021-12-02 00:00:00,37.8,36.0,93.52,230.0,13.0,29.51,10.0,29.0
2021-12-02 01:00:00,37.6,36.0,93.88,230.0,10.0,29.5,10.0,29.99
2021-12-02 02:00:00,39.2,36.0,88.53,230.0,13.0,29.47,10.0,30.79
2021-12-02 03:00:00,39.6,36.3,87.85,240.0,13.0,29.44,10.0,31.3
2021-12-02 04:00:00,40.0,36.3,86.16,260.0,14.0,29.44,10.0,31.6
2021-12-02 05:00:00,39.7,36.0,86.82,270.0,11.0,29.46,10.0,32.2
2021-12-02 06:00:00,40.0,35.8,84.47,260.0,11.0,29.46,10.0,32.7
2021-12-02 07:00:00,40.0,35.8,84.47,260.0,11.0,29.46,10.0,32.7
2021-12-02 08:00:00,38.7,32.4,77.89,280.0,12.0,29.49,10.0,30.53
2021-12-02 09:00:00,37.4,30.9,77.14,290.0,9.0,29.51,10.0,30.23
2021-12-02 10:00:00,37.6,30.2,74.4,290.0,13.0,29.54,10.0,28.74
2021-12-02 11:00:00,37.4,28.9,71.11,310.0,14.0,29.56,10.0,28.12
2021-12-02 12:00:00,37.6,28.4,69.13,300.0,14.0,29.6,10.0,28.38
2021-12-02 13:00:00,37.2,28.8,71.38,290.0,10.0,29.64,10.0,29.49
2021-12-02 14:00:00,37.4,28.2,69.1,310.0,13.0,29.67,10.0,28.49
2021-12-02 15:00:00,37.2,28.4,70.22,310.0,19.0,29.72,10.0,26.31
2021-12-02 16:00:00,37.0,28.2,70.2,310.0,10.0,29.75,10.0,29.24
2021-12-02 17:00:00,38.8,28.4,65.95,300.0,16.0,29.77,10.0,29.28
2021-12-02 18:00:00,38.0,28.4,67.78,310.0,12.0,29.8,10.0,29.77
2021-12-02 19:00:00,37.6,26.4,63.66,320.0,16.0,29.82,10.0,27.72
2021-12-02 20:00:00,36.0,26.1,66.71,320.0,14.0,29.85,10.0,26.45
2021-12-02 21:00:00,35.0,25.3,67.68,310.0,11.0,29.9,10.0,26.13
2021-12-02 22:00:00,33.8,24.6,68.68,320.0,13.0,29.92,10.0,23.87
2021-12-02 23:00:00,32.7,25.2,73.59,290.0,5.0,29.95,10.0,27.23
2021-12-03 00:00:00,32.7,23.9,69.71,280.0,6.0,29.96,10.0,26.37
2021-12-03 01:00:00,31.1,24.1,74.98,0.0,0.0,29.96,10.0,31.1
2021-12-03 02:00:00,29.7,24.6,81.04,0.0,0.0,29.99,10.0,29.7
2021-12-03 03:00:00,29.8,26.6,87.7,0.0,0.0,29.99,10.0,29.8
2021-12-03 04:00:00,28.9,26.6,90.98,0.0,0.0,30.0,10.0,28.9
2021-12-03 05:00:00,29.3,28.2,95.6,0.0,0.0,30.02,10.0,29.3
2021-12-03 06:00:00,28.8,27.9,96.38,0.0,0.0,30.02,10.0,28.8
2021-12-03 07:00:00,29.8,27.9,92.52,0.0,0.0,30.03,3.0,29.8
2021-12-03 08:00:00,29.1,28.9,99.19,0.0,0.0,30.04,3.0,29.1
2021-12-03 09:00:00,28.4,28.4,100.0,0.0,0.0,30.02,4.0,28.4
2021-12-03 10:00:00,27.9,27.9,100.0,0.0,0.0,30.01,10.0,27.9
2021-12-03 11:00:00,27.1,27.1,100.0,0.0,0.0,30.01,10.0,27.1
2021-12-03 12:00:00,28.4,28.4,100.0,0.0,0.0,30.03,10.0,28.4
2021-12-03 13:00:00,29.1,29.1,100.0,170.0,3.0,30.03,0.5,25.37
2021-12-03 14:00:00,29.7,29.7,100.0,0.0,0.0,30.04,5.0,29.7
2021-12-03 15:00:00,30.0,30.0,100.0,180.0,3.0,30.04,4.0,26.4
2021-12-03 16:00:00,30.6,30.6,100.0,0.0,0.0,30.04,1.75,30.6
2021-12-03 17:00:00,31.5,31.1,98.4,230.0,5.0,30.03,1.75,25.8
2021-12-03 18:00:00,32.0,32.0,100.0,250.0,4.0,30.02,2.5,27.42
2021-12-03 19:00:00,32.0,32.0,100.0,240.0,6.0,30.0,3.0,25.53
2021-12-03 20:00:00,32.0,32.0,100.0,260.0,6.0,30.01,10.0,25.53
2021-12-03 21:00:00,32.0,32.0,100.0,260.0,6.0,30.0,5.0,25.53
2021-12-03 22:00:00,32.0,32.0,100.0,260.0,6.0,30.0,5.0,25.53
2021-12-03 23:00:00,32.0,31.5,98.0,290.0,8.0,30.03,10.0,24.11
2021-12-04 00:00:00,32.2,30.2,92.23,280.0,9.0,30.05,10.0,23.76
2021-12-04 01:00:00,31.1,29.3,92.94,260.0,6.0,30.05,10.0,24.45
2021-12-04 02:00:00,30.7,29.3,94.46,250.0,8.0,30.04,10.0,22.51
2021-12-04 03:00:00,30.6,29.3,94.85,260.0,11.0,30.04,10.0,20.7
2021-12-04 04:00:00,30.2,28.9,94.84,260.0,10.0,30.04,10.0,20.71
2021-12-04 05:00:00,29.3,26.8,90.25,260.0,12.0,30.04,10.0,18.57
2021-12-04 06:00:00,28.4,24.3,84.4,260.0,11.0,30.05,10.0,17.92
2021-12-04 07:00:00,27.3,21.6,78.83,270.0,13.0,30.06,10.0,15.55
2021-12-04 08:00:00,26.2,19.4,75.12,270.0,10.0,30.07,10.0,15.69
2021-12-04 09:00:00,25.3,17.1,70.64,280.0,11.0,30.06,10.0,14.0
2021-12-04 10:00:00,24.4,14.9,66.66,280.0,13.0,30.09,10.0,11.83
2021-12-04 11:00:00,23.7,13.8,65.41,280.0,12.0,30.1,10.0,11.44
2021-12-04 12:00:00,22.8,13.1,65.87,280.0,12.0,30.11,10.0,10.29
2021-12-04 13:00:00,23.4,12.7,63.11,290.0,11.0,30.13,10.0,11.6
2021-12-04 14:00:00,25.3,13.3,59.86,290.0,15.0,30.15,10.0,12.09
2021-12-04 15:00:00,27.5,12.6,52.99,300.0,13.0,30.16,10.0,15.8
2021-12-04 16:00:00,28.2,12.7,51.72,300.0,15.0,30.16,10.0,15.85
2021-12-04 17:00:00,30.2,11.7,45.6,290.0,15.0,30.16,10.0,18.45
2021-12-04 18:00:00,31.3,10.2,40.8,280.0,14.0,30.16,10.0,20.26
2021-12-04 19:00:00,31.5,9.9,39.93,290.0,17.0,30.17,10.0,19.42
2021-12-04 20:00:00,29.8,10.0,42.97,280.0,10.0,30.17,10.0,20.21
2021-12-04 21:00:00,28.4,9.7,44.89,280.0,9.0,30.19,10.0,19.04
2021-12-04 22:00:00,27.3,10.0,47.6,280.0,9.0,30.2,10.0,17.67
2021-12-04 23:00:00,26.6,10.6,50.33,270.0,10.0,30.2,10.0,16.2
2021-12-05 00:00:00,25.5,10.9,53.38,270.0,6.0,30.21,10.0,17.7
2021-12-05 01:00:00,26.1,10.9,52.07,270.0,5.0,30.21,10.0,19.39
2021-12-05 02:00:00,24.8,11.5,56.45,270.0,3.0,30.21,10.0,20.46
2021-12-05 03:00:00,23.9,12.2,60.45,240.0,3.0,30.21,10.0,19.43
2021-12-05 04:00:00,24.4,14.7,66.08,0.0,0.0,30.21,10.0,24.4
2021-12-05 05:00:00,24.4,12.6,60.26,0.0,0.0,30.2,10.0,24.4
2021-12-05 06:00:00,23.9,15.3,69.27,0.0,0.0,30.17,10.0,23.9
2021-12-05 07:00:00,23.7,16.3,72.95,0.0,0.0,30.15,10.0,23.7
2021-12-05 08:00:00,23.9,14.2,66.02,120.0,3.0,30.15,10.0,19.43
2021-12-05 09:00:00,23.9,13.5,64.02,120.0,8.0,30.13,7.0,14.14
2021-12-05 10:00:00,21.6,18.5,87.63,110.0,5.0,30.11,1.5,14.04
2021-12-05 11:00:00,20.8,18.9,92.22,100.0,11.0,30.08,1.25,8.31
2021-12-05 12:00:00,20.7,18.9,92.61,110.0,9.0,30.07,1.0,9.46
2021-12-05 13:00:00,20.7,18.9,92.61,80.0,11.0,30.02,0.5,8.19
2021-12-05 14:00:00,21.6,19.4,91.07,100.0,13.0,29.96,0.75,8.24
2021-12-05 15:00:00,23.0,21.2,92.69,110.0,13.0,29.91,0.75,10.04
2021-12-05 16:00:00,24.6,23.0,93.52,120.0,16.0,29.84,0.75,10.77
2021-12-05 17:00:00,25.7,24.1,93.55,130.0,18.0,29.76,0.75,11.46
2021-12-05 18:00:00,26.6,25.3,94.75,130.0,20.0,29.71,0.5,11.97
2021-12-05 19:00:00,27.0,25.5,93.98,130.0,16.0,29.68,0.75,13.9
2021-12-05 20:00:00,27.0,25.7,94.76,130.0,13.0,29.63,1.5,15.16
2021-12-05 21:00:00,27.0,26.1,96.35,110.0,20.0,29.56,1.0,12.5
2021-12-05 22:00:00,27.5,26.4,95.56,150.0,4.0,29.61,10.0,22.17
2021-12-05 23:00:00,27.5,27.1,98.37,120.0,3.0,29.6,10.0,23.54
2021-12-06 00:00:00,27.5,27.5,100.0,160.0,6.0,29.56,10.0,20.11
2021-12-06 01:00:00,28.0,28.0,100.0,160.0,8.0,29.54,0.75,19.19
2021-12-06 02:00:00,28.2,28.2,100.0,190.0,8.0,29.53,1.25,19.43
2021-12-06 03:00:00,28.4,28.4,100.0,230.0,5.0,29.49,4.0,22.12
2021-12-06 04:00:00,28.9,28.9,100.0,240.0,10.0,29.49,7.0,19.08
2021-12-06 05:00:00,29.3,27.1,91.37,250.0,12.0,29.48,10.0,18.57
2021-12-06 06:00:00,28.4,24.4,84.75,250.0,14.0,29.47,10.0,16.52
2021-12-06 07:00:00,27.5,23.2,83.63,250.0,13.0,29.46,10.0,15.8
2021-12-06 08:00:00,26.6,23.7,88.63,260.0,11.0,29.47,4.0,15.64
2021-12-06 09:00:00,26.6,22.8,85.35,270.0,15.0,29.47,7.0,13.78
2021-12-06 10:00:00,24.6,19.0,78.93,280.0,23.0,29.49,5.0,8.37
2021-12-06 11:00:00,23.5,19.9,85.88,280.0,24.0,29.52,2.0,6.59
2021-12-06 12:00:00,23.0,18.3,81.9,290.0,18.0,29.56,5.0,7.9
2021-12-06 13:00:00,23.0,17.4,78.79,290.0,20.0,29.6,5.0,7.19
2021-12-06 14:00:00,21.6,15.3,76.3,290.0,20.0,29.66,2.5,5.33
2021-12-06 15:00:00,20.1,12.2,70.97,300.0,18.0,29.72,3.0,4.08
2021-12-06 16:00:00,17.4,11.3,76.57,290.0,22.0,29.76,2.0,-0.97
2021-12-06 17:00:00,14.9,8.2,74.29,290.0,23.0,29.8,4.0,-4.67
2021-12-06 18:00:00,12.2,5.0,72.33,300.0,19.0,29.84,7.0,-6.75
2021-12-06 19:00:00,10.2,3.0,72.1,280.0,20.0,29.88,7.0,-9.82
2021-12-06 20:00:00,8.8,1.0,69.96,310.0,16.0,29.92,5.0,-9.82
2021-12-06 21:00:00,6.3,-0.6,72.67,290.0,17.0,29.97,7.0,-13.59
2021-12-06 22:00:00,5.0,-2.2,71.5,290.0,14.0,30.02,10.0,-13.64
2021-12-06 23:00:00,4.0,-4.0,68.39,300.0,11.0,30.05,10.0,-12.79
2021-12-07 00:00:00,3.2,-4.0,71.29,310.0,8.0,30.08,10.0,-11.36
2021-12-07 01:00:00,0.5,-7.6,67.92,310.0,11.0,30.09,10.0,-17.34
2021-12-07 02:00:00,-1.3,-10.3,64.75,300.0,10.0,30.1,10.0,-18.79
2021-12-07 03:00:00,-3.5,-12.1,65.74,300.0,7.0,30.1,10.0,-18.49
2021-12-07 04:00:00,-4.5,-12.5,67.6,290.0,7.0,30.11,10.0,-19.71
2021-12-07 05:00:00,-5.8,-13.2,69.49,270.0,8.0,30.15,10.0,-22.45
2021-12-07 06:00:00,-6.0,-13.4,69.46,270.0,7.0,30.15,10.0,-21.54
2021-12-07 07:00:00,-6.0,-13.4,69.46,270.0,7.0,30.15,10.0,-21.54
2021-12-07 08:00:00,-6.0,-13.4,69.46,270.0,7.0,30.15,10.0,-21.54
2021-12-07 09:00:00,-4.4,-11.2,71.77,260.0,4.0,30.14,10.0,-15.09
2021-12-07 10:00:00,-4.5,-11.2,72.12,250.0,4.0,30.12,10.0,-15.2
2021-12-07 11:00:00,-5.3,-11.4,74.21,0.0,0.0,30.13,10.0,-5.3
2021-12-07 12:00:00,-8.1,-12.8,79.27,0.0,0.0,30.12,10.0,-8.1
2021-12-07 13:00:00,-8.9,-13.2,80.8,0.0,0.0,30.11,10.0,-8.9
2021-12-07 14:00:00,-5.0,-9.9,79.16,0.0,0.0,30.12,10.0,-5.1
2021-12-07 15:00:00,-0.4,-7.8,70.17,240.0,7.0,30.12,10.0,-14.71
2021-12-07 16:00:00,2.0,-6.5,66.5,220.0,4.0,30.1,10.0,-7.5
2021-12-07 17:00:00,5.7,-4.7,61.46,200.0,5.0,30.07,10.0,-4.84
2021-12-07 18:00:00,7.2,-4.4,58.24,0.0,0.0,30.05,10.0,7.2
2021-12-07 19:00:00,7.2,-0.2,71.08,190.0,6.0,30.03,4.0,-4.34
2021-12-07 20:00:00,7.5,2.3,78.81,160.0,5.0,30.01,3.0,-2.7
2021-12-07 21:00:00,7.3,2.8,81.39,190.0,3.0,30.01,3.0,0.45
2021-12-07 22:00:00,7.2,3.6,84.83,150.0,5.0,29.97,2.0,-3.06
2021-12-07 23:00:00,6.8,3.2,84.8,140.0,5.0,29.97,2.0,-3.53
2021-12-08 00:00:00,6.8,3.2,84.8,170.0,3.0,29.97,1.5,-0.12
2021-12-08 01:00:00,6.8,3.2,84.8,180.0,4.0,29.95,3.0,-2.01
2021-12-08 02:00:00,6.8,3.4,85.59,0.0,0.0,29.94,3.0,6.8
2021-12-08 03:00:00,6.8,4.0,87.59,0.0,0.0,29.92,2.5,6.8
2021-12-08 04:00:00,7.2,4.0,86.81,0.0,0.0,29.9,4.0,7.2
2021-12-08 05:00:00,7.2,4.0,86.81,0.0,0.0,29.89,5.0,7.2
2021-12-08 06:00:00,6.6,4.0,88.39,0.0,0.0,29.88,10.0,6.6
2021-12-08 07:00:00,5.0,2.8,90.37,0.0,0.0,29.87,10.0,5.0
2021-12-08 08:00:00,2.3,0.3,91.1,0.0,0.0,29.86,10.0,2.3
2021-12-08 09:00:00,1.6,-0.8,89.37,0.0,0.0,29.86,10.0,1.6
2021-12-08 10:00:00,-1.5,-4.0,88.79,0.0,0.0,29.88,10.0,-1.5
2021-12-08 11:00:00,-6.2,-9.6,84.71,0.0,0.0,29.88,0.25,-6.2
2021-12-08 12:00:00,-7.2,-10.8,83.81,0.0,0.0,29.9,4.0,-7.2
2021-12-08 13:00:00,-13.4,-17.9,79.58,0.0,0.0,29.9,0.25,-13.4
2021-12-08 14:00:00,-6.5,-10.5,82.22,0.0,0.0,29.92,1.75,-6.5
2021-12-08 15:00:00,-0.4,-3.8,85.11,0.0,0.0,29.95,10.0,-0.4
2021-12-08 16:00:00,4.0,0.9,87.01,0.0,0.0,29.95,10.0,3.9
2021-12-08 17:00:00,8.0,5.4,89.27,0.0,0.0,29.95,10.0,7.9
2021-12-08 18:00:00,11.3,9.0,90.24,0.0,0.0,29.93,10.0,11.3
2021-12-08 19:00:00,14.5,9.1,78.72,0.0,0.0,29.93,10.0,14.5
2021-12-08 20:00:00,13.5,4.8,67.68,0.0,0.0,29.94,10.0,13.5
2021-12-08 21:00:00,7.5,0.5,72.47,220.0,4.0,29.97,10.0,-1.19
2021-12-08 22:00:00,11.7,4.0,70.31,0.0,0.0,29.98,10.0,11.7
2021-12-08 23:00:00,11.7,5.7,76.35,0.0,0.0,29.95,10.0,11.7
2021-12-09 00:00:00,13.1,8.6,81.85,0.0,0.0,29.95,10.0,13.1
2021-12-09 01:00:00,14.7,9.5,79.45,0.0,0.0,29.96,10.0,14.7
2021-12-09 02:00:00,15.4,9.5,77.06,0.0,0.0,29.95,10.0,15.4
2021-12-09 03:00:00,15.6,8.6,73.37,150.0,4.0,29.96,10.0,8.27
2021-12-09 04:00:00,15.3,9.5,77.4,130.0,4.0,29.95,10.0,7.92
2021-12-09 05:00:00,16.2,9.5,74.43,150.0,6.0,29.94,10.0,6.5
2021-12-09 06:00:00,16.3,9.0,72.46,140.0,8.0,29.91,10.0,4.77
2021-12-09 07:00:00,16.2,9.1,73.1,130.0,9.0,29.88,10.0,3.87
2021-12-09 08:00:00,16.2,8.4,70.84,130.0,8.0,29.88,10.0,4.65
2021-12-09 09:00:00,15.8,8.4,72.08,140.0,9.0,29.86,10.0,3.37
2021-12-09 10:00:00,17.1,10.4,74.52,130.0,9.0,29.83,10.0,4.99
2021-12-09 11:00:00,18.1,12.4,78.0,130.0,10.0,29.81,10.0,5.54
2021-12-09 12:00:00,19.2,14.9,83.04,120.0,12.0,29.77,10.0,5.71
2021-12-09 13:00:00,20.7,17.6,87.58,120.0,10.0,29.76,0.75,8.8
2021-12-09 14:00:00,22.3,20.3,91.88,120.0,11.0,29.74,2.5,10.21
2021-12-09 15:00:00,23.9,21.6,90.78,130.0,14.0,29.72,7.0,10.72
2021-12-09 16:00:00,25.7,23.9,92.77,120.0,13.0,29.66,3.0,13.5
2021-12-09 17:00:00,27.5,25.7,92.83,120.0,11.0,29.63,0.75,16.78
2021-12-09 18:00:00,27.5,25.7,92.83,120.0,11.0,29.63,0.75,16.78
2021-12-09 19:00:00,27.5,25.7,92.83,120.0,11.0,29.63,0.75,16.78
2021-12-09 20:00:00,27.5,25.7,92.83,120.0,11.0,29.63,0.75,16.78
2021-12-09 21:00:00,27.5,25.7,92.83,120.0,11.0,29.63,0.75,16.78
2021-12-09 22:00:00,27.5,25.7,92.83,120.0,11.0,29.63,0.75,16.78
2021-12-09 23:00:00,30.2,28.9,94.84,220.0,5.0,29.62,7.0,24.26
2021-12-10 00:00:00,29.8,28.4,94.44,240.0,9.0,29.65,7.0,20.78
2021-12-10 01:00:00,29.1,27.1,92.12,270.0,10.0,29.66,7.0,19.33
2021-12-10 02:00:00,28.4,26.6,92.86,280.0,14.0,29.68,7.0,16.52
2021-12-10 03:00:00,28.9,26.4,90.23,300.0,9.0,29.69,10.0,19.66
2021-12-10 04:00:00,29.7,26.4,87.33,300.0,8.0,29.71,10.0,21.28
2021-12-10 05:00:00,29.7,25.5,84.13,290.0,13.0,29.74,10.0,18.62
2021-12-10 06:00:00,29.3,24.8,83.06,300.0,15.0,29.78,10.0,17.28
2021-12-10 07:00:00,28.9,23.0,78.3,310.0,10.0,29.8,10.0,19.08
2021-12-10 08:00:00,27.0,21.6,79.81,310.0,5.0,29.83,10.0,20.46
2021-12-10 09:00:00,23.0,19.0,84.39,230.0,5.0,29.86,10.0,15.71
2021-12-10 10:00:00,25.0,20.5,82.75,300.0,4.0,29.87,10.0,19.25
2021-12-10 11:00:00,24.3,20.3,84.48,320.0,3.0,29.88,10.0,19.89
2021-12-10 12:00:00,22.5,19.4,87.68,0.0,0.0,29.88,10.0,22.5
2021-12-10 13:00:00,21.9,19.4,89.92,0.0,0.0,29.87,10.0,21.9
2021-12-10 14:00:00,24.3,20.7,85.93,0.0,0.0,29.9,10.0,24.3
2021-12-10 15:00:00,26.6,21.7,81.48,140.0,4.0,29.93,10.0,21.11
2021-12-10 16:00:00,27.5,21.7,78.51,0.0,0.0,29.93,10.0,27.5
2021-12-10 17:00:00,28.9,21.6,73.82,70.0,5.0,29.88,10.0,22.71
2021-12-10 18:00:00,29.3,21.9,73.55,90.0,6.0,29.87,10.0,22.28
2021-12-10 19:00:00,27.5,24.8,89.42,110.0,7.0,29.86,1.0,19.29
2021-12-10 20:00:00,27.3,26.1,95.16,80.0,6.0,29.85,0.75,19.87
2021-12-10 21:00:00,27.0,25.7,94.76,50.0,7.0,29.81,1.0,18.68
2021-12-10 22:00:00,26.6,25.7,96.34,80.0,6.0,29.75,2.5,19.03
2021-12-10 23:00:00,27.1,25.5,93.59,60.0,13.0,29.7,3.0,15.29
2021-12-11 00:00:00,27.5,26.6,96.36,60.0,13.0,29.67,0.5,15.8
2021-12-11 01:00:00,27.5,26.6,96.36,50.0,14.0,29.61,1.0,15.36
2021-12-11 02:00:00,27.5,26.6,96.36,50.0,14.0,29.61,1.0,15.36
2021-12-11 03:00:00,27.9,27.5,98.37,30.0,13.0,29.49,2.0,16.32
2021-12-11 04:00:00,27.5,27.3,99.18,30.0,14.0,29.46,1.25,15.36
2021-12-11 05:00:00,27.5,27.1,98.37,30.0,16.0,29.4,3.0,14.55
2021-12-11 06:00:00,27.5,26.6,96.36,20.0,15.0,29.35,1.5,14.95
2021-12-11 07:00:00,27.5,26.4,95.56,20.0,15.0,29.3,1.75,14.95
2021-12-11 08:00:00,27.1,26.2,96.35,10.0,13.0,29.29,1.0,15.29
2021-12-11 09:00:00,27.1,26.2,96.35,360.0,18.0,29.24,1.5,13.3
2021-12-11 10:00:00,27.3,25.3,92.06,360.0,20.0,29.2,4.0,12.9
2021-12-11 11:00:00,27.5,25.5,92.06,340.0,17.0,29.25,2.0,14.18
2021-12-11 12:00:00,27.3,25.3,92.06,330.0,19.0,29.29,1.75,13.22
2021-12-11 13:00:00,27.5,24.8,89.42,320.0,16.0,29.33,3.0,14.55
2021-12-11 14:00:00,27.9,24.8,87.96,310.0,15.0,29.37,4.0,15.46
2021-12-11 15:00:00,29.1,25.2,85.15,310.0,13.0,29.4,10.0,17.85
2021-12-11 16:00:00,30.6,23.7,75.24,310.0,17.0,29.45,10.0,18.24
2021-12-11 17:00:00,30.9,22.6,70.98,290.0,20.0,29.49,10.0,17.68
2021-12-11 18:00:00,31.6,21.0,64.48,280.0,16.0,29.53,10.0,19.9
2021-12-11 19:00:00,31.8,17.2,54.37,280.0,13.0,29.57,10.0,21.31
2021-12-11 20:00:00,31.1,16.7,54.73,260.0,12.0,29.61,10.0,20.86
2021-12-11 21:00:00,28.4,16.3,60.04,240.0,12.0,29.65,10.0,17.42
2021-12-11 22:00:00,24.8,16.2,69.37,240.0,10.0,29.7,10.0,13.94
2021-12-11 23:00:00,24.1,16.5,72.36,250.0,13.0,29.73,10.0,11.45
2021-12-12 00:00:00,23.4,15.8,72.29,240.0,9.0,29.76,10.0,12.82
2021-12-12 01:00:00,20.8,14.9,77.57,230.0,9.0,29.79,10.0,9.59
2021-12-12 02:00:00,19.9,14.0,77.48,240.0,10.0,29.79,10.0,7.79
2021-12-12 03:00:00,19.2,12.9,76.07,230.0,7.0,29.78,10.0,9.18
2021-12-12 04:00:00,17.4,12.4,80.39,230.0,8.0,29.8,10.0,6.13
2021-12-12 05:00:00,17.2,12.7,82.17,230.0,10.0,29.8,10.0,4.41
2021-12-12 06:00:00,15.8,12.0,84.65,230.0,9.0,29.8,10.0,3.37
2021-12-12 07:00:00,15.6,12.2,86.15,220.0,7.0,29.81,10.0,4.79
2021-12-12 08:00:00,15.6,12.9,88.85,220.0,9.0,29.82,10.0,3.12
2021-12-12 09:00:00,15.8,13.3,89.64,220.0,10.0,29.81,10.0,2.65
2021-12-12 10:00:00,16.2,13.6,89.27,220.0,10.0,29.8,10.0,3.15
2021-12-12 11:00:00,15.3,13.1,90.81,220.0,10.0,29.8,10.0,2.03
2021-12-12 12:00:00,16.3,14.2,91.25,220.0,12.0,29.8,10.0,2.02
2021-12-12 13:00:00,18.5,15.4,87.46,230.0,9.0,29.81,10.0,6.73
2021-12-12 14:00:00,21.2,16.9,83.19,220.0,13.0,29.81,10.0,7.73
2021-12-12 15:00:00,24.4,18.5,77.9,230.0,13.0,29.83,10.0,11.83
2021-12-12 16:00:00,27.1,19.0,71.15,230.0,8.0,29.82,10.0,18.08
2021-12-12 17:00:00,30.2,20.3,66.25,240.0,11.0,29.8,10.0,20.19
2021-12-12 18:00:00,33.0,21.0,61.2,240.0,9.0,29.82,10.0,24.63
2021-12-12 19:00:00,33.3,21.2,60.73,220.0,9.0,29.81,10.0,25.13
2021-12-12 20:00:00,32.0,20.1,61.07,220.0,8.0,29.81,10.0,24.11
2021-12-12 21:00:00,31.5,20.3,62.85,220.0,9.0,29.83,10.0,22.89
2021-12-12 22:00:00,30.2,20.3,66.25,220.0,8.0,29.83,10.0,21.9
2021-12-12 23:00:00,32.0,20.8,62.92,230.0,8.0,29.85,10.0,24.11
2021-12-13 00:00:00,30.0,19.8,65.38,220.0,8.0,29.87,10.0,21.65
2021-12-13 01:00:00,30.9,21.0,66.34,220.0,9.0,29.87,10.0,22.15
2021-12-13 02:00:00,31.5,21.9,67.26,240.0,5.0,29.88,10.0,25.8
2021-12-13 03:00:00,32.0,22.6,67.89,230.0,7.0,29.88,10.0,24.78
2021-12-13 04:00:00,31.6,23.5,71.65,200.0,3.0,29.87,10.0,28.23
2021-12-13 05:00:00,30.7,22.1,70.06,220.0,7.0,29.87,10.0,23.19
2021-12-13 06:00:00,30.6,21.7,69.17,230.0,8.0,29.86,10.0,22.39
2021-12-13 07:00:00,29.8,21.4,70.55,230.0,9.0,29.87,10.0,20.78
2021-12-13 08:00:00,29.3,21.0,70.8,230.0,8.0,29.86,10.0,20.79
2021-12-13 09:00:00,28.0,20.3,72.48,240.0,6.0,29.87,10.0,20.71
2021-12-13 10:00:00,28.2,19.9,70.67,260.0,8.0,29.9,10.0,19.43
2021-12-13 11:00:00,28.6,20.1,70.12,250.0,10.0,29.92,10.0,18.7
2021-12-13 12:00:00,27.5,19.6,71.81,270.0,5.0,29.94,10.0,21.05
2021-12-13 13:00:00,26.4,19.4,74.5,260.0,3.0,29.97,10.0,22.29
2021-12-13 14:00:00,28.8,20.5,70.74,270.0,7.0,30.01,10.0,20.88
2021-12-13 15:00:00,32.0,21.9,65.92,280.0,6.0,30.04,10.0,25.53
2021-12-13 16:00:00,34.5,23.0,62.46,250.0,7.0,30.06,10.0,27.83
2021-12-13 17:00:00,37.0,24.4,59.98,260.0,4.0,30.08,10.0,33.26
2021-12-13 18:00:00,36.0,24.6,62.67,0.0,0.0,30.08,10.0,36.1
2021-12-13 19:00:00,40.6,26.2,56.16,0.0,0.0,30.1,10.0,40.6
2021-12-13 20:00:00,38.3,25.0,58.44,280.0,5.0,30.15,10.0,33.88
2021-12-13 21:00:00,38.5,25.2,58.47,280.0,4.0,30.18,10.0,35.01
2021-12-13 22:00:00,29.5,22.8,75.77,0.0,0.0,30.21,10.0,29.5
2021-12-13 23:00:00,22.1,18.7,86.53,0.0,0.0,30.24,10.0,22.1
2021-12-14 00:00:00,20.1,18.0,91.4,0.0,0.0,30.27,10.0,20.1
2021-12-14 01:00:00,19.8,18.3,93.78,0.0,0.0,30.29,10.0,19.8
2021-12-14 02:00:00,21.9,19.0,88.4,0.0,0.0,30.3,10.0,21.9
2021-12-14 03:00:00,23.7,20.5,87.37,40.0,4.0,30.31,10.0,17.73
2021-12-14 04:00:00,23.0,19.4,85.85,50.0,4.0,30.32,10.0,16.91
2021-12-14 05:00:00,27.3,17.6,66.45,70.0,6.0,30.34,10.0,19.87
2021-12-14 06:00:00,32.0,22.1,66.48,80.0,7.0,30.35,10.0,24.78
2021-12-14 07:00:00,30.9,24.4,76.54,90.0,10.0,30.36,10.0,21.59
2021-12-14 08:00:00,30.9,27.0,85.26,90.0,8.0,30.38,10.0,22.76
2021-12-14 09:00:00,29.3,27.1,91.37,90.0,10.0,30.39,10.0,19.58
2021-12-14 10:00:00,29.7,28.0,93.28,90.0,11.0,30.38,10.0,19.56
2021-12-14 11:00:00,30.0,29.1,96.4,100.0,11.0,30.38,10.0,19.94
2021-12-14 12:00:00,30.4,29.7,97.19,100.0,14.0,30.37,10.0,19.1
2021-12-14 13:00:00,31.1,30.7,98.39,100.0,13.0,30.37,10.0,20.42
2021-12-14 14:00:00,32.0,30.2,92.97,100.0,14.0,30.37,10.0,21.16
2021-12-14 15:00:00,33.0,29.1,85.05,110.0,14.0,30.36,10.0,22.58
2021-12-14 16:00:00,34.7,28.9,79.13,120.0,13.0,30.31,10.0,25.03
2021-12-14 17:00:00,34.7,29.8,82.09,130.0,12.0,30.29,10.0,25.44
2021-12-14 18:00:00,35.0,30.7,83.81,120.0,11.0,30.24,10.0,26.38
2021-12-14 19:00:00,35.0,31.1,85.18,120.0,11.0,30.22,10.0,26.38
2021-12-14 20:00:00,35.0,31.1,85.18,120.0,10.0,30.21,10.0,26.86
2021-12-14 21:00:00,34.2,31.1,88.28,110.0,13.0,30.18,10.0,24.39
2021-12-14 22:00:00,34.0,31.8,91.55,120.0,16.0,30.17,10.0,23.03
2021-12-14 23:00:00,34.2,32.0,91.55,110.0,18.0,30.15,10.0,22.64
2021-12-15 00:00:00,34.2,32.0,91.55,120.0,14.0,30.13,10.0,24.0
2021-12-15 01:00:00,35.0,32.4,89.76,120.0,14.0,30.11,10.0,25.16
2021-12-15 02:00:00,35.0,33.0,91.59,130.0,17.0,30.08,10.0,24.14
2021-12-15 03:00:00,35.6,33.0,89.79,120.0,13.0,30.06,10.0,26.18
2021-12-15 04:00:00,36.0,33.3,89.45,140.0,10.0,30.04,10.0,28.11
2021-12-15 05:00:00,35.2,34.7,98.03,130.0,10.0,30.02,2.5,26.98
2021-12-15 06:00:00,34.7,34.7,100.0,140.0,9.0,29.98,1.75,26.87
2021-12-15 07:00:00,35.0,35.0,100.0,140.0,8.0,29.96,0.75,27.69
2021-12-15 08:00:00,34.7,34.7,100.0,140.0,9.0,29.93,0.25,26.87
2021-12-15 09:00:00,35.0,35.0,100.0,120.0,6.0,29.89,0.25,29.26
2021-12-15 10:00:00,35.2,35.2,100.0,130.0,9.0,29.86,0.25,27.49
2021-12-15 11:00:00,35.2,35.2,100.0,120.0,9.0,29.83,0.5,27.49
2021-12-15 12:00:00,35.6,35.6,100.0,140.0,6.0,29.82,0.25,29.87
2021-12-15 13:00:00,37.0,37.0,100.0,120.0,6.0,29.78,0.25,31.55
2021-12-15 14:00:00,36.7,36.7,100.0,130.0,6.0,29.76,0.25,31.19
2021-12-15 15:00:00,39.2,39.2,100.0,150.0,6.0,29.75,0.25,34.2
2021-12-15 16:00:00,39.2,39.2,100.0,140.0,5.0,29.71,0.25,34.95
2021-12-15 17:00:00,38.7,38.7,100.0,150.0,6.0,29.67,0.25,33.6
2021-12-15 18:00:00,41.2,41.2,100.0,150.0,6.0,29.63,0.25,36.61
2021-12-15 19:00:00,42.6,42.6,100.0,160.0,12.0,29.6,0.25,35.49
2021-12-15 20:00:00,44.0,44.0,100.0,150.0,11.0,29.58,0.25,37.5
2021-12-15 21:00:00,42.8,42.8,100.0,150.0,8.0,29.57,0.25,37.42
2021-12-15 22:00:00,43.0,43.0,100.0,140.0,10.0,29.54,0.25,36.76
2021-12-15 23:00:00,43.3,43.3,100.0,150.0,8.0,29.54,0.25,38.03
2021-12-16 00:00:00,46.0,46.0,100.0,140.0,13.0,29.5,0.25,39.38
2021-12-16 01:00:00,47.0,47.0,100.0,140.0,11.0,29.41,0.25,41.3
2021-12-16 02:00:00,47.8,47.8,100.0,140.0,14.0,29.39,0.25,41.53
2021-12-16 03:00:00,50.7,50.7,100.0,140.0,17.0,29.3,0.25,50.7
2021-12-16 04:00:00,52.7,52.7,100.0,220.0,22.0,29.29,3.0,52.7
2021-12-16 05:00:00,48.7,48.7,100.0,210.0,12.0,29.19,7.0,43.26
2021-12-16 06:00:00,47.8,47.7,99.63,190.0,20.0,29.13,7.0,40.12
2021-12-16 07:00:00,49.6,37.8,63.68,210.0,26.0,29.09,4.0,41.48
2021-12-16 08:00:00,45.5,37.6,73.71,230.0,35.0,29.12,7.0,34.55
2021-12-16 09:00:00,37.8,32.0,79.39,230.0,28.0,29.21,10.0,25.05
2021-12-16 10:00:00,33.8,30.2,86.49,240.0,26.0,29.26,10.0,20.02
2021-12-16 11:00:00,32.0,29.3,89.63,230.0,18.0,29.33,7.0,19.75
2021-12-16 12:00:00,31.1,28.4,89.59,240.0,20.0,29.36,10.0,17.94
2021-12-16 13:00:00,29.7,26.6,88.06,240.0,30.0,29.39,10.0,13.53
2021-12-16 14:00:00,29.1,25.7,86.94,240.0,21.0,29.41,10.0,14.99
2021-12-16 15:00:00,27.5,24.8,89.42,240.0,25.0,29.46,7.0,11.72
2021-12-16 16:00:00,25.7,23.4,90.85,250.0,16.0,29.49,10.0,12.21
2021-12-16 17:00:00,24.3,19.2,80.61,250.0,22.0,29.51,7.0,8.27
2021-12-16 18:00:00,23.2,17.2,77.46,250.0,21.0,29.56,10.0,7.12
2021-12-16 19:00:00,23.5,17.2,76.49,260.0,20.0,29.58,10.0,7.85
2021-12-16 20:00:00,22.6,16.9,78.41,270.0,21.0,29.62,10.0,6.32
2021-12-16 21:00:00,21.2,15.6,78.63,260.0,17.0,29.68,10.0,5.93
2021-12-16 22:00:00,19.4,12.4,73.77,250.0,22.0,29.73,10.0,1.71
2021-12-16 23:00:00,18.5,12.2,76.0,260.0,17.0,29.76,10.0,2.39
2021-12-17 00:00:00,17.4,10.9,75.22,260.0,15.0,29.81,10.0,1.85
2021-12-17 01:00:00,16.3,9.5,74.1,260.0,16.0,29.83,10.0,-0.05
2021-12-17 02:00:00,15.4,8.8,74.68,260.0,18.0,29.87,10.0,-2.1
2021-12-17 03:00:00,14.7,8.6,76.3,270.0,18.0,29.9,10.0,-3.02
2021-12-17 04:00:00,13.1,6.8,75.46,270.0,15.0,29.93,10.0,-3.72
2021-12-17 05:00:00,12.2,6.3,76.75,270.0,17.0,29.95,10.0,-5.86
2021-12-17 06:00:00,11.3,6.0,78.43,280.0,15.0,29.99,10.0,-6.06
2021-12-17 07:00:00,10.8,4.6,75.57,270.0,13.0,30.02,10.0,-5.59
2021-12-17 08:00:00,9.9,4.0,76.88,260.0,12.0,30.04,10.0,-6.13
2021-12-17 09:00:00,9.1,4.0,79.68,260.0,9.0,30.07,10.0,-4.96
2021-12-17 10:00:00,8.6,4.0,81.49,270.0,11.0,30.1,10.0,-7.1
2021-12-17 11:00:00,8.2,3.6,81.08,270.0,11.0,30.14,10.0,-7.61
2021-12-17 12:00:00,7.5,3.4,82.92,290.0,10.0,30.17,10.0,-7.76
2021-12-17 13:00:00,6.8,2.5,82.1,310.0,10.0,30.18,10.0,-8.63
2021-12-17 14:00:00,7.7,2.8,79.93,300.0,7.0,30.22,10.0,-4.84
2021-12-17 15:00:00,8.1,3.6,81.45,310.0,4.0,30.25,10.0,-0.49
2021-12-17 16:00:00,10.9,4.6,75.23,360.0,5.0,30.25,10.0,1.34
2021-12-17 17:00:00,12.9,6.0,73.74,360.0,6.0,30.23,10.0,2.53
2021-12-17 18:00:00,14.0,6.8,72.53,10.0,7.0,30.21,10.0,2.84
2021-12-17 19:00:00,14.9,7.7,72.63,20.0,5.0,30.21,10.0,6.09
2021-12-17 20:00:00,15.8,8.0,70.47,20.0,7.0,30.21,10.0,5.03
2021-12-17 21:00:00,15.8,8.4,72.08,70.0,6.0,30.21,10.0,6.02
2021-12-17 22:00:00,15.8,8.6,72.73,80.0,5.0,30.22,10.0,7.16
2021-12-17 23:00:00,15.3,8.8,75.0,100.0,3.0,30.24,10.0,9.6
2021-12-18 00:00:00,15.1,9.1,76.69,80.0,3.0,30.23,10.0,9.37
2021-12-18 01:00:00,15.4,9.5,77.06,70.0,3.0,30.22,10.0,9.71
2021-12-18 02:00:00,15.8,10.2,78.14,80.0,3.0,30.22,10.0,10.17
2021-12-18 03:00:00,16.5,10.6,77.16,70.0,6.0,30.21,10.0,6.86
2021-12-18 04:00:00,17.6,11.7,77.27,70.0,5.0,30.2,10.0,9.29
2021-12-18 05:00:00,17.6,14.9,88.95,60.0,6.0,30.19,1.5,8.19
2021-12-18 06:00:00,17.6,15.4,90.91,40.0,6.0,30.17,7.0,8.19
2021-12-18 07:00:00,18.5,16.3,90.95,30.0,5.0,30.17,4.0,10.36
2021-12-18 08:00:00,18.3,16.3,91.73,20.0,3.0,30.16,4.0,13.03
2021-12-18 09:00:00,18.1,15.8,90.53,20.0,5.0,30.13,4.0,9.89
2021-12-18 10:00:00,18.1,15.8,90.53,10.0,4.0,30.13,7.0,11.19
2021-12-18 11:00:00,18.0,15.8,90.92,10.0,4.0,30.14,2.0,11.07
2021-12-18 12:00:00,18.0,16.2,92.52,10.0,5.0,30.14,1.75,9.77
2021-12-18 13:00:00,18.1,16.0,91.32,10.0,5.0,30.14,1.25,9.89
2021-12-18 14:00:00,18.9,16.3,89.4,10.0,6.0,30.14,3.0,9.75
2021-12-18 15:00:00,20.1,16.7,86.42,360.0,4.0,30.15,10.0,13.52
2021-12-18 16:00:00,21.2,17.4,85.0,340.0,4.0,30.14,10.0,14.81
2021-12-18 17:00:00,22.8,17.8,80.83,310.0,4.0,30.12,10.0,16.68
2021-12-18 18:00:00,23.7,17.4,76.51,320.0,5.0,30.11,10.0,16.54
2021-12-18 19:00:00,23.5,15.8,71.98,340.0,8.0,30.11,10.0,13.64
2021-12-18 20:00:00,23.4,15.8,72.29,340.0,10.0,30.12,10.0,12.18
2021-12-18 21:00:00,23.0,15.3,71.93,330.0,8.0,30.15,10.0,13.03
2021-12-18 22:00:00,22.1,15.1,74.06,320.0,6.0,30.17,10.0,13.61
2021-12-18 23:00:00,21.7,14.9,74.67,320.0,6.0,30.19,10.0,13.13
2021-12-19 00:00:00,21.2,14.4,74.62,350.0,4.0,30.2,10.0,14.81
2021-12-19 01:00:00,20.3,13.1,73.22,0.0,0.0,30.21,10.0,20.3
2021-12-19 02:00:00,13.3,11.1,90.73,0.0,0.0,30.21,10.0,13.3
2021-12-19 03:00:00,10.8,8.4,89.81,0.0,0.0,30.22,10.0,10.8
2021-12-19 04:00:00,14.0,11.8,90.76,0.0,0.0,30.24,10.0,14.0
2021-12-19 05:00:00,16.5,14.0,89.68,0.0,0.0,30.24,10.0,16.5
2021-12-19 06:00:00,17.1,14.4,88.92,0.0,0.0,30.24,10.0,17.1
2021-12-19 07:00:00,15.3,12.7,89.23,0.0,0.0,30.25,10.0,15.3
2021-12-19 08:00:00,14.4,12.2,90.78,0.0,0.0,30.25,10.0,14.4
2021-12-19 09:00:00,9.7,9.0,96.91,0.0,0.0,30.24,10.0,9.7
2021-12-19 10:00:00,7.3,6.0,94.7,0.0,0.0,30.23,5.0,7.3
2021-12-19 11:00:00,5.7,4.0,92.08,0.0,0.0,30.25,10.0,5.7
2021-12-19 12:00:00,2.5,-0.2,88.17,0.0,0.0,30.24,10.0,2.5
2021-12-19 13:00:00,4.0,1.4,88.25,0.0,0.0,30.25,10.0,4.1
2021-12-19 14:00:00,9.7,7.7,91.4,0.0,0.0,30.25,10.0,9.7
2021-12-19 15:00:00,16.3,14.9,94.09,190.0,4.0,30.24,10.0,9.09
2021-12-19 16:00:00,19.6,17.6,91.78,200.0,8.0,30.21,10.0,8.84
2021-12-19 17:00:00,20.3,15.4,80.98,170.0,9.0,30.18,10.0,8.97
2021-12-19 18:00:00,20.3,15.6,81.69,190.0,10.0,30.15,10.0,8.3
2021-12-19 19:00:00,21.6,16.3,79.69,180.0,11.0,30.1,10.0,9.32
2021-12-19 20:00:00,21.6,16.9,81.79,190.0,12.0,30.1,10.0,8.77
2021-12-19 21:00:00,21.2,17.4,85.0,170.0,9.0,30.08,10.0,10.08
2021-12-19 22:00:00,21.6,18.0,85.76,170.0,9.0,30.05,10.0,10.58
2021-12-19 23:00:00,22.1,18.3,85.06,180.0,11.0,30.02,10.0,9.96
2021-12-20 00:00:00,22.6,19.0,85.83,180.0,11.0,30.01,10.0,10.59
2021-12-20 01:00:00,22.6,19.2,86.56,180.0,12.0,29.98,10.0,10.04
2021-12-20 02:00:00,23.2,19.8,86.6,200.0,8.0,29.98,10.0,13.27
2021-12-20 03:00:00,23.7,19.9,85.16,210.0,9.0,29.97,10.0,13.19
2021-12-20 04:00:00,24.3,19.4,81.3,220.0,12.0,29.97,10.0,12.2
2021-12-20 05:00:00,24.4,19.2,80.27,210.0,14.0,29.95,10.0,11.37
2021-12-20 06:00:00,24.6,19.4,80.29,220.0,12.0,29.94,10.0,12.58
2021-12-20 07:00:00,24.6,19.8,81.67,230.0,13.0,29.92,10.0,12.09
2021-12-20 08:00:00,24.6,19.9,82.02,230.0,12.0,29.93,10.0,12.58
2021-12-20 09:00:00,24.4,19.9,82.71,220.0,10.0,29.91,10.0,13.44
2021-12-20 10:00:00,23.2,19.4,85.13,240.0,10.0,29.91,10.0,11.93
2021-12-20 11:00:00,22.1,18.9,87.28,240.0,9.0,29.93,10.0,11.2
2021-12-20 12:00:00,21.6,18.7,88.38,230.0,8.0,29.93,10.0,11.3
2021-12-20 13:00:00,22.1,19.2,88.41,250.0,6.0,29.93,10.0,13.61
2021-12-20 14:00:00,24.4,20.3,84.13,260.0,10.0,29.95,10.0,13.44
2021-12-20 15:00:00,25.2,20.3,81.37,260.0,9.0,29.95,10.0,15.06
2021-12-20 16:00:00,26.1,21.0,80.75,260.0,7.0,29.96,10.0,17.59
2021-12-20 17:00:00,27.5,21.0,76.22,260.0,9.0,29.94,10.0,17.92
2021-12-20 18:00:00,28.4,20.1,70.69,270.0,9.0,29.94,10.0,19.04
2021-12-20 19:00:00,28.0,18.5,67.11,280.0,13.0,29.95,10.0,16.44
2021-12-20 20:00:00,27.9,16.2,61.02,270.0,10.0,29.98,10.0,17.83
2021-12-20 21:00:00,26.2,17.6,69.54,280.0,9.0,30.01,10.0,16.3
2021-12-20 22:00:00,24.4,13.5,62.69,290.0,16.0,30.03,10.0,10.51
2021-12-20 23:00:00,20.3,6.6,54.75,300.0,12.0,30.06,10.0,7.11
2021-12-21 00:00:00,17.4,5.4,58.7,310.0,12.0,30.08,10.0,3.42
2021-12-21 01:00:00,14.0,3.0,60.94,310.0,7.0,30.1,10.0,2.84
2021-12-21 02:00:00,11.3,1.6,64.34,320.0,5.0,30.1,10.0,1.81
2021-12-21 03:00:00,9.1,1.0,69.02,340.0,5.0,30.1,10.0,-0.8
2021-12-21 04:00:00,6.8,0.1,73.41,330.0,5.0,30.1,10.0,-3.53
2021-12-21 05:00:00,4.6,-0.4,79.28,280.0,3.0,30.13,10.0,-2.63
2021-12-21 06:00:00,6.4,0.5,76.17,340.0,5.0,30.1,10.0,-4.01
2021-12-21 07:00:00,6.4,1.0,77.97,350.0,8.0,30.05,10.0,-7.42
2021-12-21 08:00:00,6.8,1.4,78.01,0.0,0.0,30.04,10.0,6.8
2021-12-21 09:00:00,7.5,2.7,80.28,0.0,0.0,30.02,10.0,7.5
2021-12-21 10:00:00,8.2,3.6,81.08,0.0,0.0,29.98,10.0,8.2
2021-12-21 11:00:00,8.8,4.3,81.51,100.0,5.0,29.94,10.0,-1.16
2021-12-21 12:00:00,9.5,5.0,81.56,140.0,10.0,29.9,10.0,-5.25
2021-12-21 13:00:00,9.9,5.4,81.6,130.0,7.0,29.89,10.0,-2.16
2021-12-21 14:00:00,10.6,6.0,81.65,140.0,9.0,29.83,10.0,-3.1
2021-12-21 15:00:00,11.8,6.8,79.92,160.0,5.0,29.81,10.0,2.41
2021-12-21 16:00:00,12.6,9.3,86.35,150.0,6.0,29.73,1.0,2.17
2021-12-21 17:00:00,13.1,10.4,88.72,160.0,5.0,29.65,0.75,3.95
2021-12-21 18:00:00,14.5,11.7,88.4,180.0,7.0,29.59,2.5,3.45
2021-12-21 19:00:00,17.1,13.5,85.48,230.0,11.0,29.57,10.0,3.64
2021-12-21 20:00:00,17.4,11.3,76.57,270.0,14.0,29.58,7.0,2.34
2021-12-21 21:00:00,16.3,10.9,78.88,280.0,15.0,29.61,2.5,0.43
2021-12-21 22:00:00,14.7,8.8,76.99,290.0,15.0,29.6,7.0,-1.65
2021-12-21 23:00:00,13.6,7.5,76.19,290.0,14.0,29.63,10.0,-2.56
2021-12-22 00:00:00,12.6,5.4,72.37,290.0,20.0,29.66,5.0,-6.63
2021-12-22 01:00:00,11.5,6.0,77.74,310.0,12.0,29.69,4.0,-4.09
2021-12-22 02:00:00,10.4,5.0,78.35,300.0,15.0,29.71,7.0,-7.22
2021-12-22 03:00:00,10.4,4.6,76.92,300.0,14.0,29.74,4.0,-6.68
2021-12-22 04:00:00,10.0,2.8,72.08,310.0,12.0,29.75,10.0,-6.0
2021-12-22 05:00:00,9.5,4.6,80.08,290.0,9.0,29.78,4.0,-4.46
2021-12-22 06:00:00,9.3,3.4,76.46,300.0,13.0,29.79,10.0,-7.51
2021-12-22 07:00:00,8.6,1.8,73.27,300.0,13.0,29.81,10.0,-8.41
2021-12-22 08:00:00,8.4,1.4,72.57,310.0,11.0,29.82,10.0,-7.36
2021-12-22 09:00:00,8.2,1.4,73.22,300.0,10.0,29.83,10.0,-6.88
2021-12-22 10:00:00,8.2,2.3,76.35,300.0,9.0,29.85,10.0,-6.08
2021-12-22 11:00:00,5.7,0.1,77.18,280.0,8.0,29.87,10.0,-8.28
2021-12-22 12:00:00,3.7,-0.9,80.71,280.0,8.0,29.9,10.0,-10.75
2021-12-22 13:00:00,1.4,-2.4,83.63,260.0,6.0,29.91,10.0,-11.32
2021-12-22 14:00:00,4.5,-0.4,79.65,280.0,3.0,29.93,10.0,-2.75
2021-12-22 15:00:00,6.6,0.1,74.08,0.0,0.0,29.94,10.0,6.6
2021-12-22 16:00:00,6.8,0.5,74.8,260.0,5.0,29.96,10.0,-3.53
2021-12-22 17:00:00,10.0,2.0,69.78,240.0,6.0,29.95,10.0,-0.97
2021-12-22 18:00:00,11.7,2.0,64.69,240.0,7.0,29.95,10.0,0.03
2021-12-22 19:00:00,12.2,2.3,63.87,230.0,5.0,29.93,10.0,2.88
2021-12-22 20:00:00,11.3,2.3,66.46,220.0,6.0,29.93,10.0,0.6
2021-12-22 21:00:00,10.4,2.0,68.54,230.0,4.0,29.95,10.0,2.2
2021-12-22 22:00:00,8.2,0.5,70.21,0.0,0.0,29.95,10.0,8.2
2021-12-22 23:00:00,3.6,-1.5,78.82,0.0,0.0,29.94,10.0,3.6
2021-12-23 00:00:00,3.7,-0.9,80.71,0.0,0.0,29.96,10.0,3.7
2021-12-23 01:00:00,10.0,3.2,73.42,0.0,0.0,29.96,10.0,10.0
2021-12-23 02:00:00,10.9,3.7,72.18,170.0,4.0,29.96,10.0,2.78
2021-12-23 03:00:00,12.6,4.6,69.77,170.0,5.0,29.95,10.0,3.36
2021-12-23 04:00:00,12.0,4.0,70.02,180.0,4.0,29.94,10.0,4.07
2021-12-23 05:00:00,12.2,5.0,72.33,150.0,4.0,29.92,10.0,4.3
2021-12-23 06:00:00,13.5,5.4,69.56,160.0,5.0,29.91,10.0,4.42
2021-12-23 07:00:00,13.8,5.5,68.96,150.0,5.0,29.89,10.0,4.78
2021-12-23 08:00:00,14.0,6.8,72.53,140.0,5.0,29.87,10.0,5.02
2021-12-23 09:00:00,14.9,7.5,71.98,130.0,8.0,29.84,10.0,3.05
2021-12-23 10:00:00,15.8,9.1,74.38,140.0,7.0,29.82,10.0,5.03
2021-12-23 11:00:00,16.5,10.0,75.13,150.0,9.0,29.81,10.0,4.24
2021-12-23 12:00:00,16.0,10.0,76.77,120.0,7.0,29.78,10.0,5.28
2021-12-23 13:00:00,17.6,11.5,76.59,140.0,9.0,29.76,10.0,5.61
2021-12-23 14:00:00,17.6,14.9,88.95,130.0,6.0,29.75,0.5,8.19
2021-12-23 15:00:00,18.1,16.2,92.12,120.0,5.0,29.76,0.5,9.89
2021-12-23 16:00:00,20.3,17.8,89.85,130.0,6.0,29.73,10.0,11.44
2021-12-23 17:00:00,21.7,18.9,88.77,110.0,7.0,29.69,10.0,12.22
2021-12-23 18:00:00,24.6,21.4,87.42,90.0,6.0,29.65,10.0,16.62
2021-12-23 19:00:00,25.3,21.2,84.19,120.0,5.0,29.63,10.0,18.44
2021-12-23 20:00:00,26.6,21.4,80.45,0.0,0.0,29.65,10.0,26.6
2021-12-23 21:00:00,27.0,22.1,81.51,0.0,0.0,29.67,10.0,27.0
2021-12-23 22:00:00,21.2,19.4,92.63,0.0,0.0,29.67,10.0,21.2
2021-12-23 23:00:00,12.9,11.7,94.83,0.0,0.0,29.68,1.0,12.9
2021-12-24 00:00:00,8.8,7.0,92.2,0.0,0.0,29.69,0.25,8.8
2021-12-24 01:00:00,7.0,5.0,91.29,0.0,0.0,29.68,0.25,7.0
2021-12-24 02:00:00,6.8,4.8,91.28,0.0,0.0,29.69,0.25,6.8
2021-12-24 03:00:00,4.8,2.0,88.29,0.0,0.0,29.69,0.25,4.8
2021-12-24 04:00:00,3.6,1.0,88.64,0.0,0.0,29.67,5.0,3.6
2021-12-24 05:00:00,7.3,5.2,90.89,0.0,0.0,29.69,0.25,7.3
2021-12-24 06:00:00,16.7,15.6,95.34,140.0,5.0,29.68,0.75,8.22
2021-12-24 07:00:00,15.8,14.7,95.32,0.0,0.0,29.71,0.75,15.8
2021-12-24 08:00:00,14.7,13.1,93.22,0.0,0.0,29.67,5.0,14.7
2021-12-24 09:00:00,21.0,20.5,97.9,140.0,6.0,29.65,7.0,12.28
2021-12-24 10:00:00,23.0,22.6,98.33,160.0,4.0,29.63,7.0,16.91
2021-12-24 11:00:00,25.2,25.2,100.0,140.0,6.0,29.6,10.0,17.34
2021-12-24 12:00:00,25.5,25.5,100.0,130.0,14.0,29.56,5.0,12.78
2021-12-24 13:00:00,25.5,25.5,100.0,130.0,13.0,29.53,2.0,13.24
2021-12-24 14:00:00,26.6,26.6,100.0,140.0,7.0,29.51,1.75,18.2
2021-12-24 15:00:00,29.1,29.1,100.0,150.0,10.0,29.51,2.5,19.33
2021-12-24 16:00:00,30.9,30.9,100.0,150.0,12.0,29.47,1.25,20.6
2021-12-24 17:00:00,32.0,32.0,100.0,170.0,10.0,29.42,0.25,22.97
2021-12-24 18:00:00,33.0,33.0,100.0,170.0,9.0,29.39,0.75,24.63
2021-12-24 19:00:00,33.8,33.8,100.0,150.0,11.0,29.35,0.25,24.74
2021-12-24 20:00:00,34.0,34.0,100.0,0.0,0.0,29.38,0.25,34.0
2021-12-24 21:00:00,33.0,33.0,100.0,0.0,0.0,29.4,0.25,33.1
2021-12-24 22:00:00,32.4,32.4,100.0,140.0,3.0,29.38,0.25,29.15
2021-12-24 23:00:00,33.0,33.0,100.0,170.0,3.0,29.39,0.25,29.72
2021-12-25 00:00:00,33.6,33.6,100.0,0.0,0.0,29.42,0.25,33.6
2021-12-25 01:00:00,33.3,33.3,100.0,0.0,0.0,29.44,0.25,33.3
2021-12-25 02:00:00,35.0,35.0,100.0,300.0,5.0,29.44,1.75,30.08
2021-12-25 03:00:00,35.0,35.0,100.0,310.0,6.0,29.45,7.0,29.02
2021-12-25 04:00:00,33.8,33.8,100.0,300.0,5.0,29.47,7.0,28.53
2021-12-25 05:00:00,33.0,33.0,100.0,320.0,7.0,29.48,7.0,25.88
2021-12-25 06:00:00,31.6,31.6,100.0,330.0,10.0,29.49,10.0,22.47
2021-12-25 07:00:00,31.6,25.2,76.93,340.0,10.0,29.53,10.0,22.47
2021-12-25 08:00:00,30.2,21.9,70.9,340.0,9.0,29.57,10.0,21.28
2021-12-25 09:00:00,28.2,19.0,68.01,300.0,6.0,29.59,10.0,20.95
2021-12-25 10:00:00,26.6,15.1,61.37,320.0,7.0,29.59,10.0,18.2
2021-12-25 11:00:00,26.4,12.9,56.19,330.0,12.0,29.61,10.0,14.87
2021-12-25 12:00:00,24.4,12.2,59.2,330.0,11.0,29.62,10.0,12.86
2021-12-25 13:00:00,22.6,11.3,61.35,340.0,12.0,29.64,10.0,10.04
2021-12-25 14:00:00,21.4,11.3,64.54,340.0,9.0,29.68,10.0,10.33
2021-12-25 15:00:00,23.7,12.6,62.05,350.0,9.0,29.7,10.0,13.19
2021-12-25 16:00:00,26.2,11.8,53.97,320.0,3.0,29.74,10.0,22.06
2021-12-25 17:00:00,28.4,12.0,49.73,0.0,0.0,29.76,10.0,28.4
2021-12-25 18:00:00,29.3,12.0,47.94,330.0,7.0,29.76,10.0,21.49
2021-12-25 19:00:00,29.3,11.5,46.88,340.0,7.0,29.79,10.0,21.49
2021-12-25 20:00:00,28.9,13.5,52.06,340.0,8.0,29.81,10.0,20.29
2021-12-25 21:00:00,27.5,13.1,54.17,340.0,6.0,29.84,10.0,20.11
2021-12-25 22:00:00,26.4,14.4,60.02,0.0,0.0,29.82,10.0,26.4
2021-12-25 23:00:00,26.4,13.8,58.46,340.0,9.0,29.88,10.0,16.55
2021-12-26 00:00:00,25.5,12.9,58.33,350.0,5.0,29.91,10.0,18.68
2021-12-26 01:00:00,24.3,13.1,61.86,20.0,6.0,29.89,10.0,16.26
2021-12-26 02:00:00,22.8,14.0,68.53,10.0,4.0,29.92,10.0,16.68
2021-12-26 03:00:00,18.7,12.4,76.02,30.0,3.0,29.94,10.0,13.48
2021-12-26 04:00:00,16.9,12.0,80.7,0.0,0.0,29.95,10.0,16.9
2021-12-26 05:00:00,18.3,14.0,82.98,360.0,5.0,29.98,10.0,10.13
2021-12-26 06:00:00,18.9,14.0,80.87,40.0,3.0,29.98,10.0,13.71
2021-12-26 07:00:00,15.8,11.3,82.06,20.0,4.0,30.01,10.0,8.5
2021-12-26 08:00:00,17.6,13.6,84.03,50.0,4.0,30.02,10.0,10.6
2021-12-26 09:00:00,15.3,11.8,85.75,40.0,3.0,30.03,10.0,9.6
2021-12-26 10:00:00,17.2,13.1,83.63,50.0,6.0,30.04,10.0,7.71
2021-12-26 11:00:00,12.6,9.3,86.35,50.0,4.0,30.05,10.0,4.77
2021-12-26 12:00:00,14.0,10.9,87.2,20.0,5.0,30.08,10.0,5.02
2021-12-26 13:00:00,11.5,8.6,87.85,50.0,5.0,30.09,10.0,2.05
2021-12-26 14:00:00,14.7,11.1,85.33,0.0,0.0,30.11,10.0,14.7
2021-12-26 15:00:00,20.1,14.0,76.83,70.0,6.0,30.14,10.0,11.2
2021-12-26 16:00:00,21.7,13.3,69.61,90.0,8.0,30.15,10.0,11.43
2021-12-26 17:00:00,23.9,13.5,64.02,90.0,7.0,30.13,10.0,14.91
2021-12-26 18:00:00,24.8,13.3,61.12,100.0,8.0,30.11,10.0,15.24
2021-12-26 19:00:00,25.7,14.2,61.24,120.0,5.0,30.11,10.0,18.91
2021-12-26 20:00:00,23.7,13.5,64.56,100.0,9.0,30.1,10.0,13.19
2021-12-26 21:00:00,23.7,13.8,65.41,80.0,8.0,30.07,10.0,13.89
2021-12-26 22:00:00,23.0,14.4,69.16,80.0,12.0,30.05,10.0,10.55
2021-12-26 23:00:00,22.5,15.6,74.42,90.0,12.0,30.04,10.0,9.91
2021-12-27 00:00:00,22.5,15.8,75.07,100.0,11.0,30.05,10.0,10.46
2021-12-27 01:00:00,22.1,16.7,79.39,90.0,9.0,30.04,10.0,11.2
2021-12-27 02:00:00,21.7,18.0,85.4,100.0,16.0,29.98,10.0,6.99
2021-12-27 03:00:00,21.7,18.3,86.51,90.0,17.0,29.94,10.0,6.58
2021-12-27 04:00:00,21.6,19.2,90.29,100.0,18.0,29.91,1.5,6.06
2021-12-27 05:00:00,21.6,19.9,93.04,90.0,16.0,29.86,0.75,6.86
2021-12-27 06:00:00,21.6,19.9,93.04,80.0,12.0,29.81,0.75,8.77
2021-12-27 07:00:00,22.1,20.3,92.66,90.0,18.0,29.76,1.75,6.72
2021-12-27 08:00:00,22.8,21.0,92.68,80.0,15.0,29.72,3.0,8.85
2021-12-27 09:00:00,23.5,22.1,94.28,80.0,15.0,29.71,1.0,9.76
2021-12-27 10:00:00,23.9,22.6,94.69,80.0,13.0,29.69,1.25,11.19
2021-12-27 11:00:00,24.8,23.4,94.31,90.0,13.0,29.68,1.75,12.34
2021-12-27 12:00:00,25.7,24.4,94.73,90.0,14.0,29.66,3.0,13.04
2021-12-27 13:00:00,26.6,25.9,97.14,100.0,19.0,29.63,2.0,12.3
2021-12-27 14:00:00,27.5,27.3,99.18,110.0,17.0,29.6,1.5,14.18
2021-12-27 15:00:00,28.4,28.0,98.37,110.0,18.0,29.55,2.0,15.01
2021-12-27 16:00:00,29.7,29.3,98.38,130.0,15.0,29.57,1.25,17.8
2021-12-27 17:00:00,30.7,30.6,99.6,140.0,10.0,29.54,1.25,21.34
2021-12-27 18:00:00,31.1,31.1,100.0,190.0,7.0,29.53,2.5,23.68
2021-12-27 19:00:00,32.0,31.1,96.43,220.0,10.0,29.5,10.0,22.97
2021-12-27 20:00:00,31.6,29.7,92.58,230.0,15.0,29.51,10.0,20.26
2021-12-27 21:00:00,27.1,20.3,75.21,260.0,16.0,29.55,10.0,14.03
2021-12-27 22:00:00,21.7,15.4,76.31,250.0,16.0,29.57,10.0,6.99
2021-12-27 23:00:00,18.1,11.8,75.96,250.0,13.0,29.59,10.0,3.76
2021-12-28 00:00:00,16.0,10.0,76.77,260.0,13.0,29.61,10.0,1.07
2021-12-28 01:00:00,14.2,8.0,75.57,270.0,11.0,29.64,10.0,-0.03
2021-12-28 02:00:00,12.6,7.2,78.55,270.0,13.0,29.67,10.0,-3.29
2021-12-28 03:00:00,10.4,6.3,83.14,260.0,11.0,29.7,10.0,-4.83
2021-12-28 04:00:00,9.3,5.0,82.3,260.0,12.0,29.74,10.0,-6.89
2021-12-28 05:00:00,7.5,3.4,82.92,250.0,10.0,29.77,10.0,-7.76
2021-12-28 06:00:00,6.3,2.5,83.99,280.0,8.0,29.78,10.0,-7.54
2021-12-28 07:00:00,6.0,2.0,83.96,290.0,7.0,29.78,10.0,-7.03
2021-12-28 08:00:00,5.4,1.8,84.71,310.0,5.0,29.75,10.0,-5.2
2021-12-28 09:00:00,5.7,2.0,84.73,240.0,8.0,29.8,10.0,-8.28
2021-12-28 10:00:00,5.7,1.9,83.95,270.0,8.0,29.82,10.0,-8.28
2021-12-28 11:00:00,6.0,2.0,83.96,300.0,4.0,29.82,10.0,-3.06
2021-12-28 12:00:00,6.0,2.3,84.74,10.0,5.0,29.81,10.0,-4.6
2021-12-28 13:00:00,7.2,3.2,83.28,40.0,9.0,29.79,10.0,-7.32
2021-12-28 14:00:00,9.0,4.8,82.65,50.0,6.0,29.78,10.0,-2.17
2021-12-28 15:00:00,10.4,6.8,85.05,70.0,3.0,29.76,10.0,4.0
2021-12-28 16:00:00,13.3,9.7,85.24,110.0,4.0,29.72,10.0,5.58
2021-12-28 17:00:00,15.4,13.3,91.22,110.0,9.0,29.72,10.0,2.87
2021-12-28 18:00:00,15.6,13.1,89.64,120.0,7.0,29.71,10.0,4.79
2021-12-28 19:00:00,16.7,14.0,88.9,80.0,5.0,29.7,10.0,8.22
2021-12-28 20:00:00,17.6,14.0,85.51,90.0,6.0,29.69,10.0,8.19
2021-12-28 21:00:00,17.4,15.3,91.3,80.0,5.0,29.7,0.75,9.06
2021-12-28 22:00:00,18.5,16.7,92.54,80.0,8.0,29.68,1.5,7.48
2021-12-28 23:00:00,20.1,18.5,93.39,90.0,11.0,29.64,1.5,7.43
2021-12-29 00:00:00,21.7,20.3,94.23,110.0,12.0,29.64,2.0,8.89
2021-12-29 01:00:00,22.1,21.0,95.45,100.0,12.0,29.62,4.0,9.4
2021-12-29 02:00:00,22.6,21.7,96.27,110.0,11.0,29.63,1.75,10.59
2021-12-29 03:00:00,23.0,21.9,95.47,120.0,11.0,29.62,1.75,11.09
2021-12-29 04:00:00,23.7,23.0,97.11,120.0,13.0,29.61,1.5,10.94
2021-12-29 05:00:00,23.9,23.2,97.11,130.0,9.0,29.61,1.5,13.44
2021-12-29 06:00:00,23.9,23.4,97.93,250.0,8.0,29.63,2.5,14.14
2021-12-29 07:00:00,23.9,23.0,96.3,260.0,4.0,29.64,10.0,17.96
2021-12-29 08:00:00,23.0,22.1,96.28,270.0,9.0,29.65,10.0,12.32
2021-12-29 09:00:00,22.1,21.0,95.45,280.0,9.0,29.68,10.0,11.2
2021-12-29 10:00:00,21.7,18.7,88.01,290.0,13.0,29.7,10.0,8.37
2021-12-29 11:00:00,19.9,16.7,87.16,300.0,11.0,29.71,10.0,7.18
2021-12-29 12:00:00,16.5,12.7,84.69,280.0,9.0,29.75,10.0,4.24
2021-12-29 13:00:00,14.2,11.3,87.99,270.0,10.0,29.79,10.0,0.65
2021-12-29 14:00:00,12.2,8.6,85.17,290.0,9.0,29.79,10.0,-1.11
2021-12-29 15:00:00,12.2,6.8,78.51,270.0,13.0,29.85,10.0,-3.8
2021-12-29 16:00:00,13.1,6.0,72.43,300.0,10.0,29.85,10.0,-0.73
2021-12-29 17:00:00,15.6,7.0,68.25,290.0,7.0,29.86,10.0,4.79
2021-12-29 18:00:00,17.4,6.4,61.43,290.0,8.0,29.86,10.0,6.13
2021-12-29 19:00:00,16.9,7.3,65.39,250.0,8.0,29.86,10.0,5.51
2021-12-29 20:00:00,16.7,6.4,63.32,270.0,9.0,29.9,10.0,4.49
2021-12-29 21:00:00,14.4,5.4,66.87,290.0,4.0,29.9,10.0,6.87
2021-12-29 22:00:00,13.3,5.4,70.18,330.0,5.0,29.88,10.0,4.19
2021-12-29 23:00:00,12.6,4.0,68.19,340.0,5.0,29.88,10.0,3.36
2021-12-30 00:00:00,7.5,1.0,74.18,240.0,6.0,29.94,10.0,-3.98
2021-12-30 01:00:00,2.0,-2.0,82.51,270.0,4.0,29.94,10.0,-7.5
2021-12-30 02:00:00,1.9,-2.0,83.28,0.0,0.0,29.94,10.0,1.9
2021-12-30 03:00:00,1.4,-2.2,84.43,0.0,0.0,29.95,10.0,1.4
2021-12-30 04:00:00,2.8,-1.1,83.34,0.0,0.0,29.93,10.0,2.8
2021-12-30 05:00:00,4.8,1.4,85.46,0.0,0.0,29.9,10.0,4.8
2021-12-30 06:00:00,8.1,3.0,79.23,0.0,0.0,29.92,10.0,8.1
2021-12-30 07:00:00,8.8,3.7,79.29,300.0,3.0,29.91,10.0,2.17
2021-12-30 08:00:00,8.8,3.2,77.48,0.0,0.0,29.91,10.0,8.8
2021-12-30 09:00:00,9.3,3.4,76.46,0.0,0.0,29.91,10.0,9.3
2021-12-30 10:00:00,9.5,4.8,80.82,0.0,0.0,29.91,7.0,9.5
2021-12-30 11:00:00,9.5,5.5,83.45,20.0,3.0,29.9,10.0,2.97
2021-12-30 12:00:00,10.4,6.6,84.28,0.0,0.0,29.89,10.0,10.4
2021-12-30 13:00:00,11.1,7.2,83.95,130.0,6.0,29.88,10.0,0.36
2021-12-30 14:00:00,11.8,6.8,79.92,140.0,5.0,29.88,10.0,2.41
2021-12-30 15:00:00,13.1,7.2,76.84,0.0,0.0,29.87,10.0,13.1
2021-12-30 16:00:00,14.7,8.8,76.99,110.0,3.0,29.84,10.0,8.91
2021-12-30 17:00:00,17.1,10.6,75.19,130.0,7.0,29.81,10.0,6.62
2021-12-30 18:00:00,18.1,10.9,72.98,150.0,9.0,29.78,10.0,6.23
2021-12-30 19:00:00,19.2,12.7,75.4,170.0,6.0,29.78,10.0,10.11
2021-12-30 20:00:00,18.5,16.9,93.34,150.0,6.0,29.76,2.5,9.27
2021-12-30 21:00:00,18.5,18.3,99.14,140.0,7.0,29.74,1.75,8.32
2021-12-30 22:00:00,18.5,18.3,99.14,150.0,6.0,29.74,3.0,9.27
2021-12-30 23:00:00,18.5,18.5,100.0,140.0,8.0,29.72,3.0,7.48
2021-12-31 00:00:00,19.2,19.0,99.15,160.0,6.0,29.72,1.75,10.11
2021-12-31 01:00:00,19.9,19.4,97.89,170.0,5.0,29.71,4.0,12.03
2021-12-31 02:00:00,20.3,19.9,98.31,180.0,8.0,29.7,4.0,9.7
2021-12-31 03:00:00,21.6,21.2,98.32,180.0,6.0,29.7,2.5,13.0
2021-12-31 04:00:00,22.1,21.9,99.16,200.0,6.0,29.68,5.0,13.61
2021-12-31 05:00:00,22.6,22.5,99.58,230.0,7.0,29.69,3.0,13.32
2021-12-31 06:00:00,23.0,22.3,97.1,250.0,11.0,29.69,10.0,11.09
2021-12-31 07:00:00,22.6,21.2,94.26,270.0,6.0,29.71,10.0,14.21
2021-12-31 08:00:00,22.8,20.3,89.96,270.0,7.0,29.7,10.0,13.56
2021-12-31 09:00:00,22.6,20.1,89.95,270.0,11.0,29.71,10.0,10.59
2021-12-31 10:00:00,22.6,19.8,88.81,280.0,7.0,29.71,10.0,13.32
2021-12-31 11:00:00,22.5,19.4,87.68,280.0,5.0,29.71,10.0,15.11
2021-12-31 12:00:00,22.1,19.0,87.65,280.0,6.0,29.71,10.0,13.61
2021-12-31 13:00:00,21.7,19.0,89.15,260.0,6.0,29.72,10.0,13.13
2021-12-31 14:00:00,22.1,18.7,86.53,260.0,6.0,29.75,10.0,13.61
2021-12-31 15:00:00,22.6,19.0,85.83,320.0,4.0,29.74,10.0,16.44
2021-12-31 16:00:00,23.0,19.2,85.12,250.0,5.0,29.75,10.0,15.71
2021-12-31 17:00:00,23.0,19.8,87.33,210.0,5.0,29.73,10.0,15.71
2021-12-31 18:00:00,23.7,19.9,85.16,0.0,0.0,29.71,10.0,23.7
2021-12-31 19:00:00,23.4,21.2,91.14,350.0,5.0,29.72,1.75,16.18
2021-12-31 20:00:00,23.4,21.7,93.09,340.0,4.0,29.72,1.5,17.38
2021-12-31 21:00:00,23.0,21.0,91.9,360.0,3.0,29.72,7.0,18.4
2021-12-31 22:00:00,23.0,20.5,89.97,0.0,0.0,29.75,10.0,23.0
2021-12-31 23:00:00,23.0,20.7,90.74,340.0,5.0,29.77,10.0,15.71
