,tmpf,dwpf,relh,drct,sknt,alti,vsby,feel
2021-01-01 00:00:00,17.1,12.9,83.25,0.0,0.0,30.33,7.0,17.1
2021-01-01 01:00:00,19.0,12.9,76.72,350.0,5.0,30.33,5.0,10.96
2021-01-01 02:00:00,15.1,10.0,79.84,0.0,0.0,30.34,4.0,15.1
2021-01-01 03:00:00,12.0,9.0,87.48,330.0,3.0,30.33,3.0,5.82
2021-01-01 04:00:00,10.9,6.0,80.57,270.0,3.0,30.33,4.0,4.57
2021-01-01 05:00:00,10.9,6.0,80.57,310.0,5.0,30.33,5.0,1.34
2021-01-01 06:00:00,16.0,12.9,87.32,300.0,3.0,30.33,4.0,10.4
2021-01-01 07:00:00,16.0,10.9,79.92,20.0,3.0,30.3,4.0,10.4
2021-01-01 08:00:00,15.1,10.0,79.84,360.0,4.0,30.29,4.0,7.69
2021-01-01 09:00:00,15.1,10.9,83.11,350.0,3.0,30.28,4.0,9.37
2021-01-01 10:00:00,15.1,10.9,83.11,0.0,0.0,30.27,4.0,15.1
2021-01-01 11:00:00,19.0,14.0,80.52,360.0,4.0,30.22,4.0,12.24
2021-01-01 12:00:00,21.9,18.0,84.68,20.0,5.0,30.18,4.0,14.4
2021-01-01 13:00:00,28.9,24.1,82.0,90.0,10.0,30.17,4.0,19.08
2021-01-01 14:00:00,32.0,26.1,78.58,70.0,12.0,30.13,6.0,22.0
2021-01-01 15:00:00,33.0,27.0,78.03,60.0,10.0,30.12,6.0,24.35
2021-01-01 16:00:00,33.0,28.0,81.3,70.0,11.0,30.08,4.0,23.86
2021-01-01 17:00:00,33.0,28.9,84.36,70.0,13.0,30.03,0.25,22.98
2021-01-01 18:00:00,34.0,30.0,85.11,70.0,15.0,29.94,0.5,23.37
2021-01-01 19:00:00,34.0,30.0,85.11,60.0,16.0,29.88,1.5,23.03
2021-01-01 20:00:00,35.0,30.9,84.49,60.0,12.0,29.88,0.5,25.95
2021-01-01 21:00:00,35.0,30.9,84.49,50.0,13.0,29.86,0.75,25.54
2021-01-01 22:00:00,35.0,30.9,84.49,40.0,12.0,29.86,1.5,25.95
2021-01-01 23:00:00,35.0,30.9,84.49,40.0,12.0,29.86,1.5,25.95
2021-01-02 00:00:00,34.0,30.0,85.11,20.0,15.0,29.84,2.0,23.37
2021-01-02 01:00:00,35.0,30.9,84.49,20.0,10.0,29.84,2.5,26.86
2021-01-02 02:00:00,35.0,30.9,84.49,360.0,11.0,29.87,1.25,26.38
2021-01-02 03:00:00,33.0,28.9,84.36,360.0,10.0,29.88,4.0,24.35
2021-01-02 04:00:00,33.0,28.9,84.36,360.0,6.0,29.89,5.0,26.86
2021-01-02 05:00:00,33.0,28.9,84.36,360.0,9.0,29.91,6.0,24.88
2021-01-02 06:00:00,32.0,27.0,81.55,350.0,8.0,29.93,5.0,24.11
2021-01-02 07:00:00,28.9,24.1,82.0,320.0,6.0,29.98,4.0,21.8
2021-01-02 08:00:00,28.0,23.0,81.25,330.0,6.0,30.0,3.0,20.71
2021-01-02 09:00:00,28.0,24.1,85.08,290.0,4.0,30.02,3.0,22.75
2021-01-02 10:00:00,28.9,25.0,85.14,330.0,5.0,30.04,4.0,22.71
2021-01-02 11:00:00,28.0,24.1,85.08,300.0,6.0,30.07,4.0,20.71
2021-01-02 12:00:00,28.0,24.1,85.08,310.0,7.0,30.09,5.0,19.9
2021-01-02 13:00:00,28.0,24.1,85.08,270.0,5.0,30.11,3.0,21.64
2021-01-02 14:00:00,28.0,24.1,85.08,310.0,6.0,30.12,3.0,20.71
2021-01-02 15:00:00,28.9,24.1,82.0,330.0,5.0,30.11,4.0,22.71
2021-01-02 16:00:00,28.9,24.1,82.0,280.0,6.0,30.11,4.0,21.8
2021-01-02 17:00:00,28.9,24.1,82.0,290.0,5.0,30.09,4.0,22.71
2021-01-02 18:00:00,28.9,24.1,82.0,320.0,4.0,30.07,4.0,23.8
2021-01-02 19:00:00,30.0,25.0,81.4,350.0,4.0,30.05,3.0,25.08
2021-01-02 20:00:00,28.9,24.1,82.0,10.0,3.0,30.06,2.5,25.14
2021-01-02 21:00:00,28.0,23.0,81.25,350.0,4.0,30.05,2.5,22.75
2021-01-02 22:00:00,28.0,23.0,81.25,350.0,3.0,30.04,2.5,24.12
2021-01-02 23:00:00,28.0,23.0,81.25,340.0,5.0,30.04,4.0,21.64
2021-01-03 00:00:00,28.0,24.1,85.08,320.0,4.0,30.04,4.0,22.75
2021-01-03 01:00:00,28.0,24.1,85.08,280.0,4.0,30.03,4.0,22.75
2021-01-03 02:00:00,28.0,23.0,81.25,330.0,5.0,30.0,4.0,21.64
2021-01-03 03:00:00,28.0,24.1,85.08,320.0,3.0,29.99,4.0,24.12
2021-01-03 04:00:00,28.9,24.1,82.0,340.0,5.0,29.97,5.0,22.71
2021-01-03 05:00:00,28.9,25.0,85.14,340.0,3.0,29.95,3.0,25.14
2021-01-03 06:00:00,28.9,25.0,85.14,320.0,4.0,29.94,2.0,23.8
2021-01-03 07:00:00,30.0,26.1,85.21,0.0,0.0,29.93,1.75,30.0
2021-01-03 08:00:00,30.0,27.0,88.44,330.0,5.0,29.94,1.5,24.02
2021-01-03 09:00:00,30.0,27.0,88.44,320.0,5.0,29.94,1.25,24.02
2021-01-03 10:00:00,30.0,27.0,88.44,340.0,3.0,29.92,3.0,26.4
2021-01-03 11:00:00,30.0,26.1,85.21,330.0,5.0,29.93,3.0,24.02
2021-01-03 12:00:00,30.0,28.0,92.15,0.0,0.0,29.93,3.0,30.0
2021-01-03 13:00:00,30.0,26.1,85.21,290.0,4.0,29.94,2.5,25.08
2021-01-03 14:00:00,30.0,27.0,88.44,270.0,4.0,29.95,3.0,25.08
2021-01-03 15:00:00,30.9,27.0,85.26,270.0,5.0,29.97,3.0,25.09
2021-01-03 16:00:00,33.0,28.9,84.36,260.0,7.0,29.96,4.0,26.12
2021-01-03 17:00:00,34.0,28.9,81.37,280.0,9.0,29.95,10.0,26.0
2021-01-03 18:00:00,34.0,28.9,81.37,260.0,7.0,29.95,10.0,27.22
2021-01-03 19:00:00,33.0,27.0,78.03,270.0,10.0,29.96,5.0,24.35
2021-01-03 20:00:00,32.0,27.0,81.55,280.0,8.0,29.96,6.0,24.11
2021-01-03 21:00:00,30.0,24.1,78.4,250.0,6.0,29.98,7.0,23.12
2021-01-03 22:00:00,28.0,21.9,77.57,230.0,6.0,29.98,7.0,20.71
2021-01-03 23:00:00,28.9,24.1,82.0,240.0,9.0,29.99,6.0,19.66
2021-01-04 00:00:00,28.9,24.1,82.0,220.0,10.0,30.0,7.0,19.08
2021-01-04 01:00:00,28.0,24.1,85.08,260.0,6.0,30.0,5.0,20.71
2021-01-04 02:00:00,28.0,24.1,85.08,230.0,10.0,29.99,3.0,17.95
2021-01-04 03:00:00,26.1,23.0,87.87,220.0,6.0,29.98,1.75,18.42
2021-01-04 04:00:00,25.0,23.0,91.97,230.0,6.0,29.98,1.25,17.1
2021-01-04 05:00:00,25.0,21.9,87.81,250.0,9.0,29.99,1.0,14.81
2021-01-04 06:00:00,24.1,21.0,87.76,240.0,8.0,29.99,3.0,14.38
2021-01-04 07:00:00,21.9,19.9,91.86,230.0,8.0,30.0,3.0,11.67
2021-01-04 08:00:00,21.9,19.0,88.4,240.0,11.0,30.01,1.25,9.7
2021-01-04 09:00:00,23.0,21.0,91.9,220.0,6.0,30.0,3.0,14.69
2021-01-04 10:00:00,24.1,21.0,87.76,200.0,7.0,30.0,3.0,15.15
2021-01-04 11:00:00,25.0,21.9,87.81,180.0,6.0,29.98,1.0,17.1
2021-01-04 12:00:00,25.0,21.9,87.81,190.0,7.0,29.99,0.75,16.25
2021-01-04 13:00:00,26.1,23.0,87.87,210.0,6.0,29.99,0.5,18.42
2021-01-04 14:00:00,26.1,23.0,87.87,230.0,7.0,30.0,0.5,17.59
2021-01-04 15:00:00,27.0,24.1,88.65,210.0,8.0,29.98,2.5,17.95
2021-01-04 16:00:00,27.0,23.0,84.66,200.0,5.0,29.96,4.0,20.46
2021-01-04 17:00:00,27.0,23.0,84.66,210.0,8.0,29.93,5.0,17.95
2021-01-04 18:00:00,28.9,24.1,82.0,220.0,6.0,29.89,5.0,21.8
2021-01-04 19:00:00,28.0,24.1,85.08,250.0,7.0,29.9,4.0,19.9
2021-01-04 20:00:00,28.0,24.1,85.08,250.0,7.0,29.9,4.0,19.9
2021-01-04 21:00:00,28.0,24.1,85.08,230.0,8.0,29.91,4.0,19.19
2021-01-04 22:00:00,28.0,24.1,85.08,250.0,8.0,29.9,2.0,19.19
2021-01-04 23:00:00,27.0,23.0,84.66,250.0,8.0,29.92,2.0,17.95
2021-01-05 00:00:00,27.0,24.1,88.65,260.0,8.0,29.93,2.0,17.95
2021-01-05 01:00:00,28.0,24.1,85.08,260.0,8.0,29.92,2.0,19.19
2021-01-05 02:00:00,28.0,24.1,85.08,270.0,6.0,29.92,2.0,20.71
2021-01-05 03:00:00,28.0,25.0,88.33,270.0,6.0,29.9,5.0,20.71
2021-01-05 04:00:00,28.9,24.1,82.0,270.0,6.0,29.91,6.0,20.71
2021-01-05 05:00:00,28.9,25.0,85.14,270.0,6.0,29.92,3.0,20.71
2021-01-05 06:00:00,30.0,26.1,85.21,270.0,6.0,29.93,4.0,20.71
2021-01-05 07:00:00,32.0,27.0,81.55,270.0,6.0,29.94,6.0,20.71
2021-01-05 08:00:00,32.0,28.0,84.98,270.0,6.0,29.95,6.0,20.71
2021-01-05 09:00:00,33.0,28.0,81.3,270.0,6.0,29.96,5.0,20.71
2021-01-05 10:00:00,33.0,28.9,84.36,270.0,6.0,29.98,5.0,20.71
2021-01-05 11:00:00,33.0,28.9,84.36,270.0,6.0,30.0,5.0,20.71
2021-01-05 12:00:00,33.0,28.9,84.36,290.0,4.0,30.03,5.0,28.7
2021-01-05 13:00:00,34.0,28.9,81.37,320.0,6.0,30.04,4.0,27.94
2021-01-05 14:00:00,34.0,28.9,81.37,300.0,6.0,30.07,4.0,27.94
2021-01-05 15:00:00,34.0,28.0,78.43,310.0,7.0,30.09,6.0,27.22
2021-01-05 16:00:00,34.0,28.0,78.43,290.0,7.0,30.08,4.0,27.22
2021-01-05 17:00:00,34.0,28.0,78.43,310.0,5.0,30.07,6.0,28.77
2021-01-05 18:00:00,34.0,28.0,78.43,290.0,6.0,30.07,6.0,27.94
2021-01-05 19:00:00,34.0,28.0,78.43,300.0,5.0,30.1,5.0,28.77
2021-01-05 20:00:00,34.0,28.0,78.43,260.0,5.0,30.13,5.0,28.77
2021-01-05 21:00:00,33.0,27.0,78.03,290.0,3.0,30.14,5.0,29.95
2021-01-05 22:00:00,33.0,28.0,81.3,250.0,4.0,30.16,5.0,28.7
2021-01-05 23:00:00,33.0,28.0,81.3,250.0,4.0,30.18,5.0,28.7
2021-01-06 00:00:00,30.9,27.0,85.26,260.0,4.0,30.19,4.0,26.14
2021-01-06 01:00:00,30.9,28.0,88.84,0.0,0.0,30.21,3.0,30.9
2021-01-06 02:00:00,30.9,27.0,85.26,0.0,0.0,30.23,2.5,30.9
2021-01-06 03:00:00,30.0,27.0,88.44,70.0,3.0,30.24,2.0,26.4
2021-01-06 04:00:00,30.0,28.0,92.15,0.0,0.0,30.25,2.0,30.0
2021-01-06 05:00:00,30.9,27.0,85.26,180.0,4.0,30.27,2.5,26.14
2021-01-06 06:00:00,30.9,27.0,85.26,230.0,3.0,30.27,2.5,27.43
2021-01-06 07:00:00,30.0,27.0,88.44,270.0,3.0,30.28,2.0,26.4
2021-01-06 08:00:00,30.9,27.0,85.26,300.0,3.0,30.28,2.0,27.43
2021-01-06 09:00:00,30.0,28.0,92.15,0.0,0.0,30.27,2.0,30.0
2021-01-06 10:00:00,26.1,23.0,87.87,260.0,5.0,30.28,1.25,19.39
2021-01-06 11:00:00,30.0,27.0,88.44,270.0,6.0,30.32,2.0,23.12
2021-01-06 12:00:00,30.0,28.0,92.15,0.0,0.0,30.34,1.75,30.0
2021-01-06 13:00:00,30.0,26.1,85.21,0.0,0.0,30.36,1.0,30.0
2021-01-06 14:00:00,30.9,28.0,88.84,240.0,4.0,30.37,1.25,26.14
2021-01-06 15:00:00,32.0,27.0,81.55,90.0,3.0,30.37,1.25,28.69
2021-01-06 16:00:00,32.0,28.0,84.98,0.0,0.0,30.36,1.75,32.0
2021-01-06 17:00:00,32.0,28.9,88.17,0.0,0.0,30.34,1.75,32.0
2021-01-06 18:00:00,33.0,28.9,84.36,0.0,0.0,30.33,2.5,33.1
2021-01-06 19:00:00,34.0,28.9,81.37,0.0,0.0,30.34,3.0,34.0
2021-01-06 20:00:00,35.0,28.9,77.88,340.0,4.0,30.34,3.0,31.04
2021-01-06 21:00:00,34.0,28.9,81.37,10.0,5.0,30.36,2.5,28.77
2021-01-06 22:00:00,34.0,28.9,81.37,30.0,4.0,30.36,3.0,29.76
2021-01-06 23:00:00,34.0,28.9,81.37,360.0,4.0,30.37,4.0,29.76
2021-01-07 00:00:00,34.0,28.9,81.37,350.0,4.0,30.39,4.0,29.76
2021-01-07 01:00:00,35.0,28.9,77.88,40.0,3.0,30.39,5.0,32.23
2021-01-07 02:00:00,35.0,30.0,81.46,30.0,5.0,30.39,6.0,30.08
2021-01-07 03:00:00,34.0,28.0,78.43,360.0,6.0,30.38,5.0,27.94
2021-01-07 04:00:00,33.0,28.9,84.36,360.0,6.0,30.39,5.0,26.86
2021-01-07 05:00:00,30.9,27.0,85.26,360.0,5.0,30.37,3.0,25.09
2021-01-07 06:00:00,30.9,27.0,85.26,360.0,7.0,30.37,3.0,23.44
2021-01-07 07:00:00,32.0,28.0,84.98,10.0,6.0,30.37,3.0,25.53
2021-01-07 08:00:00,30.0,27.0,88.44,360.0,6.0,30.38,2.5,23.12
2021-01-07 09:00:00,30.9,28.0,88.84,360.0,7.0,30.38,4.0,23.44
2021-01-07 10:00:00,30.9,27.0,85.26,10.0,6.0,30.37,4.0,24.21
2021-01-07 11:00:00,30.9,28.0,88.84,10.0,4.0,30.38,4.0,26.14
2021-01-07 12:00:00,32.0,28.0,84.98,10.0,5.0,30.38,4.0,26.4
2021-01-07 13:00:00,30.9,28.0,88.84,10.0,8.0,30.4,1.5,22.76
2021-01-07 14:00:00,32.0,28.9,88.17,10.0,5.0,30.41,1.75,26.4
2021-01-07 15:00:00,32.0,28.0,84.98,350.0,7.0,30.41,1.75,24.78
2021-01-07 16:00:00,33.0,28.0,81.3,10.0,7.0,30.39,2.0,26.12
2021-01-07 17:00:00,34.0,28.0,78.43,10.0,8.0,30.37,2.5,26.58
2021-01-07 18:00:00,34.0,28.0,78.43,10.0,8.0,30.35,4.0,26.58
2021-01-07 19:00:00,35.0,28.0,75.06,360.0,7.0,30.33,6.0,28.56
2021-01-07 20:00:00,36.0,28.0,72.43,360.0,7.0,30.33,10.0,29.65
2021-01-07 21:00:00,36.0,28.0,72.43,360.0,8.0,30.35,10.0,29.04
2021-01-07 22:00:00,35.0,28.0,75.06,360.0,7.0,30.35,10.0,28.56
2021-01-07 23:00:00,34.0,28.0,78.43,350.0,7.0,30.34,9.0,27.22
2021-01-08 00:00:00,34.0,28.0,78.43,350.0,7.0,30.34,10.0,27.22
2021-01-08 01:00:00,34.0,28.0,78.43,360.0,7.0,30.33,10.0,27.22
2021-01-08 02:00:00,34.0,28.9,81.37,360.0,9.0,30.33,10.0,26.0
2021-01-08 03:00:00,34.0,28.9,81.37,360.0,7.0,30.32,10.0,27.22
2021-01-08 04:00:00,34.0,30.0,85.11,360.0,6.0,30.3,10.0,27.94
2021-01-08 05:00:00,35.0,28.9,77.88,350.0,4.0,30.3,10.0,31.04
2021-01-08 06:00:00,36.0,27.0,69.51,50.0,8.0,30.29,10.0,29.04
2021-01-08 07:00:00,35.0,27.0,72.04,340.0,6.0,30.3,10.0,29.26
2021-01-08 08:00:00,34.0,27.0,75.26,10.0,6.0,30.3,10.0,27.94
2021-01-08 09:00:00,35.0,26.1,69.41,20.0,9.0,30.28,10.0,27.37
2021-01-08 10:00:00,35.0,25.0,66.31,30.0,8.0,30.27,10.0,27.93
2021-01-08 11:00:00,33.0,25.0,71.82,360.0,4.0,30.28,10.0,28.7
2021-01-08 12:00:00,32.0,27.0,81.55,360.0,5.0,30.28,3.0,26.4
2021-01-08 13:00:00,30.9,28.0,88.84,360.0,5.0,30.3,0.5,25.09
2021-01-08 14:00:00,32.0,28.9,88.17,340.0,5.0,30.31,0.5,26.4
2021-01-08 15:00:00,33.0,28.0,81.3,10.0,8.0,30.3,2.0,25.47
2021-01-08 16:00:00,33.0,26.1,75.18,10.0,14.0,30.29,5.0,22.58
2021-01-08 17:00:00,34.0,25.0,69.28,340.0,12.0,30.27,10.0,24.55
2021-01-08 18:00:00,33.0,24.1,69.17,350.0,13.0,30.25,10.0,22.98
2021-01-08 19:00:00,33.0,24.1,69.17,330.0,11.0,30.25,10.0,23.86
2021-01-08 20:00:00,32.0,24.1,72.3,330.0,10.0,30.25,10.0,22.97
2021-01-08 21:00:00,32.0,23.0,69.04,320.0,10.0,30.26,10.0,22.97
2021-01-08 22:00:00,30.9,23.0,72.18,330.0,8.0,30.26,10.0,22.76
2021-01-08 23:00:00,30.9,23.0,72.18,330.0,9.0,30.26,10.0,22.15
2021-01-09 00:00:00,30.0,21.0,68.81,350.0,11.0,30.27,10.0,19.94
2021-01-09 01:00:00,30.0,21.0,68.81,330.0,8.0,30.26,10.0,21.65
2021-01-09 02:00:00,30.0,21.0,68.81,330.0,6.0,30.26,10.0,23.12
2021-01-09 03:00:00,30.0,21.0,68.81,320.0,8.0,30.25,10.0,21.65
2021-01-09 04:00:00,30.0,21.0,68.81,310.0,6.0,30.24,10.0,23.12
2021-01-09 05:00:00,30.0,21.0,68.81,310.0,8.0,30.23,10.0,21.65
2021-01-09 06:00:00,30.0,21.0,68.81,330.0,8.0,30.23,10.0,21.65
2021-01-09 07:00:00,30.0,21.0,68.81,320.0,6.0,30.24,10.0,23.12
2021-01-09 08:00:00,28.9,21.0,71.96,320.0,4.0,30.25,10.0,23.8
2021-01-09 09:00:00,28.9,21.0,71.96,330.0,6.0,30.25,10.0,21.8
2021-01-09 10:00:00,28.9,21.0,71.96,340.0,5.0,30.26,10.0,22.71
2021-01-09 11:00:00,28.0,21.0,74.67,330.0,5.0,30.28,10.0,21.64
2021-01-09 12:00:00,27.0,19.9,74.25,320.0,5.0,30.29,10.0,20.46
2021-01-09 13:00:00,24.1,19.0,80.59,300.0,4.0,30.3,10.0,18.19
2021-01-09 14:00:00,27.0,19.9,74.25,310.0,6.0,30.33,10.0,19.51
2021-01-09 15:00:00,28.9,21.0,71.96,310.0,5.0,30.33,10.0,22.71
2021-01-09 16:00:00,32.0,23.0,69.04,310.0,3.0,30.32,10.0,28.69
2021-01-09 17:00:00,35.0,25.0,66.31,350.0,3.0,30.29,10.0,32.23
2021-01-09 18:00:00,37.0,27.0,66.82,100.0,4.0,30.28,10.0,33.26
2021-01-09 19:00:00,37.0,26.1,64.38,50.0,3.0,30.29,10.0,34.4
2021-01-09 20:00:00,36.0,25.0,63.98,30.0,5.0,30.3,10.0,31.15
2021-01-09 21:00:00,36.0,25.0,63.98,20.0,3.0,30.31,10.0,33.26
2021-01-09 22:00:00,33.0,24.1,69.17,0.0,0.0,30.31,10.0,33.1
2021-01-09 23:00:00,34.0,26.1,72.52,0.0,0.0,30.31,10.0,34.0
2021-01-10 00:00:00,30.9,23.0,72.18,300.0,3.0,30.31,10.0,27.43
2021-01-10 01:00:00,28.9,23.0,78.3,320.0,4.0,30.31,10.0,23.8
2021-01-10 02:00:00,28.0,21.9,77.57,300.0,6.0,30.31,10.0,20.71
2021-01-10 03:00:00,27.0,21.0,77.8,310.0,6.0,30.32,10.0,19.51
2021-01-10 04:00:00,28.0,21.0,74.67,320.0,5.0,30.31,10.0,21.64
2021-01-10 05:00:00,28.0,21.0,74.67,300.0,6.0,30.3,10.0,20.71
2021-01-10 06:00:00,28.9,21.0,71.96,330.0,6.0,30.3,10.0,21.8
2021-01-10 07:00:00,28.0,19.9,71.25,320.0,7.0,30.31,10.0,19.9
2021-01-10 08:00:00,27.0,19.0,71.45,310.0,9.0,30.32,10.0,17.3
2021-01-10 09:00:00,27.0,19.0,71.45,320.0,6.0,30.3,10.0,19.51
2021-01-10 10:00:00,27.0,18.0,68.45,330.0,3.0,30.29,10.0,22.97
2021-01-10 11:00:00,27.0,19.0,71.45,0.0,0.0,30.31,10.0,27.0
2021-01-10 12:00:00,26.1,19.0,74.16,280.0,4.0,30.31,10.0,20.53
2021-01-10 13:00:00,27.0,18.0,68.45,320.0,5.0,30.32,10.0,20.46
2021-01-10 14:00:00,27.0,18.0,68.45,310.0,5.0,30.34,10.0,20.46
2021-01-10 15:00:00,28.0,19.0,68.57,280.0,5.0,30.34,10.0,21.64
2021-01-10 16:00:00,28.0,19.9,71.25,290.0,3.0,30.32,10.0,24.12
2021-01-10 17:00:00,28.9,19.0,66.08,300.0,6.0,30.3,10.0,21.8
2021-01-10 18:00:00,28.9,19.0,66.08,270.0,8.0,30.29,10.0,20.29
2021-01-10 19:00:00,30.0,19.9,65.66,260.0,8.0,30.28,10.0,21.65
2021-01-10 20:00:00,30.0,19.9,65.66,280.0,5.0,30.28,10.0,24.02
2021-01-10 21:00:00,30.0,19.9,65.66,290.0,5.0,30.29,9.0,24.02
2021-01-10 22:00:00,27.0,19.0,71.45,300.0,4.0,30.29,8.0,21.58
2021-01-10 23:00:00,27.0,19.0,71.45,280.0,4.0,30.29,9.0,21.58
2021-01-11 00:00:00,27.0,19.0,71.45,260.0,6.0,30.3,9.0,19.51
2021-01-11 01:00:00,26.1,19.0,74.16,270.0,5.0,30.3,9.0,19.39
2021-01-11 02:00:00,26.1,19.0,74.16,260.0,8.0,30.29,8.0,16.85
2021-01-11 03:00:00,26.1,21.0,80.75,260.0,9.0,30.29,4.0,16.18
2021-01-11 04:00:00,26.1,21.0,80.75,250.0,8.0,30.29,6.0,16.85
2021-01-11 05:00:00,25.0,19.9,80.66,240.0,7.0,30.28,6.0,16.25
2021-01-11 06:00:00,24.1,19.9,83.75,230.0,8.0,30.28,5.0,14.38
2021-01-11 07:00:00,24.1,19.0,80.59,260.0,10.0,30.28,5.0,13.06
2021-01-11 08:00:00,21.9,18.0,84.68,240.0,8.0,30.27,3.0,11.67
2021-01-11 09:00:00,21.0,17.1,84.62,250.0,10.0,30.26,3.0,9.17
2021-01-11 10:00:00,21.0,17.1,84.62,260.0,11.0,30.24,6.0,8.57
2021-01-11 11:00:00,23.0,18.0,80.85,270.0,10.0,30.25,6.0,11.68
2021-01-11 12:00:00,24.1,19.0,80.59,250.0,13.0,30.25,5.0,11.45
2021-01-11 13:00:00,24.1,19.9,83.75,240.0,15.0,30.24,4.0,10.54
2021-01-11 14:00:00,24.1,19.9,83.75,260.0,13.0,30.24,4.0,11.45
2021-01-11 15:00:00,25.0,19.9,80.66,240.0,14.0,30.23,5.0,12.14
2021-01-11 16:00:00,26.1,19.9,77.06,250.0,14.0,30.21,8.0,13.56
2021-01-11 17:00:00,27.0,21.0,77.8,250.0,14.0,30.18,10.0,14.72
2021-01-11 18:00:00,28.0,21.0,74.67,240.0,18.0,30.16,10.0,14.48
2021-01-11 19:00:00,28.9,21.9,74.76,240.0,13.0,30.14,8.0,17.6
2021-01-11 20:00:00,30.0,23.0,74.87,240.0,10.0,30.13,10.0,20.46
2021-01-11 21:00:00,30.0,23.0,74.87,230.0,13.0,30.11,10.0,19.01
2021-01-11 22:00:00,30.0,24.1,78.4,230.0,14.0,30.11,10.0,18.58
2021-01-11 23:00:00,30.9,24.1,75.59,230.0,12.0,30.1,10.0,20.6
2021-01-12 00:00:00,30.0,24.1,78.4,230.0,11.0,30.1,10.0,19.94
2021-01-12 01:00:00,30.0,24.1,78.4,220.0,12.0,30.09,10.0,19.46
2021-01-12 02:00:00,30.0,24.1,78.4,230.0,10.0,30.08,10.0,20.46
2021-01-12 03:00:00,30.0,24.1,78.4,230.0,12.0,30.08,10.0,19.46
2021-01-12 04:00:00,30.9,24.1,75.59,230.0,13.0,30.07,10.0,20.16
2021-01-12 05:00:00,30.9,24.1,75.59,230.0,13.0,30.05,10.0,20.16
2021-01-12 06:00:00,30.0,24.1,78.4,230.0,12.0,30.05,10.0,19.46
2021-01-12 07:00:00,30.0,24.1,78.4,220.0,11.0,30.05,9.0,19.94
2021-01-12 08:00:00,30.0,23.0,74.87,230.0,9.0,30.03,9.0,21.03
2021-01-12 09:00:00,28.9,23.0,78.3,220.0,10.0,30.01,8.0,19.08
2021-01-12 10:00:00,27.0,21.9,80.83,240.0,9.0,30.02,8.0,17.3
2021-01-12 11:00:00,26.1,21.0,80.75,230.0,7.0,30.03,8.0,17.59
2021-01-12 12:00:00,26.1,21.0,80.75,230.0,6.0,30.04,7.0,18.42
2021-01-12 13:00:00,26.1,21.9,83.89,220.0,5.0,30.03,6.0,19.39
2021-01-12 14:00:00,28.0,23.0,81.25,240.0,7.0,30.04,7.0,19.9
2021-01-12 15:00:00,28.9,24.1,82.0,250.0,11.0,30.04,6.0,18.55
2021-01-12 16:00:00,30.9,26.1,82.15,230.0,11.0,30.04,6.0,21.08
2021-01-12 17:00:00,33.0,27.0,78.03,230.0,6.0,30.0,8.0,26.86
2021-01-12 18:00:00,34.0,27.0,75.26,250.0,8.0,29.99,9.0,26.58
2021-01-12 19:00:00,36.0,27.0,69.51,260.0,9.0,29.98,10.0,28.49
2021-01-12 20:00:00,36.0,27.0,69.51,270.0,8.0,29.98,10.0,29.04
2021-01-12 21:00:00,35.0,26.1,69.41,260.0,7.0,29.99,10.0,28.56
2021-01-12 22:00:00,32.0,25.0,75.07,240.0,7.0,30.0,9.0,24.78
2021-01-12 23:00:00,30.9,24.1,75.59,230.0,5.0,30.0,9.0,25.09
2021-01-13 00:00:00,30.0,24.1,78.4,240.0,8.0,29.99,8.0,21.65
2021-01-13 01:00:00,30.0,25.0,81.4,220.0,6.0,29.97,8.0,23.12
2021-01-13 02:00:00,30.0,25.0,81.4,230.0,7.0,29.97,7.0,22.34
2021-01-13 03:00:00,30.9,26.1,82.15,240.0,10.0,29.95,8.0,21.59
2021-01-13 04:00:00,32.0,26.1,78.58,230.0,8.0,29.92,8.0,24.11
2021-01-13 05:00:00,34.0,27.0,75.26,240.0,8.0,29.91,10.0,26.58
2021-01-13 06:00:00,34.0,27.0,75.26,240.0,11.0,29.9,10.0,24.99
2021-01-13 07:00:00,34.0,27.0,75.26,240.0,11.0,29.9,10.0,24.99
2021-01-13 08:00:00,33.0,26.1,75.18,230.0,7.0,29.88,10.0,26.12
2021-01-13 09:00:00,34.0,27.0,75.26,230.0,6.0,29.86,10.0,27.94
2021-01-13 10:00:00,34.0,27.0,75.26,220.0,8.0,29.83,10.0,26.58
2021-01-13 11:00:00,33.0,27.0,78.03,230.0,7.0,29.82,10.0,26.12
2021-01-13 12:00:00,33.0,26.1,75.18,240.0,8.0,29.83,10.0,25.47
2021-01-13 13:00:00,34.0,28.0,78.43,240.0,8.0,29.82,9.0,26.58
2021-01-13 14:00:00,35.0,28.9,77.88,240.0,7.0,29.81,10.0,28.56
2021-01-13 15:00:00,37.0,28.9,72.24,230.0,6.0,29.8,10.0,31.55
2021-01-13 16:00:00,37.0,28.9,72.24,250.0,10.0,29.79,10.0,29.24
2021-01-13 17:00:00,38.0,30.0,72.93,250.0,8.0,29.76,10.0,31.38
2021-01-13 18:00:00,40.0,30.0,67.45,230.0,8.0,29.71,10.0,33.84
2021-01-13 19:00:00,39.0,30.0,69.85,240.0,12.0,29.71,10.0,30.91
2021-01-13 20:00:00,40.0,30.0,67.45,220.0,7.0,29.69,10.0,34.41
2021-01-13 21:00:00,39.0,30.0,69.85,230.0,6.0,29.68,10.0,33.96
2021-01-13 22:00:00,38.0,30.0,72.93,220.0,6.0,29.69,10.0,32.64
2021-01-13 23:00:00,37.0,30.0,75.56,230.0,3.0,29.69,10.0,34.4
2021-01-14 00:00:00,38.0,30.0,72.93,210.0,8.0,29.69,10.0,31.38
2021-01-14 01:00:00,38.0,30.0,72.93,220.0,6.0,29.69,10.0,32.64
2021-01-14 02:00:00,38.0,30.0,72.93,220.0,6.0,29.68,10.0,32.64
2021-01-14 03:00:00,38.0,30.0,72.93,210.0,5.0,29.67,10.0,33.4
2021-01-14 04:00:00,37.0,30.0,75.56,190.0,5.0,29.65,10.0,32.33
2021-01-14 05:00:00,35.0,28.9,77.88,120.0,3.0,29.64,9.0,32.23
2021-01-14 06:00:00,33.0,28.0,81.3,0.0,0.0,29.63,6.0,33.1
2021-01-14 07:00:00,30.9,28.0,88.84,110.0,3.0,29.63,5.0,27.43
2021-01-14 08:00:00,32.0,28.0,84.98,130.0,4.0,29.63,5.0,27.42
2021-01-14 09:00:00,28.9,26.1,89.12,100.0,5.0,29.59,0.75,22.71
2021-01-14 10:00:00,30.0,27.0,88.44,140.0,3.0,29.6,2.5,26.4
2021-01-14 11:00:00,30.9,28.0,88.84,210.0,5.0,29.61,4.0,25.09
2021-01-14 12:00:00,30.9,27.0,85.26,160.0,4.0,29.59,7.0,26.14
2021-01-14 13:00:00,32.0,28.0,84.98,160.0,6.0,29.58,7.0,25.53
2021-01-14 14:00:00,34.0,28.9,81.37,130.0,5.0,29.58,8.0,28.77
2021-01-14 15:00:00,36.0,30.9,81.53,150.0,6.0,29.58,8.0,30.35
2021-01-14 16:00:00,38.0,30.9,75.64,150.0,7.0,29.56,9.0,31.97
2021-01-14 17:00:00,39.0,32.0,75.75,140.0,6.0,29.53,9.0,33.96
2021-01-14 18:00:00,39.0,30.9,72.45,100.0,7.0,29.49,9.0,33.31
2021-01-14 19:00:00,38.0,30.9,75.64,130.0,10.0,29.48,9.0,30.37
2021-01-14 20:00:00,38.0,32.0,79.08,140.0,13.0,29.47,8.0,29.13
2021-01-14 21:00:00,39.0,32.0,75.75,140.0,13.0,29.46,8.0,30.54
2021-01-14 22:00:00,39.0,33.0,79.17,150.0,11.0,29.47,7.0,31.31
2021-01-14 23:00:00,38.0,33.0,82.66,140.0,9.0,29.47,4.0,30.85
2021-01-15 00:00:00,38.0,34.0,85.69,140.0,13.0,29.44,5.0,29.13
2021-01-15 01:00:00,36.0,33.0,89.09,150.0,12.0,29.43,3.0,27.09
2021-01-15 02:00:00,38.0,34.0,85.69,150.0,9.0,29.41,5.0,30.85
2021-01-15 03:00:00,37.0,34.0,88.78,170.0,8.0,29.4,5.0,30.27
2021-01-15 04:00:00,36.0,33.0,89.09,190.0,9.0,29.4,10.0,28.49
2021-01-15 05:00:00,35.0,32.0,88.33,190.0,10.0,29.41,9.0,26.86
2021-01-15 06:00:00,35.0,33.0,92.32,190.0,9.0,29.4,5.0,27.37
2021-01-15 07:00:00,36.0,32.0,85.23,170.0,7.0,29.41,7.0,29.65
2021-01-15 08:00:00,36.0,32.0,85.23,170.0,7.0,29.41,10.0,29.65
2021-01-15 09:00:00,36.0,32.0,85.23,160.0,8.0,29.41,10.0,29.04
2021-01-15 10:00:00,36.0,32.0,85.23,130.0,5.0,29.41,10.0,31.15
2021-01-15 11:00:00,36.0,32.0,85.23,120.0,6.0,29.41,10.0,30.35
2021-01-15 12:00:00,36.0,32.0,85.23,130.0,8.0,29.42,10.0,29.04
2021-01-15 13:00:00,36.0,30.9,81.53,140.0,8.0,29.44,10.0,29.04
2021-01-15 14:00:00,36.0,30.9,81.53,150.0,6.0,29.45,10.0,30.35
2021-01-15 15:00:00,36.0,32.0,85.23,160.0,6.0,29.46,7.0,30.35
2021-01-15 16:00:00,37.0,30.9,78.37,130.0,4.0,29.46,10.0,33.26
2021-01-15 17:00:00,37.0,30.0,75.56,120.0,6.0,29.46,10.0,31.55
2021-01-15 18:00:00,38.0,28.9,69.73,110.0,6.0,29.47,10.0,32.64
2021-01-15 19:00:00,38.0,28.9,69.73,110.0,6.0,29.48,10.0,32.64
2021-01-15 20:00:00,38.0,28.0,67.2,110.0,4.0,29.5,10.0,34.31
2021-01-15 21:00:00,37.0,30.9,78.37,70.0,5.0,29.52,10.0,32.33
2021-01-15 22:00:00,35.0,30.9,84.49,90.0,3.0,29.54,10.0,32.23
2021-01-15 23:00:00,35.0,30.9,84.49,0.0,0.0,29.57,10.0,35.1
2021-01-16 00:00:00,34.0,30.0,85.11,250.0,3.0,29.57,10.0,30.97
2021-01-16 01:00:00,35.0,30.0,81.46,290.0,4.0,29.57,10.0,31.04
2021-01-16 02:00:00,34.0,28.9,81.37,290.0,4.0,29.57,10.0,29.76
2021-01-16 03:00:00,33.0,28.9,84.36,270.0,4.0,29.56,4.0,28.7
2021-01-16 04:00:00,33.0,30.0,88.23,220.0,4.0,29.56,5.0,28.7
2021-01-16 05:00:00,34.0,30.0,85.11,220.0,6.0,29.54,3.0,27.94
2021-01-16 06:00:00,34.0,30.0,85.11,230.0,8.0,29.53,2.0,26.58
2021-01-16 07:00:00,34.0,30.9,88.27,240.0,6.0,29.53,2.0,27.94
2021-01-16 08:00:00,34.0,30.9,88.27,240.0,6.0,29.53,1.75,27.94
2021-01-16 09:00:00,34.0,30.9,88.27,260.0,5.0,29.52,1.25,28.77
2021-01-16 10:00:00,35.0,32.0,88.33,300.0,7.0,29.52,6.0,28.56
2021-01-16 11:00:00,35.0,32.0,88.33,310.0,7.0,29.54,7.0,28.56
2021-01-16 12:00:00,35.0,32.0,88.33,320.0,7.0,29.54,9.0,28.56
2021-01-16 13:00:00,36.0,30.9,81.53,330.0,9.0,29.55,7.0,28.49
2021-01-16 14:00:00,35.0,32.0,88.33,320.0,8.0,29.57,5.0,27.93
2021-01-16 15:00:00,37.0,32.0,81.93,330.0,7.0,29.58,10.0,30.87
2021-01-16 16:00:00,37.0,30.9,78.37,320.0,9.0,29.59,10.0,29.73
2021-01-16 17:00:00,37.0,30.9,78.37,320.0,7.0,29.59,10.0,30.87
2021-01-16 18:00:00,37.0,30.9,78.37,310.0,7.0,29.59,10.0,30.87
2021-01-16 19:00:00,37.0,30.0,75.56,320.0,8.0,29.6,10.0,30.27
2021-01-16 20:00:00,37.0,30.0,75.56,300.0,10.0,29.62,10.0,29.24
2021-01-16 21:00:00,36.0,30.0,78.6,300.0,9.0,29.65,10.0,28.49
2021-01-16 22:00:00,36.0,28.9,75.15,300.0,9.0,29.67,10.0,28.49
2021-01-16 23:00:00,35.0,28.9,77.88,300.0,6.0,29.68,10.0,29.26
2021-01-17 00:00:00,35.0,28.9,77.88,280.0,7.0,29.67,10.0,28.56
2021-01-17 01:00:00,35.0,28.9,77.88,290.0,6.0,29.67,10.0,29.26
2021-01-17 02:00:00,35.0,28.9,77.88,280.0,6.0,29.68,10.0,29.26
2021-01-17 03:00:00,35.0,28.9,77.88,290.0,7.0,29.68,10.0,28.56
2021-01-17 04:00:00,34.0,28.9,81.37,290.0,6.0,29.68,10.0,27.94
2021-01-17 05:00:00,34.0,28.9,81.37,290.0,4.0,29.68,10.0,29.76
2021-01-17 06:00:00,34.0,28.9,81.37,260.0,4.0,29.67,10.0,29.76
2021-01-17 07:00:00,33.0,28.0,81.3,260.0,5.0,29.68,10.0,27.7
2021-01-17 08:00:00,33.0,28.0,81.3,270.0,5.0,29.69,10.0,27.7
2021-01-17 09:00:00,33.0,28.0,81.3,280.0,4.0,29.68,10.0,28.7
2021-01-17 10:00:00,32.0,28.0,84.98,270.0,3.0,29.68,10.0,28.69
2021-01-17 11:00:00,33.0,28.0,81.3,310.0,4.0,29.68,10.0,28.7
2021-01-17 12:00:00,33.0,27.0,78.03,320.0,4.0,29.69,10.0,28.7
2021-01-17 13:00:00,32.0,27.0,81.55,340.0,4.0,29.7,10.0,27.42
2021-01-17 14:00:00,33.0,27.0,78.03,350.0,4.0,29.71,9.0,28.7
2021-01-17 15:00:00,34.0,26.1,72.52,20.0,5.0,29.71,10.0,28.77
2021-01-17 16:00:00,35.0,26.1,69.41,350.0,5.0,29.7,10.0,30.08
2021-01-17 17:00:00,34.0,25.0,69.28,300.0,5.0,29.68,10.0,28.77
2021-01-17 18:00:00,34.0,26.1,72.52,300.0,7.0,29.67,10.0,27.22
2021-01-17 19:00:00,35.0,26.1,69.41,300.0,6.0,29.67,10.0,29.26
2021-01-17 20:00:00,34.0,25.0,69.28,320.0,6.0,29.68,10.0,27.94
2021-01-17 21:00:00,33.0,26.1,75.18,300.0,6.0,29.7,9.0,26.86
2021-01-17 22:00:00,32.0,25.0,75.07,300.0,5.0,29.71,7.0,26.4
2021-01-17 23:00:00,30.9,24.1,75.59,300.0,7.0,29.72,10.0,23.44
2021-01-18 00:00:00,30.9,24.1,75.59,290.0,5.0,29.73,10.0,25.09
2021-01-18 01:00:00,32.0,23.0,69.04,300.0,8.0,29.74,10.0,24.11
2021-01-18 02:00:00,30.0,24.1,78.4,300.0,5.0,29.74,8.0,24.02
2021-01-18 03:00:00,28.9,23.0,78.3,290.0,5.0,29.74,10.0,22.71
2021-01-18 04:00:00,27.0,23.0,84.66,280.0,6.0,29.74,10.0,19.51
2021-01-18 05:00:00,25.0,21.0,84.53,280.0,6.0,29.74,10.0,17.1
2021-01-18 06:00:00,25.0,21.0,84.53,280.0,5.0,29.75,10.0,18.08
2021-01-18 07:00:00,26.1,21.9,83.89,280.0,4.0,29.76,10.0,20.53
2021-01-18 08:00:00,27.0,23.0,84.66,270.0,5.0,29.76,10.0,20.46
2021-01-18 09:00:00,28.0,24.1,85.08,270.0,4.0,29.77,10.0,22.75
2021-01-18 10:00:00,28.0,24.1,85.08,0.0,0.0,29.78,10.0,28.0
2021-01-18 11:00:00,28.9,24.1,82.0,250.0,5.0,29.8,10.0,22.71
2021-01-18 12:00:00,28.9,24.1,82.0,250.0,3.0,29.81,10.0,25.14
2021-01-18 13:00:00,28.9,25.0,85.14,230.0,5.0,29.83,9.0,22.71
2021-01-18 14:00:00,30.0,25.0,81.4,250.0,8.0,29.84,10.0,21.65
2021-01-18 15:00:00,30.0,24.1,78.4,250.0,8.0,29.86,10.0,21.65
2021-01-18 16:00:00,30.9,24.1,75.59,250.0,9.0,29.86,10.0,22.15
2021-01-18 17:00:00,30.9,21.9,68.91,260.0,12.0,29.85,10.0,20.6
2021-01-18 18:00:00,30.9,19.9,63.31,290.0,10.0,29.85,10.0,21.59
2021-01-18 19:00:00,30.9,19.9,63.31,250.0,10.0,29.86,10.0,21.59
2021-01-18 20:00:00,30.0,19.9,65.66,280.0,8.0,29.88,10.0,21.65
2021-01-18 21:00:00,30.0,19.9,65.66,260.0,10.0,29.9,10.0,20.46
2021-01-18 22:00:00,28.9,19.0,66.08,270.0,9.0,29.93,10.0,19.66
2021-01-18 23:00:00,28.9,19.0,66.08,270.0,9.0,29.95,10.0,19.66
2021-01-19 00:00:00,28.0,19.0,68.57,280.0,13.0,29.98,10.0,16.44
2021-01-19 01:00:00,28.0,19.0,68.57,280.0,9.0,29.99,10.0,18.54
2021-01-19 02:00:00,28.0,16.0,60.25,290.0,11.0,30.01,10.0,17.41
2021-01-19 03:00:00,27.0,15.1,60.37,300.0,9.0,30.03,10.0,17.3
2021-01-19 04:00:00,25.0,15.1,65.58,270.0,7.0,30.03,10.0,16.25
2021-01-19 05:00:00,21.0,12.9,70.45,240.0,7.0,30.04,10.0,11.37
2021-01-19 06:00:00,23.0,15.1,71.3,260.0,6.0,30.06,10.0,14.69
2021-01-19 07:00:00,23.0,15.1,71.3,260.0,5.0,30.06,10.0,15.71
2021-01-19 08:00:00,23.0,15.1,71.3,270.0,7.0,30.08,10.0,13.81
2021-01-19 09:00:00,23.0,15.1,71.3,280.0,7.0,30.09,10.0,13.81
2021-01-19 10:00:00,21.9,15.1,74.69,270.0,7.0,30.09,10.0,12.47
2021-01-19 11:00:00,21.9,15.1,74.69,260.0,8.0,30.1,10.0,11.67
2021-01-19 12:00:00,21.9,16.0,77.67,250.0,7.0,30.11,10.0,12.47
2021-01-19 13:00:00,21.9,16.0,77.67,240.0,8.0,30.11,10.0,11.67
2021-01-19 14:00:00,23.0,16.0,74.15,250.0,9.0,30.13,10.0,12.32
2021-01-19 15:00:00,25.0,16.0,68.2,250.0,11.0,30.13,10.0,13.62
2021-01-19 16:00:00,26.1,18.0,71.04,260.0,10.0,30.14,10.0,15.57
2021-01-19 17:00:00,28.0,19.0,68.57,260.0,12.0,30.11,10.0,16.91
2021-01-19 18:00:00,30.0,21.0,68.81,260.0,11.0,30.08,10.0,19.94
2021-01-19 19:00:00,30.0,21.0,68.81,250.0,12.0,30.08,10.0,19.46
2021-01-19 20:00:00,30.0,21.0,68.81,230.0,10.0,30.07,6.0,20.46
2021-01-19 21:00:00,28.9,21.0,71.96,250.0,10.0,30.07,6.0,19.08
2021-01-19 22:00:00,28.0,23.0,81.25,260.0,11.0,30.07,1.0,17.41
2021-01-19 23:00:00,28.0,24.1,85.08,260.0,6.0,30.05,1.75,20.71
2021-01-20 00:00:00,28.0,24.1,85.08,290.0,5.0,30.05,1.0,21.64
2021-01-20 01:00:00,28.0,24.1,85.08,300.0,7.0,30.06,1.75,19.9
2021-01-20 02:00:00,27.0,21.9,80.83,330.0,8.0,30.07,6.0,17.95
2021-01-20 03:00:00,26.1,21.0,80.75,350.0,11.0,30.1,10.0,15.01
2021-01-20 04:00:00,24.1,15.1,68.09,320.0,12.0,30.15,10.0,11.95
2021-01-20 05:00:00,19.0,10.0,67.46,320.0,11.0,30.18,10.0,6.04
2021-01-20 06:00:00,17.1,8.1,67.22,320.0,10.0,30.2,10.0,4.28
2021-01-20 07:00:00,15.1,7.0,69.75,310.0,7.0,30.22,10.0,4.18
2021-01-20 08:00:00,12.9,6.0,73.74,300.0,8.0,30.22,10.0,0.59
2021-01-20 09:00:00,10.9,5.0,76.62,290.0,7.0,30.22,10.0,-0.94
2021-01-20 10:00:00,10.0,5.0,79.76,0.0,0.0,30.2,10.0,10.0
2021-01-20 11:00:00,7.0,1.0,75.88,240.0,5.0,30.21,10.0,-3.29
2021-01-20 12:00:00,9.0,3.0,76.08,230.0,6.0,30.22,10.0,-2.17
2021-01-20 13:00:00,10.0,5.0,79.76,240.0,6.0,30.21,10.0,-0.97
2021-01-20 14:00:00,14.0,7.0,73.19,240.0,12.0,30.21,10.0,-0.91
2021-01-20 15:00:00,17.1,9.0,69.99,230.0,10.0,30.17,10.0,4.28
2021-01-20 16:00:00,19.9,9.0,62.07,220.0,10.0,30.16,10.0,7.79
2021-01-20 17:00:00,21.9,8.1,54.75,210.0,14.0,30.08,10.0,8.14
2021-01-20 18:00:00,23.0,9.0,54.44,200.0,14.0,30.01,10.0,9.56
2021-01-20 19:00:00,25.0,10.9,54.5,210.0,14.0,29.97,10.0,12.14
2021-01-20 20:00:00,26.1,12.9,56.89,210.0,18.0,29.89,10.0,11.98
2021-01-20 21:00:00,28.0,16.0,60.25,190.0,16.0,29.83,10.0,15.2
2021-01-20 22:00:00,28.9,18.0,63.31,200.0,20.0,29.76,10.0,15.02
2021-01-20 23:00:00,30.0,19.9,65.66,220.0,16.0,29.78,10.0,17.81
2021-01-21 00:00:00,32.0,21.9,65.92,220.0,16.0,29.74,10.0,17.81
2021-01-21 01:00:00,33.0,24.1,69.17,210.0,21.0,29.71,10.0,20.32
2021-01-21 02:00:00,34.0,25.0,69.28,210.0,21.0,29.7,10.0,20.32
2021-01-21 03:00:00,34.0,25.0,69.28,210.0,21.0,29.68,10.0,20.32
2021-01-21 04:00:00,35.0,25.0,66.31,210.0,21.0,29.67,10.0,20.32
2021-01-21 05:00:00,34.0,25.0,69.28,210.0,21.0,29.65,10.0,20.32
2021-01-21 06:00:00,35.0,25.0,66.31,210.0,21.0,29.65,10.0,20.32
2021-01-21 07:00:00,34.0,24.1,66.72,210.0,21.0,29.65,10.0,20.32
2021-01-21 08:00:00,36.0,24.1,61.62,210.0,21.0,29.65,10.0,20.32
2021-01-21 09:00:00,36.0,23.0,58.85,210.0,21.0,29.65,10.0,20.32
2021-01-21 10:00:00,35.0,21.9,58.22,270.0,14.0,29.65,10.0,25.16
2021-01-21 11:00:00,35.0,21.9,58.22,270.0,14.0,29.65,10.0,25.16
2021-01-21 12:00:00,32.0,21.0,63.45,260.0,14.0,29.65,10.0,21.16
2021-01-21 13:00:00,33.0,21.0,60.71,270.0,17.0,29.65,10.0,21.52
2021-01-21 14:00:00,36.0,21.9,56.18,260.0,18.0,29.65,10.0,25.01
2021-01-21 15:00:00,38.0,21.9,52.13,270.0,18.0,29.65,10.0,27.52
2021-01-21 16:00:00,40.0,21.9,48.21,270.0,20.0,29.65,10.0,29.63
2021-01-21 17:00:00,40.0,23.0,50.5,270.0,18.0,29.63,10.0,30.15
2021-01-21 18:00:00,40.0,23.0,50.5,270.0,17.0,29.62,10.0,30.42
2021-01-21 19:00:00,40.0,23.0,50.5,270.0,21.0,29.63,10.0,29.39
2021-01-21 20:00:00,39.0,23.0,52.3,270.0,18.0,29.66,10.0,28.96
2021-01-21 21:00:00,39.0,23.0,52.3,270.0,15.0,29.67,10.0,29.85
2021-01-21 22:00:00,37.0,23.0,56.57,260.0,14.0,29.69,10.0,27.61
2021-01-21 23:00:00,34.0,23.0,63.72,260.0,10.0,29.7,10.0,25.48
2021-01-22 00:00:00,34.0,23.0,63.72,270.0,10.0,29.72,10.0,25.48
2021-01-22 01:00:00,34.0,23.0,63.72,270.0,11.0,29.74,10.0,24.99
2021-01-22 02:00:00,34.0,21.0,58.56,280.0,12.0,29.75,10.0,24.55
2021-01-22 03:00:00,32.0,21.0,63.45,280.0,9.0,29.78,10.0,23.51
2021-01-22 04:00:00,32.0,19.0,58.27,290.0,13.0,29.8,10.0,21.57
2021-01-22 05:00:00,28.9,12.9,50.7,330.0,13.0,29.83,10.0,17.6
2021-01-22 06:00:00,25.0,10.0,52.36,320.0,11.0,29.87,10.0,13.62
2021-01-22 07:00:00,21.0,7.0,54.12,330.0,13.0,29.9,10.0,7.48
2021-01-22 08:00:00,18.0,4.0,53.4,320.0,12.0,29.94,10.0,4.18
2021-01-22 09:00:00,16.0,1.9,53.07,320.0,11.0,29.96,10.0,2.25
2021-01-22 10:00:00,14.0,1.9,57.91,320.0,10.0,29.98,10.0,0.4
2021-01-22 11:00:00,12.9,1.0,58.29,320.0,9.0,30.0,10.0,-0.24
2021-01-22 12:00:00,12.0,0.0,57.88,310.0,9.0,30.04,10.0,-1.35
2021-01-22 13:00:00,10.9,0.0,60.77,300.0,9.0,30.07,10.0,-2.72
2021-01-22 14:00:00,12.0,0.0,57.88,300.0,13.0,30.1,10.0,-4.05
2021-01-22 15:00:00,12.9,1.0,58.29,310.0,10.0,30.13,10.0,-0.98
2021-01-22 16:00:00,14.0,1.9,57.91,310.0,11.0,30.14,10.0,-0.28
2021-01-22 17:00:00,15.1,3.0,58.08,300.0,12.0,30.14,10.0,0.49
2021-01-22 18:00:00,16.0,3.0,55.85,290.0,10.0,30.13,10.0,2.9
2021-01-22 19:00:00,17.1,1.9,50.6,320.0,10.0,30.14,10.0,4.28
2021-01-22 20:00:00,16.0,1.0,50.9,300.0,10.0,30.16,10.0,2.9
2021-01-22 21:00:00,16.0,0.0,48.57,310.0,10.0,30.18,10.0,2.9
2021-01-22 22:00:00,15.1,1.0,52.93,290.0,8.0,30.2,10.0,3.3
2021-01-22 23:00:00,12.9,1.0,58.29,290.0,5.0,30.22,10.0,3.71
2021-01-23 00:00:00,12.0,0.0,57.88,280.0,4.0,30.23,10.0,4.07
2021-01-23 01:00:00,10.9,-0.9,58.26,280.0,5.0,30.24,10.0,1.34
2021-01-23 02:00:00,10.0,-0.9,60.64,280.0,6.0,30.26,10.0,-0.97
2021-01-23 03:00:00,10.0,-0.9,60.64,270.0,4.0,30.27,10.0,1.73
2021-01-23 04:00:00,9.0,-2.0,60.21,290.0,4.0,30.28,10.0,0.56
2021-01-23 05:00:00,7.0,-2.0,65.89,270.0,5.0,30.28,10.0,-3.29
2021-01-23 06:00:00,9.0,-2.0,60.21,270.0,3.0,30.29,10.0,2.4
2021-01-23 07:00:00,6.0,-3.0,65.77,270.0,3.0,30.31,10.0,-0.92
2021-01-23 08:00:00,6.0,-3.0,65.77,310.0,4.0,30.32,10.0,-2.82
2021-01-23 09:00:00,6.0,-3.0,65.77,260.0,4.0,30.32,10.0,-2.82
2021-01-23 10:00:00,5.0,-3.0,69.16,280.0,5.0,30.34,10.0,-5.67
2021-01-23 11:00:00,6.0,-4.0,62.41,270.0,4.0,30.35,10.0,-2.82
2021-01-23 12:00:00,6.0,-3.0,65.77,250.0,3.0,30.35,10.0,-0.92
2021-01-23 13:00:00,7.0,-0.9,69.41,260.0,4.0,30.34,10.0,-1.77
2021-01-23 14:00:00,12.0,1.0,60.65,260.0,4.0,30.36,10.0,4.07
2021-01-23 15:00:00,16.0,1.0,50.9,230.0,3.0,30.37,10.0,10.4
2021-01-23 16:00:00,21.0,1.9,42.82,220.0,6.0,30.37,10.0,12.28
2021-01-23 17:00:00,25.0,3.0,38.09,260.0,8.0,30.35,10.0,15.49
2021-01-23 18:00:00,27.0,4.0,36.55,250.0,6.0,30.33,10.0,19.51
2021-01-23 19:00:00,28.0,3.0,33.65,240.0,4.0,30.32,10.0,22.75
2021-01-23 20:00:00,28.9,4.0,33.8,240.0,3.0,30.31,10.0,25.14
2021-01-23 21:00:00,28.9,5.0,35.55,260.0,4.0,30.3,10.0,23.8
2021-01-23 22:00:00,28.0,7.0,40.41,160.0,5.0,30.28,10.0,21.64
2021-01-23 23:00:00,28.0,8.1,42.47,150.0,4.0,30.28,10.0,22.75
2021-01-24 00:00:00,28.0,8.1,42.47,140.0,3.0,30.27,10.0,24.12
2021-01-24 01:00:00,27.0,8.1,44.26,140.0,4.0,30.25,10.0,21.58
2021-01-24 02:00:00,28.0,15.1,57.93,140.0,5.0,30.24,10.0,21.64
2021-01-24 03:00:00,28.9,18.0,63.31,190.0,4.0,30.23,10.0,23.8
2021-01-24 04:00:00,30.0,19.0,63.18,160.0,6.0,30.22,10.0,23.12
2021-01-24 05:00:00,30.0,19.0,63.18,150.0,8.0,30.19,10.0,21.65
2021-01-24 06:00:00,30.9,19.9,63.31,160.0,8.0,30.17,10.0,22.76
2021-01-24 07:00:00,30.0,21.0,68.81,180.0,10.0,30.17,3.0,20.46
2021-01-24 08:00:00,30.0,23.0,74.87,130.0,7.0,30.14,10.0,22.34
2021-01-24 09:00:00,30.0,24.1,78.4,180.0,5.0,30.12,6.0,24.02
2021-01-24 10:00:00,30.9,21.9,68.91,110.0,7.0,30.09,10.0,23.44
2021-01-24 11:00:00,30.0,25.0,81.4,170.0,8.0,30.09,1.25,21.65
2021-01-24 12:00:00,30.0,25.0,81.4,170.0,7.0,30.08,3.0,22.34
2021-01-24 13:00:00,28.9,23.0,78.3,180.0,9.0,30.07,4.0,19.66
2021-01-24 14:00:00,28.9,25.0,85.14,180.0,6.0,30.08,1.0,21.8
2021-01-24 15:00:00,30.0,26.1,85.21,170.0,7.0,30.07,2.0,22.34
2021-01-24 16:00:00,30.9,25.0,78.48,210.0,9.0,30.07,10.0,22.15
2021-01-24 17:00:00,32.0,25.0,75.07,250.0,8.0,30.05,10.0,24.11
2021-01-24 18:00:00,33.0,25.0,71.82,260.0,7.0,30.02,10.0,26.12
2021-01-24 19:00:00,33.0,25.0,71.82,290.0,7.0,30.03,10.0,26.12
2021-01-24 20:00:00,33.0,25.0,71.82,330.0,4.0,30.05,10.0,28.7
2021-01-24 21:00:00,33.0,25.0,71.82,320.0,5.0,30.05,10.0,27.7
2021-01-24 22:00:00,33.0,24.1,69.17,320.0,4.0,30.06,10.0,28.7
2021-01-24 23:00:00,32.0,24.1,72.3,350.0,5.0,30.08,10.0,26.4
2021-01-25 00:00:00,32.0,23.0,69.04,340.0,5.0,30.09,10.0,26.4
2021-01-25 01:00:00,30.9,23.0,72.18,320.0,4.0,30.1,10.0,26.14
2021-01-25 02:00:00,30.9,21.9,68.91,350.0,4.0,30.11,10.0,26.14
2021-01-25 03:00:00,28.9,21.0,71.96,350.0,6.0,30.11,10.0,21.8
2021-01-25 04:00:00,28.9,21.0,71.96,30.0,4.0,30.11,10.0,23.8
2021-01-25 05:00:00,28.0,21.0,74.67,10.0,3.0,30.1,10.0,24.12
2021-01-25 06:00:00,26.1,19.0,74.16,0.0,0.0,30.1,9.0,26.1
2021-01-25 07:00:00,26.1,19.9,77.06,0.0,3.0,30.15,9.0,21.94
2021-01-25 08:00:00,24.1,19.0,80.59,320.0,6.0,30.13,8.0,16.02
2021-01-25 09:00:00,23.0,17.1,77.77,340.0,4.0,30.1,8.0,16.91
2021-01-25 10:00:00,23.0,16.0,74.15,340.0,8.0,30.09,10.0,13.03
2021-01-25 11:00:00,23.0,16.0,74.15,330.0,4.0,30.11,10.0,16.91
2021-01-25 12:00:00,21.9,15.1,74.69,360.0,6.0,30.11,10.0,13.37
2021-01-25 13:00:00,21.9,16.0,77.67,360.0,7.0,30.1,10.0,12.47
2021-01-25 14:00:00,24.1,19.0,80.59,360.0,7.0,30.07,10.0,15.15
2021-01-25 15:00:00,28.0,21.9,77.57,360.0,8.0,30.09,10.0,19.19
2021-01-25 16:00:00,30.0,23.0,74.87,360.0,8.0,30.08,10.0,21.65
2021-01-25 17:00:00,30.0,24.1,78.4,360.0,9.0,30.01,10.0,21.03
2021-01-25 18:00:00,33.0,24.1,69.17,60.0,16.0,29.98,10.0,21.85
2021-01-25 19:00:00,32.0,23.0,69.04,50.0,17.0,29.94,10.0,20.08
2021-01-25 20:00:00,32.0,21.9,65.92,50.0,18.0,29.97,10.0,19.75
2021-01-25 21:00:00,30.9,21.9,68.91,50.0,16.0,29.96,10.0,18.98
2021-01-25 22:00:00,30.9,21.9,68.91,50.0,17.0,29.95,10.0,18.63
2021-01-25 23:00:00,32.0,23.0,69.04,50.0,16.0,29.94,10.0,20.42
2021-01-26 00:00:00,32.0,23.0,69.04,60.0,15.0,29.91,10.0,20.78
2021-01-26 01:00:00,33.0,23.0,66.06,70.0,17.0,29.89,10.0,21.52
2021-01-26 02:00:00,33.0,21.9,63.06,60.0,26.0,29.85,10.0,19.07
2021-01-26 03:00:00,33.0,21.9,63.06,60.0,26.0,29.85,10.0,19.07
2021-01-26 04:00:00,33.0,25.0,71.82,70.0,24.0,29.81,6.0,19.54
2021-01-26 05:00:00,33.0,25.0,71.82,60.0,15.0,29.82,8.0,22.21
2021-01-26 06:00:00,30.9,26.1,82.15,60.0,18.0,29.8,0.5,18.3
2021-01-26 07:00:00,30.9,27.0,85.26,50.0,19.0,29.79,0.75,17.98
2021-01-26 08:00:00,30.0,26.1,85.21,50.0,17.0,29.77,2.5,17.46
2021-01-26 09:00:00,30.0,26.1,85.21,40.0,17.0,29.77,2.0,17.46
2021-01-26 10:00:00,28.9,25.0,85.14,40.0,15.0,29.75,1.5,16.76
2021-01-26 11:00:00,30.0,26.1,85.21,50.0,16.0,29.78,0.75,17.81
2021-01-26 12:00:00,30.0,26.1,85.21,40.0,17.0,29.78,1.5,17.46
2021-01-26 13:00:00,30.0,26.1,85.21,40.0,17.0,29.79,0.5,17.46
2021-01-26 14:00:00,30.9,26.1,82.15,30.0,19.0,29.82,2.5,17.98
2021-01-26 15:00:00,30.0,26.1,85.21,30.0,15.0,29.85,0.5,18.19
2021-01-26 16:00:00,30.9,26.1,82.15,30.0,16.0,29.89,1.25,18.98
2021-01-26 17:00:00,32.0,27.0,81.55,20.0,11.0,29.89,1.5,22.47
2021-01-26 18:00:00,32.0,28.0,84.98,20.0,12.0,29.91,1.25,22.0
2021-01-26 19:00:00,30.9,26.1,82.15,340.0,12.0,29.95,2.0,20.6
2021-01-26 20:00:00,30.0,25.0,81.4,10.0,10.0,29.98,2.0,20.46
2021-01-26 21:00:00,28.9,21.9,74.76,10.0,14.0,30.02,10.0,17.17
2021-01-26 22:00:00,28.0,19.9,71.25,360.0,12.0,30.07,10.0,16.91
2021-01-26 23:00:00,27.0,18.0,68.45,360.0,10.0,30.1,10.0,16.7
2021-01-27 00:00:00,26.1,17.1,68.34,340.0,12.0,30.13,10.0,14.49
2021-01-27 01:00:00,26.1,17.1,68.34,330.0,12.0,30.16,10.0,14.49
2021-01-27 02:00:00,25.0,15.1,65.58,340.0,9.0,30.18,10.0,14.81
2021-01-27 03:00:00,25.0,12.9,59.55,350.0,10.0,30.18,10.0,14.19
2021-01-27 04:00:00,23.0,12.9,64.75,330.0,9.0,30.2,10.0,12.32
2021-01-27 05:00:00,21.9,12.0,65.18,330.0,9.0,30.23,10.0,10.96
2021-01-27 06:00:00,21.0,12.0,67.71,330.0,8.0,30.25,10.0,10.56
2021-01-27 07:00:00,21.0,10.9,64.48,330.0,9.0,30.28,10.0,9.84
2021-01-27 08:00:00,19.9,10.9,67.57,320.0,8.0,30.3,10.0,9.21
2021-01-27 09:00:00,19.9,10.9,67.57,340.0,9.0,30.29,10.0,8.47
2021-01-27 10:00:00,19.0,10.0,67.46,350.0,8.0,30.28,10.0,8.1
2021-01-27 11:00:00,19.0,10.0,67.46,330.0,5.0,30.28,10.0,10.96
2021-01-27 12:00:00,18.0,10.0,70.41,350.0,5.0,30.32,10.0,9.77
2021-01-27 13:00:00,17.1,8.1,67.22,330.0,9.0,30.35,10.0,4.99
2021-01-27 14:00:00,17.1,9.0,69.99,330.0,8.0,30.34,10.0,5.76
2021-01-27 15:00:00,19.0,10.0,67.46,330.0,7.0,30.36,10.0,8.93
2021-01-27 16:00:00,21.9,12.0,65.18,330.0,7.0,30.37,10.0,12.47
2021-01-27 17:00:00,24.1,14.0,64.89,360.0,7.0,30.36,10.0,15.15
2021-01-27 18:00:00,27.0,16.0,62.78,350.0,9.0,30.35,10.0,17.3
2021-01-27 19:00:00,28.0,15.1,57.93,10.0,8.0,30.35,10.0,19.19
2021-01-27 20:00:00,26.1,12.9,56.89,330.0,8.0,30.36,10.0,16.85
2021-01-27 21:00:00,24.1,10.9,56.59,330.0,8.0,30.38,10.0,14.38
2021-01-27 22:00:00,21.0,9.0,59.23,320.0,9.0,30.41,10.0,9.84
2021-01-27 23:00:00,18.0,7.0,61.52,330.0,8.0,30.44,10.0,6.87
2021-01-28 00:00:00,17.1,6.0,61.39,350.0,7.0,30.46,10.0,6.62
2021-01-28 01:00:00,14.0,5.0,66.82,320.0,5.0,30.47,10.0,5.02
2021-01-28 02:00:00,10.9,4.0,72.85,300.0,5.0,30.49,10.0,1.34
2021-01-28 03:00:00,14.0,5.0,66.82,330.0,7.0,30.5,10.0,2.84
2021-01-28 04:00:00,12.0,5.0,72.97,320.0,5.0,30.51,10.0,2.64
2021-01-28 05:00:00,9.0,3.0,76.08,320.0,5.0,30.52,10.0,-0.92
2021-01-28 06:00:00,10.0,3.0,72.75,320.0,6.0,30.52,10.0,-0.97
2021-01-28 07:00:00,8.1,1.0,72.2,310.0,6.0,30.55,10.0,-3.25
2021-01-28 08:00:00,8.1,1.0,72.2,310.0,6.0,30.55,10.0,-3.25
2021-01-28 09:00:00,9.0,1.0,69.33,300.0,6.0,30.57,10.0,-2.17
2021-01-28 10:00:00,6.0,-0.9,72.31,320.0,3.0,30.57,10.0,-0.92
2021-01-28 11:00:00,6.0,-0.9,72.31,310.0,6.0,30.58,10.0,-5.66
2021-01-28 12:00:00,8.1,0.0,68.9,320.0,6.0,30.59,10.0,-3.25
2021-01-28 13:00:00,8.1,0.0,68.9,300.0,7.0,30.62,10.0,-4.35
2021-01-28 14:00:00,9.0,1.0,69.33,300.0,6.0,30.64,10.0,-2.17
2021-01-28 15:00:00,12.9,3.0,63.96,310.0,4.0,30.67,10.0,5.12
2021-01-28 16:00:00,17.1,5.0,58.38,290.0,5.0,30.64,10.0,8.7
2021-01-28 17:00:00,18.0,4.0,53.4,310.0,8.0,30.64,10.0,6.87
2021-01-28 18:00:00,19.0,5.0,53.8,290.0,8.0,30.62,10.0,8.1
2021-01-28 19:00:00,19.9,5.0,51.77,300.0,9.0,30.6,10.0,8.47
2021-01-28 20:00:00,21.0,5.0,49.41,290.0,8.0,30.6,10.0,10.56
2021-01-28 21:00:00,21.0,5.0,49.41,290.0,6.0,30.59,10.0,12.28
2021-01-28 22:00:00,19.9,5.0,51.77,0.0,0.0,30.57,10.0,19.9
2021-01-28 23:00:00,16.0,4.0,58.22,260.0,3.0,30.55,10.0,10.4
2021-01-29 00:00:00,15.1,3.0,58.08,270.0,3.0,30.55,10.0,9.37
2021-01-29 01:00:00,10.9,1.9,66.41,260.0,4.0,30.55,10.0,2.78
2021-01-29 02:00:00,12.9,1.9,60.78,0.0,0.0,30.54,9.0,12.9
2021-01-29 03:00:00,8.1,0.0,68.9,0.0,0.0,30.52,10.0,8.1
2021-01-29 04:00:00,10.9,1.9,66.41,0.0,0.0,30.52,10.0,10.9
2021-01-29 05:00:00,10.0,1.9,69.13,270.0,3.0,30.51,10.0,3.54
2021-01-29 06:00:00,12.9,5.0,70.13,0.0,0.0,30.49,10.0,12.9
2021-01-29 07:00:00,10.9,3.0,69.89,0.0,0.0,30.48,10.0,10.9
2021-01-29 08:00:00,9.0,3.0,76.08,0.0,0.0,30.47,10.0,9.0
2021-01-29 09:00:00,8.1,1.9,75.29,260.0,3.0,30.46,10.0,1.37
2021-01-29 10:00:00,7.0,1.9,79.13,0.0,0.0,30.45,10.0,7.0
2021-01-29 11:00:00,5.0,0.0,79.32,0.0,0.0,30.45,10.0,5.0
2021-01-29 12:00:00,8.1,3.0,79.23,0.0,0.0,30.45,10.0,8.1
2021-01-29 13:00:00,10.9,5.0,76.62,0.0,0.0,30.44,10.0,10.9
2021-01-29 14:00:00,12.9,6.0,73.74,0.0,0.0,30.43,10.0,12.9
2021-01-29 15:00:00,23.0,10.9,59.26,190.0,3.0,30.43,10.0,18.4
2021-01-29 16:00:00,27.0,14.0,57.53,170.0,5.0,30.4,10.0,20.46
2021-01-29 17:00:00,30.0,17.1,58.23,140.0,8.0,30.38,10.0,21.65
2021-01-29 18:00:00,30.0,14.0,50.88,130.0,8.0,30.34,10.0,21.65
2021-01-29 19:00:00,30.9,15.1,51.47,140.0,8.0,30.32,10.0,22.76
2021-01-29 20:00:00,30.0,17.1,58.23,130.0,9.0,30.31,10.0,21.03
2021-01-29 21:00:00,30.0,17.1,58.23,130.0,8.0,30.3,10.0,21.65
2021-01-29 22:00:00,30.9,18.0,58.36,140.0,9.0,30.31,10.0,22.15
2021-01-29 23:00:00,30.9,19.9,63.31,140.0,7.0,30.3,10.0,23.44
2021-01-30 00:00:00,30.0,19.9,65.66,140.0,7.0,30.29,10.0,23.44
2021-01-30 01:00:00,30.9,21.0,66.34,130.0,9.0,30.28,10.0,22.15
2021-01-30 02:00:00,32.0,21.0,63.45,120.0,8.0,30.27,10.0,24.11
2021-01-30 03:00:00,32.0,21.9,65.92,110.0,7.0,30.25,10.0,24.78
2021-01-30 04:00:00,33.0,23.0,66.06,110.0,7.0,30.25,10.0,24.78
2021-01-30 05:00:00,33.0,21.9,63.06,110.0,7.0,30.23,10.0,24.78
2021-01-30 06:00:00,32.0,21.0,63.45,110.0,7.0,30.23,10.0,24.78
2021-01-30 07:00:00,32.0,21.0,63.45,110.0,7.0,30.2,10.0,24.78
2021-01-30 08:00:00,32.0,21.0,63.45,110.0,7.0,30.2,10.0,24.78
2021-01-30 09:00:00,32.0,21.0,63.45,110.0,7.0,30.2,10.0,24.78
2021-01-30 10:00:00,32.0,21.0,63.45,110.0,7.0,30.16,10.0,24.78
2021-01-30 11:00:00,33.0,21.0,60.71,110.0,7.0,30.12,10.0,24.78
2021-01-30 12:00:00,33.0,21.9,63.06,130.0,13.0,30.12,10.0,22.98
2021-01-30 13:00:00,33.0,21.0,60.71,130.0,15.0,30.12,10.0,22.21
2021-01-30 14:00:00,33.0,21.9,63.06,130.0,14.0,30.12,10.0,22.58
2021-01-30 15:00:00,34.0,23.0,63.72,140.0,14.0,30.11,10.0,23.74
2021-01-30 16:00:00,34.0,23.0,63.72,130.0,12.0,30.11,10.0,24.55
2021-01-30 17:00:00,34.0,23.0,63.72,130.0,15.0,30.07,10.0,23.37
2021-01-30 18:00:00,34.0,24.1,66.72,110.0,17.0,30.02,10.0,22.7
2021-01-30 19:00:00,35.0,24.1,63.86,110.0,18.0,30.0,10.0,23.83
2021-01-30 20:00:00,35.0,25.0,66.31,110.0,18.0,29.99,10.0,23.83
2021-01-30 21:00:00,35.0,25.0,66.31,120.0,17.0,29.98,10.0,24.14
2021-01-30 22:00:00,33.0,27.0,78.03,120.0,17.0,29.97,0.75,21.52
2021-01-30 23:00:00,33.0,28.9,84.36,110.0,16.0,29.94,0.75,21.85
2021-01-31 00:00:00,33.0,28.9,84.36,120.0,17.0,29.94,1.25,21.52
2021-01-31 01:00:00,33.0,28.9,84.36,120.0,20.0,29.94,0.5,20.6
2021-01-31 02:00:00,33.0,28.9,84.36,110.0,18.0,29.93,0.5,21.2
2021-01-31 03:00:00,32.0,28.9,88.17,100.0,21.0,29.9,0.75,18.85
2021-01-31 04:00:00,32.0,28.0,84.98,110.0,18.0,29.9,0.5,19.75
2021-01-31 05:00:00,30.9,28.0,88.84,100.0,17.0,29.89,0.5,18.63
2021-01-31 06:00:00,30.9,28.0,88.84,90.0,16.0,29.88,1.25,18.98
2021-01-31 07:00:00,32.0,28.0,84.98,90.0,16.0,29.86,0.75,20.42
2021-01-31 08:00:00,32.0,28.9,88.17,80.0,20.0,29.86,0.75,19.14
2021-01-31 09:00:00,33.0,28.9,84.36,90.0,21.0,29.85,1.25,20.32
2021-01-31 10:00:00,33.0,28.9,84.36,80.0,18.0,29.86,1.0,21.2
2021-01-31 11:00:00,32.0,28.9,88.17,80.0,20.0,29.88,0.75,19.14
2021-01-31 12:00:00,33.0,28.9,84.36,70.0,17.0,29.9,1.25,21.52
2021-01-31 13:00:00,32.0,28.9,88.17,60.0,15.0,29.92,0.25,20.78
2021-01-31 14:00:00,32.0,28.9,88.17,60.0,15.0,29.93,0.5,20.78
2021-01-31 15:00:00,32.0,28.9,88.17,50.0,14.0,29.95,0.5,21.16
2021-01-31 16:00:00,32.0,28.9,88.17,50.0,15.0,29.97,0.5,20.78
2021-01-31 17:00:00,33.0,28.9,84.36,40.0,16.0,29.98,1.0,21.85
2021-01-31 18:00:00,33.0,28.9,84.36,30.0,11.0,29.98,0.75,23.86
2021-01-31 19:00:00,33.0,28.9,84.36,30.0,14.0,29.99,1.5,22.58
2021-01-31 20:00:00,33.0,28.0,81.3,30.0,16.0,30.01,2.0,21.85
2021-01-31 21:00:00,33.0,28.0,81.3,30.0,12.0,30.03,2.5,23.4
2021-01-31 22:00:00,33.0,27.0,78.03,20.0,11.0,30.06,1.5,23.86
2021-01-31 23:00:00,33.0,27.0,78.03,20.0,14.0,30.08,5.0,22.58
2021-02-01 00:00:00,33.0,28.0,81.3,20.0,11.0,30.09,2.5,23.86
2021-02-01 01:00:00,33.0,28.9,84.36,20.0,11.0,30.09,2.0,23.86
2021-02-01 02:00:00,32.0,28.0,84.98,10.0,7.0,30.1,5.0,24.78
2021-02-01 03:00:00,32.0,28.0,84.98,10.0,11.0,30.1,10.0,22.47
2021-02-01 04:00:00,30.9,26.1,82.15,360.0,11.0,30.11,10.0,21.08
2021-02-01 05:00:00,28.9,24.1,82.0,340.0,8.0,30.12,10.0,20.29
2021-02-01 06:00:00,28.0,23.0,81.25,330.0,8.0,30.12,10.0,19.19
2021-02-01 07:00:00,28.0,23.0,81.25,330.0,9.0,30.13,10.0,18.54
2021-02-01 08:00:00,27.0,21.0,77.8,330.0,8.0,30.14,10.0,17.95
2021-02-01 09:00:00,28.0,21.9,77.57,330.0,7.0,30.15,10.0,19.9
2021-02-01 10:00:00,28.0,21.0,74.67,340.0,8.0,30.16,10.0,19.19
2021-02-01 11:00:00,27.0,21.0,77.8,330.0,7.0,30.17,10.0,18.68
2021-02-01 12:00:00,26.1,19.9,77.06,330.0,7.0,30.19,10.0,17.59
2021-02-01 13:00:00,24.1,17.1,74.27,320.0,8.0,30.21,10.0,14.38
2021-02-01 14:00:00,24.1,16.0,70.81,330.0,10.0,30.21,10.0,13.06
2021-02-01 15:00:00,28.0,19.0,68.57,330.0,9.0,30.22,10.0,18.54
2021-02-01 16:00:00,30.9,21.9,68.91,330.0,6.0,30.23,10.0,24.21
2021-02-01 17:00:00,32.0,21.9,65.92,360.0,10.0,30.2,10.0,22.97
2021-02-01 18:00:00,33.0,21.9,63.06,350.0,8.0,30.19,10.0,25.47
2021-02-01 19:00:00,35.0,21.0,56.05,350.0,8.0,30.19,10.0,27.93
2021-02-01 20:00:00,35.0,19.9,53.49,360.0,7.0,30.19,10.0,28.56
2021-02-01 21:00:00,34.0,19.9,55.88,350.0,6.0,30.2,10.0,27.94
2021-02-01 22:00:00,30.9,18.0,58.36,330.0,8.0,30.21,10.0,22.76
2021-02-01 23:00:00,28.0,12.0,50.56,320.0,5.0,30.22,10.0,21.64
2021-02-02 00:00:00,26.1,12.0,54.68,320.0,4.0,30.23,10.0,20.53
2021-02-02 01:00:00,25.0,15.1,65.58,320.0,5.0,30.24,10.0,18.08
2021-02-02 02:00:00,24.1,16.0,70.81,320.0,5.0,30.24,10.0,17.01
2021-02-02 03:00:00,17.1,12.9,83.25,300.0,5.0,30.23,10.0,8.7
2021-02-02 04:00:00,21.9,15.1,74.69,310.0,6.0,30.23,10.0,13.37
2021-02-02 05:00:00,23.0,17.1,77.77,330.0,9.0,30.24,10.0,12.32
2021-02-02 06:00:00,23.0,17.1,77.77,330.0,7.0,30.23,10.0,13.81
2021-02-02 07:00:00,21.9,16.0,77.67,310.0,6.0,30.24,10.0,13.37
2021-02-02 08:00:00,23.0,16.0,74.15,330.0,9.0,30.23,10.0,12.32
2021-02-02 09:00:00,23.0,16.0,74.15,320.0,8.0,30.23,10.0,13.03
2021-02-02 10:00:00,21.0,15.1,77.59,300.0,7.0,30.23,10.0,11.37
2021-02-02 11:00:00,24.1,18.0,77.21,320.0,7.0,30.23,10.0,15.15
2021-02-02 12:00:00,26.1,19.9,77.06,320.0,4.0,30.24,10.0,20.53
2021-02-02 13:00:00,27.0,19.9,74.25,330.0,6.0,30.25,6.0,19.51
2021-02-02 14:00:00,28.0,19.9,71.25,310.0,6.0,30.25,8.0,20.71
2021-02-02 15:00:00,30.0,21.0,68.81,310.0,8.0,30.25,10.0,21.65
2021-02-02 16:00:00,30.9,21.0,66.34,310.0,9.0,30.24,10.0,22.15
2021-02-02 17:00:00,32.0,21.9,65.92,330.0,8.0,30.23,10.0,24.11
2021-02-02 18:00:00,33.0,21.9,63.06,320.0,7.0,30.22,10.0,26.12
2021-02-02 19:00:00,33.0,21.0,60.71,360.0,7.0,30.2,10.0,26.12
2021-02-02 20:00:00,33.0,19.9,57.93,340.0,7.0,30.21,10.0,26.12
2021-02-02 21:00:00,32.0,19.9,60.55,350.0,8.0,30.21,10.0,24.11
2021-02-02 22:00:00,30.9,19.0,60.92,330.0,7.0,30.21,10.0,23.44
2021-02-02 23:00:00,28.0,18.0,65.69,320.0,5.0,30.2,10.0,21.64
2021-02-03 00:00:00,25.0,16.0,68.2,300.0,5.0,30.2,10.0,18.08
2021-02-03 01:00:00,21.0,14.0,73.94,290.0,6.0,30.2,10.0,12.28
2021-02-03 02:00:00,21.9,15.1,74.69,290.0,6.0,30.2,10.0,13.37
2021-02-03 03:00:00,21.9,15.1,74.69,300.0,7.0,30.19,10.0,12.47
2021-02-03 04:00:00,23.0,16.0,74.15,310.0,5.0,30.19,10.0,15.71
2021-02-03 05:00:00,21.0,15.1,77.59,310.0,5.0,30.17,10.0,13.33
2021-02-03 06:00:00,19.0,14.0,80.52,310.0,5.0,30.15,10.0,10.96
2021-02-03 07:00:00,17.1,12.0,80.01,300.0,6.0,30.16,10.0,7.59
2021-02-03 08:00:00,16.0,12.0,83.91,290.0,7.0,30.15,10.0,5.28
2021-02-03 09:00:00,16.0,12.0,83.91,300.0,7.0,30.16,10.0,5.28
2021-02-03 10:00:00,14.0,10.9,87.2,290.0,6.0,30.15,10.0,3.85
2021-02-03 11:00:00,14.0,10.0,83.77,290.0,8.0,30.16,9.0,1.94
2021-02-03 12:00:00,12.9,10.0,87.92,290.0,7.0,30.15,7.0,1.5
2021-02-03 13:00:00,12.9,10.0,87.92,290.0,5.0,30.15,5.0,3.71
2021-02-03 14:00:00,16.0,12.9,87.32,280.0,5.0,30.15,7.0,7.39
2021-02-03 15:00:00,19.0,15.1,84.49,270.0,4.0,30.14,8.0,12.24
2021-02-03 16:00:00,25.0,16.0,68.2,290.0,4.0,30.13,10.0,19.25
2021-02-03 17:00:00,30.0,16.0,55.52,0.0,0.0,30.1,10.0,30.0
2021-02-03 18:00:00,33.0,17.1,51.37,0.0,0.0,30.07,10.0,33.1
2021-02-03 19:00:00,35.0,19.0,51.47,230.0,5.0,30.05,10.0,30.08
2021-02-03 20:00:00,35.0,19.0,51.47,190.0,5.0,30.03,10.0,30.08
2021-02-03 21:00:00,35.0,19.9,53.49,200.0,5.0,30.03,10.0,30.08
2021-02-03 22:00:00,33.0,21.9,63.06,130.0,5.0,30.01,10.0,27.7
2021-02-03 23:00:00,32.0,21.9,65.92,150.0,6.0,29.99,10.0,25.53
2021-02-04 00:00:00,30.9,23.0,72.18,200.0,4.0,29.99,10.0,26.14
2021-02-04 01:00:00,30.9,23.0,72.18,180.0,5.0,29.98,10.0,25.09
2021-02-04 02:00:00,30.9,21.0,66.34,170.0,7.0,29.95,10.0,23.44
2021-02-04 03:00:00,30.0,21.0,68.81,170.0,8.0,29.92,10.0,21.65
2021-02-04 04:00:00,30.0,21.9,71.48,180.0,9.0,29.91,9.0,21.03
2021-02-04 05:00:00,28.9,21.9,74.76,180.0,7.0,29.9,8.0,21.0
2021-02-04 06:00:00,28.9,21.9,74.76,180.0,9.0,29.88,8.0,19.66
2021-02-04 07:00:00,28.9,21.9,74.76,170.0,10.0,29.85,9.0,19.08
2021-02-04 08:00:00,30.0,21.9,71.48,170.0,8.0,29.84,9.0,21.65
2021-02-04 09:00:00,30.0,23.0,74.87,170.0,8.0,29.81,10.0,21.65
2021-02-04 10:00:00,30.9,23.0,72.18,170.0,12.0,29.78,10.0,20.6
2021-02-04 11:00:00,30.9,23.0,72.18,170.0,10.0,29.74,10.0,21.59
2021-02-04 12:00:00,32.0,24.1,72.3,180.0,10.0,29.71,9.0,22.97
2021-02-04 13:00:00,33.0,24.1,69.17,170.0,10.0,29.69,9.0,24.35
2021-02-04 14:00:00,35.0,25.0,66.31,170.0,11.0,29.66,10.0,26.38
2021-02-04 15:00:00,36.0,26.1,66.97,160.0,9.0,29.6,10.0,28.49
2021-02-04 16:00:00,36.0,26.1,66.97,150.0,11.0,29.57,10.0,27.52
2021-02-04 17:00:00,37.0,27.0,66.82,180.0,9.0,29.53,10.0,29.73
2021-02-04 18:00:00,36.0,27.0,69.51,150.0,8.0,29.46,10.0,29.04
2021-02-04 19:00:00,35.0,30.9,84.49,160.0,10.0,29.41,2.5,26.86
2021-02-04 20:00:00,34.0,30.9,88.27,150.0,12.0,29.34,0.5,24.55
2021-02-04 21:00:00,34.0,30.9,88.27,160.0,13.0,29.31,0.75,24.13
2021-02-04 22:00:00,34.0,32.0,92.29,190.0,8.0,29.28,0.5,26.58
2021-02-04 23:00:00,34.0,32.0,92.29,200.0,7.0,29.25,0.25,27.22
2021-02-05 00:00:00,35.0,30.9,84.49,240.0,12.0,29.23,5.0,25.95
2021-02-05 01:00:00,35.0,30.9,84.49,280.0,15.0,29.24,1.5,24.8
2021-02-05 02:00:00,30.0,25.0,81.4,290.0,22.0,29.28,1.0,15.9
2021-02-05 03:00:00,28.0,24.1,85.08,270.0,21.0,29.33,1.0,13.52
2021-02-05 04:00:00,25.0,19.9,80.66,270.0,17.0,29.36,2.0,10.9
2021-02-05 05:00:00,23.0,17.1,77.77,270.0,17.0,29.4,3.0,8.28
2021-02-05 06:00:00,19.9,12.9,73.83,270.0,20.0,29.43,2.0,3.07
2021-02-05 07:00:00,17.1,10.0,73.2,270.0,20.0,29.46,2.0,-0.65
2021-02-05 08:00:00,12.9,6.0,73.74,270.0,17.0,29.48,3.0,-4.95
2021-02-05 09:00:00,12.9,5.0,70.13,260.0,17.0,29.51,5.0,-4.95
2021-02-05 10:00:00,10.9,4.0,72.85,270.0,17.0,29.52,7.0,-7.57
2021-02-05 11:00:00,10.9,3.0,69.89,270.0,18.0,29.54,6.0,-8.03
2021-02-05 12:00:00,9.0,1.9,72.3,270.0,15.0,29.55,7.0,-9.04
2021-02-05 13:00:00,9.0,1.0,69.33,270.0,16.0,29.57,8.0,-9.56
2021-02-05 14:00:00,9.0,1.0,69.33,270.0,19.0,29.58,8.0,-10.98
2021-02-05 15:00:00,10.0,1.0,66.29,270.0,20.0,29.59,10.0,-10.08
2021-02-05 16:00:00,10.9,1.9,66.41,260.0,15.0,29.61,10.0,-6.57
2021-02-05 17:00:00,12.9,1.9,60.78,260.0,18.0,29.61,5.0,-5.39
2021-02-05 18:00:00,12.9,3.0,63.96,260.0,15.0,29.6,5.0,-3.98
2021-02-05 19:00:00,14.0,4.0,63.53,260.0,21.0,29.61,10.0,-5.15
2021-02-05 20:00:00,14.0,4.0,63.53,260.0,19.0,29.62,10.0,-4.37
2021-02-05 21:00:00,14.0,3.0,60.94,260.0,22.0,29.65,10.0,-5.52
2021-02-05 22:00:00,12.0,1.9,63.25,260.0,18.0,29.67,10.0,-6.58
2021-02-05 23:00:00,10.9,1.0,63.69,260.0,17.0,29.69,10.0,-7.57
2021-02-06 00:00:00,10.0,1.0,66.29,260.0,18.0,29.71,8.0,-9.21
2021-02-06 01:00:00,9.0,1.0,69.33,260.0,16.0,29.75,10.0,-9.56
2021-02-06 02:00:00,9.0,0.0,66.16,270.0,14.0,29.78,10.0,-8.48
2021-02-06 03:00:00,8.1,0.0,68.9,270.0,16.0,29.8,10.0,-10.73
2021-02-06 04:00:00,7.0,-0.9,69.41,270.0,14.0,29.82,10.0,-11.06
2021-02-06 05:00:00,6.0,-2.0,68.64,260.0,13.0,29.84,10.0,-11.61
2021-02-06 06:00:00,5.0,-2.0,72.18,260.0,11.0,29.85,10.0,-11.65
2021-02-06 07:00:00,4.0,-3.0,72.74,260.0,10.0,29.86,10.0,-12.27
2021-02-06 08:00:00,5.0,-3.0,69.16,260.0,13.0,29.88,10.0,-13.02
2021-02-06 09:00:00,1.9,-5.0,71.82,250.0,8.0,29.91,10.0,-12.96
2021-02-06 10:00:00,1.9,-5.0,71.82,260.0,8.0,29.94,10.0,-12.96
2021-02-06 11:00:00,1.9,-4.0,75.71,270.0,7.0,29.94,10.0,-11.91
2021-02-06 12:00:00,1.0,-5.0,74.89,240.0,5.0,29.97,10.0,-10.42
2021-02-06 13:00:00,1.0,-6.0,71.71,240.0,10.0,30.01,10.0,-15.91
2021-02-06 14:00:00,4.0,-3.0,72.74,260.0,9.0,30.03,10.0,-11.43
2021-02-06 15:00:00,7.0,-3.0,63.14,270.0,11.0,30.07,10.0,-9.13
2021-02-06 16:00:00,8.1,-2.0,62.7,260.0,10.0,30.08,10.0,-7.0
2021-02-06 17:00:00,9.0,-0.9,63.42,250.0,10.0,30.08,10.0,-5.87
2021-02-06 18:00:00,10.0,-0.9,60.64,260.0,11.0,30.05,10.0,-5.34
2021-02-06 19:00:00,10.0,-0.9,60.64,260.0,9.0,30.04,10.0,-3.84
2021-02-06 20:00:00,10.0,1.0,66.29,230.0,9.0,30.03,1.75,-3.84
2021-02-06 21:00:00,10.0,1.9,69.13,250.0,11.0,30.04,5.0,-5.34
2021-02-06 22:00:00,9.0,1.9,72.3,240.0,9.0,30.03,3.0,-5.09
2021-02-06 23:00:00,9.0,1.9,72.3,240.0,9.0,30.04,2.5,-5.09
2021-02-07 00:00:00,8.1,1.0,72.2,260.0,13.0,30.05,3.0,-9.05
2021-02-07 01:00:00,8.1,1.0,72.2,260.0,9.0,30.06,2.5,-6.2
2021-02-07 02:00:00,7.0,0.0,72.41,270.0,9.0,30.06,8.0,-7.57
2021-02-07 03:00:00,4.0,-3.0,72.74,270.0,10.0,30.08,10.0,-12.27
2021-02-07 04:00:00,1.9,-6.0,68.77,280.0,12.0,30.08,10.0,-16.31
2021-02-07 05:00:00,-0.9,-8.0,71.14,280.0,9.0,30.08,10.0,-17.4
2021-02-07 06:00:00,-2.0,-9.9,68.27,290.0,8.0,30.09,10.0,-17.77
2021-02-07 07:00:00,-6.0,-11.9,74.87,280.0,6.0,30.12,10.0,-20.24
2021-02-07 08:00:00,-6.0,-11.9,74.87,300.0,9.0,30.12,10.0,-23.74
2021-02-07 09:00:00,-9.9,-16.1,73.31,270.0,5.0,30.14,10.0,-23.37
2021-02-07 10:00:00,-11.0,-16.1,77.41,280.0,6.0,30.15,10.0,-26.26
2021-02-07 11:00:00,-9.0,-17.0,66.99,290.0,8.0,30.17,10.0,-26.39
2021-02-07 12:00:00,-9.9,-18.0,66.53,280.0,5.0,30.19,10.0,-23.37
2021-02-07 13:00:00,-9.0,-17.0,66.99,290.0,7.0,30.2,10.0,-25.2
2021-02-07 14:00:00,-7.0,-16.1,63.92,280.0,13.0,30.23,10.0,-28.52
2021-02-07 15:00:00,-5.0,-16.1,58.03,280.0,11.0,30.24,10.0,-24.42
2021-02-07 16:00:00,-2.0,-14.1,55.38,280.0,10.0,30.25,10.0,-19.67
2021-02-07 17:00:00,0.0,-14.1,50.39,310.0,9.0,30.23,10.0,-16.28
2021-02-07 18:00:00,1.0,-13.0,50.82,290.0,9.0,30.22,10.0,-15.03
2021-02-07 19:00:00,1.9,-11.9,51.49,290.0,8.0,30.23,10.0,-12.96
2021-02-07 20:00:00,1.9,-11.9,51.49,280.0,10.0,30.22,10.0,-14.78
2021-02-07 21:00:00,1.9,-11.9,51.49,270.0,9.0,30.24,10.0,-13.91
2021-02-07 22:00:00,1.9,-11.9,51.49,260.0,8.0,30.24,10.0,-12.96
2021-02-07 23:00:00,0.0,-13.0,53.26,270.0,6.0,30.26,10.0,-13.01
2021-02-08 00:00:00,-3.0,-14.1,57.8,260.0,7.0,30.27,10.0,-17.76
2021-02-08 01:00:00,-2.0,-11.9,61.83,260.0,8.0,30.28,10.0,-17.77
2021-02-08 02:00:00,-0.9,-11.9,58.69,280.0,6.0,30.28,10.0,-14.09
2021-02-08 03:00:00,0.0,-11.0,58.84,280.0,7.0,30.29,10.0,-14.23
2021-02-08 04:00:00,0.0,-11.0,58.84,230.0,4.0,30.28,10.0,-9.95
2021-02-08 05:00:00,0.0,-9.9,62.12,260.0,6.0,30.3,10.0,-13.01
2021-02-08 06:00:00,1.0,-9.9,59.28,260.0,5.0,30.29,10.0,-10.42
2021-02-08 07:00:00,1.0,-9.9,59.28,260.0,4.0,30.29,10.0,-8.78
2021-02-08 08:00:00,1.0,-9.0,61.96,280.0,5.0,30.31,10.0,-10.42
2021-02-08 09:00:00,1.0,-9.0,61.96,340.0,4.0,30.29,10.0,-8.78
2021-02-08 10:00:00,0.0,-9.9,62.12,320.0,4.0,30.31,10.0,-9.95
2021-02-08 11:00:00,-0.9,-9.0,67.74,0.0,0.0,30.29,10.0,-0.9
2021-02-08 12:00:00,1.0,-7.0,67.99,290.0,5.0,30.31,10.0,-10.42
2021-02-08 13:00:00,1.9,-6.0,68.77,300.0,4.0,30.32,10.0,-7.73
2021-02-08 14:00:00,1.9,-5.0,71.82,300.0,4.0,30.32,10.0,-7.73
2021-02-08 15:00:00,4.0,-5.0,65.47,280.0,4.0,30.33,10.0,-5.39
2021-02-08 16:00:00,6.0,-3.0,65.77,300.0,4.0,30.32,10.0,-2.82
2021-02-08 17:00:00,8.1,-3.0,60.07,290.0,6.0,30.3,10.0,-3.25
2021-02-08 18:00:00,10.0,-2.0,57.57,290.0,6.0,30.28,10.0,-0.97
2021-02-08 19:00:00,10.9,-2.0,55.3,290.0,7.0,30.25,10.0,-0.94
2021-02-08 20:00:00,10.9,1.0,63.69,300.0,3.0,30.25,2.5,4.57
2021-02-08 21:00:00,10.9,3.0,69.89,300.0,6.0,30.26,0.75,0.12
2021-02-08 22:00:00,10.9,4.0,72.85,310.0,4.0,30.26,1.25,2.78
2021-02-08 23:00:00,10.0,4.0,75.83,290.0,6.0,30.27,2.5,-0.97
2021-02-09 00:00:00,10.0,4.0,75.83,320.0,8.0,30.27,3.0,-2.99
2021-02-09 01:00:00,9.0,1.9,72.3,320.0,6.0,30.28,10.0,-2.17
2021-02-09 02:00:00,8.1,0.0,68.9,320.0,7.0,30.28,5.0,-4.35
2021-02-09 03:00:00,7.0,-0.9,69.41,320.0,7.0,30.29,10.0,-5.69
2021-02-09 04:00:00,6.0,-3.0,65.77,330.0,6.0,30.31,10.0,-5.66
2021-02-09 05:00:00,5.0,-4.0,65.62,320.0,5.0,30.31,10.0,-5.67
2021-02-09 06:00:00,3.0,-6.0,65.35,320.0,5.0,30.3,10.0,-8.05
2021-02-09 07:00:00,1.9,-6.0,68.77,310.0,6.0,30.3,10.0,-10.72
2021-02-09 08:00:00,1.0,-7.0,67.99,320.0,6.0,30.31,10.0,-11.81
2021-02-09 09:00:00,0.0,-8.0,68.19,320.0,5.0,30.31,10.0,-11.61
2021-02-09 10:00:00,-0.9,-8.0,71.14,320.0,7.0,30.32,10.0,-15.32
2021-02-09 11:00:00,-2.0,-9.0,71.35,320.0,5.0,30.34,10.0,-13.98
2021-02-09 12:00:00,-3.0,-11.9,64.53,340.0,6.0,30.35,10.0,-16.5
2021-02-09 13:00:00,-2.0,-11.9,61.83,320.0,4.0,30.39,10.0,-12.28
2021-02-09 14:00:00,0.0,-11.9,56.26,320.0,4.0,30.38,10.0,-9.95
2021-02-09 15:00:00,1.0,-11.9,53.69,320.0,8.0,30.4,10.0,-14.07
2021-02-09 16:00:00,4.0,-9.9,51.83,290.0,6.0,30.39,10.0,-8.31
2021-02-09 17:00:00,7.0,-8.0,49.38,230.0,3.0,30.37,10.0,0.11
2021-02-09 18:00:00,8.1,-11.0,40.53,310.0,7.0,30.36,10.0,-4.35
2021-02-09 19:00:00,10.0,-8.0,43.14,310.0,6.0,30.35,10.0,-0.97
2021-02-09 20:00:00,10.0,-8.0,43.14,270.0,5.0,30.36,10.0,0.27
2021-02-09 21:00:00,10.0,-7.0,45.07,270.0,4.0,30.36,10.0,1.73
2021-02-09 22:00:00,9.0,-9.0,42.96,260.0,5.0,30.36,10.0,-0.92
2021-02-09 23:00:00,3.0,-9.9,54.02,270.0,4.0,30.37,10.0,-6.44
2021-02-10 00:00:00,1.9,-11.0,53.84,250.0,6.0,30.38,10.0,-10.72
2021-02-10 01:00:00,0.0,-11.0,58.84,260.0,7.0,30.38,10.0,-14.23
2021-02-10 02:00:00,0.0,-11.0,58.84,270.0,6.0,30.37,10.0,-13.01
2021-02-10 03:00:00,1.9,-9.9,56.85,240.0,4.0,30.38,10.0,-7.73
2021-02-10 04:00:00,-3.0,-13.0,61.08,250.0,3.0,30.38,10.0,-11.21
2021-02-10 05:00:00,-0.9,-9.9,64.81,290.0,3.0,30.38,10.0,-8.92
2021-02-10 06:00:00,-3.0,-11.0,67.48,280.0,3.0,30.39,10.0,-11.21
2021-02-10 07:00:00,-2.0,-9.9,68.27,250.0,3.0,30.41,10.0,-10.18
2021-02-10 08:00:00,-0.9,-9.0,67.74,250.0,4.0,30.41,10.0,-11.0
2021-02-10 09:00:00,1.0,-8.0,65.07,240.0,6.0,30.41,10.0,-11.81
2021-02-10 10:00:00,1.9,-6.0,68.77,290.0,5.0,30.4,10.0,-9.35
2021-02-10 11:00:00,5.0,-5.0,62.25,340.0,4.0,30.38,10.0,-4.11
2021-02-10 12:00:00,6.0,-4.0,62.41,340.0,7.0,30.38,10.0,-6.79
2021-02-10 13:00:00,6.0,-4.0,62.41,350.0,5.0,30.39,10.0,-4.36
2021-02-10 14:00:00,7.0,-4.0,59.91,280.0,4.0,30.4,10.0,-1.77
2021-02-10 15:00:00,8.1,-3.0,60.07,310.0,8.0,30.4,10.0,-5.33
2021-02-10 16:00:00,10.0,-3.0,55.16,310.0,7.0,30.41,10.0,-2.04
2021-02-10 17:00:00,10.9,-3.0,52.99,320.0,7.0,30.38,10.0,-0.94
2021-02-10 18:00:00,12.0,-3.0,50.47,330.0,9.0,30.36,10.0,-1.35
2021-02-10 19:00:00,12.9,-3.0,48.5,340.0,8.0,30.35,10.0,0.59
2021-02-10 20:00:00,12.9,-0.9,53.32,290.0,7.0,30.35,10.0,1.5
2021-02-10 21:00:00,14.0,-2.0,48.23,320.0,7.0,30.34,10.0,2.84
2021-02-10 22:00:00,14.0,-2.0,48.23,330.0,9.0,30.35,10.0,1.13
2021-02-10 23:00:00,10.9,-3.0,52.99,330.0,9.0,30.36,10.0,-2.72
2021-02-11 00:00:00,10.0,-4.0,52.34,330.0,8.0,30.36,10.0,-2.99
2021-02-11 01:00:00,8.1,-6.0,51.77,330.0,7.0,30.37,10.0,-4.35
2021-02-11 02:00:00,7.0,-6.0,54.41,330.0,5.0,30.39,10.0,-3.29
2021-02-11 03:00:00,6.0,-7.0,53.74,320.0,6.0,30.4,10.0,-5.66
2021-02-11 04:00:00,4.0,-7.0,59.44,340.0,6.0,30.41,10.0,-8.31
2021-02-11 05:00:00,4.0,-7.0,59.44,350.0,6.0,30.42,10.0,-8.31
2021-02-11 06:00:00,3.0,-8.0,59.3,330.0,4.0,30.42,10.0,-6.44
2021-02-11 07:00:00,3.0,-9.0,56.47,320.0,5.0,30.41,10.0,-8.05
2021-02-11 08:00:00,1.9,-9.9,56.85,320.0,9.0,30.43,10.0,-13.91
2021-02-11 09:00:00,1.9,-9.9,56.85,330.0,7.0,30.43,10.0,-11.91
2021-02-11 10:00:00,1.0,-11.0,56.15,340.0,8.0,30.44,10.0,-14.07
2021-02-11 11:00:00,1.9,-11.0,53.84,330.0,8.0,30.45,10.0,-12.96
2021-02-11 12:00:00,1.0,-11.0,56.15,330.0,7.0,30.45,10.0,-13.01
2021-02-11 13:00:00,3.0,-9.9,54.02,350.0,8.0,30.45,10.0,-11.61
2021-02-11 14:00:00,7.0,-8.0,49.38,340.0,8.0,30.46,10.0,-6.68
2021-02-11 15:00:00,10.0,-4.0,52.34,330.0,6.0,30.46,10.0,-0.97
2021-02-11 16:00:00,14.0,0.0,53.0,360.0,10.0,30.47,10.0,0.4
2021-02-11 17:00:00,18.0,4.0,53.4,340.0,9.0,30.45,10.0,6.11
2021-02-11 18:00:00,18.0,5.0,56.16,10.0,8.0,30.42,10.0,6.87
2021-02-11 19:00:00,19.0,5.0,53.8,10.0,9.0,30.4,10.0,7.35
2021-02-11 20:00:00,18.0,3.0,51.23,360.0,8.0,30.41,10.0,6.87
2021-02-11 21:00:00,17.1,1.9,50.6,360.0,10.0,30.42,10.0,4.28
2021-02-11 22:00:00,16.0,1.9,53.07,360.0,8.0,30.41,10.0,4.4
2021-02-11 23:00:00,14.0,4.0,63.53,360.0,10.0,30.41,10.0,0.4
2021-02-12 00:00:00,12.0,5.0,72.97,10.0,9.0,30.39,3.0,-1.35
2021-02-12 01:00:00,12.0,6.0,76.73,360.0,11.0,30.36,3.0,-2.81
2021-02-12 02:00:00,12.9,7.0,76.82,330.0,9.0,30.36,4.0,-0.24
2021-02-12 03:00:00,10.9,5.0,76.62,330.0,9.0,30.36,0.75,-2.72
2021-02-12 04:00:00,10.9,5.0,76.62,310.0,7.0,30.37,1.25,-0.94
2021-02-12 05:00:00,10.0,4.0,75.83,330.0,8.0,30.36,1.0,-2.99
2021-02-12 06:00:00,10.0,5.0,79.76,330.0,8.0,30.35,2.0,-2.99
2021-02-12 07:00:00,10.0,5.0,79.76,320.0,8.0,30.37,3.0,-2.99
2021-02-12 08:00:00,10.9,5.0,76.62,300.0,8.0,30.37,1.75,-1.88
2021-02-12 09:00:00,10.0,4.0,75.83,310.0,8.0,30.35,2.5,-2.99
2021-02-12 10:00:00,9.0,4.0,79.31,320.0,8.0,30.32,4.0,-4.22
2021-02-12 11:00:00,9.0,3.0,76.08,310.0,9.0,30.35,4.0,-5.09
2021-02-12 12:00:00,8.1,3.0,79.23,300.0,10.0,30.36,4.0,-7.0
2021-02-12 13:00:00,8.1,1.9,75.29,310.0,9.0,30.37,5.0,-6.2
2021-02-12 14:00:00,8.1,1.0,72.2,310.0,10.0,30.37,5.0,-7.0
2021-02-12 15:00:00,8.1,1.0,72.2,300.0,10.0,30.39,10.0,-7.0
2021-02-12 16:00:00,10.0,1.0,66.29,310.0,11.0,30.39,10.0,-5.34
2021-02-12 17:00:00,10.9,1.0,63.69,310.0,13.0,30.38,10.0,-5.46
2021-02-12 18:00:00,12.9,1.0,58.29,310.0,12.0,30.37,10.0,-2.31
2021-02-12 19:00:00,12.9,0.0,55.62,300.0,11.0,30.37,10.0,-1.67
2021-02-12 20:00:00,10.9,-0.9,58.26,320.0,8.0,30.37,10.0,-1.88
2021-02-12 21:00:00,10.9,-2.0,55.3,320.0,8.0,30.38,10.0,-1.88
2021-02-12 22:00:00,10.9,-2.0,55.3,320.0,8.0,30.39,10.0,-1.88
2021-02-12 23:00:00,9.0,-3.0,57.69,330.0,10.0,30.4,10.0,-5.87
2021-02-13 00:00:00,9.0,-3.0,57.69,330.0,8.0,30.41,10.0,-4.22
2021-02-13 01:00:00,8.1,-3.0,60.07,320.0,7.0,30.42,10.0,-4.35
2021-02-13 02:00:00,7.0,-4.0,59.91,330.0,8.0,30.41,10.0,-6.68
2021-02-13 03:00:00,7.0,-5.0,56.83,320.0,6.0,30.41,10.0,-4.58
2021-02-13 04:00:00,6.0,-5.0,59.2,300.0,7.0,30.4,10.0,-6.79
2021-02-13 05:00:00,6.0,-6.0,56.68,320.0,9.0,30.39,10.0,-8.69
2021-02-13 06:00:00,4.0,-7.0,59.44,320.0,8.0,30.39,10.0,-10.5
2021-02-13 07:00:00,4.0,-7.0,59.44,320.0,10.0,30.38,10.0,-12.27
2021-02-13 08:00:00,3.0,-7.0,61.96,320.0,10.0,30.37,9.0,-13.4
2021-02-13 09:00:00,3.0,-7.0,61.96,320.0,10.0,30.35,2.0,-13.4
2021-02-13 10:00:00,3.0,-6.0,65.35,320.0,9.0,30.35,4.0,-12.55
2021-02-13 11:00:00,1.9,-5.0,71.82,310.0,9.0,30.33,3.0,-13.91
2021-02-13 12:00:00,1.9,-5.0,71.82,320.0,8.0,30.33,1.75,-12.96
2021-02-13 13:00:00,1.9,-4.0,75.71,310.0,8.0,30.34,0.75,-12.96
2021-02-13 14:00:00,3.0,-4.0,71.95,310.0,10.0,30.33,0.75,-13.4
2021-02-13 15:00:00,5.0,-2.0,72.18,300.0,8.0,30.3,0.75,-9.15
2021-02-13 16:00:00,7.0,0.0,72.41,320.0,7.0,30.29,0.75,-5.69
2021-02-13 17:00:00,8.1,0.0,68.9,310.0,12.0,30.28,0.75,-8.42
2021-02-13 18:00:00,8.1,1.0,72.2,310.0,10.0,30.26,0.75,-7.0
2021-02-13 19:00:00,6.0,-0.9,72.31,290.0,10.0,30.25,1.25,-9.51
2021-02-13 20:00:00,6.0,0.0,75.43,310.0,9.0,30.25,1.25,-8.69
2021-02-13 21:00:00,7.0,-0.9,69.41,310.0,12.0,30.27,1.0,-9.82
2021-02-13 22:00:00,5.0,-3.0,69.16,310.0,9.0,30.27,10.0,-10.06
2021-02-13 23:00:00,4.0,-4.0,69.02,310.0,9.0,30.28,10.0,-11.43
2021-02-14 00:00:00,1.9,-6.0,68.77,300.0,13.0,30.29,10.0,-16.99
2021-02-14 01:00:00,1.9,-7.0,65.2,310.0,11.0,30.3,10.0,-15.57
2021-02-14 02:00:00,0.0,-9.0,64.93,310.0,11.0,30.31,10.0,-17.97
2021-02-14 03:00:00,-0.9,-11.0,61.38,320.0,9.0,30.34,10.0,-17.4
2021-02-14 04:00:00,-3.0,-11.9,64.53,310.0,10.0,30.35,10.0,-20.8
2021-02-14 05:00:00,-4.0,-13.0,64.37,300.0,8.0,30.36,10.0,-20.23
2021-02-14 06:00:00,-4.0,-15.0,58.21,310.0,10.0,30.39,10.0,-22.18
2021-02-14 07:00:00,-5.0,-16.1,58.03,300.0,6.0,30.4,10.0,-19.15
2021-02-14 08:00:00,-6.0,-17.0,57.89,320.0,11.0,30.4,10.0,-25.56
2021-02-14 09:00:00,-6.0,-18.0,55.0,320.0,10.0,30.41,10.0,-24.68
2021-02-14 10:00:00,-7.0,-18.9,55.38,320.0,9.0,30.42,10.0,-25.1
2021-02-14 11:00:00,-6.0,-18.0,55.0,320.0,10.0,30.43,10.0,-24.68
2021-02-14 12:00:00,-6.0,-18.0,55.0,310.0,9.0,30.45,10.0,-23.74
2021-02-14 13:00:00,-5.0,-17.0,55.43,300.0,11.0,30.48,10.0,-24.42
2021-02-14 14:00:00,-4.0,-16.1,55.05,320.0,8.0,30.49,10.0,-20.23
2021-02-14 15:00:00,-3.0,-17.0,49.89,310.0,11.0,30.47,10.0,-21.64
2021-02-14 16:00:00,-2.0,-16.1,50.05,310.0,13.0,30.49,10.0,-21.99
2021-02-14 17:00:00,0.0,-14.1,50.39,310.0,12.0,30.49,10.0,-18.73
2021-02-14 18:00:00,1.0,-13.0,50.82,300.0,12.0,30.48,10.0,-17.45
2021-02-14 19:00:00,1.9,-11.9,51.49,300.0,12.0,30.46,10.0,-16.31
2021-02-14 20:00:00,1.9,-11.9,51.49,320.0,10.0,30.45,10.0,-14.78
2021-02-14 21:00:00,1.9,-11.9,51.49,330.0,9.0,30.48,10.0,-13.91
2021-02-14 22:00:00,1.0,-11.9,53.69,320.0,6.0,30.48,9.0,-11.81
2021-02-14 23:00:00,1.0,-11.9,53.69,320.0,8.0,30.48,7.0,-14.07
2021-02-15 00:00:00,1.0,-11.9,53.69,320.0,8.0,30.5,10.0,-14.07
2021-02-15 01:00:00,1.0,-13.0,50.82,330.0,9.0,30.49,10.0,-15.03
2021-02-15 02:00:00,1.9,-11.9,51.49,330.0,8.0,30.48,10.0,-12.96
2021-02-15 03:00:00,1.0,-13.0,50.82,340.0,10.0,30.47,10.0,-15.91
2021-02-15 04:00:00,1.0,-14.1,48.09,330.0,11.0,30.47,10.0,-16.71
2021-02-15 05:00:00,0.0,-14.1,50.39,330.0,10.0,30.48,10.0,-17.16
2021-02-15 06:00:00,0.0,-14.1,50.39,330.0,7.0,30.48,10.0,-14.23
2021-02-15 07:00:00,0.0,-14.1,50.39,330.0,8.0,30.47,10.0,-15.31
2021-02-15 08:00:00,0.0,-14.1,50.39,330.0,10.0,30.46,9.0,-17.16
2021-02-15 09:00:00,0.0,-14.1,50.39,340.0,11.0,30.44,10.0,-17.97
2021-02-15 10:00:00,0.0,-13.0,53.26,340.0,12.0,30.43,10.0,-18.73
2021-02-15 11:00:00,-0.9,-15.0,50.24,340.0,9.0,30.45,10.0,-17.4
2021-02-15 12:00:00,-2.0,-15.0,52.92,340.0,11.0,30.43,10.0,-20.5
2021-02-15 13:00:00,-2.0,-15.0,52.92,340.0,10.0,30.44,10.0,-19.67
2021-02-15 14:00:00,-2.0,-14.1,55.38,350.0,12.0,30.4,10.0,-21.27
2021-02-15 15:00:00,1.9,-7.0,65.2,350.0,11.0,30.38,10.0,-15.57
2021-02-15 16:00:00,6.0,-4.0,62.41,350.0,11.0,30.38,10.0,-10.26
2021-02-15 17:00:00,8.1,-2.0,62.7,350.0,12.0,30.37,9.0,-8.42
2021-02-15 18:00:00,8.1,-2.0,62.7,360.0,14.0,30.3,10.0,-9.64
2021-02-15 19:00:00,8.1,-2.0,62.7,360.0,15.0,30.27,10.0,-10.2
2021-02-15 20:00:00,8.1,-2.0,62.7,360.0,13.0,30.23,9.0,-9.05
2021-02-15 21:00:00,8.1,-0.9,66.04,360.0,14.0,30.22,5.0,-9.64
2021-02-15 22:00:00,7.0,-2.0,65.89,340.0,11.0,30.18,2.0,-9.13
2021-02-15 23:00:00,7.0,-2.0,65.89,330.0,13.0,30.13,3.0,-10.46
2021-02-16 00:00:00,6.0,-0.9,72.31,330.0,13.0,30.12,1.0,-11.61
2021-02-16 01:00:00,7.0,1.0,75.88,330.0,12.0,30.1,0.75,-9.82
2021-02-16 02:00:00,6.0,1.0,79.05,340.0,11.0,30.09,0.5,-10.26
2021-02-16 03:00:00,7.0,1.9,79.13,340.0,9.0,30.07,0.5,-7.57
2021-02-16 04:00:00,8.1,1.9,75.29,340.0,10.0,30.04,0.5,-7.0
2021-02-16 05:00:00,8.1,3.0,79.23,340.0,12.0,30.03,0.5,-8.42
2021-02-16 06:00:00,8.1,3.0,79.23,340.0,14.0,30.02,0.75,-9.64
2021-02-16 07:00:00,9.0,3.0,76.08,340.0,13.0,30.01,1.0,-7.9
2021-02-16 08:00:00,9.0,4.0,79.31,330.0,12.0,30.0,0.75,-7.27
2021-02-16 09:00:00,10.0,4.0,75.83,330.0,9.0,29.99,0.5,-3.84
2021-02-16 10:00:00,10.0,4.0,75.83,330.0,11.0,30.0,2.0,-5.34
2021-02-16 11:00:00,10.0,4.0,75.83,320.0,11.0,30.0,1.25,-5.34
2021-02-16 12:00:00,10.0,5.0,79.76,320.0,9.0,30.01,1.0,-3.84
2021-02-16 13:00:00,10.0,4.0,75.83,320.0,10.0,30.03,1.0,-4.62
2021-02-16 14:00:00,10.0,5.0,79.76,310.0,8.0,30.05,1.0,-2.99
2021-02-16 15:00:00,12.0,6.0,76.73,310.0,9.0,30.06,0.75,-1.35
2021-02-16 16:00:00,14.0,8.1,76.92,320.0,8.0,30.08,0.75,1.94
2021-02-16 17:00:00,16.0,9.0,73.41,330.0,9.0,30.08,1.0,3.62
2021-02-16 18:00:00,17.1,10.0,73.2,320.0,8.0,30.08,2.5,5.76
2021-02-16 19:00:00,19.0,10.0,67.46,310.0,8.0,30.09,7.0,8.1
2021-02-16 20:00:00,19.9,9.0,62.07,310.0,7.0,30.11,10.0,10.03
2021-02-16 21:00:00,21.0,8.1,56.88,320.0,6.0,30.13,10.0,12.28
2021-02-16 22:00:00,19.0,6.0,56.57,310.0,5.0,30.15,10.0,10.96
2021-02-16 23:00:00,12.9,1.9,60.78,280.0,3.0,30.17,10.0,6.85
2021-02-17 00:00:00,10.0,1.0,66.29,290.0,4.0,30.2,10.0,1.73
2021-02-17 01:00:00,10.9,3.0,69.89,300.0,6.0,30.21,10.0,0.12
2021-02-17 02:00:00,10.9,1.9,66.41,300.0,6.0,30.21,10.0,0.12
2021-02-17 03:00:00,10.9,3.0,69.89,320.0,6.0,30.23,10.0,0.12
2021-02-17 04:00:00,7.0,0.0,72.41,290.0,5.0,30.24,10.0,-3.29
2021-02-17 05:00:00,10.0,1.9,69.13,290.0,6.0,30.25,10.0,-0.97
2021-02-17 06:00:00,10.9,1.9,66.41,310.0,6.0,30.27,10.0,0.12
2021-02-17 07:00:00,10.9,1.9,66.41,300.0,4.0,30.29,10.0,2.78
2021-02-17 08:00:00,10.0,1.9,69.13,310.0,4.0,30.3,10.0,1.73
2021-02-17 09:00:00,10.9,1.9,66.41,310.0,3.0,30.31,10.0,4.57
2021-02-17 10:00:00,12.0,1.9,63.25,320.0,4.0,30.32,10.0,4.07
2021-02-17 11:00:00,7.0,-2.0,65.89,0.0,0.0,30.32,10.0,7.0
2021-02-17 12:00:00,6.0,0.0,75.43,320.0,3.0,30.33,10.0,-0.92
2021-02-17 13:00:00,5.0,0.0,79.32,270.0,3.0,30.35,10.0,-2.18
2021-02-17 14:00:00,12.0,4.0,69.38,280.0,4.0,30.37,10.0,4.07
2021-02-17 15:00:00,16.0,5.0,61.23,310.0,3.0,30.37,10.0,10.4
2021-02-17 16:00:00,18.0,8.1,64.66,0.0,0.0,30.39,9.0,18.0
2021-02-17 17:00:00,23.0,10.0,56.93,0.0,0.0,30.37,9.0,23.0
2021-02-17 18:00:00,23.0,6.0,47.75,220.0,3.0,30.36,10.0,18.4
2021-02-17 19:00:00,24.1,6.0,45.59,260.0,4.0,30.34,10.0,18.19
2021-02-17 20:00:00,25.0,7.0,45.75,0.0,0.0,30.33,10.0,25.0
2021-02-17 21:00:00,24.1,5.0,43.36,50.0,4.0,30.34,10.0,18.19
2021-02-17 22:00:00,18.0,5.0,56.16,60.0,5.0,30.33,10.0,9.77
2021-02-17 23:00:00,16.0,7.0,67.07,90.0,3.0,30.34,10.0,10.4
2021-02-18 00:00:00,16.0,7.0,67.07,70.0,3.0,30.35,10.0,10.4
2021-02-18 01:00:00,19.0,8.1,61.94,30.0,3.0,30.35,10.0,13.83
2021-02-18 02:00:00,19.0,8.1,61.94,20.0,4.0,30.36,10.0,12.24
2021-02-18 03:00:00,16.0,8.1,70.5,0.0,0.0,30.35,10.0,16.0
2021-02-18 04:00:00,19.0,10.0,67.46,0.0,0.0,30.36,10.0,19.0
2021-02-18 05:00:00,18.0,10.0,70.41,0.0,0.0,30.36,10.0,18.0
2021-02-18 06:00:00,19.0,10.0,67.46,240.0,4.0,30.37,10.0,12.24
2021-02-18 07:00:00,16.0,8.1,70.5,250.0,3.0,30.36,10.0,10.4
2021-02-18 08:00:00,17.1,9.0,69.99,0.0,0.0,30.35,10.0,17.1
2021-02-18 09:00:00,19.0,9.0,64.5,320.0,5.0,30.34,10.0,10.96
2021-02-18 10:00:00,17.1,8.1,67.22,10.0,3.0,30.33,10.0,11.66
2021-02-18 11:00:00,16.0,8.1,70.5,310.0,3.0,30.33,10.0,10.4
2021-02-18 12:00:00,17.1,10.0,73.2,330.0,5.0,30.32,8.0,8.7
2021-02-18 13:00:00,19.0,10.9,70.22,340.0,5.0,30.33,9.0,10.96
2021-02-18 14:00:00,21.0,12.9,70.45,360.0,3.0,30.34,10.0,16.11
2021-02-18 15:00:00,24.1,12.0,59.42,60.0,5.0,30.33,10.0,17.01
2021-02-18 16:00:00,25.0,12.0,57.23,90.0,10.0,30.34,10.0,14.19
2021-02-18 17:00:00,25.0,12.9,59.55,100.0,8.0,30.35,10.0,15.49
2021-02-18 18:00:00,26.1,14.0,59.71,70.0,5.0,30.32,9.0,19.39
2021-02-18 19:00:00,26.1,12.0,54.68,80.0,5.0,30.3,9.0,19.39
2021-02-18 20:00:00,25.0,14.0,62.5,30.0,3.0,30.31,10.0,20.69
2021-02-18 21:00:00,26.1,15.1,62.65,70.0,7.0,30.3,10.0,17.59
2021-02-18 22:00:00,24.1,10.9,56.59,30.0,4.0,30.3,10.0,18.19
2021-02-18 23:00:00,18.0,8.1,64.66,60.0,3.0,30.3,10.0,12.68
2021-02-19 00:00:00,14.0,6.0,70.26,0.0,0.0,30.31,10.0,14.0
2021-02-19 01:00:00,14.0,7.0,73.19,280.0,3.0,30.32,10.0,8.11
2021-02-19 02:00:00,12.0,6.0,76.73,300.0,3.0,30.31,10.0,5.82
2021-02-19 03:00:00,14.0,8.1,76.92,280.0,4.0,30.3,7.0,6.4
2021-02-19 04:00:00,15.1,8.1,73.31,280.0,4.0,30.27,10.0,7.69
2021-02-19 05:00:00,17.1,10.0,73.2,0.0,0.0,30.27,10.0,17.1
2021-02-19 06:00:00,12.9,7.0,76.82,260.0,6.0,30.27,10.0,2.53
2021-02-19 07:00:00,10.0,5.0,79.76,270.0,5.0,30.27,9.0,0.27
2021-02-19 08:00:00,10.0,4.0,75.83,260.0,8.0,30.26,8.0,-2.99
2021-02-19 09:00:00,9.0,3.0,76.08,260.0,8.0,30.25,8.0,-4.22
2021-02-19 10:00:00,7.0,1.9,79.13,250.0,7.0,30.25,8.0,-5.69
2021-02-19 11:00:00,9.0,3.0,76.08,260.0,8.0,30.25,7.0,-4.22
2021-02-19 12:00:00,9.0,4.0,79.31,260.0,8.0,30.24,4.0,-4.22
2021-02-19 13:00:00,7.0,1.9,79.13,260.0,8.0,30.25,5.0,-6.68
2021-02-19 14:00:00,10.0,4.0,75.83,260.0,9.0,30.26,5.0,-3.84
2021-02-19 15:00:00,14.0,4.0,63.53,260.0,13.0,30.24,7.0,-1.49
2021-02-19 16:00:00,17.1,5.0,58.38,270.0,17.0,30.25,7.0,0.56
2021-02-19 17:00:00,19.0,7.0,58.94,290.0,11.0,30.24,9.0,6.04
2021-02-19 18:00:00,21.0,8.1,56.88,280.0,15.0,30.22,10.0,6.52
2021-02-19 19:00:00,21.0,8.1,56.88,280.0,12.0,30.22,10.0,8.0
2021-02-19 20:00:00,21.0,7.0,54.12,280.0,12.0,30.22,10.0,8.0
2021-02-19 21:00:00,19.9,6.0,54.44,270.0,12.0,30.22,10.0,6.6
2021-02-19 22:00:00,18.0,7.0,61.52,260.0,13.0,30.22,10.0,3.63
2021-02-19 23:00:00,19.0,9.0,64.5,270.0,10.0,30.24,4.0,6.67
2021-02-20 00:00:00,17.1,7.0,63.95,270.0,8.0,30.25,8.0,5.76
2021-02-20 01:00:00,15.1,6.0,66.96,260.0,8.0,30.26,8.0,3.3
2021-02-20 02:00:00,10.0,3.0,72.75,250.0,6.0,30.27,7.0,-0.97
2021-02-20 03:00:00,7.0,1.0,75.88,250.0,5.0,30.29,5.0,-3.29
2021-02-20 04:00:00,5.0,1.9,86.68,260.0,5.0,30.28,4.0,-5.67
2021-02-20 05:00:00,7.0,1.9,79.13,260.0,5.0,30.28,3.0,-3.29
2021-02-20 06:00:00,4.0,0.0,83.42,260.0,5.0,30.29,3.0,-6.98
2021-02-20 07:00:00,3.0,0.0,86.96,260.0,5.0,30.3,3.0,-8.05
2021-02-20 08:00:00,3.0,-0.9,83.36,260.0,3.0,30.29,3.0,-4.46
2021-02-20 09:00:00,3.0,-0.9,83.36,250.0,5.0,30.3,4.0,-8.05
2021-02-20 10:00:00,1.0,-4.0,78.95,260.0,4.0,30.31,4.0,-8.78
2021-02-20 11:00:00,0.0,-4.0,82.74,250.0,4.0,30.31,4.0,-9.95
2021-02-20 12:00:00,1.0,-5.0,74.89,260.0,3.0,30.31,2.5,-6.75
2021-02-20 13:00:00,3.0,1.0,91.13,290.0,3.0,30.33,2.5,-4.46
2021-02-20 14:00:00,9.0,5.0,83.41,230.0,4.0,30.33,3.0,0.56
2021-02-20 15:00:00,14.0,10.9,87.2,0.0,0.0,30.33,4.0,14.0
2021-02-20 16:00:00,21.0,9.0,59.23,0.0,0.0,30.34,7.0,21.0
2021-02-20 17:00:00,21.9,9.0,57.02,210.0,6.0,30.34,8.0,13.37
2021-02-20 18:00:00,24.1,8.1,49.92,210.0,8.0,30.32,9.0,14.38
2021-02-20 19:00:00,25.0,9.0,50.07,260.0,7.0,30.31,10.0,16.25
2021-02-20 20:00:00,26.1,10.0,50.02,200.0,3.0,30.3,10.0,21.94
2021-02-20 21:00:00,26.1,10.9,52.07,220.0,4.0,30.31,10.0,20.53
2021-02-20 22:00:00,26.1,12.9,56.89,200.0,4.0,30.31,10.0,20.53
2021-02-20 23:00:00,25.0,12.9,59.55,140.0,6.0,30.31,9.0,17.1
2021-02-21 00:00:00,23.0,14.0,67.96,150.0,5.0,30.31,6.0,15.71
2021-02-21 01:00:00,18.0,12.9,80.09,180.0,4.0,30.32,5.0,11.07
2021-02-21 02:00:00,19.9,14.0,77.48,160.0,4.0,30.32,5.0,13.29
2021-02-21 03:00:00,17.1,10.9,76.2,0.0,0.0,30.32,4.0,17.1
2021-02-21 04:00:00,21.9,14.0,71.18,180.0,7.0,30.33,6.0,12.47
2021-02-21 05:00:00,21.9,14.0,71.18,170.0,7.0,30.32,6.0,12.47
2021-02-21 06:00:00,21.0,12.0,67.71,150.0,5.0,30.3,7.0,13.33
2021-02-21 07:00:00,19.9,12.0,70.95,200.0,5.0,30.32,6.0,12.03
2021-02-21 08:00:00,18.0,10.9,73.3,180.0,4.0,30.3,7.0,11.07
2021-02-21 09:00:00,19.9,12.0,70.95,160.0,6.0,30.28,7.0,10.96
2021-02-21 10:00:00,21.0,12.9,70.45,170.0,7.0,30.27,8.0,11.37
2021-02-21 11:00:00,21.9,12.9,67.82,190.0,6.0,30.25,9.0,13.37
2021-02-21 12:00:00,23.0,12.9,64.75,180.0,5.0,30.25,9.0,15.71
2021-02-21 13:00:00,26.1,15.1,62.65,160.0,8.0,30.24,9.0,16.85
2021-02-21 14:00:00,28.0,19.0,68.57,150.0,9.0,30.23,7.0,18.54
2021-02-21 15:00:00,28.9,19.9,68.67,140.0,7.0,30.19,9.0,21.0
2021-02-21 16:00:00,30.9,21.0,66.34,150.0,7.0,30.17,10.0,23.44
2021-02-21 17:00:00,30.9,21.0,66.34,150.0,10.0,30.14,9.0,21.59
2021-02-21 18:00:00,30.9,21.9,68.91,140.0,12.0,30.06,8.0,20.6
2021-02-21 19:00:00,32.0,23.0,69.04,140.0,13.0,30.02,10.0,21.57
2021-02-21 20:00:00,34.0,23.0,63.72,140.0,16.0,29.96,10.0,23.03
2021-02-21 21:00:00,35.0,24.1,63.86,130.0,18.0,29.89,10.0,23.83
2021-02-21 22:00:00,35.0,23.0,60.99,150.0,17.0,29.88,10.0,24.14
2021-02-21 23:00:00,32.0,28.0,84.98,150.0,15.0,29.84,0.5,20.78
2021-02-22 00:00:00,33.0,30.0,88.23,150.0,15.0,29.79,0.75,22.21
2021-02-22 01:00:00,34.0,30.9,88.27,160.0,13.0,29.76,0.75,24.13
2021-02-22 02:00:00,35.0,32.0,88.33,170.0,14.0,29.72,2.0,25.16
2021-02-22 03:00:00,35.0,33.0,92.32,180.0,10.0,29.69,2.0,26.86
2021-02-22 04:00:00,35.0,33.0,92.32,190.0,7.0,29.65,2.0,28.56
2021-02-22 05:00:00,36.0,33.0,89.09,220.0,10.0,29.63,6.0,27.98
2021-02-22 06:00:00,36.0,32.0,85.23,250.0,12.0,29.61,7.0,27.09
2021-02-22 07:00:00,35.0,30.9,84.49,260.0,13.0,29.62,7.0,25.54
2021-02-22 08:00:00,35.0,28.9,77.88,280.0,15.0,29.63,10.0,24.8
2021-02-22 09:00:00,33.0,27.0,78.03,280.0,19.0,29.64,7.0,20.89
2021-02-22 10:00:00,32.0,25.0,75.07,310.0,13.0,29.69,8.0,21.57
2021-02-22 11:00:00,30.9,24.1,75.59,280.0,14.0,29.71,7.0,19.74
2021-02-22 12:00:00,28.0,23.0,81.25,260.0,10.0,29.73,4.0,17.95
2021-02-22 13:00:00,28.9,23.0,78.3,260.0,12.0,29.76,4.0,18.06
2021-02-22 14:00:00,28.9,23.0,78.3,270.0,12.0,29.78,5.0,18.06
2021-02-22 15:00:00,28.9,23.0,78.3,250.0,17.0,29.77,5.0,16.01
2021-02-22 16:00:00,30.0,25.0,81.4,250.0,17.0,29.77,5.0,17.46
2021-02-22 17:00:00,32.0,26.1,78.58,240.0,15.0,29.75,4.0,20.78
2021-02-22 18:00:00,32.0,26.1,78.58,240.0,17.0,29.74,5.0,20.08
2021-02-22 19:00:00,34.0,27.0,75.26,240.0,20.0,29.72,6.0,21.8
2021-02-22 20:00:00,36.0,28.0,72.43,230.0,14.0,29.7,8.0,26.32
2021-02-22 21:00:00,37.0,28.0,69.63,220.0,10.0,29.67,8.0,29.24
2021-02-22 22:00:00,38.0,28.0,67.2,230.0,11.0,29.66,9.0,29.92
2021-02-22 23:00:00,39.0,28.0,64.37,230.0,14.0,29.64,10.0,30.19
2021-02-23 00:00:00,39.0,28.0,64.37,220.0,16.0,29.62,10.0,29.54
2021-02-23 01:00:00,39.0,28.0,64.37,220.0,15.0,29.59,10.0,29.85
2021-02-23 02:00:00,39.0,28.0,64.37,240.0,17.0,29.58,10.0,29.25
2021-02-23 03:00:00,38.0,28.9,69.73,240.0,15.0,29.56,10.0,28.43
2021-02-23 04:00:00,38.0,28.9,69.73,240.0,18.0,29.54,10.0,27.52
2021-02-23 05:00:00,38.0,28.9,69.73,250.0,16.0,29.54,10.0,28.11
2021-02-23 06:00:00,39.0,28.9,66.79,260.0,13.0,29.53,10.0,30.54
2021-02-23 07:00:00,39.0,30.0,69.85,260.0,19.0,29.54,10.0,28.69
2021-02-23 08:00:00,39.0,30.0,69.85,270.0,14.0,29.55,10.0,30.19
2021-02-23 09:00:00,38.0,30.0,72.93,280.0,14.0,29.58,10.0,28.77
2021-02-23 10:00:00,37.0,30.0,75.56,280.0,12.0,29.61,10.0,28.37
2021-02-23 11:00:00,37.0,30.0,75.56,270.0,9.0,29.64,10.0,29.73
2021-02-23 12:00:00,37.0,30.0,75.56,270.0,10.0,29.67,10.0,29.24
2021-02-23 13:00:00,38.0,30.9,75.64,280.0,10.0,29.71,10.0,30.37
2021-02-23 14:00:00,41.0,30.9,67.03,280.0,13.0,29.75,10.0,33.1
2021-02-23 15:00:00,42.0,32.0,67.17,260.0,10.0,29.78,10.0,35.63
2021-02-23 16:00:00,41.0,32.0,70.08,240.0,12.0,29.8,10.0,33.46
2021-02-23 17:00:00,43.0,30.9,62.06,250.0,14.0,29.81,10.0,35.34
2021-02-23 18:00:00,43.0,30.9,62.06,250.0,13.0,29.8,10.0,35.66
2021-02-23 19:00:00,43.0,30.0,59.83,250.0,12.0,29.82,10.0,36.0
2021-02-23 20:00:00,44.0,30.0,57.37,250.0,9.0,29.8,10.0,38.56
2021-02-23 21:00:00,44.0,30.0,57.37,230.0,8.0,29.81,10.0,39.02
2021-02-23 22:00:00,43.0,30.0,59.83,210.0,9.0,29.81,10.0,37.19
2021-02-23 23:00:00,41.0,30.0,64.63,230.0,8.0,29.83,10.0,35.2
2021-02-24 00:00:00,40.0,30.0,67.45,210.0,8.0,29.83,10.0,33.84
2021-02-24 01:00:00,38.0,30.0,72.93,190.0,6.0,29.8,10.0,32.64
2021-02-24 02:00:00,39.0,30.0,69.85,170.0,7.0,29.78,10.0,33.31
2021-02-24 03:00:00,40.0,30.9,69.96,150.0,7.0,29.76,10.0,34.41
2021-02-24 04:00:00,39.0,30.9,72.45,160.0,4.0,29.76,10.0,35.59
2021-02-24 05:00:00,41.0,32.0,70.08,160.0,7.0,29.7,10.0,35.75
2021-02-24 06:00:00,40.0,32.0,73.14,180.0,9.0,29.66,10.0,33.34
2021-02-24 07:00:00,45.0,33.0,62.83,210.0,14.0,29.63,10.0,37.92
2021-02-24 08:00:00,44.0,33.0,65.02,240.0,11.0,29.61,10.0,37.76
2021-02-24 09:00:00,42.0,33.0,70.2,240.0,13.0,29.59,10.0,34.51
2021-02-24 10:00:00,40.0,33.0,76.44,240.0,12.0,29.6,10.0,32.06
2021-02-24 11:00:00,39.0,32.0,75.75,250.0,7.0,29.62,10.0,33.31
2021-02-24 12:00:00,39.0,32.0,75.75,280.0,10.0,29.63,10.0,31.75
2021-02-24 13:00:00,39.0,32.0,75.75,290.0,11.0,29.67,10.0,31.31
2021-02-24 14:00:00,41.0,32.0,70.08,290.0,15.0,29.71,10.0,32.45
2021-02-24 15:00:00,42.0,30.9,64.24,290.0,12.0,29.75,10.0,34.86
2021-02-24 16:00:00,42.0,30.9,64.24,300.0,11.0,29.79,10.0,35.23
2021-02-24 17:00:00,41.0,30.9,67.03,320.0,12.0,29.84,10.0,33.46
2021-02-24 18:00:00,41.0,32.0,70.08,310.0,12.0,29.86,10.0,33.46
2021-02-24 19:00:00,40.0,32.0,73.14,320.0,9.0,29.91,10.0,33.34
2021-02-24 20:00:00,41.0,30.9,67.03,320.0,6.0,29.97,10.0,36.37
2021-02-24 21:00:00,41.0,28.0,59.55,320.0,9.0,30.02,10.0,34.7
2021-02-24 22:00:00,41.0,27.0,57.15,310.0,5.0,30.06,10.0,37.08
2021-02-24 23:00:00,38.0,27.0,64.49,300.0,4.0,30.09,10.0,34.31
2021-02-25 00:00:00,36.0,27.0,69.51,300.0,5.0,30.13,10.0,31.15
2021-02-25 01:00:00,35.0,26.1,69.41,300.0,3.0,30.16,10.0,32.23
2021-02-25 02:00:00,33.0,25.0,71.82,270.0,3.0,30.18,10.0,29.95
2021-02-25 03:00:00,30.9,24.1,75.59,290.0,4.0,30.21,10.0,26.14
2021-02-25 04:00:00,30.9,23.0,72.18,300.0,5.0,30.23,10.0,25.09
2021-02-25 05:00:00,30.0,21.9,71.48,280.0,3.0,30.24,10.0,26.4
2021-02-25 06:00:00,27.0,19.9,74.25,280.0,5.0,30.25,10.0,20.46
2021-02-25 07:00:00,28.0,21.0,74.67,260.0,4.0,30.26,10.0,22.75
2021-02-25 08:00:00,26.1,21.0,80.75,250.0,4.0,30.25,10.0,20.53
2021-02-25 09:00:00,21.0,17.1,84.62,260.0,4.0,30.25,10.0,14.57
2021-02-25 10:00:00,19.9,16.0,84.55,250.0,5.0,30.25,10.0,12.03
2021-02-25 11:00:00,18.0,14.0,84.05,260.0,5.0,30.27,10.0,9.77
2021-02-25 12:00:00,21.9,17.1,81.46,260.0,6.0,30.28,10.0,13.37
2021-02-25 13:00:00,26.1,19.9,77.06,270.0,7.0,30.31,10.0,17.59
2021-02-25 14:00:00,28.9,21.9,74.76,280.0,10.0,30.32,10.0,19.08
2021-02-25 15:00:00,32.0,23.0,69.04,280.0,9.0,30.33,10.0,23.51
2021-02-25 16:00:00,35.0,23.0,60.99,280.0,10.0,30.32,10.0,26.86
2021-02-25 17:00:00,37.0,23.0,56.57,280.0,12.0,30.32,10.0,28.37
2021-02-25 18:00:00,38.0,21.9,52.13,290.0,9.0,30.3,10.0,30.85
2021-02-25 19:00:00,39.0,21.9,49.93,280.0,10.0,30.3,10.0,31.75
2021-02-25 20:00:00,39.0,24.1,54.77,260.0,9.0,30.29,10.0,32.22
2021-02-25 21:00:00,38.0,23.0,54.6,260.0,9.0,30.29,10.0,30.85
2021-02-25 22:00:00,37.0,24.1,59.24,240.0,10.0,30.3,10.0,29.24
2021-02-25 23:00:00,34.0,23.0,63.72,240.0,8.0,30.3,10.0,26.58
2021-02-26 00:00:00,34.0,23.0,63.72,220.0,4.0,30.3,10.0,29.76
2021-02-26 01:00:00,32.0,23.0,69.04,230.0,5.0,30.3,10.0,26.4
2021-02-26 02:00:00,30.9,23.0,72.18,230.0,5.0,30.29,10.0,25.09
2021-02-26 03:00:00,30.0,23.0,74.87,220.0,5.0,30.29,8.0,24.02
2021-02-26 04:00:00,28.9,21.9,74.76,220.0,5.0,30.28,8.0,22.71
2021-02-26 05:00:00,27.0,21.0,77.8,240.0,5.0,30.28,8.0,20.46
2021-02-26 06:00:00,27.0,21.0,77.8,230.0,6.0,30.28,9.0,19.51
2021-02-26 07:00:00,28.0,21.0,74.67,220.0,4.0,30.28,8.0,22.75
2021-02-26 08:00:00,24.1,19.0,80.59,250.0,6.0,30.26,6.0,16.02
2021-02-26 09:00:00,24.1,19.9,83.75,200.0,3.0,30.24,6.0,19.66
2021-02-26 10:00:00,26.1,21.0,80.75,190.0,3.0,30.23,5.0,21.94
2021-02-26 11:00:00,25.0,21.0,84.53,200.0,5.0,30.2,4.0,18.08
2021-02-26 12:00:00,23.0,19.9,87.7,180.0,7.0,30.21,6.0,13.81
2021-02-26 13:00:00,30.0,24.1,78.4,190.0,10.0,30.24,5.0,20.46
2021-02-26 14:00:00,35.0,27.0,72.04,190.0,8.0,30.23,10.0,27.93
2021-02-26 15:00:00,37.0,28.0,69.63,160.0,11.0,30.21,10.0,28.79
2021-02-26 16:00:00,40.0,21.0,46.41,170.0,13.0,30.18,10.0,31.69
2021-02-26 17:00:00,39.0,23.0,52.3,140.0,10.0,30.14,10.0,31.75
2021-02-26 18:00:00,39.0,21.9,49.93,140.0,12.0,30.09,10.0,30.91
2021-02-26 19:00:00,39.0,23.0,52.3,140.0,13.0,30.05,10.0,30.54
2021-02-26 20:00:00,39.0,23.0,52.3,150.0,15.0,30.02,10.0,29.85
2021-02-26 21:00:00,39.0,23.0,52.3,150.0,13.0,29.98,10.0,30.54
2021-02-26 22:00:00,37.0,24.1,59.24,150.0,9.0,29.95,10.0,29.73
2021-02-26 23:00:00,38.0,24.1,57.18,140.0,9.0,29.94,10.0,30.85
2021-02-27 00:00:00,36.0,26.1,66.97,140.0,7.0,29.92,10.0,29.65
2021-02-27 01:00:00,37.0,27.0,66.82,150.0,7.0,29.89,10.0,30.87
2021-02-27 02:00:00,37.0,26.1,64.38,140.0,11.0,29.85,10.0,28.79
2021-02-27 03:00:00,37.0,27.0,66.82,170.0,10.0,29.86,10.0,29.24
2021-02-27 04:00:00,37.0,28.0,69.63,200.0,5.0,29.84,10.0,32.33
2021-02-27 05:00:00,36.0,28.0,72.43,240.0,4.0,29.82,8.0,32.09
2021-02-27 06:00:00,36.0,30.0,78.6,250.0,4.0,29.83,5.0,32.09
2021-02-27 07:00:00,36.0,30.9,81.53,0.0,0.0,29.84,5.0,36.0
2021-02-27 08:00:00,35.0,30.0,81.46,230.0,4.0,29.84,4.0,31.04
2021-02-27 09:00:00,34.0,30.0,85.11,230.0,5.0,29.84,3.0,28.77
2021-02-27 10:00:00,34.0,30.0,85.11,230.0,6.0,29.85,4.0,27.94
2021-02-27 11:00:00,33.0,28.0,81.3,240.0,8.0,29.86,5.0,25.47
2021-02-27 12:00:00,32.0,28.9,88.17,250.0,6.0,29.87,5.0,25.53
2021-02-27 13:00:00,36.0,30.9,81.53,240.0,10.0,29.93,5.0,27.98
2021-02-27 14:00:00,38.0,32.0,79.08,250.0,10.0,29.95,7.0,30.37
2021-02-27 15:00:00,40.0,32.0,73.14,260.0,8.0,29.99,9.0,33.84
2021-02-27 16:00:00,44.0,33.0,65.02,220.0,6.0,30.01,10.0,40.1
2021-02-27 17:00:00,43.0,32.0,64.88,240.0,8.0,30.03,10.0,37.66
2021-02-27 18:00:00,48.0,32.0,53.67,210.0,6.0,30.02,10.0,44.8
2021-02-27 19:00:00,49.0,30.9,49.63,220.0,4.0,30.03,10.0,47.16
2021-02-27 20:00:00,50.0,30.0,45.93,210.0,3.0,30.04,10.0,50.0
2021-02-27 21:00:00,49.0,30.9,49.63,200.0,3.0,30.03,10.0,48.01
2021-02-27 22:00:00,46.0,32.0,57.87,110.0,4.0,30.04,10.0,43.77
2021-02-27 23:00:00,44.0,32.0,62.21,130.0,5.0,30.04,10.0,40.77
2021-02-28 00:00:00,40.0,32.0,73.14,190.0,4.0,30.06,9.0,36.65
2021-02-28 01:00:00,38.0,32.0,79.08,150.0,3.0,30.04,7.0,35.43
2021-02-28 02:00:00,38.0,33.0,82.66,140.0,6.0,30.04,7.0,32.64
2021-02-28 03:00:00,40.0,35.0,82.8,150.0,8.0,30.03,4.0,33.84
2021-02-28 04:00:00,40.0,35.0,82.8,150.0,9.0,30.02,5.0,33.34
2021-02-28 05:00:00,40.0,35.0,82.8,140.0,8.0,29.98,5.0,33.84
2021-02-28 06:00:00,39.0,34.0,82.08,130.0,6.0,29.95,5.0,33.96
2021-02-28 07:00:00,38.0,34.0,85.69,110.0,6.0,29.93,4.0,32.64
2021-02-28 08:00:00,38.0,34.0,85.69,110.0,8.0,29.88,4.0,31.38
2021-02-28 09:00:00,37.0,33.0,85.64,90.0,6.0,29.84,2.5,31.55
2021-02-28 10:00:00,37.0,34.0,88.78,110.0,7.0,29.82,2.0,30.87
2021-02-28 11:00:00,39.0,36.0,88.87,130.0,8.0,29.78,3.0,32.74
2021-02-28 12:00:00,39.0,36.0,88.87,130.0,6.0,29.74,0.25,33.96
2021-02-28 13:00:00,39.0,37.0,92.45,150.0,5.0,29.74,0.25,34.71
2021-02-28 14:00:00,39.0,38.0,95.78,180.0,5.0,29.72,0.25,34.71
2021-02-28 15:00:00,41.0,39.0,92.52,210.0,6.0,29.7,0.5,36.37
2021-02-28 16:00:00,44.0,41.0,88.77,220.0,7.0,29.68,1.75,39.53
2021-02-28 17:00:00,45.0,41.0,85.77,240.0,11.0,29.66,1.75,38.89
2021-02-28 18:00:00,45.0,41.0,85.77,240.0,16.0,29.65,4.0,37.36
2021-02-28 19:00:00,42.0,39.0,88.67,250.0,18.0,29.64,7.0,33.04
2021-02-28 20:00:00,42.0,36.0,78.8,260.0,23.0,29.67,4.0,31.89
2021-02-28 21:00:00,42.0,34.0,72.78,270.0,16.0,29.69,5.0,33.58
2021-02-28 22:00:00,40.0,33.0,76.44,280.0,22.0,29.72,5.0,29.16
2021-02-28 23:00:00,40.0,32.0,73.14,290.0,16.0,29.77,10.0,30.72
2021-03-01 00:00:00,39.0,30.0,69.85,310.0,14.0,29.83,10.0,30.19
2021-03-01 01:00:00,38.0,28.9,69.73,300.0,13.0,29.84,10.0,29.13
2021-03-01 02:00:00,37.0,28.0,69.63,280.0,11.0,29.87,10.0,28.79
2021-03-01 03:00:00,36.0,27.0,69.51,290.0,12.0,29.9,10.0,27.09
2021-03-01 04:00:00,35.0,25.0,66.31,290.0,12.0,29.92,10.0,25.95
2021-03-01 05:00:00,33.0,25.0,71.82,290.0,10.0,29.94,10.0,24.35
2021-03-01 06:00:00,32.0,23.0,69.04,300.0,11.0,29.96,10.0,22.47
2021-03-01 07:00:00,30.0,21.0,68.81,300.0,8.0,30.0,10.0,21.65
2021-03-01 08:00:00,28.9,19.0,66.08,300.0,9.0,30.01,10.0,19.66
2021-03-01 09:00:00,27.0,19.0,71.45,290.0,7.0,30.04,10.0,18.68
2021-03-01 10:00:00,27.0,18.0,68.45,300.0,9.0,30.06,10.0,17.3
2021-03-01 11:00:00,27.0,17.1,65.84,300.0,9.0,30.08,10.0,17.3
2021-03-01 12:00:00,26.1,16.0,65.16,300.0,9.0,30.11,10.0,16.18
2021-03-01 13:00:00,27.0,16.0,62.78,310.0,11.0,30.16,10.0,16.15
2021-03-01 14:00:00,26.1,17.1,68.34,330.0,9.0,30.18,10.0,16.18
2021-03-01 15:00:00,28.0,18.0,65.69,330.0,12.0,30.21,10.0,16.91
2021-03-01 16:00:00,28.9,16.0,58.06,320.0,9.0,30.23,10.0,19.66
2021-03-01 17:00:00,28.9,15.1,55.83,300.0,12.0,30.25,10.0,18.06
2021-03-01 18:00:00,30.0,12.9,48.48,320.0,8.0,30.26,10.0,21.65
2021-03-01 19:00:00,30.9,10.0,41.09,320.0,9.0,30.27,10.0,22.15
2021-03-01 20:00:00,30.9,7.0,35.9,330.0,12.0,30.3,10.0,20.6
2021-03-01 21:00:00,30.9,10.9,42.78,310.0,8.0,30.31,10.0,22.76
2021-03-01 22:00:00,30.0,7.0,37.24,300.0,9.0,30.31,10.0,21.03
2021-03-01 23:00:00,27.0,8.1,44.26,300.0,3.0,30.33,10.0,22.97
2021-03-02 00:00:00,24.1,10.0,54.36,270.0,3.0,30.37,10.0,19.66
2021-03-02 01:00:00,23.0,9.0,54.44,280.0,3.0,30.38,10.0,18.4
2021-03-02 02:00:00,21.0,8.1,56.88,280.0,3.0,30.38,10.0,16.11
2021-03-02 03:00:00,19.9,8.1,59.6,0.0,0.0,30.39,10.0,19.9
2021-03-02 04:00:00,19.9,8.1,59.6,0.0,0.0,30.39,10.0,19.9
2021-03-02 05:00:00,17.1,8.1,67.22,0.0,0.0,30.38,10.0,17.1
2021-03-02 06:00:00,17.1,8.1,67.22,0.0,0.0,30.38,10.0,17.1
2021-03-02 07:00:00,15.1,8.1,73.31,200.0,3.0,30.36,10.0,9.37
2021-03-02 08:00:00,16.0,9.0,73.41,0.0,0.0,30.33,10.0,16.0
2021-03-02 09:00:00,15.1,8.1,73.31,0.0,0.0,30.32,10.0,15.1
2021-03-02 10:00:00,14.0,8.1,76.92,240.0,3.0,30.31,10.0,8.11
2021-03-02 11:00:00,16.0,10.0,76.77,210.0,4.0,30.29,10.0,8.74
2021-03-02 12:00:00,19.9,10.9,67.57,210.0,6.0,30.26,10.0,10.96
2021-03-02 13:00:00,25.0,12.9,59.55,210.0,11.0,30.25,10.0,13.62
2021-03-02 14:00:00,28.9,12.9,50.7,210.0,9.0,30.24,10.0,19.66
2021-03-02 15:00:00,30.9,15.1,51.47,200.0,13.0,30.22,10.0,20.16
2021-03-02 16:00:00,33.0,16.0,48.98,220.0,17.0,30.19,10.0,21.52
2021-03-02 17:00:00,35.0,15.1,43.49,240.0,19.0,30.17,10.0,23.54
2021-03-02 18:00:00,36.0,19.0,49.66,230.0,17.0,30.13,10.0,25.32
2021-03-02 19:00:00,37.0,21.0,51.99,230.0,18.0,30.09,10.0,26.33
2021-03-02 20:00:00,39.0,25.0,56.86,220.0,13.0,30.06,10.0,30.54
2021-03-02 21:00:00,40.0,27.0,59.65,220.0,12.0,30.02,10.0,32.06
2021-03-02 22:00:00,40.0,27.0,59.65,220.0,12.0,29.99,10.0,32.06
2021-03-02 23:00:00,40.0,27.0,59.65,220.0,9.0,29.96,10.0,33.34
2021-03-03 00:00:00,40.0,28.9,64.49,210.0,12.0,29.95,10.0,32.06
2021-03-03 01:00:00,40.0,30.0,67.45,210.0,14.0,29.92,10.0,31.35
2021-03-03 02:00:00,40.0,30.9,69.96,230.0,15.0,29.91,10.0,31.02
2021-03-03 03:00:00,40.0,30.0,67.45,220.0,12.0,29.91,10.0,32.06
2021-03-03 04:00:00,41.0,30.0,64.63,230.0,15.0,29.89,10.0,32.45
2021-03-03 05:00:00,41.0,30.0,64.63,240.0,16.0,29.88,10.0,32.15
2021-03-03 06:00:00,41.0,30.0,64.63,240.0,16.0,29.87,10.0,32.15
2021-03-03 07:00:00,40.0,30.0,67.45,240.0,14.0,29.86,10.0,31.35
2021-03-03 08:00:00,40.0,28.9,64.49,250.0,14.0,29.85,10.0,31.35
2021-03-03 09:00:00,38.0,28.9,69.73,260.0,10.0,29.87,10.0,30.37
2021-03-03 10:00:00,36.0,28.0,72.43,260.0,7.0,29.88,10.0,29.65
2021-03-03 11:00:00,33.0,26.1,75.18,250.0,6.0,29.88,10.0,26.86
2021-03-03 12:00:00,33.0,26.1,75.18,280.0,4.0,29.9,10.0,28.7
2021-03-03 13:00:00,37.0,28.0,69.63,280.0,5.0,29.92,10.0,32.33
2021-03-03 14:00:00,40.0,30.0,67.45,300.0,6.0,29.94,10.0,35.04
2021-03-03 15:00:00,43.0,32.0,64.88,310.0,8.0,29.95,10.0,37.66
2021-03-03 16:00:00,45.0,33.0,62.83,290.0,8.0,29.97,10.0,40.13
2021-03-03 17:00:00,48.0,33.0,56.1,310.0,7.0,29.99,10.0,44.28
2021-03-03 18:00:00,48.0,33.0,56.1,300.0,7.0,29.99,10.0,44.28
2021-03-03 19:00:00,51.0,33.0,49.98,290.0,5.0,29.99,10.0,51.1
2021-03-03 20:00:00,51.0,30.9,45.73,290.0,8.0,30.02,10.0,51.1
2021-03-03 21:00:00,48.0,33.0,56.1,70.0,6.0,30.04,10.0,44.8
2021-03-03 22:00:00,44.0,32.0,62.21,70.0,8.0,30.06,10.0,39.02
2021-03-03 23:00:00,37.0,30.0,75.56,30.0,6.0,30.08,9.0,31.55
2021-03-04 00:00:00,35.0,30.0,81.46,30.0,4.0,30.11,8.0,31.04
2021-03-04 01:00:00,33.0,28.9,84.36,30.0,5.0,30.11,8.0,27.7
2021-03-04 02:00:00,32.0,28.0,84.98,0.0,0.0,30.14,5.0,32.0
2021-03-04 03:00:00,33.0,28.9,84.36,10.0,4.0,30.15,6.0,28.7
2021-03-04 04:00:00,28.9,26.1,89.12,360.0,3.0,30.16,5.0,25.14
2021-03-04 05:00:00,30.9,27.0,85.26,360.0,3.0,30.18,4.0,27.43
2021-03-04 06:00:00,35.0,30.9,84.49,30.0,8.0,30.19,10.0,27.93
2021-03-04 07:00:00,35.0,30.0,81.46,40.0,10.0,30.21,10.0,26.86
2021-03-04 08:00:00,34.0,28.9,81.37,30.0,8.0,30.22,10.0,26.58
2021-03-04 09:00:00,33.0,27.0,78.03,30.0,11.0,30.24,10.0,23.86
2021-03-04 10:00:00,32.0,25.0,75.07,10.0,7.0,30.27,10.0,24.78
2021-03-04 11:00:00,30.0,23.0,74.87,10.0,7.0,30.29,10.0,22.34
2021-03-04 12:00:00,28.9,21.0,71.96,10.0,6.0,30.32,10.0,21.8
2021-03-04 13:00:00,30.0,21.0,68.81,10.0,5.0,30.33,10.0,24.02
2021-03-04 14:00:00,30.9,21.0,66.34,10.0,9.0,30.34,10.0,22.15
2021-03-04 15:00:00,32.0,23.0,69.04,20.0,10.0,30.35,10.0,22.97
2021-03-04 16:00:00,32.0,23.0,69.04,30.0,13.0,30.36,10.0,21.57
2021-03-04 17:00:00,33.0,24.1,69.17,20.0,11.0,30.36,10.0,23.86
2021-03-04 18:00:00,33.0,23.0,66.06,360.0,10.0,30.36,10.0,24.35
2021-03-04 19:00:00,33.0,23.0,66.06,20.0,12.0,30.36,10.0,23.4
2021-03-04 20:00:00,34.0,21.9,60.83,30.0,10.0,30.36,10.0,25.48
2021-03-04 21:00:00,33.0,21.9,63.06,30.0,9.0,30.36,10.0,24.88
2021-03-04 22:00:00,32.0,21.9,65.92,20.0,7.0,30.36,10.0,24.78
2021-03-04 23:00:00,28.9,21.0,71.96,10.0,6.0,30.37,10.0,21.8
2021-03-05 00:00:00,28.0,19.9,71.25,360.0,5.0,30.37,10.0,21.64
2021-03-05 01:00:00,27.0,19.9,74.25,340.0,4.0,30.38,10.0,21.58
2021-03-05 02:00:00,26.1,19.0,74.16,10.0,4.0,30.37,10.0,20.53
2021-03-05 03:00:00,26.1,19.0,74.16,360.0,5.0,30.37,10.0,19.39
2021-03-05 04:00:00,26.1,19.0,74.16,10.0,3.0,30.36,10.0,21.94
2021-03-05 05:00:00,23.0,18.0,80.85,300.0,4.0,30.35,10.0,16.91
2021-03-05 06:00:00,21.0,18.0,87.97,0.0,0.0,30.35,10.0,21.0
2021-03-05 07:00:00,24.1,19.0,80.59,340.0,4.0,30.35,10.0,18.19
2021-03-05 08:00:00,19.9,16.0,84.55,280.0,4.0,30.35,8.0,13.29
2021-03-05 09:00:00,21.0,17.1,84.62,270.0,4.0,30.36,9.0,14.57
2021-03-05 10:00:00,21.0,18.0,87.97,310.0,3.0,30.36,8.0,16.11
2021-03-05 11:00:00,21.9,18.0,84.68,260.0,3.0,30.36,7.0,17.14
2021-03-05 12:00:00,21.0,17.1,84.62,270.0,5.0,30.36,6.0,13.33
2021-03-05 13:00:00,27.0,21.0,77.8,280.0,5.0,30.37,10.0,20.46
2021-03-05 14:00:00,32.0,23.0,69.04,280.0,7.0,30.37,10.0,24.78
2021-03-05 15:00:00,36.0,23.0,58.85,280.0,7.0,30.36,10.0,29.65
2021-03-05 16:00:00,41.0,21.9,46.19,330.0,7.0,30.36,10.0,35.75
2021-03-05 17:00:00,43.0,23.0,44.8,320.0,5.0,30.35,10.0,39.46
2021-03-05 18:00:00,45.0,21.9,39.62,330.0,6.0,30.33,10.0,41.19
2021-03-05 19:00:00,46.0,21.9,38.15,340.0,7.0,30.32,10.0,41.84
2021-03-05 20:00:00,44.0,26.1,48.88,80.0,8.0,30.31,10.0,39.02
2021-03-05 21:00:00,43.0,24.1,46.91,90.0,7.0,30.31,10.0,38.19
2021-03-05 22:00:00,37.0,23.0,56.57,80.0,9.0,30.33,10.0,29.73
2021-03-05 23:00:00,34.0,24.1,66.72,70.0,6.0,30.33,10.0,27.94
2021-03-06 00:00:00,33.0,24.1,69.17,0.0,0.0,30.34,10.0,33.1
2021-03-06 01:00:00,30.0,23.0,74.87,0.0,0.0,30.34,10.0,30.0
2021-03-06 02:00:00,28.9,21.9,74.76,240.0,4.0,30.33,10.0,23.8
2021-03-06 03:00:00,28.9,21.9,74.76,240.0,3.0,30.32,10.0,25.14
2021-03-06 04:00:00,28.9,21.0,71.96,0.0,0.0,30.32,10.0,28.9
2021-03-06 05:00:00,27.0,21.0,77.8,0.0,0.0,30.31,10.0,27.0
2021-03-06 06:00:00,25.0,19.0,77.62,70.0,4.0,30.31,10.0,19.25
2021-03-06 07:00:00,24.1,19.0,80.59,0.0,0.0,30.32,10.0,24.1
2021-03-06 08:00:00,25.0,19.9,80.66,0.0,0.0,30.32,10.0,25.0
2021-03-06 09:00:00,23.0,18.0,80.85,0.0,0.0,30.32,10.0,23.0
2021-03-06 10:00:00,23.0,19.0,84.39,0.0,0.0,30.33,10.0,23.0
2021-03-06 11:00:00,23.0,19.0,84.39,0.0,0.0,30.34,7.0,23.0
2021-03-06 12:00:00,25.0,21.0,84.53,0.0,0.0,30.35,4.0,25.0
2021-03-06 13:00:00,32.0,28.0,84.98,0.0,0.0,30.36,7.0,32.0
2021-03-06 14:00:00,37.0,28.9,72.24,30.0,4.0,30.37,10.0,33.26
2021-03-06 15:00:00,38.0,28.9,69.73,350.0,4.0,30.37,10.0,34.31
2021-03-06 16:00:00,40.0,28.0,62.15,30.0,3.0,30.37,10.0,37.72
2021-03-06 17:00:00,41.0,26.1,55.07,20.0,3.0,30.36,10.0,38.98
2021-03-06 18:00:00,42.0,23.0,46.37,40.0,4.0,30.34,10.0,39.21
2021-03-06 19:00:00,43.0,19.0,37.81,300.0,4.0,30.31,10.0,40.27
2021-03-06 20:00:00,44.0,21.9,41.0,300.0,3.0,30.31,10.0,42.52
2021-03-06 21:00:00,43.0,23.0,44.8,260.0,4.0,30.3,10.0,40.27
2021-03-06 22:00:00,38.0,27.0,64.49,70.0,7.0,30.31,10.0,31.97
2021-03-06 23:00:00,35.0,27.0,72.04,120.0,3.0,30.31,10.0,32.23
2021-03-07 00:00:00,32.0,25.0,75.07,0.0,0.0,30.32,10.0,32.0
2021-03-07 01:00:00,30.9,25.0,78.48,0.0,0.0,30.31,10.0,30.9
2021-03-07 02:00:00,30.9,26.1,82.15,170.0,3.0,30.32,10.0,27.43
2021-03-07 03:00:00,28.9,25.0,85.14,210.0,3.0,30.31,8.0,25.14
2021-03-07 04:00:00,25.0,21.9,87.81,250.0,4.0,30.32,6.0,19.25
2021-03-07 05:00:00,26.1,21.9,83.89,230.0,4.0,30.32,8.0,20.53
2021-03-07 06:00:00,25.0,19.9,80.66,70.0,3.0,30.35,10.0,20.69
2021-03-07 07:00:00,24.1,19.9,83.75,70.0,3.0,30.35,4.0,19.66
2021-03-07 08:00:00,25.0,21.0,84.53,0.0,0.0,30.36,0.25,25.0
2021-03-07 09:00:00,23.0,19.0,84.39,0.0,0.0,30.37,0.25,23.0
2021-03-07 10:00:00,21.9,19.0,88.4,0.0,0.0,30.38,0.25,21.9
2021-03-07 11:00:00,21.9,18.0,84.68,0.0,0.0,30.4,0.25,21.9
2021-03-07 12:00:00,21.9,19.0,88.4,260.0,3.0,30.4,0.25,17.14
2021-03-07 13:00:00,28.9,27.0,92.49,180.0,3.0,30.42,0.25,25.14
2021-03-07 14:00:00,33.0,28.9,84.36,180.0,9.0,30.42,10.0,24.88
2021-03-07 15:00:00,35.0,27.0,72.04,180.0,10.0,30.42,10.0,26.86
2021-03-07 16:00:00,39.0,25.0,56.86,190.0,6.0,30.42,10.0,33.96
2021-03-07 17:00:00,41.0,27.0,57.15,130.0,7.0,30.4,10.0,35.75
2021-03-07 18:00:00,42.0,27.0,54.78,150.0,8.0,30.38,10.0,36.55
2021-03-07 19:00:00,44.0,27.0,50.73,130.0,9.0,30.35,10.0,38.56
2021-03-07 20:00:00,42.0,26.1,52.78,140.0,10.0,30.33,10.0,35.63
2021-03-07 21:00:00,42.0,25.0,50.42,150.0,11.0,30.31,10.0,35.23
2021-03-07 22:00:00,42.0,26.1,52.78,150.0,9.0,30.31,10.0,36.07
2021-03-07 23:00:00,40.0,26.1,57.47,150.0,6.0,30.31,10.0,35.04
2021-03-08 00:00:00,37.0,26.1,64.38,170.0,5.0,30.31,10.0,32.33
2021-03-08 01:00:00,37.0,28.0,69.63,170.0,6.0,30.3,10.0,31.55
2021-03-08 02:00:00,39.0,28.9,66.79,170.0,8.0,30.28,10.0,32.74
2021-03-08 03:00:00,42.0,30.0,61.94,190.0,10.0,30.27,10.0,35.63
2021-03-08 04:00:00,42.0,30.0,61.94,200.0,9.0,30.27,10.0,36.07
2021-03-08 05:00:00,43.0,32.0,64.88,210.0,9.0,30.26,10.0,37.19
2021-03-08 06:00:00,46.0,33.0,60.49,210.0,11.0,30.25,10.0,40.16
2021-03-08 07:00:00,47.0,33.0,58.47,210.0,13.0,30.23,10.0,40.66
2021-03-08 08:00:00,48.0,32.0,53.67,220.0,14.0,30.22,10.0,41.79
2021-03-08 09:00:00,46.0,32.0,57.87,210.0,12.0,30.21,10.0,39.82
2021-03-08 10:00:00,45.0,32.0,60.11,210.0,10.0,30.21,10.0,39.27
2021-03-08 11:00:00,45.0,32.0,60.11,230.0,9.0,30.2,10.0,39.68
2021-03-08 12:00:00,45.0,32.0,60.11,230.0,12.0,30.2,10.0,38.55
2021-03-08 13:00:00,47.0,33.0,58.47,240.0,13.0,30.21,10.0,40.66
2021-03-08 14:00:00,51.0,34.0,51.81,240.0,13.0,30.22,10.0,51.1
2021-03-08 15:00:00,54.0,35.0,48.65,260.0,12.0,30.22,10.0,54.0
2021-03-08 16:00:00,54.0,36.0,50.42,250.0,17.0,30.23,10.0,54.0
2021-03-08 17:00:00,56.0,38.0,50.71,250.0,12.0,30.23,10.0,55.9
2021-03-08 18:00:00,57.0,38.0,48.73,250.0,13.0,30.22,10.0,57.0
2021-03-08 19:00:00,58.0,40.0,51.02,260.0,11.0,30.22,10.0,57.9
2021-03-08 20:00:00,58.0,39.0,49.26,260.0,13.0,30.22,10.0,57.9
2021-03-08 21:00:00,58.0,39.0,49.26,260.0,13.0,30.22,10.0,57.9
2021-03-08 22:00:00,56.0,39.0,52.94,260.0,11.0,30.23,10.0,55.9
2021-03-08 23:00:00,50.0,38.0,62.98,270.0,6.0,30.25,10.0,50.0
2021-03-09 00:00:00,48.0,36.0,62.97,280.0,6.0,30.27,10.0,44.8
2021-03-09 01:00:00,44.0,34.0,67.41,280.0,3.0,30.26,10.0,42.52
2021-03-09 02:00:00,45.0,34.0,65.13,0.0,0.0,30.28,10.0,45.0
2021-03-09 03:00:00,44.0,35.0,70.43,230.0,3.0,30.28,10.0,42.52
2021-03-09 04:00:00,40.0,33.0,76.44,0.0,0.0,30.27,10.0,39.9
2021-03-09 05:00:00,39.0,32.0,75.75,0.0,0.0,30.28,10.0,39.0
2021-03-09 06:00:00,40.0,35.0,82.8,190.0,3.0,30.3,9.0,37.72
2021-03-09 07:00:00,37.0,33.0,85.64,0.0,0.0,30.29,9.0,37.0
2021-03-09 08:00:00,36.0,32.0,85.23,60.0,4.0,30.27,8.0,32.09
2021-03-09 09:00:00,37.0,34.0,88.78,0.0,0.0,30.27,7.0,37.0
2021-03-09 10:00:00,38.0,34.0,85.69,140.0,3.0,30.27,8.0,35.43
2021-03-09 11:00:00,38.0,34.0,85.69,120.0,3.0,30.27,7.0,35.43
2021-03-09 12:00:00,40.0,36.0,85.81,100.0,3.0,30.26,3.0,37.72
2021-03-09 13:00:00,45.0,39.0,79.36,120.0,3.0,30.26,4.0,43.55
2021-03-09 14:00:00,50.0,38.0,62.98,160.0,7.0,30.26,7.0,50.0
2021-03-09 15:00:00,54.0,39.0,56.74,190.0,6.0,30.25,10.0,54.0
2021-03-09 16:00:00,58.0,39.0,49.26,170.0,5.0,30.23,10.0,57.9
2021-03-09 17:00:00,62.0,39.0,42.41,150.0,8.0,30.2,10.0,62.1
2021-03-09 18:00:00,63.0,41.0,44.41,140.0,9.0,30.17,10.0,63.0
2021-03-09 19:00:00,63.0,40.0,42.56,140.0,11.0,30.14,10.0,63.0
2021-03-09 20:00:00,61.0,39.0,44.1,140.0,13.0,30.11,10.0,61.0
2021-03-09 21:00:00,62.0,39.0,42.41,150.0,9.0,30.08,10.0,62.1
2021-03-09 22:00:00,63.0,37.0,37.99,170.0,10.0,30.07,10.0,63.0
2021-03-09 23:00:00,62.0,34.0,34.81,190.0,8.0,30.07,10.0,62.1
2021-03-10 00:00:00,59.0,34.0,38.87,160.0,8.0,30.06,10.0,59.0
2021-03-10 01:00:00,60.0,37.0,42.09,170.0,11.0,30.04,10.0,60.1
2021-03-10 02:00:00,58.0,38.0,47.18,180.0,8.0,30.05,10.0,57.9
2021-03-10 03:00:00,57.0,40.0,52.7,180.0,7.0,30.04,10.0,57.0
2021-03-10 04:00:00,59.0,41.0,51.18,190.0,13.0,30.03,10.0,59.0
2021-03-10 05:00:00,57.0,42.0,57.38,190.0,10.0,30.01,10.0,57.0
2021-03-10 06:00:00,56.0,43.0,61.81,200.0,10.0,30.0,10.0,55.9
2021-03-10 07:00:00,57.0,43.0,59.4,200.0,14.0,29.99,10.0,57.0
2021-03-10 08:00:00,57.0,43.0,59.4,210.0,14.0,29.96,10.0,57.0
2021-03-10 09:00:00,57.0,44.0,61.95,210.0,14.0,29.96,10.0,57.0
2021-03-10 10:00:00,57.0,44.0,61.95,210.0,15.0,29.95,10.0,57.0
2021-03-10 11:00:00,56.0,43.0,61.81,210.0,17.0,29.94,10.0,55.9
2021-03-10 12:00:00,57.0,43.0,59.4,210.0,17.0,29.94,10.0,57.0
2021-03-10 13:00:00,58.0,43.0,57.51,200.0,16.0,29.93,10.0,57.9
2021-03-10 14:00:00,58.0,43.0,57.51,200.0,17.0,29.93,10.0,57.9
2021-03-10 15:00:00,60.8,44.6,55.12,200.0,15.0,29.92,10.0,60.8
2021-03-10 16:00:00,60.8,44.6,55.12,210.0,11.0,29.89,10.0,60.8
2021-03-10 17:00:00,62.6,46.4,55.37,200.0,14.0,29.86,10.0,62.6
2021-03-10 18:00:00,62.6,46.4,55.37,190.0,12.0,29.84,10.0,62.6
2021-03-10 19:00:00,66.0,49.0,54.01,200.0,14.0,29.81,10.0,66.0
2021-03-10 20:00:00,66.0,49.0,54.01,210.0,15.0,29.8,10.0,66.0
2021-03-10 21:00:00,66.2,51.8,59.74,200.0,13.0,29.78,10.0,66.2
2021-03-10 22:00:00,67.0,51.0,56.82,210.0,14.0,29.77,10.0,66.9
2021-03-10 23:00:00,65.0,52.0,62.96,200.0,14.0,29.77,10.0,64.9
2021-03-11 00:00:00,64.0,52.0,64.97,200.0,17.0,29.76,10.0,64.0
2021-03-11 01:00:00,63.0,52.0,67.29,200.0,21.0,29.75,10.0,63.0
2021-03-11 02:00:00,63.0,53.0,70.07,200.0,19.0,29.74,10.0,63.0
2021-03-11 03:00:00,63.0,53.0,70.07,200.0,16.0,29.74,10.0,63.0
2021-03-11 04:00:00,64.0,53.0,67.66,210.0,24.0,29.74,10.0,64.0
2021-03-11 05:00:00,64.0,53.0,67.66,220.0,18.0,29.74,10.0,64.0
2021-03-11 06:00:00,62.0,54.0,74.75,220.0,18.0,29.75,10.0,62.1
2021-03-11 07:00:00,61.0,51.0,69.86,230.0,18.0,29.76,10.0,61.0
2021-03-11 08:00:00,58.0,48.0,69.52,230.0,21.0,29.75,10.0,57.9
2021-03-11 09:00:00,54.0,45.0,71.5,240.0,25.0,29.78,10.0,54.0
2021-03-11 10:00:00,49.0,37.0,63.34,240.0,17.0,29.83,10.0,42.22
2021-03-11 11:00:00,45.0,33.0,62.83,250.0,19.0,29.85,10.0,36.63
2021-03-11 12:00:00,43.0,33.0,67.82,250.0,19.0,29.88,10.0,33.98
2021-03-11 13:00:00,44.0,34.0,67.41,240.0,19.0,29.91,10.0,35.44
2021-03-11 14:00:00,44.0,33.0,65.02,270.0,24.0,29.93,10.0,34.38
2021-03-11 15:00:00,46.4,35.6,65.83,270.0,21.0,29.96,10.0,38.06
2021-03-11 16:00:00,48.2,35.6,61.52,260.0,22.0,29.98,10.0,40.27
2021-03-11 17:00:00,50.0,35.0,56.39,270.0,18.0,30.0,10.0,50.0
2021-03-11 18:00:00,51.0,36.0,56.1,270.0,21.0,30.01,10.0,51.1
2021-03-11 19:00:00,51.0,36.0,56.1,260.0,21.0,30.03,10.0,51.1
2021-03-11 20:00:00,52.0,36.0,54.26,270.0,19.0,30.04,10.0,52.0
2021-03-11 21:00:00,52.0,34.0,50.12,280.0,17.0,30.06,10.0,52.0
2021-03-11 22:00:00,51.0,34.0,51.81,270.0,13.0,30.09,10.0,51.1
2021-03-11 23:00:00,47.0,34.0,60.61,260.0,12.0,30.12,10.0,40.97
2021-03-12 00:00:00,44.0,33.0,65.02,250.0,9.0,30.15,10.0,38.56
2021-03-12 01:00:00,43.0,33.0,67.82,250.0,9.0,30.17,10.0,37.19
2021-03-12 02:00:00,41.0,32.0,70.08,240.0,8.0,30.19,10.0,35.2
2021-03-12 03:00:00,41.0,33.0,73.25,230.0,6.0,30.21,10.0,36.37
2021-03-12 04:00:00,42.0,32.0,67.17,260.0,8.0,30.23,10.0,36.55
2021-03-12 05:00:00,40.0,30.9,69.96,270.0,7.0,30.25,10.0,34.41
2021-03-12 06:00:00,39.0,30.0,69.85,250.0,4.0,30.27,10.0,35.59
2021-03-12 07:00:00,37.0,27.0,66.82,260.0,4.0,30.28,10.0,33.26
2021-03-12 08:00:00,35.0,26.1,69.41,270.0,4.0,30.29,10.0,31.04
2021-03-12 09:00:00,38.0,25.0,59.36,300.0,9.0,30.31,10.0,30.85
2021-03-12 10:00:00,38.0,25.0,59.36,310.0,10.0,30.33,10.0,30.37
2021-03-12 11:00:00,35.0,25.0,66.31,280.0,5.0,30.36,10.0,30.08
2021-03-12 12:00:00,37.0,26.1,64.38,290.0,5.0,30.37,10.0,32.33
2021-03-12 13:00:00,40.0,28.0,62.15,310.0,8.0,30.39,10.0,33.84
2021-03-12 14:00:00,43.0,28.0,55.14,320.0,10.0,30.41,10.0,36.76
2021-03-12 15:00:00,46.0,28.0,49.18,330.0,9.0,30.42,10.0,40.92
2021-03-12 16:00:00,48.0,28.9,47.32,300.0,10.0,30.44,10.0,43.03
2021-03-12 17:00:00,50.0,28.0,42.33,310.0,7.0,30.45,10.0,50.0
2021-03-12 18:00:00,52.0,27.0,37.72,340.0,10.0,30.42,10.0,52.0
2021-03-12 19:00:00,52.0,27.0,37.72,330.0,9.0,30.42,10.0,52.0
2021-03-12 20:00:00,52.0,25.0,34.72,330.0,10.0,30.41,10.0,52.0
2021-03-12 21:00:00,43.0,25.0,48.7,90.0,9.0,30.43,10.0,37.19
2021-03-12 22:00:00,41.0,21.9,46.19,90.0,8.0,30.44,10.0,35.2
2021-03-12 23:00:00,37.0,21.0,51.99,80.0,6.0,30.45,10.0,31.55
2021-03-13 00:00:00,36.0,23.0,58.85,90.0,6.0,30.45,10.0,30.35
2021-03-13 01:00:00,33.0,27.0,78.03,80.0,5.0,30.47,10.0,27.7
2021-03-13 02:00:00,34.0,26.1,72.52,90.0,3.0,30.48,10.0,30.97
2021-03-13 03:00:00,32.0,25.0,75.07,110.0,3.0,30.47,10.0,28.69
2021-03-13 04:00:00,32.0,25.0,75.07,0.0,0.0,30.47,10.0,32.0
2021-03-13 05:00:00,28.9,23.0,78.3,0.0,0.0,30.47,10.0,28.9
2021-03-13 06:00:00,30.0,26.1,85.21,0.0,0.0,30.47,10.0,30.0
2021-03-13 07:00:00,28.9,24.1,82.0,0.0,0.0,30.48,10.0,28.9
2021-03-13 08:00:00,28.9,24.1,82.0,0.0,0.0,30.46,10.0,28.9
2021-03-13 09:00:00,27.0,23.0,84.66,0.0,0.0,30.46,10.0,27.0
2021-03-13 10:00:00,27.0,23.0,84.66,0.0,0.0,30.47,8.0,27.0
2021-03-13 11:00:00,27.0,23.0,84.66,0.0,0.0,30.47,3.0,27.0
2021-03-13 12:00:00,28.0,25.0,88.33,220.0,3.0,30.47,6.0,24.12
2021-03-13 13:00:00,36.0,30.9,81.53,210.0,6.0,30.47,9.0,30.35
2021-03-13 14:00:00,42.0,28.0,57.08,220.0,7.0,30.47,10.0,37.09
2021-03-13 15:00:00,46.0,26.1,45.47,210.0,8.0,30.46,10.0,41.36
2021-03-13 16:00:00,51.0,26.1,37.57,230.0,8.0,30.44,10.0,51.1
2021-03-13 17:00:00,55.0,28.9,36.54,240.0,5.0,30.42,10.0,55.0
2021-03-13 18:00:00,56.0,28.9,35.36,260.0,10.0,30.38,10.0,55.9
2021-03-13 19:00:00,58.0,30.0,34.41,270.0,11.0,30.35,10.0,57.9
2021-03-13 20:00:00,58.0,28.9,32.9,270.0,12.0,30.33,10.0,57.9
2021-03-13 21:00:00,58.0,28.0,31.71,280.0,11.0,30.31,10.0,57.9
2021-03-13 22:00:00,57.0,28.0,32.75,260.0,9.0,30.3,10.0,57.0
2021-03-13 23:00:00,50.0,30.0,45.93,250.0,6.0,30.29,10.0,50.0
2021-03-14 00:00:00,47.0,28.9,49.32,250.0,8.0,30.29,10.0,42.47
2021-03-14 01:00:00,46.0,30.0,53.37,260.0,7.0,30.29,10.0,41.84
2021-03-14 02:00:00,44.0,28.9,54.85,260.0,7.0,30.29,10.0,39.53
2021-03-14 03:00:00,43.0,30.0,59.83,250.0,8.0,30.28,10.0,37.66
2021-03-14 04:00:00,42.0,30.0,61.94,260.0,7.0,30.27,10.0,37.09
2021-03-14 05:00:00,42.0,30.0,61.94,270.0,6.0,30.27,10.0,37.69
2021-03-14 06:00:00,42.0,30.0,61.94,280.0,6.0,30.27,10.0,37.69
2021-03-14 07:00:00,41.0,28.9,61.79,280.0,7.0,30.26,10.0,35.75
2021-03-14 08:00:00,42.0,28.9,59.22,300.0,5.0,30.27,10.0,38.39
2021-03-14 09:00:00,43.0,28.0,55.14,330.0,6.0,30.28,10.0,38.78
2021-03-14 10:00:00,42.0,27.0,54.78,10.0,7.0,30.31,10.0,37.09
2021-03-14 11:00:00,44.0,24.1,44.98,30.0,11.0,30.33,10.0,37.76
2021-03-14 12:00:00,43.0,25.0,48.7,30.0,13.0,30.36,10.0,35.66
2021-03-14 13:00:00,44.0,27.0,50.73,40.0,13.0,30.39,10.0,37.07
2021-03-14 14:00:00,45.0,23.0,41.5,40.0,16.0,30.43,10.0,37.36
2021-03-14 15:00:00,47.0,24.1,40.44,40.0,16.0,30.43,10.0,39.84
2021-03-14 16:00:00,45.0,19.9,36.4,50.0,20.0,30.43,10.0,36.41
2021-03-14 17:00:00,44.0,24.1,44.98,30.0,15.0,30.44,10.0,36.47
2021-03-14 18:00:00,43.0,26.1,50.98,40.0,20.0,30.43,10.0,33.75
2021-03-14 19:00:00,41.0,26.1,55.07,30.0,15.0,30.43,10.0,32.45
2021-03-14 20:00:00,40.0,26.1,57.47,30.0,17.0,30.42,10.0,30.42
2021-03-14 21:00:00,37.0,25.0,61.5,40.0,17.0,30.42,10.0,26.63
2021-03-14 22:00:00,36.0,24.1,61.62,30.0,19.0,30.41,10.0,24.73
2021-03-14 23:00:00,34.0,24.1,66.72,40.0,14.0,30.39,10.0,23.74
2021-03-15 00:00:00,34.0,25.0,69.28,40.0,16.0,30.39,10.0,23.03
2021-03-15 01:00:00,34.0,25.0,69.28,50.0,16.0,30.4,10.0,23.03
2021-03-15 02:00:00,35.0,25.0,66.31,50.0,14.0,30.4,10.0,25.16
2021-03-15 03:00:00,35.0,25.0,66.31,60.0,18.0,30.4,10.0,23.83
2021-03-15 04:00:00,35.0,25.0,66.31,70.0,16.0,30.38,10.0,24.46
2021-03-15 05:00:00,35.0,25.0,66.31,70.0,15.0,30.37,10.0,24.8
2021-03-15 06:00:00,36.0,27.0,69.51,90.0,14.0,30.37,10.0,26.32
2021-03-15 07:00:00,37.0,26.1,64.38,110.0,14.0,30.36,10.0,27.61
2021-03-15 08:00:00,37.0,24.1,59.24,110.0,13.0,30.35,10.0,27.97
2021-03-15 09:00:00,36.0,23.0,58.85,100.0,17.0,30.32,10.0,25.32
2021-03-15 10:00:00,36.0,23.0,58.85,100.0,22.0,30.3,10.0,23.93
2021-03-15 11:00:00,35.0,23.0,60.99,100.0,18.0,30.29,10.0,23.83
2021-03-15 12:00:00,34.0,21.0,58.56,110.0,20.0,30.28,10.0,21.8
2021-03-15 13:00:00,33.0,19.9,57.93,100.0,20.0,30.25,10.0,20.6
2021-03-15 14:00:00,34.0,19.9,55.88,100.0,20.0,30.26,10.0,21.8
2021-03-15 15:00:00,34.0,19.9,55.88,100.0,18.0,30.24,10.0,22.38
2021-03-15 16:00:00,33.0,19.0,55.75,110.0,12.0,30.29,10.0,23.4
2021-03-15 17:00:00,34.0,19.0,53.77,100.0,15.0,30.2,10.0,23.37
2021-03-15 18:00:00,35.0,18.0,49.31,100.0,19.0,30.17,10.0,23.54
2021-03-15 19:00:00,32.0,24.1,72.3,120.0,20.0,30.14,1.0,19.14
2021-03-15 20:00:00,32.0,28.0,84.98,110.0,18.0,30.1,0.75,19.75
2021-03-15 21:00:00,33.0,28.9,84.36,110.0,12.0,30.08,0.75,23.4
2021-03-15 22:00:00,32.0,28.0,84.98,100.0,20.0,30.06,1.0,19.14
2021-03-15 23:00:00,32.0,28.0,84.98,100.0,16.0,30.04,1.5,20.42
2021-03-16 00:00:00,32.0,28.0,84.98,100.0,16.0,30.03,1.75,20.42
2021-03-16 01:00:00,33.0,28.9,84.36,90.0,13.0,30.02,3.0,22.98
2021-03-16 02:00:00,33.0,28.0,81.3,110.0,14.0,30.01,10.0,22.58
2021-03-16 03:00:00,33.0,27.0,78.03,110.0,12.0,29.99,10.0,23.4
2021-03-16 04:00:00,33.0,28.0,81.3,100.0,6.0,29.99,8.0,26.86
2021-03-16 05:00:00,33.0,30.0,88.23,110.0,9.0,29.97,2.5,24.88
2021-03-16 06:00:00,34.0,30.9,88.27,90.0,6.0,29.96,1.75,27.94
2021-03-16 07:00:00,33.0,30.9,91.51,60.0,7.0,29.96,1.25,26.12
2021-03-16 08:00:00,33.0,30.9,91.51,60.0,8.0,29.94,1.5,25.47
2021-03-16 09:00:00,34.0,30.9,88.27,60.0,5.0,29.95,1.25,28.77
2021-03-16 10:00:00,34.0,33.0,96.46,80.0,3.0,29.96,1.5,30.97
2021-03-16 11:00:00,34.0,30.9,88.27,40.0,5.0,29.95,3.0,28.77
2021-03-16 12:00:00,34.0,32.0,92.29,20.0,3.0,29.96,2.5,30.97
2021-03-16 13:00:00,34.0,30.9,88.27,10.0,4.0,29.97,2.0,29.76
2021-03-16 14:00:00,35.0,30.9,84.49,10.0,5.0,29.99,5.0,30.08
2021-03-16 15:00:00,36.0,30.0,78.6,30.0,4.0,30.0,10.0,32.09
2021-03-16 16:00:00,37.0,28.9,72.24,40.0,4.0,30.02,10.0,33.26
2021-03-16 17:00:00,36.0,28.9,75.15,40.0,7.0,30.02,10.0,29.65
2021-03-16 18:00:00,37.0,28.0,69.63,60.0,4.0,30.02,10.0,33.26
2021-03-16 19:00:00,37.0,28.0,69.63,80.0,5.0,30.02,10.0,32.33
2021-03-16 20:00:00,37.0,28.9,72.24,80.0,4.0,30.02,10.0,33.26
2021-03-16 21:00:00,37.0,30.0,75.56,100.0,3.0,30.03,10.0,34.4
2021-03-16 22:00:00,36.0,28.9,75.15,70.0,5.0,30.03,10.0,31.15
2021-03-16 23:00:00,35.0,28.9,77.88,70.0,6.0,30.04,10.0,29.26
2021-03-17 00:00:00,35.0,28.9,77.88,60.0,6.0,30.06,10.0,29.26
2021-03-17 01:00:00,35.0,28.0,75.06,60.0,3.0,30.06,10.0,32.23
2021-03-17 02:00:00,35.0,28.0,75.06,60.0,4.0,30.08,10.0,31.04
2021-03-17 03:00:00,35.0,28.0,75.06,80.0,6.0,30.07,10.0,29.26
2021-03-17 04:00:00,35.0,28.0,75.06,40.0,3.0,30.08,10.0,32.23
2021-03-17 05:00:00,35.0,28.0,75.06,60.0,3.0,30.08,10.0,32.23
2021-03-17 06:00:00,35.0,28.0,75.06,70.0,4.0,30.08,10.0,31.04
2021-03-17 07:00:00,35.0,28.0,75.06,80.0,4.0,30.08,10.0,31.04
2021-03-17 08:00:00,34.0,28.0,78.43,100.0,4.0,30.06,10.0,29.76
2021-03-17 09:00:00,34.0,28.0,78.43,120.0,5.0,30.04,10.0,28.77
2021-03-17 10:00:00,34.0,28.0,78.43,130.0,8.0,30.03,10.0,26.58
2021-03-17 11:00:00,34.0,28.9,81.37,90.0,6.0,30.04,10.0,27.94
2021-03-17 12:00:00,35.0,30.0,81.46,90.0,7.0,30.03,10.0,28.56
2021-03-17 13:00:00,35.0,30.0,81.46,100.0,6.0,30.02,10.0,29.26
2021-03-17 14:00:00,35.0,30.9,84.49,100.0,6.0,30.02,5.0,29.26
2021-03-17 15:00:00,37.0,33.0,85.64,70.0,9.0,30.0,4.0,29.73
2021-03-17 16:00:00,37.0,33.0,85.64,70.0,6.0,30.02,5.0,31.55
2021-03-17 17:00:00,38.0,32.0,79.08,30.0,9.0,30.01,6.0,30.85
2021-03-17 18:00:00,38.0,32.0,79.08,40.0,11.0,30.0,10.0,29.92
2021-03-17 19:00:00,38.0,32.0,79.08,30.0,14.0,29.98,10.0,28.77
2021-03-17 20:00:00,38.0,30.9,75.64,30.0,12.0,29.97,10.0,29.51
2021-03-17 21:00:00,38.0,30.9,75.64,40.0,13.0,29.95,10.0,29.13
2021-03-17 22:00:00,37.0,30.9,78.37,30.0,11.0,29.96,10.0,28.79
2021-03-17 23:00:00,37.0,30.9,78.37,20.0,11.0,29.95,10.0,28.79
2021-03-18 00:00:00,36.0,32.0,85.23,20.0,16.0,29.91,9.0,25.63
2021-03-18 01:00:00,36.0,32.0,85.23,30.0,14.0,29.91,8.0,26.32
2021-03-18 02:00:00,37.0,33.0,85.64,30.0,13.0,29.94,10.0,27.97
2021-03-18 03:00:00,37.0,33.0,85.64,30.0,13.0,29.95,10.0,27.97
2021-03-18 04:00:00,37.0,33.0,85.64,30.0,15.0,29.94,6.0,27.26
2021-03-18 05:00:00,37.0,34.0,88.78,20.0,12.0,29.94,6.0,28.37
2021-03-18 06:00:00,38.0,35.0,89.53,30.0,18.0,29.92,10.0,27.52
2021-03-18 07:00:00,38.0,34.0,85.69,40.0,17.0,29.92,5.0,27.8
2021-03-18 08:00:00,38.0,33.0,82.66,30.0,18.0,29.92,8.0,27.52
2021-03-18 09:00:00,37.0,32.0,81.93,40.0,19.0,29.92,10.0,26.05
2021-03-18 10:00:00,38.0,32.0,79.08,50.0,24.0,29.92,10.0,26.02
2021-03-18 11:00:00,38.0,30.9,75.64,40.0,22.0,29.93,10.0,26.48
2021-03-18 12:00:00,38.0,30.9,75.64,30.0,18.0,29.95,10.0,27.52
2021-03-18 13:00:00,39.0,32.0,75.75,30.0,20.0,29.98,10.0,28.44
2021-03-18 14:00:00,40.0,32.0,73.14,30.0,20.0,30.0,10.0,29.63
2021-03-18 15:00:00,41.0,33.0,73.25,40.0,21.0,30.04,10.0,30.86
2021-03-18 16:00:00,42.0,33.0,70.2,30.0,20.0,30.07,10.0,32.55
2021-03-18 17:00:00,42.0,32.0,67.17,30.0,21.0,30.08,10.0,32.32
2021-03-18 18:00:00,43.0,32.0,64.88,30.0,24.0,30.09,10.0,32.9
2021-03-18 19:00:00,42.0,30.9,64.24,20.0,21.0,30.11,10.0,32.32
2021-03-18 20:00:00,42.0,30.0,61.94,20.0,21.0,30.13,10.0,32.32
2021-03-18 21:00:00,41.0,28.0,59.55,20.0,21.0,30.16,10.0,30.86
2021-03-18 22:00:00,39.0,26.1,59.52,20.0,17.0,30.2,10.0,29.25
2021-03-18 23:00:00,38.0,25.0,59.36,20.0,18.0,30.24,10.0,27.52
2021-03-19 00:00:00,38.0,26.1,62.14,20.0,16.0,30.26,10.0,28.11
2021-03-19 01:00:00,38.0,25.0,59.36,20.0,19.0,30.29,10.0,27.24
2021-03-19 02:00:00,38.0,25.0,59.36,30.0,19.0,30.32,10.0,27.24
2021-03-19 03:00:00,37.0,25.0,61.5,30.0,14.0,30.35,10.0,27.61
2021-03-19 04:00:00,37.0,26.1,64.38,40.0,15.0,30.37,10.0,27.26
2021-03-19 05:00:00,36.0,23.0,58.85,40.0,14.0,30.39,10.0,26.32
2021-03-19 06:00:00,35.0,25.0,66.31,40.0,11.0,30.42,10.0,26.38
2021-03-19 07:00:00,35.0,23.0,60.99,50.0,13.0,30.42,10.0,25.54
2021-03-19 08:00:00,34.0,23.0,63.72,60.0,12.0,30.43,10.0,24.55
2021-03-19 09:00:00,33.0,21.0,60.71,70.0,11.0,30.45,10.0,23.86
2021-03-19 10:00:00,32.0,19.0,58.27,70.0,10.0,30.47,10.0,22.97
2021-03-19 11:00:00,30.9,19.0,60.92,70.0,8.0,30.49,10.0,22.76
2021-03-19 12:00:00,35.0,21.0,56.05,70.0,11.0,30.51,10.0,26.38
2021-03-19 13:00:00,38.0,19.9,47.89,70.0,12.0,30.53,10.0,29.51
2021-03-19 14:00:00,40.0,21.0,46.41,70.0,14.0,30.55,10.0,31.35
2021-03-19 15:00:00,40.0,19.9,44.29,90.0,10.0,30.56,10.0,32.87
2021-03-19 16:00:00,42.0,21.0,42.62,90.0,12.0,30.56,10.0,34.86
2021-03-19 17:00:00,43.0,19.9,39.29,70.0,8.0,30.56,10.0,37.66
2021-03-19 18:00:00,43.0,21.0,41.17,100.0,10.0,30.54,10.0,36.76
2021-03-19 19:00:00,43.0,21.9,42.77,90.0,9.0,30.53,10.0,37.19
2021-03-19 20:00:00,43.0,19.0,37.81,80.0,6.0,30.53,10.0,38.78
2021-03-19 21:00:00,44.0,17.1,33.4,80.0,4.0,30.52,10.0,41.55
2021-03-19 22:00:00,42.0,18.0,37.49,90.0,4.0,30.51,10.0,39.21
2021-03-19 23:00:00,36.0,21.0,54.08,90.0,4.0,30.51,10.0,32.09
2021-03-20 00:00:00,33.0,21.0,60.71,90.0,4.0,30.51,10.0,28.7
2021-03-20 01:00:00,32.0,21.0,63.45,90.0,3.0,30.51,10.0,28.69
2021-03-20 02:00:00,30.0,21.0,68.81,0.0,0.0,30.51,10.0,30.0
2021-03-20 03:00:00,30.9,23.0,72.18,0.0,0.0,30.51,10.0,30.9
2021-03-20 04:00:00,28.0,21.9,77.57,0.0,0.0,30.51,10.0,28.0
2021-03-20 05:00:00,28.9,23.0,78.3,170.0,3.0,30.52,10.0,25.14
2021-03-20 06:00:00,28.9,23.0,78.3,170.0,3.0,30.52,10.0,25.14
2021-03-20 07:00:00,27.0,21.9,80.83,190.0,3.0,30.51,10.0,22.97
2021-03-20 08:00:00,27.0,23.0,84.66,180.0,3.0,30.51,9.0,22.97
2021-03-20 09:00:00,26.1,21.9,83.89,0.0,0.0,30.52,9.0,26.1
2021-03-20 10:00:00,28.0,24.1,85.08,170.0,5.0,30.52,8.0,21.64
2021-03-20 11:00:00,28.0,23.0,81.25,210.0,4.0,30.54,4.0,22.75
2021-03-20 12:00:00,30.9,28.9,92.18,190.0,4.0,30.55,7.0,26.14
2021-03-20 13:00:00,39.0,28.9,66.79,190.0,8.0,30.55,10.0,32.74
2021-03-20 14:00:00,43.0,27.0,52.91,180.0,8.0,30.55,10.0,37.66
2021-03-20 15:00:00,46.0,21.9,38.15,160.0,6.0,30.54,10.0,42.39
2021-03-20 16:00:00,52.0,21.9,30.49,190.0,8.0,30.52,10.0,52.0
2021-03-20 17:00:00,54.0,21.0,27.27,160.0,7.0,30.49,10.0,54.0
2021-03-20 18:00:00,55.0,28.9,36.54,150.0,10.0,30.46,10.0,55.0
2021-03-20 19:00:00,55.0,28.9,36.54,140.0,9.0,30.45,10.0,55.0
2021-03-20 20:00:00,53.0,27.0,36.22,130.0,9.0,30.44,10.0,53.1
2021-03-20 21:00:00,52.0,26.1,36.34,150.0,11.0,30.41,10.0,52.0
2021-03-20 22:00:00,51.0,25.0,35.89,150.0,9.0,30.39,10.0,51.1
2021-03-20 23:00:00,48.0,25.0,40.29,150.0,7.0,30.39,10.0,44.28
2021-03-21 00:00:00,45.0,26.1,47.23,150.0,6.0,30.38,10.0,41.19
2021-03-21 01:00:00,42.0,26.1,52.78,170.0,4.0,30.38,10.0,39.21
2021-03-21 02:00:00,43.0,26.1,50.98,170.0,7.0,30.38,10.0,38.19
2021-03-21 03:00:00,41.0,26.1,55.07,160.0,7.0,30.37,10.0,35.75
2021-03-21 04:00:00,40.0,26.1,57.47,190.0,3.0,30.36,10.0,37.72
2021-03-21 05:00:00,38.0,26.1,62.14,170.0,6.0,30.35,10.0,32.64
2021-03-21 06:00:00,40.0,27.0,59.65,170.0,6.0,30.34,10.0,35.04
2021-03-21 07:00:00,41.0,27.0,57.15,200.0,4.0,30.34,10.0,37.93
2021-03-21 08:00:00,38.0,27.0,64.49,170.0,4.0,30.33,10.0,34.31
2021-03-21 09:00:00,38.0,27.0,64.49,190.0,4.0,30.33,10.0,34.31
2021-03-21 10:00:00,37.0,27.0,66.82,190.0,4.0,30.34,10.0,33.26
2021-03-21 11:00:00,37.0,27.0,66.82,190.0,4.0,30.34,10.0,33.26
2021-03-21 12:00:00,40.0,28.0,62.15,170.0,8.0,30.34,10.0,33.84
2021-03-21 13:00:00,46.0,30.0,53.37,190.0,6.0,30.34,10.0,42.39
2021-03-21 14:00:00,53.0,30.9,42.48,190.0,9.0,30.33,10.0,53.1
2021-03-21 15:00:00,58.0,32.0,37.31,190.0,11.0,30.31,10.0,57.9
2021-03-21 16:00:00,62.0,34.0,34.81,210.0,16.0,30.28,10.0,62.1
2021-03-21 17:00:00,63.0,32.0,31.12,220.0,12.0,30.26,10.0,63.0
2021-03-21 18:00:00,64.0,30.9,28.74,200.0,15.0,30.22,10.0,64.0
2021-03-21 19:00:00,65.0,30.9,27.85,190.0,11.0,30.2,10.0,64.9
2021-03-21 20:00:00,64.0,30.0,27.71,150.0,12.0,30.17,10.0,64.0
2021-03-21 21:00:00,62.0,28.0,27.3,150.0,11.0,30.15,10.0,62.1
2021-03-21 22:00:00,59.0,28.0,30.48,150.0,9.0,30.13,10.0,59.0
2021-03-21 23:00:00,57.0,28.0,32.75,160.0,8.0,30.12,10.0,57.0
2021-03-22 00:00:00,55.0,28.0,35.21,170.0,9.0,30.11,10.0,55.0
2021-03-22 01:00:00,53.0,26.1,34.9,180.0,6.0,30.12,10.0,53.1
2021-03-22 02:00:00,55.0,27.0,33.79,190.0,9.0,30.12,10.0,55.0
2021-03-22 03:00:00,53.0,27.0,36.22,190.0,8.0,30.13,10.0,53.1
2021-03-22 04:00:00,52.0,28.0,39.3,180.0,8.0,30.12,10.0,52.0
2021-03-22 05:00:00,50.0,28.0,42.33,190.0,6.0,30.11,10.0,50.0
2021-03-22 06:00:00,48.0,28.0,45.61,170.0,7.0,30.1,10.0,44.28
2021-03-22 07:00:00,48.0,28.0,45.61,170.0,7.0,30.1,10.0,44.28
2021-03-22 08:00:00,49.0,28.0,44.1,190.0,8.0,30.08,10.0,44.93
2021-03-22 09:00:00,51.0,28.0,40.63,200.0,9.0,30.07,10.0,51.1
2021-03-22 10:00:00,51.0,28.9,42.16,200.0,10.0,30.08,10.0,51.1
2021-03-22 11:00:00,51.0,28.9,42.16,200.0,10.0,30.07,10.0,51.1
2021-03-22 12:00:00,52.0,30.0,42.65,210.0,10.0,30.08,10.0,52.0
2021-03-22 13:00:00,56.0,30.9,38.36,220.0,12.0,30.07,10.0,55.9
2021-03-22 14:00:00,60.0,33.0,36.05,220.0,11.0,30.07,10.0,60.1
2021-03-22 15:00:00,63.0,33.0,32.53,230.0,15.0,30.06,10.0,63.0
2021-03-22 16:00:00,66.0,35.0,31.73,230.0,14.0,30.03,10.0,66.0
2021-03-22 17:00:00,67.0,35.0,30.75,220.0,12.0,30.02,10.0,66.9
2021-03-22 18:00:00,67.0,35.0,30.75,210.0,9.0,29.99,10.0,66.9
2021-03-22 19:00:00,65.0,34.0,31.55,210.0,13.0,30.0,10.0,64.9
2021-03-22 20:00:00,64.0,36.0,35.26,230.0,9.0,30.01,10.0,64.0
2021-03-22 21:00:00,65.0,35.0,32.97,250.0,5.0,30.0,10.0,64.9
2021-03-22 22:00:00,61.0,38.0,42.24,70.0,6.0,29.99,10.0,61.0
2021-03-22 23:00:00,56.0,36.0,47.05,90.0,3.0,29.99,10.0,55.9
2021-03-23 00:00:00,52.0,36.0,54.26,110.0,5.0,29.99,10.0,52.0
2021-03-23 01:00:00,51.0,36.0,56.1,120.0,4.0,30.0,10.0,51.1
2021-03-23 02:00:00,51.0,36.0,56.1,180.0,4.0,30.01,10.0,51.1
2021-03-23 03:00:00,51.0,36.0,56.1,0.0,0.0,30.01,10.0,51.1
2021-03-23 04:00:00,44.0,35.0,70.43,0.0,0.0,30.0,10.0,44.1
2021-03-23 05:00:00,46.0,36.0,67.9,130.0,4.0,29.99,10.0,43.77
2021-03-23 06:00:00,53.0,39.0,58.64,150.0,5.0,29.99,10.0,53.1
2021-03-23 07:00:00,47.0,37.0,68.27,120.0,3.0,29.98,10.0,45.72
2021-03-23 08:00:00,49.0,39.0,68.51,130.0,4.0,29.97,10.0,47.16
2021-03-23 09:00:00,50.0,38.0,62.98,130.0,5.0,29.95,10.0,50.0
2021-03-23 10:00:00,48.0,38.0,67.87,110.0,4.0,29.95,10.0,46.1
2021-03-23 11:00:00,48.0,38.0,67.87,120.0,5.0,29.96,10.0,45.4
2021-03-23 12:00:00,49.0,39.0,68.51,130.0,7.0,29.95,10.0,45.38
2021-03-23 13:00:00,53.0,40.0,60.73,140.0,7.0,29.95,10.0,53.1
2021-03-23 14:00:00,53.0,41.0,63.38,130.0,13.0,29.94,10.0,53.1
2021-03-23 15:00:00,61.0,43.0,51.48,140.0,11.0,29.93,10.0,61.0
2021-03-23 16:00:00,60.0,41.0,49.21,160.0,11.0,29.92,10.0,60.1
2021-03-23 17:00:00,57.0,40.0,52.7,120.0,9.0,29.88,10.0,57.0
2021-03-23 18:00:00,57.0,40.0,52.7,120.0,8.0,29.85,10.0,57.0
2021-03-23 19:00:00,56.0,39.0,52.94,100.0,8.0,29.8,10.0,55.9
2021-03-23 20:00:00,55.0,42.0,61.69,120.0,7.0,29.79,10.0,55.0
2021-03-23 21:00:00,53.0,44.0,71.4,150.0,14.0,29.79,7.0,53.1
2021-03-23 22:00:00,54.0,49.0,82.82,150.0,12.0,29.77,8.0,54.0
2021-03-23 23:00:00,53.0,49.0,85.59,120.0,12.0,29.75,7.0,53.1
2021-03-24 00:00:00,53.0,48.0,82.76,130.0,15.0,29.74,8.0,53.1
2021-03-24 01:00:00,53.0,48.0,82.76,140.0,10.0,29.74,10.0,53.1
2021-03-24 02:00:00,53.0,47.0,79.4,130.0,12.0,29.71,10.0,53.1
2021-03-24 03:00:00,51.0,47.0,85.48,130.0,11.0,29.69,10.0,51.1
2021-03-24 04:00:00,51.0,47.0,85.48,140.0,15.0,29.66,8.0,51.1
2021-03-24 05:00:00,51.0,47.0,85.48,140.0,11.0,29.65,10.0,51.1
2021-03-24 06:00:00,50.0,46.0,86.06,140.0,12.0,29.63,10.0,50.0
2021-03-24 07:00:00,50.0,46.0,86.06,130.0,9.0,29.61,10.0,50.0
2021-03-24 08:00:00,51.0,47.0,85.48,150.0,8.0,29.6,10.0,51.1
2021-03-24 09:00:00,51.0,47.0,85.48,210.0,5.0,29.61,10.0,51.1
2021-03-24 10:00:00,51.0,45.0,79.54,190.0,6.0,29.62,10.0,51.1
2021-03-24 11:00:00,50.0,45.0,82.86,170.0,8.0,29.62,10.0,50.0
2021-03-24 12:00:00,53.0,46.0,76.75,160.0,16.0,29.62,10.0,53.1
2021-03-24 13:00:00,56.0,48.0,74.72,190.0,12.0,29.61,10.0,55.9
2021-03-24 14:00:00,56.0,46.0,69.3,190.0,17.0,29.61,10.0,55.9
2021-03-24 15:00:00,55.0,46.0,71.6,200.0,15.0,29.61,10.0,55.0
2021-03-24 16:00:00,53.0,47.0,79.4,200.0,9.0,29.61,7.0,53.1
2021-03-24 17:00:00,53.0,47.0,79.4,200.0,17.0,29.61,10.0,53.1
2021-03-24 18:00:00,55.0,47.0,74.08,210.0,15.0,29.6,10.0,55.0
2021-03-24 19:00:00,55.0,47.0,74.08,210.0,16.0,29.59,10.0,55.0
2021-03-24 20:00:00,55.0,48.0,77.21,210.0,16.0,29.61,10.0,55.0
2021-03-24 21:00:00,57.0,47.0,68.9,230.0,18.0,29.64,10.0,57.0
2021-03-24 22:00:00,56.0,45.0,66.72,240.0,23.0,29.67,10.0,55.9
2021-03-24 23:00:00,54.0,45.0,71.5,250.0,17.0,29.69,10.0,54.0
2021-03-25 00:00:00,51.0,44.0,76.86,250.0,20.0,29.72,10.0,51.1
2021-03-25 01:00:00,49.0,42.0,77.26,260.0,19.0,29.76,10.0,41.79
2021-03-25 02:00:00,48.0,41.0,76.58,250.0,18.0,29.79,10.0,40.81
2021-03-25 03:00:00,47.0,40.0,76.48,260.0,17.0,29.82,10.0,39.59
2021-03-25 04:00:00,47.0,39.0,73.85,260.0,13.0,29.84,10.0,40.66
2021-03-25 05:00:00,46.0,39.0,76.4,270.0,9.0,29.86,10.0,40.92
2021-03-25 06:00:00,46.0,39.0,76.4,290.0,7.0,29.86,10.0,41.84
2021-03-25 07:00:00,45.0,38.0,76.01,280.0,11.0,29.88,10.0,38.89
2021-03-25 08:00:00,45.0,38.0,76.01,290.0,5.0,29.87,10.0,41.83
2021-03-25 09:00:00,45.0,38.0,76.01,230.0,6.0,29.9,10.0,41.19
2021-03-25 10:00:00,45.0,37.0,73.37,220.0,5.0,29.91,10.0,41.83
2021-03-25 11:00:00,45.0,38.0,76.01,0.0,0.0,29.89,10.0,45.0
2021-03-25 12:00:00,45.0,38.0,76.01,0.0,0.0,29.91,10.0,45.0
2021-03-25 13:00:00,46.0,38.0,73.18,160.0,6.0,29.95,10.0,42.39
2021-03-25 14:00:00,46.0,39.0,76.4,0.0,0.0,29.95,10.0,46.0
2021-03-25 15:00:00,47.0,39.0,73.85,30.0,4.0,29.94,10.0,44.82
2021-03-25 16:00:00,45.0,37.0,73.37,60.0,9.0,29.94,10.0,39.68
2021-03-25 17:00:00,44.0,36.0,72.99,60.0,10.0,29.9,10.0,38.14
2021-03-25 18:00:00,44.0,34.0,67.41,70.0,13.0,29.91,10.0,37.07
2021-03-25 19:00:00,42.0,35.0,76.04,70.0,14.0,29.9,10.0,34.18
2021-03-25 20:00:00,42.0,34.0,72.78,80.0,11.0,29.87,10.0,35.23
2021-03-25 21:00:00,42.0,35.0,76.04,40.0,14.0,29.83,10.0,34.18
2021-03-25 22:00:00,42.0,35.0,76.04,30.0,10.0,29.81,10.0,35.63
2021-03-25 23:00:00,41.0,34.0,75.94,40.0,13.0,29.76,10.0,33.1
2021-03-26 00:00:00,39.0,33.0,79.17,30.0,13.0,29.77,10.0,30.54
2021-03-26 01:00:00,39.0,34.0,82.08,20.0,12.0,29.78,10.0,30.91
2021-03-26 02:00:00,38.0,34.0,85.69,30.0,13.0,29.76,10.0,29.13
2021-03-26 03:00:00,37.0,33.0,85.64,10.0,15.0,29.72,10.0,27.26
2021-03-26 04:00:00,37.0,33.0,85.64,20.0,16.0,29.71,10.0,26.94
2021-03-26 05:00:00,37.0,32.0,81.93,20.0,14.0,29.72,10.0,27.61
2021-03-26 06:00:00,36.0,32.0,85.23,360.0,13.0,29.76,10.0,26.69
2021-03-26 07:00:00,35.0,30.9,84.49,360.0,14.0,29.79,10.0,25.16
2021-03-26 08:00:00,35.0,30.9,84.49,350.0,11.0,29.82,10.0,26.38
2021-03-26 09:00:00,35.0,30.0,81.46,340.0,8.0,29.86,10.0,27.93
2021-03-26 10:00:00,35.0,30.0,81.46,330.0,6.0,29.9,10.0,29.26
2021-03-26 11:00:00,34.0,28.9,81.37,350.0,6.0,29.93,10.0,27.94
2021-03-26 12:00:00,35.0,30.0,81.46,290.0,3.0,29.98,10.0,32.23
2021-03-26 13:00:00,35.0,30.0,81.46,300.0,4.0,30.02,10.0,31.04
2021-03-26 14:00:00,37.0,30.9,78.37,350.0,3.0,30.02,10.0,34.4
2021-03-26 15:00:00,39.0,32.0,75.75,0.0,0.0,30.03,10.0,39.0
2021-03-26 16:00:00,40.0,32.0,73.14,0.0,0.0,30.06,10.0,39.9
2021-03-26 17:00:00,39.0,32.0,75.75,90.0,4.0,30.06,10.0,35.59
2021-03-26 18:00:00,39.0,30.9,72.45,130.0,5.0,30.08,10.0,34.71
2021-03-26 19:00:00,38.0,30.9,75.64,130.0,5.0,30.08,10.0,33.4
2021-03-26 20:00:00,39.0,32.0,75.75,130.0,5.0,30.08,10.0,34.71
2021-03-26 21:00:00,39.0,32.0,75.75,120.0,7.0,30.08,10.0,33.31
2021-03-26 22:00:00,39.0,32.0,75.75,150.0,8.0,30.08,10.0,32.74
2021-03-26 23:00:00,38.0,32.0,79.08,130.0,6.0,30.1,10.0,32.64
2021-03-27 00:00:00,38.0,32.0,79.08,140.0,6.0,30.11,10.0,32.64
2021-03-27 01:00:00,38.0,32.0,79.08,150.0,5.0,30.11,10.0,33.4
2021-03-27 02:00:00,38.0,33.0,82.66,130.0,3.0,30.1,10.0,35.43
2021-03-27 03:00:00,37.0,33.0,85.64,130.0,3.0,30.1,10.0,34.4
2021-03-27 04:00:00,38.0,34.0,85.69,140.0,3.0,30.09,10.0,35.43
2021-03-27 05:00:00,38.0,34.0,85.69,170.0,5.0,30.1,10.0,33.4
2021-03-27 06:00:00,39.0,35.0,85.76,0.0,0.0,30.11,10.0,39.0
2021-03-27 07:00:00,39.0,35.0,85.76,70.0,3.0,30.1,9.0,36.69
2021-03-27 08:00:00,39.0,35.0,85.76,100.0,3.0,30.1,10.0,36.69
2021-03-27 09:00:00,39.0,35.0,85.76,90.0,6.0,30.08,8.0,33.96
2021-03-27 10:00:00,40.0,36.0,85.81,130.0,4.0,30.09,6.0,36.65
2021-03-27 11:00:00,40.0,37.0,89.27,140.0,6.0,30.07,3.0,35.04
2021-03-27 12:00:00,41.0,38.0,88.62,120.0,7.0,30.04,2.5,35.75
2021-03-27 13:00:00,44.0,40.0,85.06,120.0,9.0,29.99,4.0,38.56
2021-03-27 14:00:00,45.0,40.0,82.19,130.0,14.0,29.94,6.0,37.92
2021-03-27 15:00:00,44.0,39.0,82.12,130.0,8.0,29.97,9.0,39.02
2021-03-27 16:00:00,44.0,39.0,82.12,110.0,11.0,29.93,6.0,37.76
2021-03-27 17:00:00,45.0,41.0,85.77,130.0,10.0,29.91,4.0,39.27
2021-03-27 18:00:00,50.0,42.0,74.15,110.0,10.0,29.88,8.0,50.0
2021-03-27 19:00:00,51.0,42.0,71.19,110.0,12.0,29.85,10.0,51.1
2021-03-27 20:00:00,49.0,40.0,70.95,80.0,10.0,29.82,10.0,44.16
2021-03-27 21:00:00,48.0,40.0,73.38,80.0,9.0,29.79,9.0,43.41
2021-03-27 22:00:00,48.0,40.0,73.38,40.0,5.0,29.78,8.0,45.4
2021-03-27 23:00:00,47.0,40.0,76.48,0.0,0.0,29.77,8.0,46.9
2021-03-28 00:00:00,46.0,40.0,79.13,240.0,4.0,29.76,10.0,43.77
2021-03-28 01:00:00,47.0,40.0,76.48,210.0,5.0,29.73,9.0,44.09
2021-03-28 02:00:00,47.0,41.0,79.82,300.0,5.0,29.73,8.0,44.09
2021-03-28 03:00:00,45.0,40.0,82.19,240.0,3.0,29.71,7.0,43.55
2021-03-28 04:00:00,49.0,44.0,83.42,280.0,8.0,29.71,8.0,44.93
2021-03-28 05:00:00,49.0,44.0,83.42,280.0,8.0,29.71,8.0,44.93
2021-03-28 06:00:00,49.0,43.0,79.98,290.0,13.0,29.69,10.0,43.22
2021-03-28 07:00:00,47.0,42.0,83.28,270.0,12.0,29.67,5.0,40.97
2021-03-28 08:00:00,45.0,40.0,82.19,270.0,15.0,29.67,10.0,37.63
2021-03-28 09:00:00,41.0,34.0,75.94,280.0,20.0,29.69,10.0,31.09
2021-03-28 10:00:00,40.0,32.0,73.14,290.0,23.0,29.7,10.0,28.93
2021-03-28 11:00:00,38.0,32.0,79.08,300.0,17.0,29.73,10.0,27.8
2021-03-28 12:00:00,38.0,32.0,79.08,310.0,16.0,29.77,10.0,28.11
2021-03-28 13:00:00,39.0,30.0,69.85,310.0,18.0,29.81,10.0,28.96
2021-03-28 14:00:00,39.0,30.0,69.85,300.0,16.0,29.83,10.0,29.54
2021-03-28 15:00:00,41.0,28.0,59.55,310.0,21.0,29.87,10.0,30.86
2021-03-28 16:00:00,43.0,27.0,52.91,310.0,20.0,29.89,10.0,33.75
2021-03-28 17:00:00,46.0,23.0,39.96,320.0,18.0,29.91,10.0,38.18
2021-03-28 18:00:00,46.0,23.0,39.96,310.0,15.0,29.94,10.0,38.93
2021-03-28 19:00:00,46.0,21.0,36.72,300.0,19.0,29.96,10.0,37.95
2021-03-28 20:00:00,46.0,19.9,35.04,310.0,15.0,29.99,10.0,38.93
2021-03-28 21:00:00,46.4,19.4,33.79,300.0,17.0,30.01,10.0,38.94
2021-03-28 22:00:00,44.6,19.4,36.18,300.0,14.0,30.07,10.0,37.4
2021-03-28 23:00:00,42.8,17.6,35.87,300.0,12.0,30.08,10.0,35.75
2021-03-29 00:00:00,39.2,17.6,41.24,310.0,6.0,30.1,10.0,34.2
2021-03-29 01:00:00,37.4,19.4,47.8,310.0,6.0,30.13,10.0,34.2
2021-03-29 02:00:00,37.4,19.4,47.8,310.0,6.0,30.13,10.0,34.2
2021-03-29 03:00:00,33.0,21.0,60.71,0.0,0.0,30.14,10.0,33.1
2021-03-29 04:00:00,30.9,19.9,63.31,240.0,3.0,30.14,10.0,27.43
2021-03-29 05:00:00,28.9,21.0,71.96,230.0,3.0,30.13,10.0,25.14
2021-03-29 06:00:00,28.0,21.0,74.67,0.0,0.0,30.14,10.0,28.0
2021-03-29 07:00:00,28.9,19.9,68.67,0.0,0.0,30.13,10.0,28.9
2021-03-29 08:00:00,28.9,21.9,74.76,190.0,4.0,30.12,10.0,23.8
2021-03-29 09:00:00,28.9,21.9,74.76,210.0,4.0,30.13,10.0,23.8
2021-03-29 10:00:00,30.0,21.9,71.48,200.0,5.0,30.14,10.0,24.02
2021-03-29 11:00:00,32.0,24.1,72.3,200.0,5.0,30.14,10.0,26.4
2021-03-29 12:00:00,34.0,25.0,69.28,190.0,7.0,30.13,10.0,27.22
2021-03-29 13:00:00,37.0,26.1,64.38,180.0,9.0,30.12,10.0,29.73
2021-03-29 14:00:00,44.0,27.0,50.73,190.0,13.0,30.11,10.0,37.07
2021-03-29 15:00:00,48.0,27.0,43.77,180.0,13.0,30.06,10.0,42.07
2021-03-29 16:00:00,54.0,28.9,37.89,190.0,13.0,30.03,10.0,54.0
2021-03-29 17:00:00,57.0,30.9,36.86,180.0,13.0,29.98,10.0,57.0
2021-03-29 18:00:00,61.0,33.0,34.91,200.0,15.0,29.95,10.0,61.0
2021-03-29 19:00:00,62.0,34.0,34.81,200.0,19.0,29.9,10.0,62.1
2021-03-29 20:00:00,64.0,35.0,34.02,190.0,21.0,29.86,10.0,64.0
2021-03-29 21:00:00,64.0,36.0,35.26,190.0,23.0,29.83,10.0,64.0
2021-03-29 22:00:00,63.0,37.0,37.99,190.0,19.0,29.81,10.0,63.0
2021-03-29 23:00:00,60.0,37.0,42.09,180.0,20.0,29.79,10.0,60.1
2021-03-30 00:00:00,58.0,36.0,43.78,190.0,19.0,29.77,10.0,57.9
2021-03-30 01:00:00,57.0,34.0,41.76,190.0,24.0,29.78,10.0,57.0
2021-03-30 02:00:00,56.0,34.0,43.46,190.0,23.0,29.77,10.0,55.9
2021-03-30 03:00:00,56.0,33.0,41.92,200.0,23.0,29.78,10.0,55.9
2021-03-30 04:00:00,56.0,33.0,41.92,200.0,23.0,29.78,10.0,55.9
2021-03-30 05:00:00,56.0,32.0,40.1,200.0,21.0,29.79,10.0,55.9
2021-03-30 06:00:00,55.0,33.0,43.31,210.0,20.0,29.78,10.0,55.0
2021-03-30 07:00:00,54.0,34.0,46.57,200.0,22.0,29.76,10.0,54.0
2021-03-30 08:00:00,52.0,35.0,52.36,200.0,20.0,29.74,10.0,52.0
2021-03-30 09:00:00,52.0,35.0,52.36,210.0,16.0,29.74,10.0,52.0
2021-03-30 10:00:00,51.0,36.0,56.1,210.0,14.0,29.73,10.0,51.1
2021-03-30 11:00:00,51.0,36.0,56.1,210.0,16.0,29.72,10.0,51.1
2021-03-30 12:00:00,53.0,36.0,52.11,210.0,17.0,29.72,10.0,53.1
2021-03-30 13:00:00,57.0,37.0,47.04,210.0,18.0,29.71,10.0,57.0
2021-03-30 14:00:00,60.0,38.0,43.61,230.0,23.0,29.7,10.0,60.1
2021-03-30 15:00:00,62.0,39.0,42.41,230.0,19.0,29.7,10.0,62.1
2021-03-30 16:00:00,64.0,41.0,42.88,230.0,17.0,29.7,10.0,64.0
2021-03-30 17:00:00,66.0,41.0,39.99,240.0,23.0,29.7,10.0,66.0
2021-03-30 18:00:00,67.0,42.0,40.45,250.0,18.0,29.71,10.0,66.9
2021-03-30 19:00:00,67.0,41.0,38.76,230.0,20.0,29.71,10.0,66.9
2021-03-30 20:00:00,64.0,40.0,41.09,250.0,19.0,29.73,10.0,64.0
2021-03-30 21:00:00,63.0,33.0,32.53,280.0,19.0,29.74,10.0,63.0
2021-03-30 22:00:00,58.0,25.0,28.01,290.0,14.0,29.78,10.0,57.9
2021-03-30 23:00:00,55.0,21.9,27.31,280.0,14.0,29.8,10.0,55.0
2021-03-31 00:00:00,52.0,21.0,29.35,280.0,13.0,29.84,10.0,52.0
2021-03-31 01:00:00,50.0,21.9,32.83,280.0,13.0,29.87,10.0,50.0
2021-03-31 02:00:00,48.0,21.9,35.38,270.0,12.0,29.91,10.0,42.37
2021-03-31 03:00:00,47.0,21.0,35.49,270.0,14.0,29.93,10.0,40.37
2021-03-31 04:00:00,45.0,21.9,39.62,290.0,14.0,29.94,10.0,37.92
2021-03-31 05:00:00,41.0,21.0,44.47,290.0,10.0,29.97,10.0,34.25
2021-03-31 06:00:00,40.0,21.0,46.41,290.0,10.0,30.0,10.0,32.87
2021-03-31 07:00:00,37.0,19.9,49.61,290.0,6.0,30.02,10.0,31.55
2021-03-31 08:00:00,35.0,19.9,53.49,270.0,7.0,30.02,10.0,28.56
2021-03-31 09:00:00,34.0,19.9,55.88,280.0,7.0,30.04,10.0,27.22
2021-03-31 10:00:00,33.0,19.0,55.75,280.0,7.0,30.06,10.0,26.12
2021-03-31 11:00:00,32.0,19.0,58.27,280.0,9.0,30.09,10.0,23.51
2021-03-31 12:00:00,35.0,19.0,51.47,280.0,7.0,30.1,10.0,28.56
2021-03-31 13:00:00,37.0,18.0,45.73,290.0,12.0,30.1,10.0,28.37
2021-03-31 14:00:00,39.0,19.0,44.14,300.0,7.0,30.12,10.0,33.31
2021-03-31 15:00:00,40.0,19.0,42.62,300.0,11.0,30.14,10.0,32.45
2021-03-31 16:00:00,40.0,18.0,40.82,260.0,11.0,30.16,10.0,32.45
2021-03-31 17:00:00,40.0,18.0,40.82,290.0,12.0,30.16,10.0,32.06
2021-03-31 18:00:00,40.0,17.1,39.27,300.0,11.0,30.17,10.0,32.45
2021-03-31 19:00:00,41.0,18.0,39.12,280.0,12.0,30.17,10.0,33.46
2021-03-31 20:00:00,39.0,17.1,40.67,290.0,15.0,30.18,10.0,29.85
2021-03-31 21:00:00,39.0,16.0,38.78,280.0,13.0,30.2,10.0,30.54
2021-03-31 22:00:00,39.0,16.0,38.78,290.0,7.0,30.22,10.0,33.31
2021-03-31 23:00:00,39.0,12.9,33.86,310.0,11.0,30.24,10.0,31.31
2021-04-01 00:00:00,38.0,12.9,35.35,310.0,9.0,30.26,10.0,30.85
2021-04-01 01:00:00,37.0,14.0,38.44,350.0,8.0,30.29,10.0,30.27
2021-04-01 02:00:00,36.0,12.9,38.1,330.0,10.0,30.31,10.0,27.98
2021-04-01 03:00:00,34.0,10.0,36.27,330.0,11.0,30.33,10.0,24.99
2021-04-01 04:00:00,32.0,10.9,40.92,330.0,9.0,30.34,10.0,23.51
2021-04-01 05:00:00,30.9,12.0,44.92,330.0,8.0,30.35,10.0,22.76
2021-04-01 06:00:00,30.0,12.9,48.48,360.0,7.0,30.36,10.0,22.34
2021-04-01 07:00:00,28.0,12.0,50.56,360.0,10.0,30.38,10.0,17.95
2021-04-01 08:00:00,26.1,9.0,47.83,360.0,9.0,30.39,10.0,16.18
2021-04-01 09:00:00,24.1,7.0,47.5,350.0,7.0,30.41,10.0,15.15
2021-04-01 10:00:00,23.0,7.0,49.74,340.0,6.0,30.43,10.0,14.69
2021-04-01 11:00:00,23.0,7.0,49.74,340.0,7.0,30.45,10.0,13.81
2021-04-01 12:00:00,26.1,10.0,50.02,340.0,10.0,30.47,10.0,15.57
2021-04-01 13:00:00,28.9,9.0,42.63,350.0,10.0,30.48,10.0,19.08
2021-04-01 14:00:00,30.9,9.0,39.29,350.0,11.0,30.5,10.0,21.08
2021-04-01 15:00:00,34.0,10.0,36.27,350.0,11.0,30.52,10.0,24.99
2021-04-01 16:00:00,36.0,10.0,33.5,30.0,6.0,30.53,10.0,30.35
2021-04-01 17:00:00,38.0,10.0,31.08,360.0,8.0,30.52,10.0,31.38
2021-04-01 18:00:00,40.0,14.0,34.31,50.0,9.0,30.51,10.0,33.34
2021-04-01 19:00:00,40.0,15.1,36.01,40.0,10.0,30.5,10.0,32.87
2021-04-01 20:00:00,40.0,17.1,39.27,40.0,6.0,30.49,10.0,35.04
2021-04-01 21:00:00,38.0,19.9,47.89,90.0,11.0,30.48,10.0,29.92
2021-04-01 22:00:00,37.0,19.0,47.74,40.0,10.0,30.49,10.0,29.24
2021-04-01 23:00:00,32.0,19.0,58.27,60.0,7.0,30.5,10.0,24.78
2021-04-02 00:00:00,28.0,18.0,65.69,90.0,6.0,30.5,10.0,20.71
2021-04-02 01:00:00,28.9,18.0,63.31,0.0,0.0,30.51,10.0,28.9
2021-04-02 02:00:00,27.0,18.0,68.45,0.0,0.0,30.51,10.0,27.0
2021-04-02 03:00:00,25.0,18.0,74.36,0.0,0.0,30.51,10.0,25.0
2021-04-02 04:00:00,25.0,19.0,77.62,0.0,0.0,30.51,10.0,25.0
2021-04-02 05:00:00,24.1,19.0,80.59,240.0,3.0,30.51,10.0,19.66
2021-04-02 06:00:00,25.0,19.0,77.62,230.0,3.0,30.5,10.0,20.69
2021-04-02 07:00:00,19.9,15.1,81.3,230.0,3.0,30.5,10.0,14.86
2021-04-02 08:00:00,21.9,18.0,84.68,250.0,3.0,30.5,10.0,17.14
2021-04-02 09:00:00,25.0,19.9,80.66,230.0,4.0,30.5,10.0,19.25
2021-04-02 10:00:00,26.1,21.0,80.75,220.0,4.0,30.51,10.0,20.53
2021-04-02 11:00:00,26.1,21.9,83.89,220.0,3.0,30.53,10.0,21.94
2021-04-02 12:00:00,30.9,23.0,72.18,200.0,5.0,30.53,10.0,25.09
2021-04-02 13:00:00,36.0,24.1,61.62,200.0,7.0,30.53,10.0,29.65
2021-04-02 14:00:00,41.0,16.0,35.88,210.0,8.0,30.54,10.0,35.2
2021-04-02 15:00:00,43.0,10.0,25.5,160.0,11.0,30.52,10.0,36.37
2021-04-02 16:00:00,46.0,12.0,24.86,170.0,9.0,30.5,10.0,40.92
2021-04-02 17:00:00,48.0,10.9,21.96,180.0,12.0,30.47,10.0,42.37
2021-04-02 18:00:00,48.0,17.1,28.82,160.0,11.0,30.43,10.0,42.69
2021-04-02 19:00:00,49.0,19.9,31.42,140.0,8.0,30.4,10.0,44.93
2021-04-02 20:00:00,49.0,21.0,32.93,160.0,11.0,30.36,10.0,43.82
2021-04-02 21:00:00,48.0,19.9,32.5,140.0,12.0,30.34,10.0,42.37
2021-04-02 22:00:00,47.0,21.0,35.49,140.0,11.0,30.31,10.0,41.3
2021-04-02 23:00:00,44.0,21.9,41.0,140.0,9.0,30.28,10.0,38.56
2021-04-03 00:00:00,41.0,24.1,50.67,150.0,8.0,30.26,10.0,35.2
2021-04-03 01:00:00,39.0,25.0,56.86,160.0,4.0,30.27,10.0,35.59
2021-04-03 02:00:00,40.0,24.1,52.88,180.0,4.0,30.26,10.0,36.65
2021-04-03 03:00:00,42.0,18.0,37.49,210.0,7.0,30.27,10.0,37.09
2021-04-03 04:00:00,42.0,18.0,37.49,200.0,8.0,30.25,10.0,36.55
2021-04-03 05:00:00,42.0,18.0,37.49,190.0,7.0,30.24,10.0,37.09
2021-04-03 06:00:00,41.0,19.0,40.83,190.0,9.0,30.22,10.0,34.7
2021-04-03 07:00:00,42.0,19.9,40.67,200.0,12.0,30.19,10.0,34.86
2021-04-03 08:00:00,42.0,19.9,40.67,200.0,13.0,30.16,10.0,34.51
2021-04-03 09:00:00,43.0,19.9,39.29,210.0,11.0,30.15,10.0,36.37
2021-04-03 10:00:00,44.0,21.9,41.0,210.0,16.0,30.12,10.0,36.19
2021-04-03 11:00:00,44.0,23.0,42.95,220.0,13.0,30.11,10.0,37.07
2021-04-03 12:00:00,47.0,25.0,41.99,230.0,17.0,30.1,10.0,39.59
2021-04-03 13:00:00,51.0,27.0,38.99,240.0,20.0,30.08,10.0,51.1
2021-04-03 14:00:00,55.0,28.9,36.54,240.0,21.0,30.08,10.0,55.0
2021-04-03 15:00:00,61.0,32.0,33.4,240.0,19.0,30.07,10.0,61.0
2021-04-03 16:00:00,65.0,34.0,31.55,240.0,17.0,30.06,10.0,64.9
2021-04-03 17:00:00,67.0,34.0,29.44,250.0,15.0,30.05,10.0,66.9
2021-04-03 18:00:00,68.0,35.0,29.61,270.0,17.0,30.05,10.0,68.0
2021-04-03 19:00:00,71.0,37.0,28.71,250.0,13.0,30.04,10.0,71.1
2021-04-03 20:00:00,72.0,37.0,27.85,280.0,14.0,30.04,10.0,72.0
2021-04-03 21:00:00,71.0,36.0,27.6,270.0,12.0,30.04,10.0,71.1
2021-04-03 22:00:00,70.0,37.0,29.81,260.0,10.0,30.05,10.0,70.0
2021-04-03 23:00:00,65.0,37.0,35.54,260.0,5.0,30.07,10.0,64.9
2021-04-04 00:00:00,54.0,35.0,48.65,60.0,6.0,30.09,10.0,54.0
2021-04-04 01:00:00,46.0,34.0,62.71,30.0,3.0,30.12,10.0,44.69
2021-04-04 02:00:00,49.0,34.0,56.23,0.0,0.0,30.13,10.0,48.9
2021-04-04 03:00:00,47.0,35.0,63.33,0.0,0.0,30.13,10.0,46.9
2021-04-04 04:00:00,45.0,33.0,62.83,0.0,0.0,30.13,10.0,45.0
2021-04-04 05:00:00,43.0,34.0,70.3,250.0,3.0,30.13,10.0,41.26
2021-04-04 06:00:00,41.0,33.0,73.25,230.0,3.0,30.13,10.0,38.98
2021-04-04 07:00:00,41.0,32.0,70.08,250.0,4.0,30.12,10.0,37.93
2021-04-04 08:00:00,40.0,32.0,73.14,240.0,3.0,30.12,10.0,37.72
2021-04-04 09:00:00,40.0,32.0,73.14,300.0,4.0,30.14,10.0,36.65
2021-04-04 10:00:00,45.0,34.0,65.13,10.0,5.0,30.16,10.0,41.83
2021-04-04 11:00:00,39.0,32.0,75.75,50.0,4.0,30.17,9.0,35.59
2021-04-04 12:00:00,45.0,37.0,73.37,70.0,3.0,30.17,10.0,43.55
2021-04-04 13:00:00,51.0,39.0,63.12,90.0,6.0,30.19,10.0,51.1
2021-04-04 14:00:00,57.0,38.0,48.73,130.0,8.0,30.19,10.0,57.0
2021-04-04 15:00:00,63.0,38.0,39.36,130.0,9.0,30.18,10.0,63.0
2021-04-04 16:00:00,66.0,39.0,37.0,150.0,7.0,30.16,10.0,66.0
2021-04-04 17:00:00,71.0,39.0,31.05,170.0,12.0,30.13,10.0,71.1
2021-04-04 18:00:00,72.0,39.0,30.12,120.0,12.0,30.11,10.0,72.0
2021-04-04 19:00:00,72.0,39.0,30.12,150.0,11.0,30.09,10.0,72.0
2021-04-04 20:00:00,71.0,38.0,29.74,140.0,13.0,30.06,10.0,71.1
2021-04-04 21:00:00,70.0,37.0,29.81,150.0,15.0,30.03,10.0,70.0
2021-04-04 22:00:00,68.0,38.0,33.07,150.0,10.0,30.01,10.0,68.0
2021-04-04 23:00:00,65.0,37.0,35.54,150.0,14.0,30.0,10.0,64.9
2021-04-05 00:00:00,63.0,36.0,36.52,150.0,10.0,30.0,10.0,63.0
2021-04-05 01:00:00,60.0,37.0,42.09,160.0,10.0,30.01,10.0,60.1
2021-04-05 02:00:00,55.0,36.0,48.62,0.0,0.0,30.01,10.0,55.0
2021-04-05 03:00:00,55.0,38.0,52.4,180.0,5.0,29.99,10.0,55.0
2021-04-05 04:00:00,56.0,38.0,50.71,180.0,4.0,29.98,10.0,55.9
2021-04-05 05:00:00,57.0,39.0,50.88,190.0,5.0,29.96,10.0,57.0
2021-04-05 06:00:00,59.0,40.0,49.04,210.0,7.0,29.94,10.0,59.0
2021-04-05 07:00:00,63.0,44.0,50.03,210.0,10.0,29.93,10.0,63.0
2021-04-05 08:00:00,64.0,49.0,57.91,230.0,9.0,29.92,10.0,64.0
2021-04-05 09:00:00,62.0,49.0,61.91,240.0,10.0,29.92,10.0,62.1
2021-04-05 10:00:00,62.0,48.0,59.86,230.0,9.0,29.91,10.0,62.1
2021-04-05 11:00:00,63.0,48.0,57.99,230.0,9.0,29.89,10.0,63.0
2021-04-05 12:00:00,66.0,51.0,58.62,240.0,10.0,29.89,10.0,66.0
2021-04-05 13:00:00,71.0,50.0,47.23,250.0,16.0,29.9,10.0,71.1
2021-04-05 14:00:00,62.0,47.0,57.43,90.0,9.0,29.93,10.0,62.1
2021-04-05 15:00:00,62.0,47.0,57.43,120.0,5.0,29.94,10.0,62.1
2021-04-05 16:00:00,64.0,48.0,55.99,110.0,5.0,29.93,10.0,64.0
2021-04-05 17:00:00,68.0,49.0,50.4,130.0,7.0,29.91,10.0,68.0
2021-04-05 18:00:00,70.0,52.0,52.8,180.0,9.0,29.92,10.0,70.0
2021-04-05 19:00:00,71.0,52.0,50.86,170.0,10.0,29.88,10.0,71.1
2021-04-05 20:00:00,74.0,54.0,49.79,200.0,12.0,29.86,10.0,73.9
2021-04-05 21:00:00,74.0,54.0,49.79,180.0,10.0,29.84,10.0,73.9
2021-04-05 22:00:00,75.0,54.0,47.99,190.0,11.0,29.84,10.0,75.0
2021-04-05 23:00:00,70.0,53.0,54.98,150.0,8.0,29.84,10.0,70.0
2021-04-06 00:00:00,62.0,50.0,64.5,160.0,5.0,29.85,10.0,62.1
2021-04-06 01:00:00,63.0,50.0,62.49,160.0,7.0,29.84,10.0,63.0
2021-04-06 02:00:00,64.0,49.0,57.91,190.0,6.0,29.85,10.0,64.0
2021-04-06 03:00:00,66.0,49.0,54.01,170.0,8.0,29.85,10.0,66.0
2021-04-06 04:00:00,64.0,48.0,55.99,180.0,8.0,29.84,10.0,64.0
2021-04-06 05:00:00,65.0,47.0,52.06,200.0,10.0,29.84,10.0,64.9
2021-04-06 06:00:00,66.0,47.0,50.1,210.0,10.0,29.84,10.0,66.0
2021-04-06 07:00:00,65.0,48.0,54.26,210.0,10.0,29.83,10.0,64.9
2021-04-06 08:00:00,64.0,47.0,53.72,220.0,9.0,29.83,10.0,64.0
2021-04-06 09:00:00,62.0,48.0,59.86,220.0,7.0,29.84,10.0,62.1
2021-04-06 10:00:00,59.0,47.0,64.12,210.0,6.0,29.85,10.0,59.0
2021-04-06 11:00:00,60.0,48.0,64.26,200.0,8.0,29.86,10.0,60.1
2021-04-06 12:00:00,62.0,49.0,61.91,200.0,10.0,29.86,10.0,62.1
2021-04-06 13:00:00,67.0,50.0,54.54,210.0,11.0,29.85,10.0,66.9
2021-04-06 14:00:00,73.0,52.0,47.69,240.0,13.0,29.85,10.0,73.0
2021-04-06 15:00:00,77.0,53.0,43.44,250.0,16.0,29.85,10.0,77.0
2021-04-06 16:00:00,78.0,53.0,41.89,210.0,16.0,29.83,10.0,78.1
2021-04-06 17:00:00,78.0,54.0,43.3,250.0,13.0,29.84,10.0,78.1
2021-04-06 18:00:00,79.0,53.0,40.67,220.0,14.0,29.83,10.0,79.0
2021-04-06 19:00:00,79.0,52.0,39.06,240.0,12.0,29.83,10.0,79.0
2021-04-06 20:00:00,80.0,51.0,36.44,220.0,13.0,29.82,10.0,79.72
2021-04-06 21:00:00,80.0,51.0,36.44,220.0,11.0,29.81,10.0,79.72
2021-04-06 22:00:00,80.0,50.0,34.98,210.0,10.0,29.81,10.0,79.6
2021-04-06 23:00:00,70.0,50.0,49.03,140.0,6.0,29.81,10.0,70.0
2021-04-07 00:00:00,67.0,49.0,52.35,140.0,3.0,29.8,10.0,66.9
2021-04-07 01:00:00,61.0,49.0,64.37,0.0,0.0,29.82,10.0,61.0
2021-04-07 02:00:00,62.0,49.0,61.91,170.0,3.0,29.83,10.0,62.1
2021-04-07 03:00:00,61.0,49.0,64.37,190.0,4.0,29.84,10.0,61.0
2021-04-07 04:00:00,61.0,50.0,67.06,170.0,6.0,29.85,10.0,61.0
2021-04-07 05:00:00,64.0,50.0,60.34,190.0,5.0,29.84,10.0,64.0
2021-04-07 06:00:00,62.0,50.0,64.5,190.0,5.0,29.85,10.0,62.1
2021-04-07 07:00:00,62.0,50.0,64.5,190.0,4.0,29.84,10.0,62.1
2021-04-07 08:00:00,62.0,50.0,64.5,190.0,3.0,29.84,10.0,62.1
2021-04-07 09:00:00,59.0,48.0,66.83,170.0,4.0,29.83,10.0,59.0
2021-04-07 10:00:00,54.0,46.0,74.26,120.0,3.0,29.82,10.0,54.0
2021-04-07 11:00:00,59.0,48.0,66.83,180.0,7.0,29.82,10.0,59.0
2021-04-07 12:00:00,61.0,49.0,64.37,180.0,7.0,29.83,10.0,61.0
2021-04-07 13:00:00,66.0,50.0,56.27,190.0,11.0,29.83,10.0,66.0
2021-04-07 14:00:00,69.0,53.0,56.7,160.0,7.0,29.81,10.0,69.1
2021-04-07 15:00:00,73.0,53.0,49.66,110.0,8.0,29.81,10.0,73.0
2021-04-07 16:00:00,76.0,54.0,46.57,160.0,9.0,29.81,10.0,75.9
2021-04-07 17:00:00,76.0,54.0,46.57,140.0,10.0,29.79,10.0,75.9
2021-04-07 18:00:00,76.0,56.0,49.91,110.0,10.0,29.77,10.0,75.9
2021-04-07 19:00:00,76.0,55.0,48.3,120.0,12.0,29.74,10.0,75.9
2021-04-07 20:00:00,70.0,54.0,56.82,110.0,11.0,29.72,10.0,70.0
2021-04-07 21:00:00,63.0,57.0,80.76,30.0,6.0,29.71,10.0,63.0
2021-04-07 22:00:00,62.0,57.0,83.36,0.0,0.0,29.71,10.0,62.1
2021-04-07 23:00:00,62.0,55.0,77.53,150.0,3.0,29.69,10.0,62.1
2021-04-08 00:00:00,57.0,53.0,86.77,50.0,5.0,29.69,10.0,57.0
2021-04-08 01:00:00,53.0,49.0,85.59,70.0,3.0,29.71,10.0,53.1
2021-04-08 02:00:00,54.0,49.0,82.82,80.0,5.0,29.7,10.0,54.0
2021-04-08 03:00:00,61.0,52.0,72.22,140.0,10.0,29.68,10.0,61.0
2021-04-08 04:00:00,62.0,54.0,74.75,130.0,9.0,29.66,10.0,62.1
2021-04-08 05:00:00,61.0,53.0,75.2,150.0,7.0,29.65,10.0,61.0
2021-04-08 06:00:00,56.0,51.0,83.88,100.0,3.0,29.64,10.0,55.9
2021-04-08 07:00:00,61.0,53.0,75.2,140.0,7.0,29.62,10.0,61.0
2021-04-08 08:00:00,59.0,52.0,77.55,150.0,8.0,29.61,10.0,59.0
2021-04-08 09:00:00,60.0,52.0,74.57,140.0,7.0,29.6,10.0,60.1
2021-04-08 10:00:00,54.0,49.0,82.82,130.0,8.0,29.59,10.0,54.0
2021-04-08 11:00:00,57.0,51.0,80.6,140.0,9.0,29.59,10.0,57.0
2021-04-08 12:00:00,57.0,53.0,86.77,150.0,8.0,29.59,9.0,57.0
2021-04-08 13:00:00,59.0,55.0,86.56,140.0,8.0,29.59,7.0,59.0
2021-04-08 14:00:00,59.0,56.0,89.44,140.0,8.0,29.59,6.0,59.0
2021-04-08 15:00:00,61.0,57.0,86.67,140.0,11.0,29.59,10.0,61.0
2021-04-08 16:00:00,56.0,52.0,86.71,240.0,9.0,29.59,4.0,55.9
2021-04-08 17:00:00,56.0,52.0,86.71,240.0,8.0,29.59,10.0,55.9
2021-04-08 18:00:00,56.0,51.0,83.88,0.0,0.0,29.57,2.0,55.9
2021-04-08 19:00:00,57.0,52.0,83.33,130.0,5.0,29.55,10.0,57.0
2021-04-08 20:00:00,58.0,52.0,80.67,130.0,4.0,29.52,10.0,57.9
2021-04-08 21:00:00,57.0,54.0,89.68,100.0,3.0,29.52,2.0,57.0
2021-04-08 22:00:00,56.0,53.0,90.29,140.0,7.0,29.53,8.0,55.9
2021-04-08 23:00:00,55.0,52.0,89.59,130.0,8.0,29.54,10.0,55.0
2021-04-09 00:00:00,54.0,49.0,82.82,210.0,14.0,29.57,10.0,54.0
2021-04-09 01:00:00,52.0,46.0,79.92,200.0,9.0,29.59,10.0,52.0
2021-04-09 02:00:00,50.0,45.0,82.86,190.0,7.0,29.59,10.0,50.0
2021-04-09 03:00:00,51.0,46.0,82.62,180.0,11.0,29.59,10.0,51.1
2021-04-09 04:00:00,52.0,46.0,79.92,160.0,8.0,29.58,10.0,52.0
2021-04-09 05:00:00,52.0,46.0,79.92,170.0,10.0,29.58,10.0,52.0
2021-04-09 06:00:00,52.0,46.0,79.92,140.0,6.0,29.57,10.0,52.0
2021-04-09 07:00:00,50.0,45.0,82.86,130.0,6.0,29.56,10.0,50.0
2021-04-09 08:00:00,50.0,46.0,86.06,150.0,7.0,29.56,10.0,50.0
2021-04-09 09:00:00,51.0,47.0,85.48,160.0,7.0,29.56,9.0,51.1
2021-04-09 10:00:00,51.0,47.0,85.48,160.0,6.0,29.56,10.0,51.1
2021-04-09 11:00:00,51.0,48.0,89.09,180.0,8.0,29.57,10.0,51.1
2021-04-09 12:00:00,52.0,48.0,86.17,200.0,9.0,29.57,9.0,52.0
2021-04-09 13:00:00,54.0,47.0,76.83,190.0,13.0,29.58,10.0,54.0
2021-04-09 14:00:00,55.0,48.0,77.21,220.0,10.0,29.59,10.0,55.0
2021-04-09 15:00:00,55.0,50.0,83.2,200.0,9.0,29.59,7.0,55.0
2021-04-09 16:00:00,56.0,48.0,74.72,210.0,17.0,29.59,10.0,55.9
2021-04-09 17:00:00,55.0,48.0,77.21,240.0,12.0,29.61,10.0,55.0
2021-04-09 18:00:00,57.0,48.0,71.81,220.0,11.0,29.62,10.0,57.0
2021-04-09 19:00:00,57.0,48.0,71.81,230.0,9.0,29.63,10.0,57.0
2021-04-09 20:00:00,58.0,48.0,69.52,210.0,12.0,29.63,10.0,57.9
2021-04-09 21:00:00,59.0,49.0,69.12,240.0,12.0,29.65,10.0,59.0
2021-04-09 22:00:00,60.0,48.0,64.26,260.0,11.0,29.66,10.0,60.1
2021-04-09 23:00:00,58.0,48.0,69.52,240.0,9.0,29.68,10.0,57.9
2021-04-10 00:00:00,57.0,47.0,68.9,240.0,6.0,29.69,10.0,57.0
2021-04-10 01:00:00,58.0,48.0,69.52,220.0,7.0,29.72,10.0,57.9
2021-04-10 02:00:00,57.0,48.0,71.81,220.0,7.0,29.75,10.0,57.0
2021-04-10 03:00:00,54.0,47.0,76.83,230.0,8.0,29.73,10.0,54.0
2021-04-10 04:00:00,52.0,47.0,82.68,250.0,6.0,29.72,10.0,52.0
2021-04-10 05:00:00,51.0,47.0,85.48,270.0,4.0,29.71,10.0,51.1
2021-04-10 06:00:00,54.0,48.0,80.07,220.0,5.0,29.73,10.0,54.0
2021-04-10 07:00:00,54.0,49.0,82.82,230.0,5.0,29.73,10.0,54.0
2021-04-10 08:00:00,54.0,47.0,76.83,190.0,4.0,29.71,10.0,54.0
2021-04-10 09:00:00,54.0,47.0,76.83,280.0,4.0,29.7,10.0,54.0
2021-04-10 10:00:00,53.0,46.0,76.75,0.0,0.0,29.7,10.0,53.1
2021-04-10 11:00:00,53.0,47.0,79.4,0.0,0.0,29.7,10.0,53.1
2021-04-10 12:00:00,54.0,48.0,80.07,70.0,3.0,29.7,10.0,54.0
2021-04-10 13:00:00,55.0,48.0,77.21,50.0,7.0,29.67,10.0,55.0
2021-04-10 14:00:00,53.0,48.0,82.76,100.0,5.0,29.68,7.0,53.1
2021-04-10 15:00:00,53.0,48.0,82.76,50.0,12.0,29.64,7.0,53.1
2021-04-10 16:00:00,54.0,49.0,82.82,50.0,12.0,29.61,10.0,54.0
2021-04-10 17:00:00,55.0,49.0,79.85,50.0,15.0,29.56,10.0,55.0
2021-04-10 18:00:00,56.0,48.0,74.72,40.0,15.0,29.53,10.0,55.9
2021-04-10 19:00:00,54.0,48.0,80.07,40.0,10.0,29.51,9.0,54.0
2021-04-10 20:00:00,52.0,48.0,86.17,40.0,13.0,29.48,4.0,52.0
2021-04-10 21:00:00,50.0,47.0,89.04,30.0,14.0,29.44,5.0,50.0
2021-04-10 22:00:00,50.0,47.0,89.04,20.0,14.0,29.4,5.0,50.0
2021-04-10 23:00:00,49.0,46.0,89.67,20.0,14.0,29.38,7.0,42.95
2021-04-11 00:00:00,48.0,46.0,92.74,20.0,11.0,29.35,4.0,42.69
2021-04-11 01:00:00,50.0,48.0,92.8,20.0,8.0,29.34,4.0,50.0
2021-04-11 02:00:00,49.0,47.0,92.77,340.0,6.0,29.32,10.0,45.88
2021-04-11 03:00:00,49.0,46.0,89.67,280.0,4.0,29.32,3.0,47.16
2021-04-11 04:00:00,49.0,47.0,92.77,290.0,3.0,29.31,0.75,48.01
2021-04-11 05:00:00,49.0,47.0,92.77,170.0,5.0,29.31,1.25,46.47
2021-04-11 06:00:00,49.0,47.0,92.77,170.0,5.0,29.31,1.25,46.47
2021-04-11 07:00:00,48.0,45.0,89.29,170.0,7.0,29.3,10.0,44.28
2021-04-11 08:00:00,47.0,43.0,86.21,170.0,7.0,29.3,10.0,42.94
2021-04-11 09:00:00,44.0,40.0,85.06,150.0,3.0,29.31,10.0,42.52
2021-04-11 10:00:00,44.0,41.0,88.77,120.0,3.0,29.31,10.0,42.52
2021-04-11 11:00:00,43.0,41.0,92.58,180.0,3.0,29.32,8.0,41.26
2021-04-11 12:00:00,47.0,43.0,86.21,50.0,3.0,29.34,10.0,45.72
2021-04-11 13:00:00,48.0,44.0,86.28,80.0,5.0,29.34,10.0,45.4
2021-04-11 14:00:00,51.0,45.0,79.54,100.0,5.0,29.35,10.0,51.1
2021-04-11 15:00:00,53.0,45.0,73.89,90.0,8.0,29.37,10.0,53.1
2021-04-11 16:00:00,53.0,44.0,71.4,90.0,8.0,29.38,10.0,53.1
2021-04-11 17:00:00,56.0,45.0,66.72,80.0,9.0,29.39,10.0,55.9
2021-04-11 18:00:00,55.0,42.0,61.69,80.0,4.0,29.39,10.0,55.0
2021-04-11 19:00:00,55.0,43.0,63.86,80.0,8.0,29.41,10.0,55.0
2021-04-11 20:00:00,54.0,43.0,66.24,80.0,7.0,29.43,10.0,54.0
2021-04-11 21:00:00,55.0,42.0,61.69,90.0,3.0,29.45,10.0,55.0
2021-04-11 22:00:00,54.0,42.0,63.98,100.0,5.0,29.46,10.0,54.0
2021-04-11 23:00:00,53.0,41.0,63.38,120.0,6.0,29.47,10.0,53.1
2021-04-12 00:00:00,48.0,40.0,73.38,110.0,4.0,29.5,10.0,46.1
2021-04-12 01:00:00,47.0,40.0,76.48,170.0,3.0,29.53,10.0,45.72
2021-04-12 02:00:00,46.0,41.0,82.58,180.0,4.0,29.55,10.0,43.77
2021-04-12 03:00:00,47.0,42.0,83.28,150.0,3.0,29.56,10.0,45.72
2021-04-12 04:00:00,48.0,43.0,82.72,210.0,4.0,29.56,10.0,46.1
2021-04-12 05:00:00,48.0,44.0,86.28,200.0,3.0,29.56,10.0,46.98
2021-04-12 06:00:00,48.0,44.0,86.28,250.0,4.0,29.58,9.0,46.1
2021-04-12 07:00:00,51.0,47.0,85.48,290.0,4.0,29.6,10.0,51.1
2021-04-12 08:00:00,51.0,48.0,89.09,300.0,5.0,29.61,9.0,51.1
2021-04-12 09:00:00,51.0,48.0,89.09,280.0,5.0,29.62,10.0,51.1
2021-04-12 10:00:00,50.0,48.0,92.8,310.0,4.0,29.65,10.0,50.0
2021-04-12 11:00:00,50.0,48.0,92.8,270.0,6.0,29.67,5.0,50.0
2021-04-12 12:00:00,51.0,48.0,89.09,260.0,7.0,29.69,3.0,51.1
2021-04-12 13:00:00,53.0,49.0,85.59,260.0,6.0,29.69,4.0,53.1
2021-04-12 14:00:00,53.0,48.0,82.76,270.0,8.0,29.72,10.0,53.1
2021-04-12 15:00:00,57.0,47.0,68.9,280.0,14.0,29.72,10.0,57.0
2021-04-12 16:00:00,60.0,46.0,59.59,280.0,14.0,29.74,10.0,60.1
2021-04-12 17:00:00,62.0,45.0,53.45,270.0,16.0,29.74,10.0,62.1
2021-04-12 18:00:00,65.0,45.0,48.44,250.0,17.0,29.75,10.0,64.9
2021-04-12 19:00:00,61.0,42.0,49.73,270.0,15.0,29.78,10.0,61.0
2021-04-12 20:00:00,59.0,40.0,49.04,270.0,16.0,29.79,10.0,59.0
2021-04-12 21:00:00,60.0,41.0,49.21,270.0,13.0,29.81,10.0,60.1
2021-04-12 22:00:00,58.0,37.0,45.54,270.0,16.0,29.83,10.0,57.9
2021-04-12 23:00:00,55.0,36.0,48.62,280.0,10.0,29.86,10.0,55.0
2021-04-13 00:00:00,51.0,36.0,56.1,280.0,8.0,29.88,10.0,51.1
2021-04-13 01:00:00,49.0,36.0,60.88,270.0,6.0,29.92,10.0,45.88
2021-04-13 02:00:00,49.0,35.0,58.75,220.0,5.0,29.93,10.0,46.47
2021-04-13 03:00:00,48.0,35.0,60.76,220.0,4.0,29.94,10.0,46.1
2021-04-13 04:00:00,44.0,35.0,70.43,220.0,5.0,29.95,10.0,40.77
2021-04-13 05:00:00,45.0,35.0,68.05,230.0,8.0,29.95,10.0,40.13
2021-04-13 06:00:00,44.0,34.0,67.41,230.0,6.0,29.96,10.0,40.1
2021-04-13 07:00:00,42.0,33.0,70.2,240.0,7.0,29.96,10.0,37.09
2021-04-13 08:00:00,43.0,34.0,70.3,220.0,4.0,29.97,10.0,40.27
2021-04-13 09:00:00,41.0,33.0,73.25,230.0,7.0,29.98,10.0,35.75
2021-04-13 10:00:00,40.0,32.0,73.14,250.0,8.0,30.0,10.0,33.84
2021-04-13 11:00:00,41.0,33.0,73.25,250.0,9.0,30.02,10.0,34.7
2021-04-13 12:00:00,44.0,35.0,70.43,260.0,13.0,30.03,10.0,37.07
2021-04-13 13:00:00,47.0,36.0,65.63,270.0,16.0,30.03,10.0,39.84
2021-04-13 14:00:00,47.0,34.0,60.61,270.0,15.0,30.05,10.0,40.1
2021-04-13 15:00:00,48.0,35.0,60.76,260.0,14.0,30.06,10.0,41.79
2021-04-13 16:00:00,50.0,35.0,56.39,240.0,16.0,30.07,10.0,50.0
2021-04-13 17:00:00,50.0,33.0,52.06,260.0,17.0,30.07,10.0,50.0
2021-04-13 18:00:00,49.0,33.0,54.24,270.0,16.0,30.07,10.0,42.45
2021-04-13 19:00:00,52.0,32.0,46.25,250.0,17.0,30.07,10.0,52.0
2021-04-13 20:00:00,52.0,32.0,46.25,270.0,14.0,30.07,10.0,52.0
2021-04-13 21:00:00,51.0,30.9,45.73,270.0,13.0,30.07,10.0,51.1
2021-04-13 22:00:00,50.0,30.0,45.93,280.0,10.0,30.07,10.0,50.0
2021-04-13 23:00:00,50.0,30.0,45.93,250.0,9.0,30.07,10.0,50.0
2021-04-14 00:00:00,46.0,30.0,53.37,240.0,5.0,30.08,10.0,43.02
2021-04-14 01:00:00,47.0,30.0,51.58,220.0,3.0,30.09,10.0,45.72
2021-04-14 02:00:00,47.0,32.0,55.94,220.0,5.0,30.09,10.0,44.09
2021-04-14 03:00:00,45.0,30.0,55.43,300.0,9.0,30.11,10.0,39.68
2021-04-14 04:00:00,44.0,28.9,54.85,290.0,7.0,30.11,10.0,39.53
2021-04-14 05:00:00,41.0,25.0,52.61,280.0,7.0,30.11,10.0,35.75
2021-04-14 06:00:00,38.0,25.0,59.36,260.0,8.0,30.11,10.0,31.38
2021-04-14 07:00:00,35.0,24.1,63.86,250.0,7.0,30.11,10.0,28.56
2021-04-14 08:00:00,35.0,24.1,63.86,270.0,6.0,30.09,10.0,29.26
2021-04-14 09:00:00,33.0,24.1,69.17,270.0,6.0,30.09,10.0,26.86
2021-04-14 10:00:00,32.0,24.1,72.3,270.0,5.0,30.1,10.0,26.4
2021-04-14 11:00:00,33.0,25.0,71.82,250.0,5.0,30.1,10.0,27.7
2021-04-14 12:00:00,38.0,26.1,62.14,270.0,9.0,30.11,10.0,30.85
2021-04-14 13:00:00,42.0,26.1,52.78,270.0,10.0,30.1,10.0,35.63
2021-04-14 14:00:00,43.0,27.0,52.91,270.0,14.0,30.1,10.0,35.34
2021-04-14 15:00:00,42.0,26.1,52.78,280.0,13.0,30.1,10.0,34.51
2021-04-14 16:00:00,43.0,26.1,50.98,280.0,11.0,30.09,10.0,36.37
2021-04-14 17:00:00,43.0,26.1,50.98,300.0,12.0,30.08,10.0,36.0
2021-04-14 18:00:00,44.0,27.0,50.73,310.0,8.0,30.07,10.0,39.02
2021-04-14 19:00:00,46.0,27.0,47.2,290.0,12.0,30.05,10.0,39.82
2021-04-14 20:00:00,44.0,28.0,52.86,330.0,10.0,30.05,10.0,38.14
2021-04-14 21:00:00,43.0,27.0,52.91,320.0,9.0,30.06,10.0,37.19
2021-04-14 22:00:00,42.0,27.0,54.78,320.0,10.0,30.06,10.0,35.63
2021-04-14 23:00:00,42.0,27.0,54.78,320.0,7.0,30.06,10.0,37.09
2021-04-15 00:00:00,41.0,27.0,57.15,300.0,7.0,30.06,10.0,35.75
2021-04-15 01:00:00,41.0,27.0,57.15,290.0,6.0,30.07,10.0,36.37
2021-04-15 02:00:00,40.0,28.0,62.15,290.0,7.0,30.06,10.0,34.41
2021-04-15 03:00:00,36.0,27.0,69.51,270.0,5.0,30.04,10.0,31.15
2021-04-15 04:00:00,35.0,27.0,72.04,270.0,5.0,30.02,10.0,30.08
2021-04-15 05:00:00,37.0,30.0,75.56,280.0,8.0,30.01,10.0,30.27
2021-04-15 06:00:00,39.0,30.9,72.45,280.0,8.0,30.0,10.0,32.74
2021-04-15 07:00:00,39.0,30.9,72.45,290.0,7.0,29.99,10.0,33.31
2021-04-15 08:00:00,40.0,30.9,69.96,320.0,9.0,29.99,10.0,33.34
2021-04-15 09:00:00,40.0,30.9,69.96,320.0,6.0,30.01,10.0,35.04
2021-04-15 10:00:00,40.0,32.0,73.14,310.0,9.0,30.01,10.0,33.34
2021-04-15 11:00:00,40.0,33.0,76.44,320.0,8.0,30.02,10.0,33.84
2021-04-15 12:00:00,41.0,33.0,73.25,310.0,10.0,30.03,10.0,34.25
2021-04-15 13:00:00,45.0,33.0,62.83,320.0,13.0,30.02,10.0,38.22
2021-04-15 14:00:00,47.0,33.0,58.47,330.0,13.0,30.03,10.0,40.66
2021-04-15 15:00:00,50.0,35.0,56.39,340.0,7.0,30.02,10.0,50.0
2021-04-15 16:00:00,51.0,34.0,51.81,360.0,8.0,30.02,10.0,51.1
2021-04-15 17:00:00,52.0,33.0,48.34,330.0,11.0,30.01,10.0,52.0
2021-04-15 18:00:00,51.0,34.0,51.81,340.0,10.0,30.01,10.0,51.1
2021-04-15 19:00:00,53.0,34.0,48.13,330.0,11.0,30.01,10.0,53.1
2021-04-15 20:00:00,52.0,33.0,48.34,330.0,9.0,30.01,10.0,52.0
2021-04-15 21:00:00,51.0,33.0,49.98,350.0,9.0,30.0,10.0,51.1
2021-04-15 22:00:00,50.0,33.0,52.06,310.0,9.0,30.01,10.0,50.0
2021-04-15 23:00:00,49.0,33.0,54.24,320.0,9.0,30.01,10.0,44.53
2021-04-16 00:00:00,48.0,33.0,56.1,320.0,7.0,30.02,10.0,44.28
2021-04-16 01:00:00,48.0,33.0,56.1,310.0,7.0,30.02,10.0,44.28
2021-04-16 02:00:00,43.0,32.0,64.88,270.0,5.0,30.02,10.0,39.46
2021-04-16 03:00:00,41.0,33.0,73.25,270.0,5.0,30.01,10.0,37.08
2021-04-16 04:00:00,45.0,34.0,65.13,280.0,6.0,30.02,10.0,41.19
2021-04-16 05:00:00,45.0,35.0,68.05,280.0,8.0,30.02,10.0,40.13
2021-04-16 06:00:00,45.0,35.0,68.05,290.0,6.0,30.01,10.0,41.19
2021-04-16 07:00:00,43.0,34.0,70.3,320.0,5.0,30.0,10.0,39.46
2021-04-16 08:00:00,38.0,33.0,82.66,30.0,5.0,30.01,10.0,33.4
2021-04-16 09:00:00,36.0,32.0,85.23,0.0,0.0,30.0,10.0,36.0
2021-04-16 10:00:00,36.0,30.9,81.53,0.0,0.0,30.0,10.0,36.0
2021-04-16 11:00:00,37.0,34.0,88.78,10.0,4.0,30.02,10.0,33.26
2021-04-16 12:00:00,38.0,36.0,92.78,360.0,3.0,30.02,9.0,35.43
2021-04-16 13:00:00,43.0,36.0,76.12,330.0,5.0,30.02,10.0,39.46
2021-04-16 14:00:00,47.0,37.0,68.27,340.0,3.0,30.02,10.0,45.72
2021-04-16 15:00:00,48.0,37.0,65.51,280.0,6.0,30.0,10.0,44.8
2021-04-16 16:00:00,52.0,36.0,54.26,300.0,8.0,29.98,10.0,52.0
2021-04-16 17:00:00,50.0,38.0,62.98,90.0,10.0,29.96,10.0,50.0
2021-04-16 18:00:00,50.0,38.0,62.98,100.0,8.0,29.96,10.0,50.0
2021-04-16 19:00:00,48.0,37.0,65.51,90.0,8.0,29.96,10.0,43.82
2021-04-16 20:00:00,46.0,36.0,67.9,80.0,9.0,29.97,10.0,40.92
2021-04-16 21:00:00,45.0,36.0,70.53,80.0,8.0,29.97,10.0,40.13
2021-04-16 22:00:00,44.0,35.0,70.43,80.0,9.0,29.97,10.0,38.56
2021-04-16 23:00:00,41.0,34.0,75.94,90.0,7.0,29.97,10.0,35.75
2021-04-17 00:00:00,38.0,32.0,79.08,110.0,3.0,29.97,10.0,35.43
2021-04-17 01:00:00,37.0,32.0,81.93,0.0,0.0,29.99,10.0,37.0
2021-04-17 02:00:00,35.0,30.9,84.49,0.0,0.0,29.98,10.0,35.1
2021-04-17 03:00:00,33.0,30.0,88.23,0.0,0.0,29.97,10.0,33.1
2021-04-17 04:00:00,33.0,30.0,88.23,0.0,0.0,29.97,10.0,33.1
2021-04-17 05:00:00,35.0,30.9,84.49,0.0,0.0,29.97,10.0,35.1
2021-04-17 06:00:00,36.0,30.9,81.53,340.0,4.0,29.96,10.0,32.09
2021-04-17 07:00:00,36.0,30.9,81.53,350.0,5.0,29.95,10.0,31.15
2021-04-17 08:00:00,35.0,30.0,81.46,360.0,4.0,29.95,10.0,31.04
2021-04-17 09:00:00,35.0,30.9,84.49,340.0,5.0,29.95,10.0,30.08
2021-04-17 10:00:00,35.0,30.9,84.49,360.0,4.0,29.95,10.0,31.04
2021-04-17 11:00:00,37.0,33.0,85.64,350.0,4.0,29.97,10.0,33.26
2021-04-17 12:00:00,42.0,35.0,76.04,360.0,7.0,29.97,10.0,37.09
2021-04-17 13:00:00,46.0,36.0,67.9,30.0,7.0,29.97,10.0,41.84
2021-04-17 14:00:00,49.0,34.0,56.23,30.0,8.0,29.97,10.0,44.93
2021-04-17 15:00:00,53.0,32.0,44.42,30.0,8.0,29.97,10.0,53.1
2021-04-17 16:00:00,54.0,32.0,42.98,60.0,9.0,29.97,10.0,54.0
2021-04-17 17:00:00,53.0,30.9,42.48,60.0,8.0,29.96,10.0,53.1
2021-04-17 18:00:00,53.0,30.9,42.48,80.0,11.0,29.95,10.0,53.1
2021-04-17 19:00:00,52.0,30.9,44.24,100.0,8.0,29.95,10.0,52.0
2021-04-17 20:00:00,51.0,27.0,38.99,80.0,10.0,29.94,10.0,51.1
2021-04-17 21:00:00,51.0,26.1,37.57,80.0,10.0,29.94,10.0,51.1
2021-04-17 22:00:00,50.0,25.0,37.39,80.0,8.0,29.95,10.0,50.0
2021-04-17 23:00:00,44.0,25.0,46.7,70.0,7.0,29.95,10.0,39.53
2021-04-18 00:00:00,41.0,26.1,55.07,100.0,3.0,29.96,10.0,38.98
2021-04-18 01:00:00,39.0,26.1,59.52,0.0,0.0,29.97,10.0,39.0
2021-04-18 02:00:00,39.0,27.0,61.78,0.0,0.0,29.96,10.0,39.0
2021-04-18 03:00:00,37.0,26.1,64.38,0.0,0.0,29.96,10.0,37.0
2021-04-18 04:00:00,38.0,26.1,62.14,250.0,3.0,29.95,10.0,35.43
2021-04-18 05:00:00,36.0,26.1,66.97,260.0,3.0,29.94,10.0,33.26
2021-04-18 06:00:00,35.0,26.1,69.41,250.0,3.0,29.94,10.0,32.23
2021-04-18 07:00:00,37.0,28.0,69.63,0.0,0.0,29.94,10.0,37.0
2021-04-18 08:00:00,34.0,26.1,72.52,80.0,3.0,29.94,10.0,30.97
2021-04-18 09:00:00,36.0,28.9,75.15,0.0,0.0,29.94,10.0,36.0
2021-04-18 10:00:00,36.0,28.9,75.15,200.0,5.0,29.93,10.0,31.15
2021-04-18 11:00:00,41.0,28.9,61.79,30.0,5.0,29.94,10.0,37.08
2021-04-18 12:00:00,45.0,30.9,57.5,170.0,4.0,29.94,10.0,42.6
2021-04-18 13:00:00,48.0,33.0,56.1,0.0,0.0,29.94,10.0,48.0
2021-04-18 14:00:00,52.0,35.0,52.36,260.0,5.0,29.93,10.0,52.0
2021-04-18 15:00:00,58.0,35.0,42.24,210.0,8.0,29.91,10.0,57.9
2021-04-18 16:00:00,62.0,35.0,36.37,310.0,9.0,29.9,10.0,62.1
2021-04-18 17:00:00,61.0,30.0,30.8,310.0,9.0,29.87,10.0,61.0
2021-04-18 18:00:00,55.0,35.0,46.91,130.0,7.0,29.87,10.0,55.0
2021-04-18 19:00:00,58.0,37.0,45.54,140.0,7.0,29.85,10.0,57.9
2021-04-18 20:00:00,63.0,30.9,29.77,240.0,8.0,29.82,10.0,63.0
2021-04-18 21:00:00,61.0,30.0,30.8,240.0,10.0,29.82,10.0,61.0
2021-04-18 22:00:00,61.0,30.9,31.95,260.0,8.0,29.82,10.0,61.0
2021-04-18 23:00:00,58.0,32.0,37.31,230.0,10.0,29.81,10.0,57.9
2021-04-19 00:00:00,54.0,32.0,42.98,0.0,0.0,29.81,10.0,54.0
2021-04-19 01:00:00,55.0,32.0,41.44,220.0,4.0,29.81,10.0,55.0
2021-04-19 02:00:00,51.0,33.0,49.98,210.0,7.0,29.81,10.0,51.1
2021-04-19 03:00:00,50.0,33.0,52.06,220.0,6.0,29.8,10.0,50.0
2021-04-19 04:00:00,50.0,33.0,52.06,220.0,7.0,29.79,10.0,50.0
2021-04-19 05:00:00,49.0,33.0,54.24,220.0,7.0,29.78,10.0,45.38
2021-04-19 06:00:00,50.0,32.0,49.81,230.0,10.0,29.76,10.0,50.0
2021-04-19 07:00:00,50.0,30.9,47.64,230.0,12.0,29.74,10.0,50.0
2021-04-19 08:00:00,51.0,30.9,45.73,240.0,17.0,29.73,10.0,51.1
2021-04-19 09:00:00,50.0,30.9,47.64,260.0,12.0,29.73,10.0,50.0
2021-04-19 10:00:00,50.0,32.0,49.81,260.0,11.0,29.75,10.0,50.0
2021-04-19 11:00:00,49.0,35.0,58.75,280.0,9.0,29.76,10.0,44.53
2021-04-19 12:00:00,48.0,40.0,73.38,310.0,9.0,29.78,10.0,43.41
2021-04-19 13:00:00,45.0,37.0,73.37,300.0,13.0,29.79,10.0,38.22
2021-04-19 14:00:00,49.0,34.0,56.23,290.0,16.0,29.81,10.0,42.45
2021-04-19 15:00:00,48.0,34.0,58.16,290.0,14.0,29.82,10.0,41.79
2021-04-19 16:00:00,47.0,33.0,58.47,320.0,13.0,29.84,10.0,40.66
2021-04-19 17:00:00,47.0,30.9,53.5,300.0,14.0,29.84,10.0,40.37
2021-04-19 18:00:00,46.0,30.0,53.37,310.0,12.0,29.86,10.0,39.82
2021-04-19 19:00:00,46.0,27.0,47.2,310.0,15.0,29.87,10.0,38.93
2021-04-19 20:00:00,47.0,27.0,45.62,310.0,15.0,29.88,10.0,40.1
2021-04-19 21:00:00,47.0,26.1,43.95,310.0,10.0,29.89,10.0,41.65
2021-04-19 22:00:00,46.0,25.0,43.44,310.0,11.0,29.9,10.0,40.16
2021-04-19 23:00:00,44.0,24.1,44.98,310.0,11.0,29.91,10.0,37.76
2021-04-20 00:00:00,43.0,21.9,42.77,320.0,8.0,29.94,10.0,37.66
2021-04-20 01:00:00,42.0,21.9,44.27,320.0,7.0,29.97,10.0,37.09
2021-04-20 02:00:00,41.0,21.9,46.19,320.0,5.0,29.99,10.0,37.08
2021-04-20 03:00:00,39.0,23.0,52.3,300.0,6.0,29.99,10.0,33.96
2021-04-20 04:00:00,37.0,24.1,59.24,280.0,5.0,29.99,10.0,32.33
2021-04-20 05:00:00,38.0,24.1,57.18,310.0,7.0,30.0,10.0,31.97
2021-04-20 06:00:00,37.0,24.1,59.24,300.0,8.0,30.02,10.0,30.27
2021-04-20 07:00:00,36.0,24.1,61.62,310.0,5.0,30.01,10.0,31.15
2021-04-20 08:00:00,35.0,25.0,66.31,340.0,4.0,30.02,10.0,31.04
2021-04-20 09:00:00,35.0,25.0,66.31,330.0,4.0,30.02,10.0,31.04
2021-04-20 10:00:00,35.0,25.0,66.31,340.0,4.0,30.04,10.0,31.04
2021-04-20 11:00:00,35.0,26.1,69.41,350.0,4.0,30.06,10.0,31.04
2021-04-20 12:00:00,36.0,21.9,56.18,360.0,4.0,30.08,10.0,32.09
2021-04-20 13:00:00,38.0,19.0,46.08,10.0,5.0,30.07,10.0,33.4
2021-04-20 14:00:00,39.0,19.0,44.14,40.0,5.0,30.08,10.0,34.71
2021-04-20 15:00:00,42.0,19.0,39.14,40.0,3.0,30.08,10.0,40.23
2021-04-20 16:00:00,42.0,17.1,36.07,30.0,6.0,30.07,10.0,37.69
2021-04-20 17:00:00,40.0,21.0,46.41,80.0,8.0,30.07,10.0,33.84
2021-04-20 18:00:00,40.0,21.0,46.41,90.0,7.0,30.07,10.0,34.41
2021-04-20 19:00:00,41.0,19.9,42.44,90.0,4.0,30.06,10.0,37.93
2021-04-20 20:00:00,41.0,21.0,44.47,110.0,9.0,30.04,10.0,34.7
2021-04-20 21:00:00,41.0,21.0,44.47,100.0,7.0,30.05,10.0,35.75
2021-04-20 22:00:00,39.0,19.9,45.87,90.0,9.0,30.05,10.0,32.22
2021-04-20 23:00:00,38.0,19.9,47.89,90.0,9.0,30.06,10.0,30.85
2021-04-21 00:00:00,36.0,19.9,51.61,110.0,5.0,30.07,10.0,31.15
2021-04-21 01:00:00,37.0,21.0,51.99,140.0,4.0,30.08,10.0,33.26
2021-04-21 02:00:00,35.0,21.0,56.05,150.0,4.0,30.09,10.0,31.04
2021-04-21 03:00:00,33.0,21.0,60.71,150.0,3.0,30.08,10.0,29.95
2021-04-21 04:00:00,32.0,21.0,63.45,0.0,0.0,30.08,10.0,32.0
2021-04-21 05:00:00,30.9,21.9,68.91,0.0,0.0,30.08,10.0,30.9
2021-04-21 06:00:00,30.9,21.9,68.91,0.0,0.0,30.07,10.0,30.9
2021-04-21 07:00:00,32.0,23.0,69.04,200.0,4.0,30.05,10.0,27.42
2021-04-21 08:00:00,28.9,21.9,74.76,0.0,0.0,30.06,10.0,28.9
2021-04-21 09:00:00,30.0,23.0,74.87,80.0,3.0,30.06,10.0,26.4
2021-04-21 10:00:00,34.0,25.0,69.28,120.0,4.0,30.07,10.0,29.76
2021-04-21 11:00:00,34.0,27.0,75.26,190.0,4.0,30.08,10.0,29.76
2021-04-21 12:00:00,38.0,30.0,72.93,190.0,4.0,30.09,10.0,34.31
2021-04-21 13:00:00,40.0,28.0,62.15,190.0,4.0,30.09,10.0,36.65
2021-04-21 14:00:00,43.0,26.1,50.98,260.0,6.0,30.09,10.0,38.78
2021-04-21 15:00:00,43.0,21.0,41.17,330.0,7.0,30.08,10.0,38.19
2021-04-21 16:00:00,43.0,25.0,48.7,320.0,8.0,30.09,10.0,37.66
2021-04-21 17:00:00,46.0,19.9,35.04,310.0,12.0,30.07,10.0,39.82
2021-04-21 18:00:00,42.0,30.0,61.94,350.0,12.0,30.08,10.0,34.86
2021-04-21 19:00:00,42.0,30.9,64.24,30.0,10.0,30.08,7.0,35.63
2021-04-21 20:00:00,37.0,30.9,78.37,60.0,12.0,30.09,10.0,28.37
2021-04-21 21:00:00,37.0,30.0,75.56,90.0,9.0,30.09,10.0,29.73
2021-04-21 22:00:00,37.0,28.9,72.24,110.0,7.0,30.09,6.0,30.87
2021-04-21 23:00:00,36.0,27.0,69.51,140.0,4.0,30.07,10.0,32.09
2021-04-22 00:00:00,35.0,26.1,69.41,150.0,5.0,30.07,10.0,30.08
2021-04-22 01:00:00,34.0,26.1,72.52,160.0,3.0,30.09,10.0,30.97
2021-04-22 02:00:00,34.0,28.0,78.43,180.0,4.0,30.09,10.0,29.76
2021-04-22 03:00:00,32.0,27.0,81.55,0.0,0.0,30.09,10.0,32.0
2021-04-22 04:00:00,32.0,27.0,81.55,220.0,4.0,30.08,10.0,27.42
2021-04-22 05:00:00,30.9,26.1,82.15,230.0,4.0,30.08,10.0,26.14
2021-04-22 06:00:00,30.9,27.0,85.26,0.0,0.0,30.07,10.0,30.9
2021-04-22 07:00:00,27.0,24.1,88.65,250.0,4.0,30.06,8.0,21.58
2021-04-22 08:00:00,26.1,23.0,87.87,260.0,5.0,30.07,7.0,19.39
2021-04-22 09:00:00,26.1,23.0,87.87,260.0,5.0,30.07,5.0,19.39
2021-04-22 10:00:00,26.1,23.0,87.87,260.0,5.0,30.08,5.0,19.39
2021-04-22 11:00:00,28.9,26.1,89.12,260.0,5.0,30.09,6.0,22.71
2021-04-22 12:00:00,37.0,28.0,69.63,270.0,5.0,30.1,10.0,32.33
2021-04-22 13:00:00,42.0,21.9,44.27,270.0,6.0,30.1,10.0,37.69
2021-04-22 14:00:00,45.0,19.9,36.4,290.0,8.0,30.1,10.0,40.13
2021-04-22 15:00:00,48.0,21.9,35.38,280.0,12.0,30.1,10.0,42.37
2021-04-22 16:00:00,50.0,24.1,36.01,270.0,10.0,30.09,10.0,50.0
2021-04-22 17:00:00,53.0,27.0,36.22,240.0,10.0,30.06,10.0,53.1
2021-04-22 18:00:00,55.0,28.0,35.21,270.0,12.0,30.04,10.0,55.0
2021-04-22 19:00:00,58.0,28.0,31.71,280.0,17.0,30.02,10.0,57.9
2021-04-22 20:00:00,60.0,27.0,28.13,300.0,12.0,29.99,10.0,60.1
2021-04-22 21:00:00,62.0,26.1,25.24,260.0,15.0,29.98,10.0,62.1
2021-04-22 22:00:00,61.0,25.0,25.07,270.0,14.0,29.97,10.0,61.0
2021-04-22 23:00:00,60.0,24.1,24.93,280.0,9.0,29.96,10.0,60.1
2021-04-23 00:00:00,57.0,25.0,28.93,230.0,6.0,29.97,10.0,57.0
2021-04-23 01:00:00,54.0,25.0,32.26,220.0,4.0,29.98,10.0,54.0
2021-04-23 02:00:00,49.0,26.1,40.77,230.0,7.0,30.0,10.0,45.38
2021-04-23 03:00:00,50.0,27.0,40.62,250.0,10.0,30.0,10.0,50.0
2021-04-23 04:00:00,49.0,27.0,42.32,240.0,11.0,30.01,10.0,43.82
2021-04-23 05:00:00,46.0,26.1,45.47,240.0,10.0,30.01,10.0,40.52
2021-04-23 06:00:00,45.0,26.1,47.23,240.0,10.0,30.02,10.0,39.27
2021-04-23 07:00:00,45.0,27.0,49.02,250.0,10.0,30.02,10.0,39.27
2021-04-23 08:00:00,45.0,27.0,49.02,250.0,9.0,30.02,10.0,39.68
2021-04-23 09:00:00,46.0,27.0,47.2,250.0,10.0,30.02,10.0,40.52
2021-04-23 10:00:00,45.0,28.0,51.08,240.0,8.0,30.03,10.0,40.13
2021-04-23 11:00:00,46.0,28.9,51.03,240.0,8.0,30.04,10.0,41.36
2021-04-23 12:00:00,50.0,30.0,45.93,240.0,11.0,30.05,10.0,50.0
2021-04-23 13:00:00,55.0,30.0,38.21,260.0,13.0,30.04,10.0,55.0
2021-04-23 14:00:00,57.0,28.9,33.98,250.0,12.0,30.03,10.0,57.0
2021-04-23 15:00:00,58.0,28.0,31.71,230.0,8.0,30.02,10.0,57.9
2021-04-23 16:00:00,60.0,28.0,29.31,240.0,11.0,30.01,10.0,60.1
2021-04-23 17:00:00,60.0,28.0,29.31,210.0,17.0,29.99,10.0,60.1
2021-04-23 18:00:00,61.0,30.0,30.8,240.0,17.0,29.98,10.0,61.0
2021-04-23 19:00:00,59.0,30.0,33.08,200.0,10.0,29.96,10.0,59.0
2021-04-23 20:00:00,61.0,30.0,30.8,230.0,12.0,29.95,10.0,61.0
2021-04-23 21:00:00,61.0,28.9,29.45,220.0,14.0,29.94,10.0,61.0
2021-04-23 22:00:00,61.0,32.0,33.4,230.0,6.0,29.93,10.0,61.0
2021-04-23 23:00:00,58.0,33.0,39.0,220.0,7.0,29.93,10.0,57.9
2021-04-24 00:00:00,55.0,35.0,46.91,210.0,6.0,29.92,10.0,55.0
2021-04-24 01:00:00,53.0,36.0,52.11,210.0,6.0,29.93,10.0,53.1
2021-04-24 02:00:00,51.0,37.0,58.36,190.0,4.0,29.94,10.0,51.1
2021-04-24 03:00:00,50.0,37.0,60.79,190.0,5.0,29.94,10.0,50.0
2021-04-24 04:00:00,52.0,39.0,61.06,220.0,5.0,29.95,10.0,52.0
2021-04-24 05:00:00,52.0,40.0,63.24,0.0,0.0,29.95,10.0,52.0
2021-04-24 06:00:00,51.0,40.0,65.38,200.0,3.0,29.93,10.0,51.1
2021-04-24 07:00:00,49.0,40.0,70.95,0.0,0.0,29.92,10.0,48.9
2021-04-24 08:00:00,48.0,39.0,70.85,0.0,0.0,29.92,10.0,48.0
2021-04-24 09:00:00,48.0,40.0,73.38,190.0,3.0,29.91,10.0,46.98
2021-04-24 10:00:00,45.0,39.0,79.36,0.0,0.0,29.9,10.0,45.0
2021-04-24 11:00:00,48.0,42.0,79.91,180.0,3.0,29.91,10.0,46.98
2021-04-24 12:00:00,52.0,42.0,68.86,170.0,3.0,29.91,10.0,52.0
2021-04-24 13:00:00,53.0,42.0,66.13,200.0,3.0,29.9,10.0,53.1
2021-04-24 14:00:00,55.0,42.0,61.69,0.0,0.0,29.89,10.0,55.0
2021-04-24 15:00:00,56.0,42.0,59.71,150.0,3.0,29.88,10.0,55.9
2021-04-24 16:00:00,56.0,42.0,59.71,0.0,0.0,29.87,10.0,55.9
2021-04-24 17:00:00,57.0,42.0,57.38,170.0,5.0,29.85,10.0,57.0
2021-04-24 18:00:00,59.0,43.0,55.28,170.0,6.0,29.84,10.0,59.0
2021-04-24 19:00:00,61.0,43.0,51.48,190.0,8.0,29.81,10.0,61.0
2021-04-24 20:00:00,60.0,43.0,53.15,120.0,7.0,29.78,10.0,60.1
2021-04-24 21:00:00,59.0,43.0,55.28,130.0,9.0,29.78,10.0,59.0
2021-04-24 22:00:00,56.0,42.0,59.71,150.0,6.0,29.78,10.0,55.9
2021-04-24 23:00:00,53.0,44.0,71.4,250.0,3.0,29.79,10.0,53.1
2021-04-25 00:00:00,53.0,44.0,71.4,0.0,0.0,29.81,10.0,53.1
2021-04-25 01:00:00,54.0,45.0,71.5,330.0,8.0,29.85,10.0,54.0
2021-04-25 02:00:00,52.0,39.0,61.06,330.0,10.0,29.88,10.0,52.0
2021-04-25 03:00:00,49.0,37.0,63.34,330.0,10.0,29.9,10.0,44.16
2021-04-25 04:00:00,43.0,38.0,82.04,40.0,9.0,29.93,10.0,37.19
2021-04-25 05:00:00,42.0,36.0,78.8,20.0,10.0,29.95,10.0,35.63
2021-04-25 06:00:00,42.0,35.0,76.04,20.0,6.0,29.96,10.0,37.69
2021-04-25 07:00:00,41.0,34.0,75.94,30.0,7.0,29.97,10.0,35.75
2021-04-25 08:00:00,41.0,33.0,73.25,40.0,8.0,29.99,10.0,35.2
2021-04-25 09:00:00,39.0,32.0,75.75,20.0,5.0,30.01,10.0,34.71
2021-04-25 10:00:00,38.0,30.9,75.64,360.0,7.0,30.03,10.0,31.97
2021-04-25 11:00:00,38.0,28.0,67.2,10.0,5.0,30.06,10.0,33.4
2021-04-25 12:00:00,39.0,26.1,59.52,20.0,9.0,30.1,10.0,32.22
2021-04-25 13:00:00,42.0,21.9,44.27,340.0,10.0,30.11,10.0,35.63
2021-04-25 14:00:00,44.0,21.0,39.47,10.0,10.0,30.14,10.0,38.14
2021-04-25 15:00:00,45.0,21.9,39.62,50.0,11.0,30.14,10.0,38.89
2021-04-25 16:00:00,45.0,23.0,41.5,50.0,10.0,30.15,10.0,39.27
2021-04-25 17:00:00,43.0,24.1,46.91,60.0,10.0,30.15,10.0,36.76
2021-04-25 18:00:00,45.0,26.1,47.23,80.0,12.0,30.15,10.0,38.55
2021-04-25 19:00:00,43.0,25.0,48.7,80.0,13.0,30.15,10.0,35.66
2021-04-25 20:00:00,41.0,26.1,55.07,90.0,12.0,30.14,10.0,33.46
2021-04-25 21:00:00,43.0,27.0,52.91,60.0,12.0,30.14,10.0,36.0
2021-04-25 22:00:00,40.0,26.1,57.47,90.0,10.0,30.13,10.0,32.87
2021-04-25 23:00:00,39.0,27.0,61.78,70.0,11.0,30.12,10.0,31.31
2021-04-26 00:00:00,38.0,28.9,69.73,100.0,8.0,30.1,10.0,31.38
2021-04-26 01:00:00,39.0,28.0,64.37,110.0,5.0,30.12,10.0,34.71
2021-04-26 02:00:00,39.0,28.9,66.79,110.0,5.0,30.12,10.0,34.71
2021-04-26 03:00:00,40.0,28.9,64.49,0.0,0.0,30.15,10.0,39.9
2021-04-26 04:00:00,39.0,28.9,66.79,60.0,4.0,30.13,10.0,35.59
2021-04-26 05:00:00,41.0,28.0,59.55,90.0,7.0,30.12,10.0,35.75
2021-04-26 06:00:00,41.0,27.0,57.15,90.0,9.0,30.08,10.0,34.7
2021-04-26 07:00:00,41.0,28.9,61.79,120.0,9.0,30.06,10.0,34.7
2021-04-26 08:00:00,41.0,30.9,67.03,110.0,8.0,30.06,10.0,35.2
2021-04-26 09:00:00,41.0,30.0,64.63,110.0,10.0,30.04,10.0,34.25
2021-04-26 10:00:00,40.0,30.9,69.96,110.0,9.0,30.05,10.0,33.34
2021-04-26 11:00:00,41.0,34.0,75.94,130.0,11.0,30.04,10.0,33.84
2021-04-26 12:00:00,45.0,32.0,60.11,160.0,14.0,30.04,10.0,37.92
2021-04-26 13:00:00,48.0,34.0,58.16,140.0,14.0,30.0,10.0,41.79
2021-04-26 14:00:00,50.0,36.0,58.44,130.0,11.0,29.99,10.0,50.0
2021-04-26 15:00:00,53.0,38.0,56.17,150.0,11.0,29.97,10.0,53.1
2021-04-26 16:00:00,56.0,38.0,50.71,140.0,14.0,29.92,10.0,55.9
2021-04-26 17:00:00,60.0,40.0,47.15,130.0,13.0,29.87,10.0,60.1
2021-04-26 18:00:00,66.0,42.0,41.73,150.0,19.0,29.82,10.0,66.0
2021-04-26 19:00:00,66.0,42.0,41.73,140.0,21.0,29.74,10.0,66.0
2021-04-26 20:00:00,66.0,43.0,43.2,130.0,16.0,29.7,10.0,66.0
2021-04-26 21:00:00,70.0,43.0,37.64,140.0,14.0,29.68,10.0,70.0
2021-04-26 22:00:00,69.0,42.0,37.5,130.0,10.0,29.68,10.0,69.1
2021-04-26 23:00:00,69.0,43.0,38.82,150.0,9.0,29.67,10.0,69.1
2021-04-27 00:00:00,71.0,44.0,37.81,170.0,10.0,29.66,10.0,71.1
2021-04-27 01:00:00,71.0,46.0,40.65,170.0,4.0,29.68,10.0,71.1
2021-04-27 02:00:00,71.0,47.0,42.05,180.0,7.0,29.7,10.0,71.1
2021-04-27 03:00:00,72.0,47.0,40.79,200.0,15.0,29.7,10.0,72.0
2021-04-27 04:00:00,71.0,47.0,42.05,200.0,15.0,29.7,10.0,71.1
2021-04-27 05:00:00,69.0,49.0,48.53,220.0,13.0,29.7,10.0,69.1
2021-04-27 06:00:00,68.0,50.0,52.51,210.0,13.0,29.69,10.0,68.0
2021-04-27 07:00:00,67.0,51.0,56.82,220.0,11.0,29.69,10.0,66.9
2021-04-27 08:00:00,67.0,51.0,56.82,210.0,12.0,29.7,10.0,66.9
2021-04-27 09:00:00,67.0,52.0,58.74,220.0,11.0,29.71,10.0,66.9
2021-04-27 10:00:00,66.0,52.0,60.6,220.0,10.0,29.73,10.0,66.0
2021-04-27 11:00:00,66.0,52.0,60.6,220.0,11.0,29.72,10.0,66.0
2021-04-27 12:00:00,68.0,53.0,58.88,230.0,14.0,29.73,10.0,68.0
2021-04-27 13:00:00,70.0,53.0,54.98,230.0,14.0,29.73,10.0,70.0
2021-04-27 14:00:00,74.0,54.0,49.79,220.0,15.0,29.72,10.0,73.9
2021-04-27 15:00:00,77.0,55.0,46.57,220.0,14.0,29.73,10.0,77.0
2021-04-27 16:00:00,79.0,55.0,43.59,240.0,12.0,29.73,10.0,79.0
2021-04-27 17:00:00,81.0,56.0,42.19,220.0,10.0,29.71,10.0,80.87
2021-04-27 18:00:00,79.0,56.0,45.04,220.0,6.0,29.7,10.0,79.0
2021-04-27 19:00:00,70.0,52.0,52.8,80.0,8.0,29.7,10.0,70.0
2021-04-27 20:00:00,62.0,47.0,57.43,40.0,13.0,29.7,10.0,62.1
2021-04-27 21:00:00,59.0,44.0,57.66,20.0,12.0,29.71,10.0,59.0
2021-04-27 22:00:00,56.0,44.0,64.47,40.0,10.0,29.71,10.0,55.9
2021-04-27 23:00:00,52.0,42.0,68.86,20.0,8.0,29.76,10.0,52.0
2021-04-28 00:00:00,50.0,41.0,71.07,30.0,8.0,29.76,10.0,50.0
2021-04-28 01:00:00,47.0,40.0,76.48,30.0,8.0,29.77,10.0,42.47
2021-04-28 02:00:00,47.0,40.0,76.48,10.0,5.0,29.79,10.0,44.09
2021-04-28 03:00:00,47.0,40.0,76.48,20.0,9.0,29.79,10.0,42.04
2021-04-28 04:00:00,47.0,40.0,76.48,10.0,8.0,29.79,10.0,42.47
2021-04-28 05:00:00,47.0,41.0,79.82,30.0,9.0,29.78,10.0,42.04
2021-04-28 06:00:00,46.0,40.0,79.13,360.0,7.0,29.81,10.0,41.84
2021-04-28 07:00:00,47.0,40.0,76.48,10.0,6.0,29.83,10.0,43.48
2021-04-28 08:00:00,47.0,41.0,79.82,60.0,4.0,29.84,10.0,44.82
2021-04-28 09:00:00,47.0,41.0,79.82,20.0,5.0,29.84,10.0,44.09
2021-04-28 10:00:00,47.0,41.0,79.82,0.0,0.0,29.84,10.0,46.9
2021-04-28 11:00:00,49.0,42.0,77.26,10.0,5.0,29.87,10.0,46.47
2021-04-28 12:00:00,50.0,42.0,74.15,350.0,6.0,29.88,10.0,50.0
2021-04-28 13:00:00,52.0,43.0,71.28,20.0,5.0,29.9,10.0,52.0
2021-04-28 14:00:00,52.0,44.0,74.35,40.0,9.0,29.9,10.0,52.0
2021-04-28 15:00:00,53.0,45.0,73.89,30.0,7.0,29.92,10.0,53.1
2021-04-28 16:00:00,56.0,46.0,69.3,90.0,7.0,29.92,10.0,55.9
2021-04-28 17:00:00,56.0,46.0,69.3,80.0,6.0,29.92,10.0,55.9
2021-04-28 18:00:00,58.0,45.0,62.07,70.0,10.0,29.91,10.0,57.9
2021-04-28 19:00:00,58.0,45.0,62.07,60.0,11.0,29.91,10.0,57.9
2021-04-28 20:00:00,58.0,45.0,62.07,80.0,10.0,29.9,10.0,57.9
2021-04-28 21:00:00,54.0,43.0,66.24,50.0,12.0,29.89,10.0,54.0
2021-04-28 22:00:00,53.0,44.0,71.4,60.0,8.0,29.92,10.0,53.1
2021-04-28 23:00:00,49.0,42.0,77.26,80.0,6.0,29.93,10.0,45.88
2021-04-29 00:00:00,47.0,42.0,83.28,50.0,7.0,29.91,10.0,42.94
2021-04-29 01:00:00,48.0,42.0,79.91,50.0,6.0,29.91,10.0,44.8
2021-04-29 02:00:00,48.0,43.0,82.72,20.0,3.0,29.91,10.0,46.98
2021-04-29 03:00:00,48.0,43.0,82.72,50.0,3.0,29.88,10.0,46.98
2021-04-29 04:00:00,49.0,43.0,79.98,30.0,7.0,29.86,10.0,45.38
2021-04-29 05:00:00,48.0,42.0,79.91,20.0,6.0,29.86,10.0,44.8
2021-04-29 06:00:00,48.0,43.0,82.72,30.0,6.0,29.83,10.0,44.8
2021-04-29 07:00:00,48.0,44.0,86.28,350.0,6.0,29.84,10.0,44.8
2021-04-29 08:00:00,48.0,44.0,86.28,10.0,6.0,29.81,10.0,44.8
2021-04-29 09:00:00,49.0,44.0,83.42,360.0,8.0,29.8,10.0,44.93
2021-04-29 10:00:00,49.0,44.0,83.42,10.0,8.0,29.79,10.0,44.93
2021-04-29 11:00:00,49.0,44.0,83.42,360.0,6.0,29.82,10.0,45.88
2021-04-29 12:00:00,49.0,45.0,86.33,350.0,8.0,29.85,3.0,44.93
2021-04-29 13:00:00,50.0,46.0,86.06,350.0,7.0,29.86,6.0,50.0
2021-04-29 14:00:00,52.0,48.0,86.17,360.0,6.0,29.83,10.0,52.0
2021-04-29 15:00:00,54.0,49.0,82.82,330.0,7.0,29.85,10.0,54.0
2021-04-29 16:00:00,59.0,49.0,69.12,320.0,7.0,29.85,10.0,59.0
2021-04-29 17:00:00,61.0,49.0,64.37,300.0,9.0,29.85,10.0,61.0
2021-04-29 18:00:00,64.0,48.0,55.99,320.0,8.0,29.83,10.0,64.0
2021-04-29 19:00:00,68.0,47.0,46.76,340.0,8.0,29.82,10.0,68.0
2021-04-29 20:00:00,66.0,47.0,50.1,340.0,4.0,29.82,10.0,66.0
2021-04-29 21:00:00,64.0,47.0,53.72,100.0,10.0,29.81,10.0,64.0
2021-04-29 22:00:00,60.0,46.0,59.59,90.0,7.0,29.82,10.0,60.1
2021-04-29 23:00:00,58.0,47.0,66.7,320.0,18.0,29.86,10.0,57.9
2021-04-30 00:00:00,55.0,47.0,74.08,280.0,3.0,29.88,10.0,55.0
2021-04-30 01:00:00,54.0,45.0,71.5,290.0,8.0,29.91,10.0,54.0
2021-04-30 02:00:00,56.0,41.0,57.23,20.0,7.0,29.97,10.0,55.9
2021-04-30 03:00:00,52.0,42.0,68.86,30.0,5.0,29.98,10.0,52.0
2021-04-30 04:00:00,48.0,40.0,73.38,0.0,0.0,29.98,10.0,48.0
2021-04-30 05:00:00,44.0,40.0,85.06,210.0,3.0,29.98,10.0,42.52
2021-04-30 06:00:00,46.0,42.0,86.16,210.0,5.0,29.97,10.0,43.02
2021-04-30 07:00:00,45.0,40.0,82.19,210.0,5.0,29.95,10.0,41.83
2021-04-30 08:00:00,42.0,36.0,78.8,240.0,8.0,29.94,10.0,36.55
2021-04-30 09:00:00,45.0,36.0,70.53,260.0,8.0,29.93,10.0,40.13
2021-04-30 10:00:00,48.0,35.0,60.76,290.0,10.0,29.96,10.0,43.03
2021-04-30 11:00:00,52.0,36.0,54.26,340.0,13.0,30.01,10.0,52.0
2021-04-30 12:00:00,53.0,35.0,50.28,360.0,9.0,30.05,10.0,53.1
2021-04-30 13:00:00,52.0,30.9,44.24,10.0,15.0,30.1,10.0,52.0
2021-04-30 14:00:00,53.0,30.0,40.96,10.0,11.0,30.14,10.0,53.1
2021-04-30 15:00:00,51.0,37.0,58.36,40.0,17.0,30.17,10.0,51.1
2021-04-30 16:00:00,51.0,33.0,49.98,30.0,12.0,30.19,10.0,51.1
2021-04-30 17:00:00,51.0,33.0,49.98,60.0,10.0,30.21,10.0,51.1
2021-04-30 18:00:00,50.0,34.0,53.97,100.0,9.0,30.21,10.0,50.0
2021-04-30 19:00:00,50.0,33.0,52.06,100.0,9.0,30.21,10.0,50.0
2021-04-30 20:00:00,51.0,34.0,51.81,110.0,6.0,30.21,10.0,51.1
2021-04-30 21:00:00,50.0,33.0,52.06,110.0,7.0,30.21,10.0,50.0
2021-04-30 22:00:00,49.0,32.0,51.89,120.0,9.0,30.21,10.0,44.53
2021-04-30 23:00:00,46.0,30.9,55.36,130.0,8.0,30.2,10.0,41.36
2021-05-01 00:00:00,42.0,30.0,61.94,140.0,9.0,30.19,10.0,36.07
2021-05-01 01:00:00,42.0,30.9,64.24,160.0,7.0,30.19,10.0,37.09
2021-05-01 02:00:00,42.0,30.9,64.24,170.0,6.0,30.19,10.0,37.69
2021-05-01 03:00:00,40.0,30.9,69.96,170.0,4.0,30.18,10.0,36.65
2021-05-01 04:00:00,40.0,30.9,69.96,190.0,5.0,30.16,10.0,35.78
2021-05-01 05:00:00,40.0,32.0,73.14,190.0,7.0,30.15,10.0,34.41
2021-05-01 06:00:00,40.0,32.0,73.14,190.0,9.0,30.11,10.0,33.34
2021-05-01 07:00:00,41.0,32.0,70.08,180.0,8.0,30.07,10.0,35.2
2021-05-01 08:00:00,41.0,32.0,70.08,190.0,8.0,30.06,10.0,35.2
2021-05-01 09:00:00,41.0,32.0,70.08,180.0,8.0,30.04,10.0,35.2
2021-05-01 10:00:00,44.0,32.0,62.21,190.0,8.0,30.01,10.0,39.02
2021-05-01 11:00:00,47.0,32.0,55.94,190.0,11.0,29.99,10.0,41.3
2021-05-01 12:00:00,51.0,32.0,47.81,190.0,11.0,29.98,10.0,51.1
2021-05-01 13:00:00,56.0,32.0,40.1,190.0,14.0,29.93,10.0,55.9
2021-05-01 14:00:00,60.0,30.9,32.99,190.0,19.0,29.87,10.0,60.1
2021-05-01 15:00:00,63.0,34.0,33.72,200.0,21.0,29.83,10.0,63.0
2021-05-01 16:00:00,68.0,37.0,31.92,210.0,25.0,29.78,10.0,68.0
2021-05-01 17:00:00,74.0,40.0,29.26,230.0,25.0,29.72,10.0,73.9
2021-05-01 18:00:00,78.0,43.0,28.68,220.0,23.0,29.66,10.0,78.1
2021-05-01 19:00:00,84.0,47.0,27.44,230.0,18.0,29.62,10.0,81.77
2021-05-01 20:00:00,87.0,46.0,24.02,250.0,24.0,29.61,10.0,84.07
2021-05-01 21:00:00,87.0,47.0,24.85,250.0,24.0,29.58,10.0,84.15
2021-05-01 22:00:00,86.0,46.0,24.88,250.0,26.0,29.57,10.0,83.19
2021-05-01 23:00:00,85.0,45.0,24.81,250.0,20.0,29.58,10.0,82.27
2021-05-02 00:00:00,81.0,44.0,27.2,240.0,19.0,29.6,10.0,79.62
2021-05-02 01:00:00,80.0,45.0,28.99,240.0,14.0,29.62,10.0,79.18
2021-05-02 02:00:00,78.0,47.0,33.26,230.0,15.0,29.64,10.0,78.1
2021-05-02 03:00:00,76.0,48.0,37.29,240.0,16.0,29.65,10.0,75.9
2021-05-02 04:00:00,75.0,48.0,38.43,240.0,17.0,29.64,10.0,75.0
2021-05-02 05:00:00,74.0,47.0,38.26,230.0,19.0,29.64,10.0,73.9
2021-05-02 06:00:00,72.0,47.0,40.79,240.0,14.0,29.64,10.0,72.0
2021-05-02 07:00:00,69.0,47.0,45.02,250.0,17.0,29.64,10.0,69.1
2021-05-02 08:00:00,68.0,47.0,46.76,240.0,13.0,29.64,10.0,68.0
2021-05-02 09:00:00,66.0,48.0,52.22,240.0,14.0,29.63,10.0,66.0
2021-05-02 10:00:00,66.0,48.0,52.22,230.0,13.0,29.62,10.0,66.0
2021-05-02 11:00:00,66.0,49.0,54.01,240.0,16.0,29.62,10.0,66.0
2021-05-02 12:00:00,69.0,50.0,50.56,240.0,19.0,29.62,10.0,69.1
2021-05-02 13:00:00,72.0,53.0,51.37,240.0,17.0,29.62,10.0,72.0
2021-05-02 14:00:00,75.0,56.0,51.43,250.0,16.0,29.62,10.0,75.0
2021-05-02 15:00:00,78.0,58.0,49.87,230.0,13.0,29.61,10.0,78.1
2021-05-02 16:00:00,80.0,57.0,45.21,210.0,17.0,29.6,10.0,80.45
2021-05-02 17:00:00,82.0,57.0,42.49,220.0,14.0,29.59,10.0,81.75
2021-05-02 18:00:00,85.0,58.0,39.97,220.0,16.0,29.56,10.0,84.21
2021-05-02 19:00:00,86.0,57.0,37.35,230.0,15.0,29.55,10.0,84.92
2021-05-02 20:00:00,84.0,56.0,38.28,230.0,13.0,29.53,10.0,83.03
2021-05-02 21:00:00,86.0,56.0,35.9,210.0,14.0,29.53,10.0,84.66
2021-05-02 22:00:00,83.0,55.0,38.38,220.0,15.0,29.53,10.0,82.03
2021-05-02 23:00:00,82.0,54.0,38.11,210.0,20.0,29.52,10.0,81.24
2021-05-03 00:00:00,79.0,54.0,42.03,210.0,14.0,29.53,10.0,79.0
2021-05-03 01:00:00,74.0,55.0,51.64,210.0,16.0,29.56,10.0,73.9
2021-05-03 02:00:00,71.0,56.0,58.65,210.0,14.0,29.58,10.0,71.1
2021-05-03 03:00:00,69.0,54.0,58.6,220.0,17.0,29.59,10.0,69.1
2021-05-03 04:00:00,66.0,55.0,67.64,220.0,13.0,29.58,10.0,66.0
2021-05-03 05:00:00,64.0,55.0,72.52,220.0,10.0,29.6,10.0,64.0
2021-05-03 06:00:00,63.0,55.0,75.11,220.0,10.0,29.6,10.0,63.0
2021-05-03 07:00:00,64.0,54.0,69.92,230.0,10.0,29.59,10.0,64.0
2021-05-03 08:00:00,63.0,54.0,72.42,210.0,10.0,29.58,10.0,63.0
2021-05-03 09:00:00,63.0,54.0,72.42,200.0,9.0,29.57,10.0,63.0
2021-05-03 10:00:00,63.0,56.0,77.61,220.0,7.0,29.57,10.0,63.0
2021-05-03 11:00:00,64.0,56.0,74.93,210.0,5.0,29.58,10.0,64.0
2021-05-03 12:00:00,64.0,57.0,77.97,210.0,6.0,29.58,10.0,64.0
2021-05-03 13:00:00,66.0,58.0,75.12,230.0,7.0,29.57,10.0,66.0
2021-05-03 14:00:00,70.0,59.0,68.09,220.0,7.0,29.56,10.0,70.0
2021-05-03 15:00:00,71.0,59.0,65.58,0.0,0.0,29.55,10.0,71.1
2021-05-03 16:00:00,72.0,59.0,63.61,190.0,7.0,29.56,10.0,72.0
2021-05-03 17:00:00,73.0,59.0,61.5,110.0,10.0,29.55,10.0,73.0
2021-05-03 18:00:00,72.0,59.0,63.61,120.0,8.0,29.55,10.0,72.0
2021-05-03 19:00:00,73.0,59.0,61.5,110.0,11.0,29.54,10.0,73.0
2021-05-03 20:00:00,73.0,59.0,61.5,140.0,14.0,29.52,10.0,73.0
2021-05-03 21:00:00,73.0,59.0,61.5,170.0,12.0,29.53,10.0,73.0
2021-05-03 22:00:00,73.0,59.0,61.5,210.0,13.0,29.53,10.0,73.0
2021-05-03 23:00:00,72.0,59.0,63.61,210.0,13.0,29.54,10.0,72.0
2021-05-04 00:00:00,63.0,59.0,86.77,310.0,5.0,29.59,3.0,63.0
2021-05-04 01:00:00,57.0,54.0,89.68,20.0,6.0,29.57,10.0,57.0
2021-05-04 02:00:00,56.0,52.0,86.71,330.0,7.0,29.65,10.0,55.9
2021-05-04 03:00:00,55.0,51.0,86.66,10.0,4.0,29.66,10.0,55.0
2021-05-04 04:00:00,57.0,53.0,86.77,310.0,8.0,29.68,8.0,57.0
2021-05-04 05:00:00,56.0,52.0,86.71,340.0,8.0,29.66,10.0,55.9
2021-05-04 06:00:00,55.0,51.0,86.66,320.0,7.0,29.72,10.0,55.0
2021-05-04 07:00:00,53.0,49.0,85.59,300.0,6.0,29.71,10.0,53.1
2021-05-04 08:00:00,54.0,50.0,86.29,280.0,4.0,29.74,10.0,54.0
2021-05-04 09:00:00,55.0,51.0,86.66,310.0,4.0,29.75,9.0,55.0
2021-05-04 10:00:00,55.0,52.0,89.59,340.0,5.0,29.74,10.0,55.0
2021-05-04 11:00:00,54.0,49.0,82.82,320.0,7.0,29.78,10.0,54.0
2021-05-04 12:00:00,53.0,47.0,79.4,320.0,8.0,29.81,10.0,53.1
2021-05-04 13:00:00,53.0,46.0,76.75,320.0,9.0,29.82,10.0,53.1
2021-05-04 14:00:00,52.0,44.0,74.35,340.0,9.0,29.83,10.0,52.0
2021-05-04 15:00:00,52.0,44.0,74.35,310.0,9.0,29.84,10.0,52.0
2021-05-04 16:00:00,52.0,43.0,71.28,310.0,7.0,29.85,10.0,52.0
2021-05-04 17:00:00,52.0,42.0,68.86,320.0,9.0,29.86,10.0,52.0
2021-05-04 18:00:00,52.0,43.0,71.28,310.0,9.0,29.87,10.0,52.0
2021-05-04 19:00:00,52.0,42.0,68.86,320.0,8.0,29.87,10.0,52.0
2021-05-04 20:00:00,53.0,42.0,66.13,340.0,6.0,29.87,10.0,53.1
2021-05-04 21:00:00,55.0,42.0,61.69,340.0,7.0,29.88,10.0,55.0
2021-05-04 22:00:00,55.0,41.0,59.13,350.0,8.0,29.87,10.0,55.0
2021-05-04 23:00:00,55.0,41.0,59.13,360.0,10.0,29.88,10.0,55.0
2021-05-05 00:00:00,52.0,40.0,63.24,10.0,4.0,29.89,10.0,52.0
2021-05-05 01:00:00,48.0,39.0,70.85,310.0,3.0,29.92,10.0,46.98
2021-05-05 02:00:00,43.0,37.0,79.19,300.0,3.0,29.94,10.0,41.26
2021-05-05 03:00:00,45.0,39.0,79.36,310.0,4.0,29.95,10.0,42.6
2021-05-05 04:00:00,46.0,40.0,79.13,30.0,5.0,29.97,10.0,43.02
2021-05-05 05:00:00,45.0,41.0,85.77,350.0,5.0,29.97,10.0,41.83
2021-05-05 06:00:00,44.0,39.0,82.12,10.0,4.0,29.98,10.0,41.55
2021-05-05 07:00:00,42.0,38.0,84.93,0.0,0.0,29.99,10.0,42.1
2021-05-05 08:00:00,39.0,36.0,88.87,0.0,0.0,30.01,4.0,39.0
2021-05-05 09:00:00,37.0,34.0,88.78,300.0,3.0,30.03,4.0,34.4
2021-05-05 10:00:00,37.0,35.0,92.76,290.0,4.0,30.05,10.0,33.26
2021-05-05 11:00:00,42.0,38.0,84.93,290.0,4.0,30.07,10.0,39.21
2021-05-05 12:00:00,48.0,37.0,65.51,360.0,7.0,30.1,10.0,44.28
2021-05-05 13:00:00,51.0,36.0,56.1,330.0,8.0,30.11,10.0,51.1
2021-05-05 14:00:00,54.0,36.0,50.42,340.0,9.0,30.11,10.0,54.0
2021-05-05 15:00:00,56.0,35.0,45.4,340.0,8.0,30.12,10.0,55.9
2021-05-05 16:00:00,57.0,34.0,41.76,340.0,6.0,30.12,10.0,57.0
2021-05-05 17:00:00,58.0,34.0,40.43,340.0,6.0,30.12,10.0,57.9
2021-05-05 18:00:00,56.0,40.0,54.83,80.0,9.0,30.12,10.0,55.9
2021-05-05 19:00:00,55.0,38.0,52.4,80.0,8.0,30.13,10.0,55.0
2021-05-05 20:00:00,54.0,35.0,48.65,90.0,10.0,30.13,10.0,54.0
2021-05-05 21:00:00,53.0,33.0,46.42,90.0,8.0,30.14,10.0,53.1
2021-05-05 22:00:00,52.0,30.9,44.24,100.0,8.0,30.13,10.0,52.0
2021-05-05 23:00:00,50.0,30.0,45.93,110.0,7.0,30.14,10.0,50.0
2021-05-06 00:00:00,47.0,30.9,53.5,140.0,7.0,30.14,10.0,42.94
2021-05-06 01:00:00,46.0,33.0,60.49,170.0,7.0,30.15,10.0,41.84
2021-05-06 02:00:00,47.0,33.0,58.47,170.0,7.0,30.15,10.0,42.94
2021-05-06 03:00:00,47.0,34.0,60.61,200.0,4.0,30.16,10.0,44.82
2021-05-06 04:00:00,48.0,34.0,58.16,210.0,3.0,30.15,10.0,46.98
2021-05-06 05:00:00,46.0,37.0,70.64,60.0,4.0,30.14,10.0,43.77
2021-05-06 06:00:00,46.0,36.0,67.9,0.0,0.0,30.13,10.0,46.0
2021-05-06 07:00:00,46.0,37.0,70.64,0.0,0.0,30.13,10.0,46.0
2021-05-06 08:00:00,46.0,39.0,76.4,90.0,4.0,30.11,10.0,43.77
2021-05-06 09:00:00,46.0,41.0,82.58,0.0,0.0,30.1,10.0,46.0
2021-05-06 10:00:00,45.0,40.0,82.19,360.0,4.0,30.11,9.0,42.6
2021-05-06 11:00:00,45.0,41.0,85.77,30.0,4.0,30.11,4.0,42.6
2021-05-06 12:00:00,45.0,42.0,89.49,50.0,7.0,30.12,7.0,40.63
2021-05-06 13:00:00,46.0,42.0,86.16,50.0,7.0,30.13,4.0,41.84
2021-05-06 14:00:00,45.0,42.0,89.49,70.0,8.0,30.12,6.0,40.13
2021-05-06 15:00:00,45.0,41.0,85.77,70.0,7.0,30.12,9.0,40.63
2021-05-06 16:00:00,46.0,41.0,82.58,80.0,6.0,30.11,10.0,42.39
2021-05-06 17:00:00,46.0,41.0,82.58,70.0,4.0,30.1,10.0,43.77
2021-05-06 18:00:00,51.0,44.0,76.86,70.0,4.0,30.09,10.0,51.1
2021-05-06 19:00:00,55.0,38.0,52.4,20.0,8.0,30.07,10.0,55.0
2021-05-06 20:00:00,56.0,33.0,41.92,50.0,9.0,30.05,10.0,55.9
2021-05-06 21:00:00,55.0,36.0,48.62,100.0,4.0,30.05,10.0,55.0
2021-05-06 22:00:00,53.0,34.0,48.13,100.0,4.0,30.04,10.0,53.1
2021-05-06 23:00:00,53.0,34.0,48.13,0.0,0.0,30.04,10.0,53.1
2021-05-07 00:00:00,49.0,35.0,58.75,170.0,4.0,30.04,10.0,47.16
2021-05-07 01:00:00,47.0,34.0,60.61,120.0,4.0,30.05,10.0,44.82
2021-05-07 02:00:00,46.0,36.0,67.9,180.0,6.0,30.06,10.0,42.39
2021-05-07 03:00:00,45.0,36.0,70.53,180.0,7.0,30.04,10.0,40.63
2021-05-07 04:00:00,44.0,36.0,72.99,210.0,5.0,30.03,10.0,40.77
2021-05-07 05:00:00,44.0,37.0,75.93,220.0,6.0,30.01,10.0,40.1
2021-05-07 06:00:00,44.0,34.0,67.41,220.0,6.0,29.99,10.0,40.1
2021-05-07 07:00:00,43.0,33.0,67.82,220.0,6.0,29.98,10.0,38.78
2021-05-07 08:00:00,42.0,34.0,72.78,220.0,5.0,29.96,10.0,38.39
2021-05-07 09:00:00,44.0,36.0,72.99,220.0,6.0,29.94,10.0,40.1
2021-05-07 10:00:00,45.0,37.0,73.37,270.0,6.0,29.97,10.0,41.19
2021-05-07 11:00:00,48.0,37.0,65.51,270.0,8.0,29.97,8.0,43.82
2021-05-07 12:00:00,51.0,38.0,60.46,310.0,13.0,29.97,10.0,51.1
2021-05-07 13:00:00,52.0,39.0,61.06,330.0,11.0,29.97,10.0,52.0
2021-05-07 14:00:00,54.0,33.0,44.92,330.0,10.0,29.98,10.0,54.0
2021-05-07 15:00:00,54.0,33.0,44.92,340.0,12.0,29.98,10.0,54.0
2021-05-07 16:00:00,55.0,30.9,39.63,330.0,15.0,29.99,10.0,55.0
2021-05-07 17:00:00,54.0,30.0,39.63,340.0,11.0,30.0,10.0,54.0
2021-05-07 18:00:00,53.0,30.0,40.96,320.0,11.0,30.0,10.0,53.1
2021-05-07 19:00:00,53.0,32.0,44.42,330.0,9.0,30.01,10.0,53.1
2021-05-07 20:00:00,53.0,32.0,44.42,330.0,11.0,30.02,10.0,53.1
2021-05-07 21:00:00,48.0,36.0,62.97,40.0,13.0,30.04,10.0,42.07
2021-05-07 22:00:00,46.0,36.0,67.9,30.0,8.0,30.05,10.0,41.36
2021-05-07 23:00:00,47.0,36.0,65.63,40.0,8.0,30.05,10.0,42.47
2021-05-08 00:00:00,43.0,36.0,76.12,60.0,3.0,30.06,10.0,41.26
2021-05-08 01:00:00,42.0,35.0,76.04,20.0,3.0,30.07,10.0,40.23
2021-05-08 02:00:00,40.0,33.0,76.44,30.0,3.0,30.09,10.0,37.72
2021-05-08 03:00:00,36.0,32.0,85.23,0.0,0.0,30.1,10.0,36.0
2021-05-08 04:00:00,38.0,34.0,85.69,300.0,3.0,30.1,10.0,35.43
2021-05-08 05:00:00,37.0,34.0,88.78,0.0,0.0,30.1,10.0,37.0
2021-05-08 06:00:00,34.0,30.9,88.27,0.0,0.0,30.1,10.0,34.0
2021-05-08 07:00:00,36.0,33.0,89.09,0.0,0.0,30.11,10.0,36.0
2021-05-08 08:00:00,35.0,32.0,88.33,260.0,3.0,30.11,10.0,32.23
2021-05-08 09:00:00,37.0,34.0,88.78,290.0,3.0,30.13,10.0,34.4
2021-05-08 10:00:00,38.0,34.0,85.69,0.0,0.0,30.14,10.0,37.9
2021-05-08 11:00:00,41.0,37.0,85.54,310.0,3.0,30.15,10.0,38.98
2021-05-08 12:00:00,45.0,36.0,70.53,0.0,0.0,30.15,10.0,45.0
2021-05-08 13:00:00,45.0,34.0,65.13,0.0,0.0,30.16,10.0,45.0
2021-05-08 14:00:00,50.0,30.0,45.93,0.0,3.0,30.16,10.0,50.0
2021-05-08 15:00:00,52.0,33.0,48.34,340.0,6.0,30.15,10.0,52.0
2021-05-08 16:00:00,52.0,33.0,48.34,20.0,6.0,30.15,10.0,52.0
2021-05-08 17:00:00,51.0,33.0,49.98,100.0,9.0,30.13,10.0,51.1
2021-05-08 18:00:00,51.0,30.9,45.73,100.0,12.0,30.11,10.0,51.1
2021-05-08 19:00:00,50.0,30.9,47.64,120.0,8.0,30.12,10.0,50.0
2021-05-08 20:00:00,49.0,30.9,49.63,100.0,10.0,30.11,10.0,44.16
2021-05-08 21:00:00,47.0,30.0,51.58,130.0,7.0,30.11,10.0,42.94
2021-05-08 22:00:00,47.0,30.9,53.5,100.0,8.0,30.09,10.0,42.47
2021-05-08 23:00:00,46.0,30.0,53.37,120.0,8.0,30.06,10.0,41.36
2021-05-09 00:00:00,45.0,30.9,57.5,150.0,4.0,30.06,10.0,42.6
2021-05-09 01:00:00,44.0,32.0,62.21,100.0,4.0,30.04,10.0,41.55
2021-05-09 02:00:00,45.0,32.0,60.11,0.0,0.0,30.06,10.0,45.0
2021-05-09 03:00:00,44.0,30.9,59.5,170.0,5.0,30.07,10.0,40.77
2021-05-09 04:00:00,43.0,32.0,64.88,150.0,3.0,30.05,10.0,41.26
2021-05-09 05:00:00,41.0,33.0,73.25,110.0,4.0,30.02,10.0,37.93
2021-05-09 06:00:00,43.0,34.0,70.3,90.0,5.0,30.01,10.0,39.46
2021-05-09 07:00:00,43.0,30.9,62.06,100.0,7.0,29.98,10.0,38.19
2021-05-09 08:00:00,43.0,33.0,67.82,100.0,8.0,29.97,10.0,37.66
2021-05-09 09:00:00,43.0,32.0,64.88,90.0,9.0,29.94,10.0,37.19
2021-05-09 10:00:00,43.0,32.0,64.88,90.0,8.0,29.93,10.0,37.66
2021-05-09 11:00:00,43.0,33.0,67.82,80.0,8.0,29.93,10.0,37.66
2021-05-09 12:00:00,44.0,33.0,65.02,50.0,9.0,29.93,10.0,38.56
2021-05-09 13:00:00,46.0,32.0,57.87,40.0,11.0,29.93,10.0,40.16
2021-05-09 14:00:00,48.0,32.0,53.67,20.0,13.0,29.91,10.0,42.07
2021-05-09 15:00:00,52.0,36.0,54.26,30.0,11.0,29.91,10.0,52.0
2021-05-09 16:00:00,54.0,34.0,46.57,20.0,10.0,29.94,10.0,54.0
2021-05-09 17:00:00,56.0,34.0,43.46,50.0,11.0,29.95,10.0,55.9
2021-05-09 18:00:00,57.0,30.0,35.54,50.0,14.0,29.94,10.0,57.0
2021-05-09 19:00:00,58.0,26.1,29.32,20.0,14.0,29.95,10.0,57.9
2021-05-09 20:00:00,57.0,25.0,28.93,10.0,12.0,29.96,10.0,57.0
2021-05-09 21:00:00,58.0,26.1,29.32,20.0,11.0,29.98,10.0,57.9
2021-05-09 22:00:00,55.0,30.0,38.21,40.0,12.0,29.99,10.0,55.0
2021-05-09 23:00:00,50.0,30.9,47.64,30.0,10.0,30.0,10.0,50.0
2021-05-10 00:00:00,46.0,30.9,55.36,30.0,7.0,30.03,10.0,41.84
2021-05-10 01:00:00,43.0,32.0,64.88,30.0,7.0,30.04,10.0,38.19
2021-05-10 02:00:00,43.0,32.0,64.88,20.0,4.0,30.06,10.0,40.27
2021-05-10 03:00:00,42.0,32.0,67.17,40.0,6.0,30.07,10.0,37.69
2021-05-10 04:00:00,43.0,33.0,67.82,30.0,6.0,30.07,10.0,38.78
2021-05-10 05:00:00,42.0,33.0,70.2,40.0,6.0,30.08,10.0,37.69
2021-05-10 06:00:00,42.0,30.9,64.24,30.0,6.0,30.09,10.0,37.69
2021-05-10 07:00:00,44.0,30.9,59.5,60.0,5.0,30.09,10.0,40.77
2021-05-10 08:00:00,44.0,30.9,59.5,50.0,8.0,30.11,10.0,39.02
2021-05-10 09:00:00,44.0,30.0,57.37,40.0,7.0,30.13,10.0,39.53
2021-05-10 10:00:00,43.0,28.9,57.21,80.0,9.0,30.11,10.0,37.19
2021-05-10 11:00:00,43.0,30.9,62.06,60.0,8.0,30.13,10.0,37.66
2021-05-10 12:00:00,44.0,33.0,65.02,70.0,11.0,30.13,10.0,37.76
2021-05-10 13:00:00,42.0,33.0,70.2,30.0,11.0,30.17,7.0,35.23
2021-05-10 14:00:00,45.0,33.0,62.83,40.0,10.0,30.17,10.0,39.27
2021-05-10 15:00:00,47.0,33.0,58.47,90.0,11.0,30.17,10.0,41.3
2021-05-10 16:00:00,48.0,34.0,58.16,60.0,9.0,30.17,10.0,43.41
2021-05-10 17:00:00,49.0,36.0,60.88,80.0,11.0,30.17,10.0,43.82
2021-05-10 18:00:00,49.0,35.0,58.75,90.0,10.0,30.18,10.0,44.16
2021-05-10 19:00:00,51.0,32.0,47.81,100.0,9.0,30.18,10.0,51.1
2021-05-10 20:00:00,51.0,28.9,42.16,100.0,11.0,30.17,10.0,51.1
2021-05-10 21:00:00,48.0,27.0,43.77,70.0,10.0,30.17,10.0,43.03
2021-05-10 22:00:00,46.0,28.0,49.18,90.0,8.0,30.19,10.0,41.36
2021-05-10 23:00:00,45.0,28.9,53.0,80.0,8.0,30.18,10.0,40.13
2021-05-11 00:00:00,44.0,30.0,57.37,100.0,5.0,30.2,10.0,40.77
2021-05-11 01:00:00,42.0,28.9,59.22,0.0,0.0,30.21,10.0,42.1
2021-05-11 02:00:00,39.0,30.0,69.85,0.0,0.0,30.23,10.0,39.0
2021-05-11 03:00:00,38.0,30.0,72.93,0.0,0.0,30.23,10.0,37.9
2021-05-11 04:00:00,38.0,30.9,75.64,0.0,0.0,30.24,10.0,37.9
2021-05-11 05:00:00,35.0,28.9,77.88,350.0,3.0,30.25,10.0,32.23
2021-05-11 06:00:00,38.0,30.9,75.64,340.0,4.0,30.25,10.0,34.31
2021-05-11 07:00:00,30.9,27.0,85.26,280.0,3.0,30.26,10.0,27.43
2021-05-11 08:00:00,33.0,28.0,81.3,0.0,0.0,30.26,10.0,33.1
2021-05-11 09:00:00,30.9,28.0,88.84,0.0,0.0,30.28,10.0,30.9
2021-05-11 10:00:00,30.0,28.0,92.15,330.0,3.0,30.3,10.0,26.4
2021-05-11 11:00:00,40.0,33.0,76.44,310.0,3.0,30.32,10.0,37.72
2021-05-11 12:00:00,44.0,34.0,67.41,300.0,4.0,30.34,10.0,41.55
2021-05-11 13:00:00,48.0,33.0,56.1,300.0,3.0,30.35,10.0,46.98
2021-05-11 14:00:00,53.0,28.0,37.74,340.0,10.0,30.36,10.0,53.1
2021-05-11 15:00:00,51.0,28.0,40.63,350.0,9.0,30.36,10.0,51.1
2021-05-11 16:00:00,53.0,30.0,40.96,40.0,5.0,30.36,10.0,53.1
2021-05-11 17:00:00,55.0,34.0,44.9,40.0,14.0,30.36,10.0,55.0
2021-05-11 18:00:00,52.0,35.0,52.36,70.0,14.0,30.35,10.0,52.0
2021-05-11 19:00:00,53.0,32.0,44.42,70.0,11.0,30.34,10.0,53.1
2021-05-11 20:00:00,52.0,30.9,44.24,60.0,10.0,30.34,10.0,52.0
2021-05-11 21:00:00,52.0,30.0,42.65,90.0,9.0,30.36,10.0,52.0
2021-05-11 22:00:00,51.0,30.0,44.09,60.0,8.0,30.36,10.0,51.1
2021-05-11 23:00:00,50.0,28.9,43.92,80.0,6.0,30.37,10.0,50.0
2021-05-12 00:00:00,45.0,28.0,51.08,100.0,4.0,30.38,10.0,42.6
2021-05-12 01:00:00,43.0,27.0,52.91,0.0,0.0,30.4,10.0,43.0
2021-05-12 02:00:00,40.0,28.0,62.15,240.0,3.0,30.42,10.0,37.72
2021-05-12 03:00:00,40.0,28.9,64.49,0.0,0.0,30.42,10.0,39.9
2021-05-12 04:00:00,35.0,28.0,75.06,240.0,3.0,30.42,10.0,32.23
2021-05-12 05:00:00,38.0,28.0,67.2,0.0,0.0,30.42,10.0,37.9
2021-05-12 06:00:00,35.0,28.0,75.06,0.0,0.0,30.42,10.0,35.1
2021-05-12 07:00:00,34.0,27.0,75.26,0.0,0.0,30.42,10.0,34.0
2021-05-12 08:00:00,32.0,27.0,81.55,0.0,0.0,30.43,10.0,32.0
2021-05-12 09:00:00,30.9,27.0,85.26,300.0,3.0,30.44,10.0,27.43
2021-05-12 10:00:00,33.0,28.9,84.36,0.0,0.0,30.45,10.0,33.1
2021-05-12 11:00:00,40.0,35.0,82.8,300.0,3.0,30.47,10.0,37.72
2021-05-12 12:00:00,50.0,32.0,49.81,0.0,0.0,30.48,10.0,50.0
2021-05-12 13:00:00,54.0,30.9,41.11,130.0,4.0,30.49,10.0,54.0
2021-05-12 14:00:00,57.0,33.0,40.28,100.0,4.0,30.48,10.0,57.0
2021-05-12 15:00:00,58.0,32.0,37.31,110.0,9.0,30.48,10.0,57.9
2021-05-12 16:00:00,60.0,32.0,34.49,90.0,9.0,30.47,10.0,60.1
2021-05-12 17:00:00,59.0,30.9,34.31,110.0,11.0,30.46,10.0,59.0
2021-05-12 18:00:00,60.0,30.9,32.99,110.0,10.0,30.45,10.0,60.1
2021-05-12 19:00:00,60.0,30.9,32.99,130.0,9.0,30.45,10.0,60.1
2021-05-12 20:00:00,60.0,28.9,30.41,120.0,10.0,30.43,10.0,60.1
2021-05-12 21:00:00,59.0,26.1,28.18,140.0,9.0,30.42,10.0,59.0
2021-05-12 22:00:00,58.0,25.0,28.01,120.0,9.0,30.42,10.0,57.9
2021-05-12 23:00:00,56.0,24.1,29.0,130.0,7.0,30.41,10.0,55.9
2021-05-13 00:00:00,53.0,25.0,33.34,150.0,5.0,30.41,10.0,53.1
2021-05-13 01:00:00,50.0,25.0,37.39,160.0,4.0,30.41,10.0,50.0
2021-05-13 02:00:00,45.0,26.1,47.23,200.0,3.0,30.41,10.0,43.55
2021-05-13 03:00:00,41.0,26.1,55.07,0.0,0.0,30.41,10.0,41.0
2021-05-13 04:00:00,39.0,27.0,61.78,290.0,3.0,30.41,10.0,36.69
2021-05-13 05:00:00,37.0,27.0,66.82,270.0,3.0,30.41,10.0,34.4
2021-05-13 06:00:00,41.0,28.0,59.55,0.0,0.0,30.4,10.0,41.0
2021-05-13 07:00:00,37.0,27.0,66.82,250.0,4.0,30.4,10.0,33.26
2021-05-13 08:00:00,41.0,28.0,59.55,250.0,4.0,30.4,10.0,37.93
2021-05-13 09:00:00,36.0,26.1,66.97,250.0,5.0,30.4,10.0,31.15
2021-05-13 10:00:00,38.0,27.0,64.49,260.0,5.0,30.41,10.0,33.4
2021-05-13 11:00:00,46.0,32.0,57.87,270.0,4.0,30.42,10.0,43.77
2021-05-13 12:00:00,55.0,28.0,35.21,260.0,7.0,30.42,10.0,55.0
2021-05-13 13:00:00,60.0,30.9,32.99,250.0,8.0,30.41,10.0,60.1
2021-05-13 14:00:00,64.0,30.9,28.74,250.0,5.0,30.4,10.0,64.0
2021-05-13 15:00:00,68.0,30.9,25.02,300.0,9.0,30.39,10.0,68.0
2021-05-13 16:00:00,68.0,30.0,24.12,30.0,6.0,30.38,10.0,68.0
2021-05-13 17:00:00,68.0,34.0,28.34,120.0,7.0,30.37,10.0,68.0
2021-05-13 18:00:00,68.0,33.0,27.34,120.0,9.0,30.35,10.0,68.0
2021-05-13 19:00:00,69.0,32.0,25.18,120.0,8.0,30.34,10.0,69.1
2021-05-13 20:00:00,68.0,28.9,23.06,110.0,8.0,30.32,10.0,68.0
2021-05-13 21:00:00,68.0,28.9,23.06,130.0,8.0,30.31,10.0,68.0
2021-05-13 22:00:00,66.0,27.0,22.86,130.0,8.0,30.31,10.0,66.0
2021-05-13 23:00:00,65.0,28.0,24.75,150.0,8.0,30.3,10.0,64.9
2021-05-14 00:00:00,60.0,28.0,29.31,160.0,6.0,30.3,10.0,60.1
2021-05-14 01:00:00,57.0,30.0,35.54,180.0,4.0,30.31,10.0,57.0
2021-05-14 02:00:00,54.0,28.9,37.89,200.0,3.0,30.31,10.0,54.0
2021-05-14 03:00:00,48.0,30.9,51.34,0.0,0.0,30.3,10.0,48.0
2021-05-14 04:00:00,50.0,28.9,43.92,230.0,3.0,30.3,10.0,50.0
2021-05-14 05:00:00,49.0,28.9,45.75,240.0,4.0,30.29,10.0,47.16
2021-05-14 06:00:00,43.0,28.9,57.21,250.0,3.0,30.29,10.0,41.26
2021-05-14 07:00:00,42.0,28.9,59.22,260.0,4.0,30.29,10.0,39.21
2021-05-14 08:00:00,44.0,30.0,57.37,250.0,4.0,30.3,10.0,41.55
2021-05-14 09:00:00,44.0,28.9,54.85,250.0,3.0,30.31,10.0,42.52
2021-05-14 10:00:00,42.0,28.9,59.22,260.0,5.0,30.31,10.0,38.39
2021-05-14 11:00:00,48.0,36.0,62.97,260.0,4.0,30.33,10.0,46.1
2021-05-14 12:00:00,57.0,35.0,43.63,290.0,6.0,30.33,10.0,57.0
2021-05-14 13:00:00,64.0,34.0,32.56,310.0,6.0,30.33,10.0,64.0
2021-05-14 14:00:00,69.0,33.0,26.32,310.0,6.0,30.32,10.0,69.1
2021-05-14 15:00:00,70.0,32.0,24.42,350.0,6.0,30.31,10.0,70.0
2021-05-14 16:00:00,69.0,30.0,23.22,0.0,0.0,30.3,10.0,69.1
2021-05-14 17:00:00,71.0,33.0,24.59,130.0,10.0,30.29,10.0,71.1
2021-05-14 18:00:00,67.0,30.0,25.05,130.0,10.0,30.28,10.0,66.9
2021-05-14 19:00:00,71.0,33.0,24.59,130.0,13.0,30.26,10.0,71.1
2021-05-14 20:00:00,68.0,30.0,24.12,140.0,13.0,30.24,10.0,68.0
2021-05-14 21:00:00,66.0,30.0,25.85,120.0,11.0,30.23,10.0,66.0
2021-05-14 22:00:00,66.0,30.9,26.81,140.0,9.0,30.23,10.0,66.0
2021-05-14 23:00:00,63.0,30.0,28.7,140.0,9.0,30.21,10.0,63.0
2021-05-15 00:00:00,61.0,32.0,33.4,140.0,7.0,30.21,10.0,61.0
2021-05-15 01:00:00,58.0,33.0,39.0,170.0,5.0,30.22,10.0,57.9
2021-05-15 02:00:00,57.0,34.0,41.76,180.0,6.0,30.22,10.0,57.0
2021-05-15 03:00:00,58.0,34.0,40.43,190.0,4.0,30.21,10.0,57.9
2021-05-15 04:00:00,55.0,33.0,43.31,230.0,4.0,30.22,10.0,55.0
2021-05-15 05:00:00,55.0,33.0,43.31,180.0,4.0,30.21,10.0,55.0
2021-05-15 06:00:00,55.0,34.0,44.9,190.0,4.0,30.2,10.0,55.0
2021-05-15 07:00:00,56.0,34.0,43.46,190.0,5.0,30.19,10.0,55.9
2021-05-15 08:00:00,56.0,35.0,45.4,190.0,6.0,30.19,10.0,55.9
2021-05-15 09:00:00,56.0,35.0,45.4,180.0,5.0,30.2,10.0,55.9
2021-05-15 10:00:00,56.0,36.0,47.05,200.0,4.0,30.21,10.0,55.9
2021-05-15 11:00:00,58.0,37.0,45.54,200.0,5.0,30.21,10.0,57.9
2021-05-15 12:00:00,61.0,37.0,40.77,240.0,8.0,30.22,10.0,61.0
2021-05-15 13:00:00,62.0,40.0,43.93,240.0,11.0,30.22,10.0,62.1
2021-05-15 14:00:00,63.0,42.0,46.34,210.0,9.0,30.22,10.0,63.0
2021-05-15 15:00:00,63.0,43.0,47.97,240.0,8.0,30.22,10.0,63.0
2021-05-15 16:00:00,61.0,44.0,53.69,190.0,8.0,30.22,10.0,61.0
2021-05-15 17:00:00,58.0,48.0,69.52,210.0,9.0,30.22,9.0,57.9
2021-05-15 18:00:00,56.0,50.0,80.52,190.0,3.0,30.2,8.0,55.9
2021-05-15 19:00:00,57.0,50.0,77.38,170.0,3.0,30.19,10.0,57.0
2021-05-15 20:00:00,57.0,50.0,77.38,110.0,7.0,30.17,9.0,57.0
2021-05-15 21:00:00,57.0,50.0,77.38,120.0,8.0,30.16,10.0,57.0
2021-05-15 22:00:00,56.0,47.0,71.69,180.0,5.0,30.15,7.0,55.9
2021-05-15 23:00:00,57.0,48.0,71.81,180.0,5.0,30.13,10.0,57.0
2021-05-16 00:00:00,58.0,47.0,66.7,0.0,0.0,30.14,10.0,57.9
2021-05-16 01:00:00,58.0,47.0,66.7,130.0,4.0,30.14,10.0,57.9
2021-05-16 02:00:00,58.0,48.0,69.52,210.0,13.0,30.15,10.0,57.9
2021-05-16 03:00:00,56.0,51.0,83.88,210.0,5.0,30.15,10.0,55.9
2021-05-16 04:00:00,56.0,50.0,80.52,200.0,5.0,30.15,10.0,55.9
2021-05-16 05:00:00,56.0,51.0,83.88,200.0,4.0,30.15,10.0,55.9
2021-05-16 06:00:00,56.0,51.0,83.88,0.0,0.0,30.15,10.0,55.9
2021-05-16 07:00:00,57.0,51.0,80.6,200.0,3.0,30.15,10.0,57.0
2021-05-16 08:00:00,56.0,51.0,83.88,230.0,3.0,30.16,10.0,55.9
2021-05-16 09:00:00,56.0,51.0,83.88,170.0,4.0,30.16,10.0,55.9
2021-05-16 10:00:00,55.0,51.0,86.66,200.0,3.0,30.18,10.0,55.0
2021-05-16 11:00:00,56.0,51.0,83.88,200.0,3.0,30.19,10.0,55.9
2021-05-16 12:00:00,58.0,51.0,78.03,200.0,5.0,30.21,10.0,57.9
2021-05-16 13:00:00,62.0,52.0,69.46,220.0,4.0,30.2,10.0,62.1
2021-05-16 14:00:00,64.0,52.0,64.97,220.0,3.0,30.19,10.0,64.0
2021-05-16 15:00:00,68.0,53.0,58.88,160.0,4.0,30.19,10.0,68.0
2021-05-16 16:00:00,65.0,51.0,60.9,130.0,9.0,30.19,10.0,64.9
2021-05-16 17:00:00,68.0,50.0,52.51,130.0,6.0,30.17,10.0,68.0
2021-05-16 18:00:00,68.0,49.0,50.4,120.0,9.0,30.16,10.0,68.0
2021-05-16 19:00:00,69.0,47.0,45.02,110.0,11.0,30.15,10.0,69.1
2021-05-16 20:00:00,67.0,46.0,46.94,120.0,10.0,30.16,10.0,66.9
2021-05-16 21:00:00,65.0,46.0,50.32,100.0,10.0,30.15,10.0,64.9
2021-05-16 22:00:00,61.0,45.0,55.57,110.0,9.0,30.14,10.0,61.0
2021-05-16 23:00:00,60.0,45.0,57.37,110.0,5.0,30.14,10.0,60.1
2021-05-17 00:00:00,59.0,45.0,59.67,120.0,4.0,30.15,10.0,59.0
2021-05-17 01:00:00,54.0,45.0,71.5,80.0,4.0,30.15,10.0,54.0
2021-05-17 02:00:00,55.0,45.0,68.93,0.0,0.0,30.16,10.0,55.0
2021-05-17 03:00:00,53.0,45.0,73.89,130.0,3.0,30.16,10.0,53.1
2021-05-17 04:00:00,53.0,45.0,73.89,50.0,3.0,30.16,10.0,53.1
2021-05-17 05:00:00,53.0,46.0,76.75,0.0,0.0,30.16,10.0,53.1
2021-05-17 06:00:00,50.0,45.0,82.86,0.0,0.0,30.15,10.0,50.0
2021-05-17 07:00:00,51.0,45.0,79.54,0.0,0.0,30.14,10.0,51.1
2021-05-17 08:00:00,50.0,46.0,86.06,50.0,4.0,30.14,8.0,50.0
2021-05-17 09:00:00,48.0,44.0,86.28,50.0,3.0,30.15,8.0,46.98
2021-05-17 10:00:00,51.0,45.0,79.54,40.0,4.0,30.16,9.0,51.1
2021-05-17 11:00:00,54.0,47.0,76.83,0.0,0.0,30.17,10.0,54.0
2021-05-17 12:00:00,58.0,49.0,71.9,70.0,4.0,30.18,10.0,57.9
2021-05-17 13:00:00,62.0,48.0,59.86,100.0,5.0,30.2,10.0,62.1
2021-05-17 14:00:00,64.0,49.0,57.91,0.0,0.0,30.2,10.0,64.0
2021-05-17 15:00:00,68.0,51.0,54.7,80.0,4.0,30.2,10.0,68.0
2021-05-17 16:00:00,68.0,52.0,56.55,90.0,8.0,30.2,10.0,68.0
2021-05-17 17:00:00,69.0,52.0,54.45,90.0,7.0,30.2,10.0,69.1
2021-05-17 18:00:00,71.0,50.0,47.23,140.0,10.0,30.2,10.0,71.1
2021-05-17 19:00:00,68.0,52.0,56.55,110.0,10.0,30.2,10.0,68.0
2021-05-17 20:00:00,71.0,51.0,49.2,100.0,8.0,30.19,10.0,71.1
2021-05-17 21:00:00,71.0,51.0,49.2,110.0,8.0,30.18,10.0,71.1
2021-05-17 22:00:00,70.0,51.0,51.07,130.0,7.0,30.19,10.0,70.0
2021-05-17 23:00:00,68.0,52.0,56.55,140.0,7.0,30.18,10.0,68.0
2021-05-18 00:00:00,64.0,50.0,60.34,110.0,5.0,30.19,10.0,64.0
2021-05-18 01:00:00,57.0,49.0,74.27,100.0,6.0,30.2,10.0,57.0
2021-05-18 02:00:00,53.0,48.0,82.76,90.0,6.0,30.21,10.0,53.1
2021-05-18 03:00:00,53.0,49.0,85.59,120.0,3.0,30.22,9.0,53.1
2021-05-18 04:00:00,53.0,48.0,82.76,110.0,3.0,30.22,10.0,53.1
2021-05-18 05:00:00,51.0,47.0,85.48,80.0,6.0,30.22,10.0,51.1
2021-05-18 06:00:00,50.0,46.0,86.06,90.0,6.0,30.22,10.0,50.0
2021-05-18 07:00:00,50.0,46.0,86.06,80.0,5.0,30.22,10.0,50.0
2021-05-18 08:00:00,54.0,50.0,86.29,110.0,3.0,30.23,10.0,54.0
2021-05-18 09:00:00,56.0,52.0,86.71,110.0,5.0,30.22,10.0,55.9
2021-05-18 10:00:00,57.0,52.0,83.33,120.0,5.0,30.23,10.0,57.0
2021-05-18 11:00:00,59.0,53.0,80.75,120.0,7.0,30.23,10.0,59.0
2021-05-18 12:00:00,63.0,54.0,72.42,150.0,7.0,30.23,10.0,63.0
2021-05-18 13:00:00,66.0,55.0,67.64,150.0,13.0,30.23,10.0,66.0
2021-05-18 14:00:00,68.0,56.0,65.22,140.0,12.0,30.23,10.0,68.0
2021-05-18 15:00:00,69.0,56.0,62.8,120.0,13.0,30.23,10.0,69.1
2021-05-18 16:00:00,72.0,56.0,56.89,140.0,11.0,30.23,10.0,72.0
2021-05-18 17:00:00,71.0,56.0,58.65,120.0,11.0,30.22,10.0,71.1
2021-05-18 18:00:00,71.0,56.0,58.65,120.0,10.0,30.21,10.0,71.1
2021-05-18 19:00:00,70.0,55.0,58.94,120.0,9.0,30.2,10.0,70.0
2021-05-18 20:00:00,70.0,55.0,58.94,130.0,9.0,30.18,10.0,70.0
2021-05-18 21:00:00,72.0,56.0,56.89,140.0,11.0,30.16,10.0,72.0
2021-05-18 22:00:00,72.0,57.0,59.2,150.0,10.0,30.16,10.0,72.0
2021-05-18 23:00:00,72.0,57.0,59.2,160.0,11.0,30.16,10.0,72.0
2021-05-19 00:00:00,68.0,60.0,75.84,160.0,7.0,30.16,8.0,68.0
2021-05-19 01:00:00,66.0,61.0,83.91,150.0,6.0,30.18,7.0,66.0
2021-05-19 02:00:00,66.0,61.0,83.91,160.0,8.0,30.18,7.0,66.0
2021-05-19 03:00:00,66.0,61.0,83.91,130.0,7.0,30.17,10.0,66.0
2021-05-19 04:00:00,64.0,60.0,87.14,110.0,6.0,30.15,8.0,64.0
2021-05-19 05:00:00,63.0,57.0,80.76,250.0,12.0,30.16,10.0,63.0
2021-05-19 06:00:00,63.0,57.0,80.76,130.0,6.0,30.14,10.0,63.0
2021-05-19 07:00:00,63.0,57.0,80.76,140.0,6.0,30.13,10.0,63.0
2021-05-19 08:00:00,63.0,57.0,80.76,140.0,6.0,30.13,10.0,63.0
2021-05-19 09:00:00,63.0,58.0,83.42,140.0,5.0,30.14,10.0,63.0
2021-05-19 10:00:00,64.0,58.0,80.54,140.0,6.0,30.15,10.0,64.0
2021-05-19 11:00:00,64.0,58.0,80.54,140.0,7.0,30.17,10.0,64.0
2021-05-19 12:00:00,66.0,59.0,78.14,140.0,4.0,30.18,10.0,66.0
2021-05-19 13:00:00,66.0,61.0,83.91,180.0,5.0,30.19,4.0,66.0
2021-05-19 14:00:00,69.0,62.0,78.39,190.0,8.0,30.19,10.0,69.1
2021-05-19 15:00:00,70.0,61.0,73.11,180.0,13.0,30.2,10.0,70.0
2021-05-19 16:00:00,71.0,62.0,73.22,190.0,12.0,30.2,10.0,71.1
2021-05-19 17:00:00,72.0,63.0,73.31,180.0,11.0,30.2,10.0,72.0
2021-05-19 18:00:00,75.0,63.0,66.27,180.0,13.0,30.18,10.0,75.0
2021-05-19 19:00:00,77.0,63.0,62.0,190.0,11.0,30.17,10.0,77.0
2021-05-19 20:00:00,74.0,62.0,66.61,150.0,10.0,30.17,10.0,73.9
2021-05-19 21:00:00,77.0,64.0,64.21,190.0,10.0,30.17,10.0,77.0
2021-05-19 22:00:00,75.0,63.0,66.27,190.0,13.0,30.18,10.0,75.0
2021-05-19 23:00:00,75.0,62.0,64.2,180.0,9.0,30.17,10.0,75.0
2021-05-20 00:00:00,71.0,61.0,70.42,120.0,5.0,30.18,10.0,71.1
2021-05-20 01:00:00,68.0,60.0,75.84,140.0,5.0,30.18,10.0,68.0
2021-05-20 02:00:00,68.0,60.0,75.84,170.0,6.0,30.2,10.0,68.0
2021-05-20 03:00:00,68.0,60.0,75.84,170.0,5.0,30.2,10.0,68.0
2021-05-20 04:00:00,68.0,60.0,75.84,150.0,5.0,30.21,10.0,68.0
2021-05-20 05:00:00,66.0,59.0,78.14,130.0,5.0,30.22,10.0,66.0
2021-05-20 06:00:00,66.0,60.0,81.27,130.0,4.0,30.22,10.0,66.0
2021-05-20 07:00:00,65.0,60.0,84.44,110.0,5.0,30.21,10.0,64.9
2021-05-20 08:00:00,64.0,59.0,83.78,110.0,5.0,30.21,10.0,64.0
2021-05-20 09:00:00,65.0,59.0,81.19,140.0,6.0,30.22,10.0,64.9
2021-05-20 10:00:00,66.0,59.0,78.14,160.0,5.0,30.22,10.0,66.0
2021-05-20 11:00:00,68.0,60.0,75.84,170.0,8.0,30.23,10.0,68.0
2021-05-20 12:00:00,68.0,60.0,75.84,180.0,6.0,30.24,10.0,68.0
2021-05-20 13:00:00,71.0,61.0,70.42,170.0,7.0,30.24,10.0,71.1
2021-05-20 14:00:00,76.0,62.0,62.3,190.0,8.0,30.25,10.0,75.9
2021-05-20 15:00:00,80.0,62.0,54.23,180.0,11.0,30.24,10.0,81.31
2021-05-20 16:00:00,82.0,61.0,49.03,190.0,15.0,30.23,10.0,82.62
2021-05-20 17:00:00,82.0,61.0,49.03,130.0,9.0,30.22,10.0,82.62
2021-05-20 18:00:00,83.0,62.0,49.51,140.0,12.0,30.21,10.0,83.7
2021-05-20 19:00:00,82.0,61.0,49.03,150.0,14.0,30.21,10.0,82.62
2021-05-20 20:00:00,82.0,62.0,50.97,130.0,11.0,30.2,10.0,82.91
2021-05-20 21:00:00,82.0,60.0,47.49,140.0,9.0,30.19,10.0,82.4
2021-05-20 22:00:00,85.0,59.0,41.58,170.0,7.0,30.19,10.0,84.51
2021-05-20 23:00:00,83.0,60.0,46.12,180.0,11.0,30.19,10.0,83.13
2021-05-21 00:00:00,81.0,59.0,47.17,190.0,7.0,30.2,10.0,81.4
2021-05-21 01:00:00,78.0,59.0,51.88,180.0,6.0,30.21,10.0,78.1
2021-05-21 02:00:00,76.0,60.0,58.04,180.0,7.0,30.23,10.0,75.9
2021-05-21 03:00:00,74.0,59.0,59.66,170.0,5.0,30.23,10.0,73.9
2021-05-21 04:00:00,73.0,59.0,61.5,180.0,6.0,30.23,10.0,73.0
2021-05-21 05:00:00,72.0,59.0,63.61,170.0,5.0,30.23,10.0,72.0
2021-05-21 06:00:00,71.0,59.0,65.58,190.0,5.0,30.24,10.0,71.1
2021-05-21 07:00:00,70.0,59.0,68.09,190.0,4.0,30.24,10.0,70.0
2021-05-21 08:00:00,69.0,59.0,70.21,170.0,6.0,30.25,10.0,69.1
2021-05-21 09:00:00,68.0,58.0,70.1,200.0,5.0,30.26,10.0,68.0
2021-05-21 10:00:00,67.0,58.0,72.81,190.0,4.0,30.28,10.0,66.9
2021-05-21 11:00:00,71.0,59.0,65.58,170.0,6.0,30.3,10.0,71.1
2021-05-21 12:00:00,74.0,60.0,62.05,180.0,6.0,30.31,10.0,73.9
2021-05-21 13:00:00,79.0,59.0,50.36,220.0,13.0,30.31,10.0,79.0
2021-05-21 14:00:00,81.0,59.0,47.17,210.0,12.0,30.32,10.0,81.4
2021-05-21 15:00:00,84.0,59.0,42.8,210.0,17.0,30.31,10.0,83.75
2021-05-21 16:00:00,84.0,59.0,42.8,210.0,16.0,30.32,10.0,83.75
2021-05-21 17:00:00,85.0,58.0,39.97,220.0,14.0,30.31,10.0,84.21
2021-05-21 18:00:00,86.0,58.0,38.58,230.0,12.0,30.31,10.0,85.16
2021-05-21 19:00:00,85.0,61.0,44.65,260.0,11.0,30.31,10.0,85.12
2021-05-21 20:00:00,78.0,64.0,61.92,260.0,15.0,30.32,10.0,78.1
2021-05-21 21:00:00,75.0,65.0,70.83,260.0,10.0,30.32,10.0,75.0
2021-05-21 22:00:00,74.0,65.0,73.49,260.0,13.0,30.33,10.0,73.9
2021-05-21 23:00:00,73.0,65.0,75.75,280.0,6.0,30.33,10.0,73.0
2021-05-22 00:00:00,72.0,64.0,75.92,270.0,5.0,30.32,10.0,72.0
2021-05-22 01:00:00,71.0,64.0,78.28,0.0,0.0,30.33,10.0,71.1
2021-05-22 02:00:00,71.0,65.0,80.78,170.0,3.0,30.33,10.0,71.1
2021-05-22 03:00:00,70.0,65.0,83.86,170.0,3.0,30.34,10.0,70.0
2021-05-22 04:00:00,69.0,64.0,83.81,0.0,0.0,30.34,10.0,69.1
2021-05-22 05:00:00,70.0,64.0,81.27,200.0,3.0,30.34,10.0,70.0
2021-05-22 06:00:00,69.0,64.0,83.81,190.0,4.0,30.33,10.0,69.1
2021-05-22 07:00:00,68.0,63.0,84.03,200.0,3.0,30.32,10.0,68.0
2021-05-22 08:00:00,67.0,63.0,87.28,210.0,3.0,30.33,10.0,66.9
2021-05-22 09:00:00,67.0,63.0,87.28,0.0,0.0,30.33,8.0,66.9
2021-05-22 10:00:00,67.0,64.0,90.4,0.0,0.0,30.35,9.0,66.9
2021-05-22 11:00:00,69.0,65.0,86.48,250.0,3.0,30.37,10.0,69.1
2021-05-22 12:00:00,74.0,64.0,71.21,220.0,5.0,30.36,10.0,73.9
2021-05-22 13:00:00,77.0,64.0,64.21,240.0,6.0,30.35,10.0,77.0
2021-05-22 14:00:00,79.0,64.0,60.11,240.0,7.0,30.34,10.0,79.0
2021-05-22 15:00:00,84.0,63.0,49.32,250.0,10.0,30.32,10.0,84.99
2021-05-22 16:00:00,87.0,63.0,44.66,280.0,10.0,30.31,10.0,87.96
2021-05-22 17:00:00,87.0,62.0,43.27,260.0,10.0,30.29,10.0,87.58
2021-05-22 18:00:00,89.0,63.0,41.92,240.0,11.0,30.27,10.0,89.99
2021-05-22 19:00:00,86.0,62.0,44.81,260.0,10.0,30.26,10.0,86.52
2021-05-22 20:00:00,88.0,63.0,43.4,230.0,10.0,30.24,10.0,88.86
2021-05-22 21:00:00,86.0,63.0,46.25,250.0,8.0,30.22,10.0,86.88
2021-05-22 22:00:00,85.0,61.0,44.65,260.0,11.0,30.21,10.0,85.12
2021-05-22 23:00:00,83.0,60.0,46.12,270.0,8.0,30.2,10.0,83.13
2021-05-23 00:00:00,80.0,61.0,52.16,270.0,5.0,30.2,10.0,81.1
2021-05-23 01:00:00,75.0,61.0,61.75,250.0,7.0,30.2,10.0,75.0
2021-05-23 02:00:00,77.0,61.0,57.77,260.0,10.0,30.21,10.0,77.0
2021-05-23 03:00:00,73.0,60.0,63.96,260.0,7.0,30.2,10.0,73.0
2021-05-23 04:00:00,73.0,62.0,68.66,270.0,7.0,30.21,10.0,73.0
2021-05-23 05:00:00,70.0,62.0,76.01,250.0,7.0,30.21,10.0,70.0
2021-05-23 06:00:00,70.0,64.0,81.27,250.0,7.0,30.21,10.0,70.0
2021-05-23 07:00:00,71.0,65.0,80.78,280.0,6.0,30.21,10.0,71.1
2021-05-23 08:00:00,69.0,65.0,86.48,250.0,5.0,30.21,10.0,69.1
2021-05-23 09:00:00,67.0,64.0,90.4,230.0,5.0,30.2,10.0,66.9
2021-05-23 10:00:00,69.0,65.0,86.48,240.0,6.0,30.2,10.0,69.1
2021-05-23 11:00:00,71.0,66.0,83.93,250.0,8.0,30.22,10.0,71.1
2021-05-23 12:00:00,71.0,66.0,83.93,250.0,8.0,30.22,10.0,71.1
2021-05-23 13:00:00,71.0,67.0,86.59,260.0,8.0,30.21,5.0,71.1
2021-05-23 14:00:00,74.0,68.0,81.82,280.0,8.0,30.2,8.0,73.9
2021-05-23 15:00:00,77.0,68.0,73.78,270.0,7.0,30.2,10.0,77.0
2021-05-23 16:00:00,78.0,68.0,71.14,280.0,9.0,30.19,10.0,78.1
2021-05-23 17:00:00,79.0,68.0,69.07,260.0,10.0,30.18,10.0,79.0
2021-05-23 18:00:00,79.0,67.0,66.49,290.0,8.0,30.17,10.0,79.0
2021-05-23 19:00:00,65.0,57.0,75.56,30.0,10.0,30.18,10.0,64.9
2021-05-23 20:00:00,62.0,54.0,74.75,20.0,7.0,30.17,10.0,62.1
2021-05-23 21:00:00,58.0,53.0,84.0,30.0,7.0,30.18,10.0,57.9
2021-05-23 22:00:00,58.0,52.0,80.67,40.0,11.0,30.18,10.0,57.9
2021-05-23 23:00:00,55.0,51.0,86.66,40.0,8.0,30.18,10.0,55.0
2021-05-24 00:00:00,55.0,51.0,86.66,40.0,5.0,30.18,10.0,55.0
2021-05-24 01:00:00,55.0,51.0,86.66,30.0,3.0,30.2,10.0,55.0
2021-05-24 02:00:00,54.0,51.0,89.88,30.0,4.0,30.18,10.0,54.0
2021-05-24 03:00:00,54.0,51.0,89.88,20.0,5.0,30.19,2.0,54.0
2021-05-24 04:00:00,53.0,51.0,92.89,0.0,0.0,30.18,0.25,53.1
2021-05-24 05:00:00,53.0,51.0,92.89,40.0,3.0,30.17,0.25,53.1
2021-05-24 06:00:00,54.0,52.0,92.92,0.0,0.0,30.15,0.5,54.0
2021-05-24 07:00:00,54.0,52.0,92.92,0.0,0.0,30.15,0.25,54.0
2021-05-24 08:00:00,54.0,53.0,96.76,0.0,0.0,30.14,4.0,54.0
2021-05-24 09:00:00,55.0,54.0,96.42,190.0,3.0,30.15,9.0,55.0
2021-05-24 10:00:00,56.0,54.0,93.32,0.0,0.0,30.15,9.0,55.9
2021-05-24 11:00:00,58.0,54.0,86.82,0.0,0.0,30.15,10.0,57.9
2021-05-24 12:00:00,60.0,56.0,85.99,0.0,0.0,30.16,10.0,60.1
2021-05-24 13:00:00,67.0,60.0,78.77,200.0,4.0,30.16,10.0,66.9
2021-05-24 14:00:00,72.0,62.0,71.02,190.0,3.0,30.15,10.0,72.0
2021-05-24 15:00:00,77.0,65.0,66.27,210.0,4.0,30.14,9.0,77.0
2021-05-24 16:00:00,82.0,64.0,54.5,220.0,7.0,30.12,10.0,83.47
2021-05-24 17:00:00,86.0,64.0,47.91,210.0,9.0,30.09,10.0,87.31
2021-05-24 18:00:00,85.0,63.0,47.91,250.0,6.0,30.07,10.0,85.83
2021-05-24 19:00:00,84.0,65.0,52.71,110.0,10.0,30.06,10.0,85.72
2021-05-24 20:00:00,85.0,63.0,47.91,130.0,10.0,30.04,10.0,85.83
2021-05-24 21:00:00,81.0,62.0,52.66,130.0,11.0,30.02,10.0,82.06
2021-05-24 22:00:00,82.0,61.0,49.03,160.0,10.0,30.01,10.0,82.62
2021-05-24 23:00:00,81.0,61.0,50.65,160.0,9.0,30.0,10.0,81.81
2021-05-25 00:00:00,78.0,61.0,55.71,170.0,7.0,30.0,10.0,78.1
2021-05-25 01:00:00,73.0,60.0,63.96,190.0,3.0,30.01,10.0,73.0
2021-05-25 02:00:00,71.0,60.0,68.21,200.0,3.0,30.02,10.0,71.1
2021-05-25 03:00:00,72.0,61.0,68.31,190.0,5.0,30.03,10.0,72.0
2021-05-25 04:00:00,72.0,59.0,63.61,210.0,6.0,30.02,10.0,72.0
2021-05-25 05:00:00,72.0,56.0,56.89,210.0,6.0,30.01,10.0,72.0
2021-05-25 06:00:00,73.0,56.0,55.0,230.0,5.0,30.01,10.0,73.0
2021-05-25 07:00:00,73.0,56.0,55.0,210.0,6.0,29.99,10.0,73.0
2021-05-25 08:00:00,72.0,57.0,59.2,220.0,6.0,29.99,10.0,72.0
2021-05-25 09:00:00,72.0,58.0,61.15,220.0,6.0,29.98,10.0,72.0
2021-05-25 10:00:00,72.0,59.0,63.61,220.0,7.0,29.99,10.0,72.0
2021-05-25 11:00:00,73.0,60.0,63.96,220.0,8.0,29.99,10.0,73.0
2021-05-25 12:00:00,74.0,61.0,64.07,210.0,8.0,29.98,10.0,73.9
2021-05-25 13:00:00,77.0,63.0,62.0,230.0,8.0,29.98,10.0,77.0
2021-05-25 14:00:00,79.0,62.0,56.23,230.0,12.0,29.98,10.0,79.0
2021-05-25 15:00:00,80.0,62.0,54.23,230.0,15.0,29.97,10.0,81.31
2021-05-25 16:00:00,82.0,63.0,52.62,210.0,13.0,29.96,10.0,83.17
2021-05-25 17:00:00,84.0,59.0,42.8,210.0,20.0,29.94,10.0,83.75
2021-05-25 18:00:00,85.0,60.0,43.24,210.0,19.0,29.92,10.0,84.83
2021-05-25 19:00:00,87.0,62.0,43.27,230.0,21.0,29.91,10.0,87.58
2021-05-25 20:00:00,81.0,62.0,52.66,230.0,16.0,29.91,10.0,82.06
2021-05-25 21:00:00,82.0,63.0,52.62,220.0,18.0,29.9,10.0,83.17
2021-05-25 22:00:00,80.0,63.0,55.98,220.0,20.0,29.9,10.0,81.5
2021-05-25 23:00:00,80.0,62.0,54.23,230.0,21.0,29.89,10.0,81.31
2021-05-26 00:00:00,76.0,64.0,66.6,220.0,15.0,29.89,10.0,75.9
2021-05-26 01:00:00,75.0,63.0,66.27,230.0,14.0,29.89,10.0,75.0
2021-05-26 02:00:00,73.0,63.0,70.87,240.0,15.0,29.9,10.0,73.0
2021-05-26 03:00:00,74.0,64.0,71.21,230.0,18.0,29.89,10.0,73.9
2021-05-26 04:00:00,73.0,62.0,68.66,230.0,14.0,29.89,10.0,73.0
2021-05-26 05:00:00,70.0,63.0,78.46,240.0,11.0,29.89,10.0,70.0
2021-05-26 06:00:00,69.0,66.0,89.86,220.0,9.0,29.89,10.0,69.1
2021-05-26 07:00:00,69.0,65.0,86.48,230.0,10.0,29.89,10.0,69.1
2021-05-26 08:00:00,69.0,65.0,86.48,230.0,11.0,29.89,10.0,69.1
2021-05-26 09:00:00,69.0,65.0,86.48,230.0,9.0,29.87,10.0,69.1
2021-05-26 10:00:00,69.0,65.0,86.48,250.0,10.0,29.9,10.0,69.1
2021-05-26 11:00:00,69.0,65.0,86.48,250.0,9.0,29.93,10.0,69.1
2021-05-26 12:00:00,71.0,66.0,83.93,270.0,7.0,29.94,10.0,71.1
2021-05-26 13:00:00,73.0,54.0,51.33,310.0,9.0,29.96,10.0,73.0
2021-05-26 14:00:00,75.0,54.0,47.99,280.0,10.0,29.97,10.0,75.0
2021-05-26 15:00:00,77.0,49.0,37.19,320.0,10.0,29.99,10.0,77.0
2021-05-26 16:00:00,79.0,49.0,34.81,290.0,16.0,29.99,10.0,79.0
2021-05-26 17:00:00,80.0,48.0,32.46,290.0,13.0,30.0,10.0,79.42
2021-05-26 18:00:00,81.0,48.0,31.52,290.0,15.0,30.0,10.0,79.92
2021-05-26 19:00:00,81.0,47.0,30.24,310.0,15.0,30.01,10.0,79.83
2021-05-26 20:00:00,82.0,49.0,31.56,290.0,11.0,30.01,10.0,80.61
2021-05-26 21:00:00,79.0,48.0,33.66,300.0,9.0,30.02,10.0,79.0
2021-05-26 22:00:00,72.0,50.0,45.81,90.0,10.0,30.03,10.0,72.0
2021-05-26 23:00:00,70.0,51.0,51.07,80.0,12.0,30.05,10.0,70.0
2021-05-27 00:00:00,60.0,47.0,61.65,50.0,12.0,30.1,10.0,60.1
2021-05-27 01:00:00,57.0,46.0,66.59,40.0,9.0,30.12,10.0,57.0
2021-05-27 02:00:00,55.0,46.0,71.6,30.0,6.0,30.14,10.0,55.0
2021-05-27 03:00:00,54.0,46.0,74.26,20.0,8.0,30.16,10.0,54.0
2021-05-27 04:00:00,53.0,46.0,76.75,20.0,6.0,30.17,10.0,53.1
2021-05-27 05:00:00,52.0,45.0,76.94,30.0,5.0,30.17,10.0,52.0
2021-05-27 06:00:00,52.0,44.0,74.35,50.0,10.0,30.16,10.0,52.0
2021-05-27 07:00:00,51.0,44.0,76.86,30.0,7.0,30.18,10.0,51.1
2021-05-27 08:00:00,51.0,43.0,73.69,50.0,11.0,30.19,10.0,51.1
2021-05-27 09:00:00,50.0,42.0,74.15,60.0,12.0,30.2,10.0,50.0
2021-05-27 10:00:00,49.0,40.0,70.95,60.0,10.0,30.22,10.0,44.16
2021-05-27 11:00:00,50.0,37.0,60.79,60.0,16.0,30.23,10.0,50.0
2021-05-27 12:00:00,51.0,36.0,56.1,60.0,18.0,30.21,10.0,51.1
2021-05-27 13:00:00,51.0,35.0,54.13,60.0,15.0,30.22,10.0,51.1
2021-05-27 14:00:00,51.0,36.0,56.1,70.0,14.0,30.2,10.0,51.1
2021-05-27 15:00:00,52.0,37.0,56.45,60.0,11.0,30.2,10.0,52.0
2021-05-27 16:00:00,53.0,38.0,56.17,30.0,14.0,30.19,10.0,53.1
2021-05-27 17:00:00,51.0,39.0,63.12,60.0,18.0,30.14,10.0,51.1
2021-05-27 18:00:00,53.0,39.0,58.64,60.0,20.0,30.1,10.0,53.1
2021-05-27 19:00:00,49.0,41.0,74.05,60.0,14.0,30.12,7.0,42.95
2021-05-27 20:00:00,48.0,43.0,82.72,50.0,16.0,30.07,7.0,41.27
2021-05-27 21:00:00,48.0,42.0,79.91,40.0,16.0,30.02,7.0,41.27
2021-05-27 22:00:00,48.0,43.0,82.72,50.0,15.0,30.0,9.0,41.52
2021-05-27 23:00:00,48.0,43.0,82.72,40.0,15.0,29.98,10.0,41.52
2021-05-28 00:00:00,48.0,44.0,86.28,50.0,16.0,30.0,6.0,41.27
2021-05-28 01:00:00,48.0,45.0,89.29,30.0,13.0,30.0,10.0,42.07
2021-05-28 02:00:00,48.0,43.0,82.72,40.0,17.0,30.01,10.0,41.04
2021-05-28 03:00:00,47.0,43.0,86.21,40.0,18.0,30.01,10.0,39.36
2021-05-28 04:00:00,48.0,44.0,86.28,50.0,19.0,30.01,10.0,40.6
2021-05-28 05:00:00,47.0,43.0,86.21,50.0,21.0,30.01,6.0,38.73
2021-05-28 06:00:00,46.0,42.0,86.16,60.0,22.0,30.0,8.0,37.33
2021-05-28 07:00:00,46.0,42.0,86.16,60.0,14.0,30.01,10.0,39.21
2021-05-28 08:00:00,45.0,41.0,85.77,60.0,16.0,30.01,10.0,37.36
2021-05-28 09:00:00,46.0,40.0,79.13,70.0,21.0,30.0,10.0,37.53
2021-05-28 10:00:00,46.0,40.0,79.13,70.0,20.0,30.0,10.0,37.73
2021-05-28 11:00:00,46.0,40.0,79.13,60.0,21.0,30.0,10.0,37.53
2021-05-28 12:00:00,46.0,41.0,82.58,50.0,13.0,30.03,10.0,39.5
2021-05-28 13:00:00,45.0,41.0,85.77,50.0,13.0,30.03,2.0,38.22
2021-05-28 14:00:00,45.0,42.0,89.49,50.0,17.0,30.04,2.5,37.11
2021-05-28 15:00:00,45.0,42.0,89.49,50.0,17.0,30.06,2.0,37.11
2021-05-28 16:00:00,46.0,43.0,89.2,60.0,16.0,30.06,2.0,38.67
2021-05-28 17:00:00,46.0,43.0,89.2,50.0,18.0,30.07,2.0,38.18
2021-05-28 18:00:00,46.0,43.0,89.2,50.0,17.0,30.07,2.0,38.42
2021-05-28 19:00:00,47.0,41.0,79.82,30.0,17.0,30.07,10.0,39.59
2021-05-28 20:00:00,47.0,40.0,76.48,30.0,15.0,30.08,10.0,40.1
2021-05-28 21:00:00,47.0,39.0,73.85,20.0,14.0,30.09,10.0,40.37
2021-05-28 22:00:00,47.0,38.0,70.73,20.0,11.0,30.11,10.0,41.3
2021-05-28 23:00:00,48.0,36.0,62.97,20.0,13.0,30.11,10.0,42.07
2021-05-29 00:00:00,48.0,35.0,60.76,20.0,11.0,30.12,10.0,42.69
2021-05-29 01:00:00,47.0,36.0,65.63,20.0,10.0,30.12,10.0,41.65
2021-05-29 02:00:00,47.0,37.0,68.27,20.0,7.0,30.14,10.0,42.94
2021-05-29 03:00:00,46.0,38.0,73.18,20.0,6.0,30.15,10.0,42.39
2021-05-29 04:00:00,45.0,39.0,79.36,50.0,7.0,30.16,10.0,40.63
2021-05-29 05:00:00,45.0,33.0,62.83,60.0,9.0,30.16,10.0,39.68
2021-05-29 06:00:00,44.0,32.0,62.21,30.0,7.0,30.15,10.0,39.53
2021-05-29 07:00:00,45.0,28.9,53.0,50.0,11.0,30.16,10.0,38.89
2021-05-29 08:00:00,45.0,30.9,57.5,50.0,11.0,30.18,10.0,38.89
2021-05-29 09:00:00,44.0,33.0,65.02,40.0,8.0,30.2,10.0,39.02
2021-05-29 10:00:00,44.0,34.0,67.41,30.0,6.0,30.22,10.0,40.1
2021-05-29 11:00:00,50.0,36.0,58.44,40.0,8.0,30.23,10.0,50.0
2021-05-29 12:00:00,53.0,33.0,46.42,60.0,11.0,30.25,10.0,53.1
2021-05-29 13:00:00,55.0,33.0,43.31,50.0,14.0,30.25,10.0,55.0
2021-05-29 14:00:00,57.0,32.0,38.54,60.0,15.0,30.25,10.0,57.0
2021-05-29 15:00:00,58.0,30.0,34.41,50.0,14.0,30.26,10.0,57.9
2021-05-29 16:00:00,59.0,32.0,35.87,50.0,11.0,30.26,10.0,59.0
2021-05-29 17:00:00,59.0,30.0,33.08,60.0,9.0,30.26,10.0,59.0
2021-05-29 18:00:00,61.0,28.9,29.45,20.0,8.0,30.26,10.0,61.0
2021-05-29 19:00:00,60.0,27.0,28.13,50.0,7.0,30.25,10.0,60.1
2021-05-29 20:00:00,61.0,28.0,28.38,40.0,8.0,30.25,10.0,61.0
2021-05-29 21:00:00,62.0,28.9,28.33,50.0,9.0,30.24,10.0,62.1
2021-05-29 22:00:00,61.0,28.0,28.38,50.0,6.0,30.24,10.0,61.0
2021-05-29 23:00:00,59.0,28.9,31.63,40.0,7.0,30.24,10.0,59.0
2021-05-30 00:00:00,53.0,28.9,39.16,50.0,6.0,30.24,10.0,53.1
2021-05-30 01:00:00,49.0,28.0,44.1,30.0,5.0,30.24,10.0,46.47
2021-05-30 02:00:00,49.0,28.9,45.75,10.0,4.0,30.26,10.0,47.16
2021-05-30 03:00:00,43.0,30.0,59.83,40.0,3.0,30.26,10.0,41.26
2021-05-30 04:00:00,42.0,30.9,64.24,0.0,0.0,30.26,10.0,42.1
2021-05-30 05:00:00,40.0,33.0,76.44,0.0,0.0,30.27,10.0,39.9
2021-05-30 06:00:00,37.0,32.0,81.93,290.0,4.0,30.27,10.0,33.26
2021-05-30 07:00:00,35.0,30.9,84.49,280.0,4.0,30.27,10.0,31.04
2021-05-30 08:00:00,35.0,30.9,84.49,300.0,3.0,30.27,10.0,32.23
2021-05-30 09:00:00,38.0,30.9,75.64,0.0,0.0,30.27,10.0,37.9
2021-05-30 10:00:00,36.0,33.0,89.09,0.0,0.0,30.28,10.0,36.0
2021-05-30 11:00:00,45.0,36.0,70.53,0.0,0.0,30.29,10.0,45.0
2021-05-30 12:00:00,54.0,38.0,54.34,0.0,0.0,30.31,10.0,54.0
2021-05-30 13:00:00,59.0,37.0,43.78,0.0,0.0,30.31,10.0,59.0
2021-05-30 14:00:00,64.0,33.0,31.41,0.0,0.0,30.3,10.0,64.0
2021-05-30 15:00:00,66.0,32.0,28.03,170.0,4.0,30.29,10.0,66.0
2021-05-30 16:00:00,68.0,37.0,31.92,100.0,12.0,30.29,10.0,68.0
2021-05-30 17:00:00,67.0,35.0,30.75,110.0,9.0,30.28,10.0,66.9
2021-05-30 18:00:00,67.0,33.0,28.39,100.0,13.0,30.27,10.0,66.9
2021-05-30 19:00:00,68.0,33.0,27.34,120.0,10.0,30.26,10.0,68.0
2021-05-30 20:00:00,67.0,32.0,27.17,140.0,11.0,30.25,10.0,66.9
2021-05-30 21:00:00,64.0,30.0,27.71,130.0,12.0,30.24,10.0,64.0
2021-05-30 22:00:00,63.0,30.0,28.7,130.0,9.0,30.24,10.0,63.0
2021-05-30 23:00:00,61.0,30.9,31.95,140.0,6.0,30.23,10.0,61.0
2021-05-31 00:00:00,59.0,30.9,34.31,150.0,6.0,30.24,10.0,59.0
2021-05-31 01:00:00,58.0,30.9,35.69,170.0,6.0,30.23,10.0,57.9
2021-05-31 02:00:00,58.0,30.9,35.69,120.0,3.0,30.25,10.0,57.9
2021-05-31 03:00:00,57.0,34.0,41.76,210.0,3.0,30.25,10.0,57.0
2021-05-31 04:00:00,55.0,35.0,46.91,180.0,6.0,30.23,10.0,55.0
2021-05-31 05:00:00,52.0,36.0,54.26,260.0,3.0,30.24,10.0,52.0
2021-05-31 06:00:00,54.0,35.0,48.65,0.0,0.0,30.24,10.0,54.0
2021-05-31 07:00:00,54.0,38.0,54.34,0.0,0.0,30.24,10.0,54.0
2021-05-31 08:00:00,52.0,39.0,61.06,0.0,0.0,30.24,10.0,52.0
2021-05-31 09:00:00,53.0,41.0,63.38,0.0,0.0,30.24,10.0,53.1
2021-05-31 10:00:00,54.0,41.0,61.32,210.0,3.0,30.25,10.0,54.0
2021-05-31 11:00:00,56.0,43.0,61.81,0.0,0.0,30.26,10.0,55.9
2021-05-31 12:00:00,59.0,44.0,57.66,220.0,3.0,30.26,10.0,59.0
2021-05-31 13:00:00,64.0,47.0,53.72,220.0,4.0,30.26,10.0,64.0
2021-05-31 14:00:00,69.0,43.0,38.82,220.0,6.0,30.25,10.0,69.1
2021-05-31 15:00:00,73.0,42.0,32.84,230.0,7.0,30.24,10.0,73.0
2021-05-31 16:00:00,73.0,43.0,34.0,220.0,9.0,30.23,10.0,73.0
2021-05-31 17:00:00,74.0,44.0,34.4,210.0,10.0,30.22,10.0,73.9
2021-05-31 18:00:00,71.0,44.0,37.81,210.0,12.0,30.22,10.0,71.1
2021-05-31 19:00:00,71.0,45.0,39.13,230.0,11.0,30.22,10.0,71.1
2021-05-31 20:00:00,71.0,46.0,40.65,240.0,9.0,30.2,10.0,71.1
2021-05-31 21:00:00,71.0,46.0,40.65,230.0,10.0,30.19,10.0,71.1
2021-05-31 22:00:00,69.0,46.0,43.52,220.0,11.0,30.19,10.0,69.1
2021-05-31 23:00:00,69.0,47.0,45.02,230.0,11.0,30.2,10.0,69.1
2021-06-01 00:00:00,67.0,48.0,50.62,230.0,10.0,30.2,10.0,66.9
2021-06-01 01:00:00,63.0,44.0,50.03,220.0,7.0,30.19,10.0,63.0
2021-06-01 02:00:00,61.0,43.0,51.48,210.0,6.0,30.21,10.0,61.0
2021-06-01 03:00:00,55.0,43.0,63.86,250.0,7.0,30.22,10.0,55.0
2021-06-01 04:00:00,57.0,46.0,66.59,220.0,4.0,30.21,10.0,57.0
2021-06-01 05:00:00,53.0,46.0,76.75,240.0,7.0,30.2,10.0,53.1
2021-06-01 06:00:00,52.0,47.0,82.68,270.0,3.0,30.2,10.0,52.0
2021-06-01 07:00:00,52.0,47.0,82.68,20.0,7.0,30.21,10.0,52.0
2021-06-01 08:00:00,51.0,46.0,82.62,0.0,0.0,30.21,10.0,51.1
2021-06-01 09:00:00,48.0,45.0,89.29,200.0,5.0,30.2,10.0,45.4
2021-06-01 10:00:00,51.0,47.0,85.48,210.0,5.0,30.21,10.0,51.1
2021-06-01 11:00:00,57.0,52.0,83.33,260.0,5.0,30.22,10.0,57.0
2021-06-01 12:00:00,62.0,53.0,72.33,260.0,8.0,30.23,10.0,62.1
2021-06-01 13:00:00,67.0,53.0,61.16,280.0,6.0,30.22,10.0,66.9
2021-06-01 14:00:00,72.0,53.0,51.37,210.0,3.0,30.22,10.0,72.0
2021-06-01 15:00:00,73.0,51.0,46.13,200.0,6.0,30.22,10.0,73.0
2021-06-01 16:00:00,75.0,50.0,41.41,150.0,5.0,30.21,10.0,75.0
2021-06-01 17:00:00,76.0,51.0,41.86,180.0,7.0,30.19,10.0,75.9
2021-06-01 18:00:00,76.0,51.0,41.86,140.0,14.0,30.18,10.0,75.9
2021-06-01 19:00:00,75.0,49.0,39.75,140.0,14.0,30.17,10.0,75.0
2021-06-01 20:00:00,76.0,48.0,37.29,160.0,12.0,30.16,10.0,75.9
2021-06-01 21:00:00,75.0,47.0,36.87,140.0,10.0,30.15,10.0,75.0
2021-06-01 22:00:00,73.0,44.0,35.46,140.0,10.0,30.14,10.0,73.0
2021-06-01 23:00:00,71.0,41.0,33.57,120.0,8.0,30.13,10.0,71.1
2021-06-02 00:00:00,67.0,40.0,37.14,110.0,5.0,30.13,10.0,66.9
2021-06-02 01:00:00,65.0,39.0,38.44,140.0,3.0,30.13,10.0,64.9
2021-06-02 02:00:00,58.0,40.0,51.02,0.0,0.0,30.14,10.0,57.9
2021-06-02 03:00:00,59.0,41.0,51.18,160.0,5.0,30.13,10.0,59.0
2021-06-02 04:00:00,56.0,41.0,57.23,180.0,4.0,30.12,10.0,55.9
2021-06-02 05:00:00,56.0,43.0,61.81,200.0,4.0,30.11,10.0,55.9
2021-06-02 06:00:00,52.0,43.0,71.28,150.0,3.0,30.1,10.0,52.0
2021-06-02 07:00:00,51.0,43.0,73.69,0.0,0.0,30.08,10.0,51.1
2021-06-02 08:00:00,51.0,44.0,76.86,0.0,0.0,30.07,10.0,51.1
2021-06-02 09:00:00,51.0,44.0,76.86,0.0,0.0,30.06,10.0,51.1
2021-06-02 10:00:00,50.0,44.0,80.06,0.0,0.0,30.06,10.0,50.0
2021-06-02 11:00:00,59.0,50.0,72.01,0.0,0.0,30.06,10.0,59.0
2021-06-02 12:00:00,65.0,49.0,56.12,0.0,0.0,30.06,10.0,64.9
2021-06-02 13:00:00,69.0,49.0,48.53,130.0,5.0,30.07,10.0,69.1
2021-06-02 14:00:00,72.0,49.0,43.97,80.0,5.0,30.05,10.0,72.0
2021-06-02 15:00:00,74.0,50.0,42.97,110.0,7.0,30.05,10.0,73.9
2021-06-02 16:00:00,76.0,50.0,40.19,70.0,10.0,30.03,10.0,75.9
2021-06-02 17:00:00,76.0,49.0,38.57,100.0,7.0,30.02,10.0,75.9
2021-06-02 18:00:00,76.0,49.0,38.57,70.0,7.0,30.0,10.0,75.9
2021-06-02 19:00:00,76.0,49.0,38.57,70.0,9.0,29.98,10.0,75.9
2021-06-02 20:00:00,76.0,48.0,37.29,80.0,8.0,29.96,10.0,75.9
2021-06-02 21:00:00,75.0,49.0,39.75,110.0,8.0,29.94,10.0,75.0
2021-06-02 22:00:00,73.0,49.0,42.51,80.0,7.0,29.93,10.0,73.0
2021-06-02 23:00:00,71.0,51.0,49.2,60.0,6.0,29.92,10.0,71.1
2021-06-03 00:00:00,66.0,48.0,52.22,90.0,6.0,29.92,10.0,66.0
2021-06-03 01:00:00,63.0,47.0,55.64,80.0,4.0,29.92,10.0,63.0
2021-06-03 02:00:00,58.0,46.0,64.47,0.0,0.0,29.93,10.0,57.9
2021-06-03 03:00:00,59.0,48.0,66.83,150.0,3.0,29.93,10.0,59.0
2021-06-03 04:00:00,56.0,48.0,74.72,210.0,3.0,29.93,10.0,55.9
2021-06-03 05:00:00,53.0,48.0,82.76,250.0,3.0,29.92,10.0,53.1
2021-06-03 06:00:00,54.0,48.0,80.07,230.0,3.0,29.92,10.0,54.0
2021-06-03 07:00:00,51.0,47.0,85.48,260.0,3.0,29.9,10.0,51.1
2021-06-03 08:00:00,52.0,47.0,82.68,210.0,3.0,29.89,10.0,52.0
2021-06-03 09:00:00,51.0,47.0,85.48,210.0,4.0,29.9,10.0,51.1
2021-06-03 10:00:00,53.0,48.0,82.76,210.0,3.0,29.9,10.0,53.1
2021-06-03 11:00:00,60.0,53.0,77.65,230.0,3.0,29.91,10.0,60.1
2021-06-03 12:00:00,69.0,55.0,60.78,260.0,8.0,29.91,10.0,69.1
2021-06-03 13:00:00,74.0,53.0,48.18,260.0,7.0,29.91,10.0,73.9
2021-06-03 14:00:00,80.0,51.0,36.44,290.0,9.0,29.9,10.0,79.72
2021-06-03 15:00:00,83.0,49.0,30.65,250.0,11.0,29.88,10.0,81.2
2021-06-03 16:00:00,85.0,47.0,26.66,270.0,9.0,29.88,10.0,82.42
2021-06-03 17:00:00,86.0,47.0,25.74,230.0,6.0,29.86,10.0,83.27
2021-06-03 18:00:00,89.0,49.0,25.14,270.0,11.0,29.84,10.0,86.09
2021-06-03 19:00:00,89.0,47.0,23.32,260.0,9.0,29.82,10.0,85.85
2021-06-03 20:00:00,89.0,46.0,22.54,290.0,9.0,29.81,10.0,85.76
2021-06-03 21:00:00,90.0,46.0,21.91,260.0,15.0,29.8,10.0,86.55
2021-06-03 22:00:00,87.0,44.0,22.34,290.0,7.0,29.8,10.0,83.91
2021-06-03 23:00:00,85.0,45.0,24.81,290.0,8.0,29.81,10.0,82.27
2021-06-04 00:00:00,80.0,47.0,31.15,260.0,7.0,29.82,10.0,79.33
2021-06-04 01:00:00,76.0,47.0,35.78,240.0,6.0,29.83,10.0,75.9
2021-06-04 02:00:00,74.0,48.0,39.87,240.0,4.0,29.86,10.0,73.9
2021-06-04 03:00:00,72.0,55.0,55.06,360.0,4.0,29.89,10.0,72.0
2021-06-04 04:00:00,71.0,56.0,58.65,180.0,4.0,29.88,10.0,71.1
2021-06-04 05:00:00,69.0,55.0,60.78,200.0,7.0,29.86,10.0,69.1
2021-06-04 06:00:00,69.0,55.0,60.78,200.0,8.0,29.86,10.0,69.1
2021-06-04 07:00:00,70.0,55.0,58.94,220.0,7.0,29.87,10.0,70.0
2021-06-04 08:00:00,72.0,52.0,49.33,250.0,10.0,29.87,10.0,72.0
2021-06-04 09:00:00,69.0,55.0,60.78,220.0,5.0,29.88,10.0,69.1
2021-06-04 10:00:00,69.0,53.0,56.7,240.0,9.0,29.89,10.0,69.1
2021-06-04 11:00:00,73.0,53.0,49.66,250.0,11.0,29.9,10.0,73.0
2021-06-04 12:00:00,74.0,53.0,48.18,260.0,13.0,29.91,10.0,73.9
2021-06-04 13:00:00,76.0,52.0,43.28,260.0,14.0,29.92,10.0,75.9
2021-06-04 14:00:00,77.0,52.0,41.72,270.0,14.0,29.93,10.0,77.0
2021-06-04 15:00:00,80.0,54.0,40.54,260.0,11.0,29.92,10.0,80.04
2021-06-04 16:00:00,84.0,53.0,34.56,250.0,18.0,29.91,10.0,82.52
2021-06-04 17:00:00,90.0,50.0,25.46,250.0,14.0,29.89,10.0,87.06
2021-06-04 18:00:00,93.0,50.0,23.18,250.0,18.0,29.88,10.0,89.9
2021-06-04 19:00:00,93.0,49.0,22.25,250.0,16.0,29.88,10.0,89.72
2021-06-04 20:00:00,94.0,48.0,20.92,250.0,16.0,29.87,10.0,90.45
2021-06-04 21:00:00,93.0,46.0,19.95,230.0,18.0,29.85,10.0,89.31
2021-06-04 22:00:00,91.0,48.0,22.9,240.0,14.0,29.85,10.0,87.69
2021-06-04 23:00:00,89.0,46.0,22.54,250.0,13.0,29.85,10.0,85.76
2021-06-05 00:00:00,85.0,49.0,28.74,240.0,8.0,29.86,10.0,82.63
2021-06-05 01:00:00,83.0,49.0,30.65,230.0,10.0,29.86,10.0,81.2
2021-06-05 02:00:00,79.0,50.0,36.27,230.0,8.0,29.87,10.0,79.0
2021-06-05 03:00:00,77.0,52.0,41.72,240.0,11.0,29.88,10.0,77.0
2021-06-05 04:00:00,77.0,53.0,43.44,230.0,12.0,29.88,10.0,77.0
2021-06-05 05:00:00,76.0,53.0,45.06,230.0,10.0,29.89,10.0,75.9
2021-06-05 06:00:00,73.0,54.0,51.33,240.0,9.0,29.9,10.0,73.0
2021-06-05 07:00:00,72.0,55.0,55.06,230.0,8.0,29.9,10.0,72.0
2021-06-05 08:00:00,73.0,55.0,53.23,230.0,9.0,29.89,10.0,73.0
2021-06-05 09:00:00,72.0,55.0,55.06,230.0,9.0,29.89,10.0,72.0
2021-06-05 10:00:00,72.0,55.0,55.06,210.0,7.0,29.9,10.0,72.0
2021-06-05 11:00:00,74.0,56.0,53.36,220.0,9.0,29.91,10.0,73.9
2021-06-05 12:00:00,77.0,58.0,51.72,240.0,12.0,29.91,10.0,77.0
2021-06-05 13:00:00,77.0,58.0,51.72,240.0,12.0,29.91,10.0,77.0
2021-06-05 14:00:00,86.0,63.0,46.25,240.0,14.0,29.88,10.0,86.88
2021-06-05 15:00:00,88.0,62.0,42.05,240.0,12.0,29.87,10.0,88.47
2021-06-05 16:00:00,90.0,61.0,37.97,240.0,14.0,29.86,10.0,90.03
2021-06-05 17:00:00,92.0,60.0,34.65,230.0,14.0,29.85,10.0,91.63
2021-06-05 18:00:00,94.0,60.0,32.56,260.0,15.0,29.84,10.0,93.77
2021-06-05 19:00:00,95.0,60.0,31.47,220.0,11.0,29.83,10.0,94.98
2021-06-05 20:00:00,93.0,58.0,30.95,230.0,12.0,29.82,10.0,91.94
2021-06-05 21:00:00,94.0,58.0,30.1,230.0,9.0,29.82,10.0,92.9
2021-06-05 22:00:00,92.0,59.0,33.31,230.0,9.0,29.81,10.0,91.2
2021-06-05 23:00:00,92.0,59.0,33.31,230.0,9.0,29.81,10.0,91.2
2021-06-06 00:00:00,88.0,59.0,37.66,230.0,5.0,29.83,10.0,87.31
2021-06-06 01:00:00,83.0,59.0,44.34,210.0,7.0,29.84,10.0,82.86
2021-06-06 02:00:00,83.0,60.0,46.12,210.0,8.0,29.87,10.0,83.13
2021-06-06 03:00:00,83.0,60.0,46.12,210.0,8.0,29.87,10.0,83.13
2021-06-06 04:00:00,83.0,60.0,46.12,210.0,8.0,29.87,10.0,83.13
2021-06-06 05:00:00,78.0,61.0,55.71,220.0,6.0,29.88,10.0,78.1
2021-06-06 06:00:00,78.0,61.0,55.71,220.0,6.0,29.88,10.0,78.1
2021-06-06 07:00:00,76.0,60.0,58.04,220.0,8.0,29.88,10.0,75.9
2021-06-06 08:00:00,76.0,60.0,58.04,220.0,8.0,29.88,10.0,75.9
2021-06-06 09:00:00,72.0,59.0,63.61,230.0,6.0,29.9,10.0,72.0
2021-06-06 10:00:00,72.0,59.0,63.61,240.0,7.0,29.92,10.0,72.0
2021-06-06 11:00:00,75.0,60.0,59.81,220.0,5.0,29.95,10.0,75.0
2021-06-06 12:00:00,75.0,60.0,59.81,220.0,5.0,29.95,10.0,75.0
2021-06-06 13:00:00,84.2,60.8,45.34,240.0,8.0,29.94,10.0,84.43
2021-06-06 14:00:00,85.0,60.0,43.24,240.0,13.0,29.94,10.0,84.83
2021-06-06 15:00:00,88.0,59.0,37.66,210.0,12.0,29.93,10.0,87.31
2021-06-06 16:00:00,88.0,58.0,36.21,240.0,13.0,29.91,10.0,86.96
2021-06-06 17:00:00,91.0,60.0,35.64,200.0,14.0,29.9,10.0,90.69
2021-06-06 18:00:00,90.0,60.0,36.77,200.0,13.0,29.88,10.0,89.66
2021-06-06 19:00:00,91.0,61.0,36.8,210.0,15.0,29.87,10.0,91.06
2021-06-06 20:00:00,90.0,62.0,39.47,190.0,12.0,29.86,10.0,90.51
2021-06-06 21:00:00,89.0,63.0,41.92,210.0,11.0,29.86,10.0,89.99
2021-06-06 22:00:00,86.0,63.0,46.25,210.0,12.0,29.86,10.0,86.88
2021-06-06 23:00:00,86.0,64.0,47.91,200.0,9.0,29.85,10.0,87.31
2021-06-07 00:00:00,85.0,63.0,47.91,200.0,9.0,29.86,10.0,85.83
2021-06-07 01:00:00,82.0,63.0,52.62,190.0,6.0,29.87,10.0,83.17
2021-06-07 02:00:00,80.0,63.0,55.98,190.0,6.0,29.88,10.0,81.5
2021-06-07 03:00:00,79.0,63.0,58.04,190.0,5.0,29.88,10.0,79.0
2021-06-07 04:00:00,79.0,64.0,60.11,200.0,10.0,29.89,10.0,79.0
2021-06-07 05:00:00,78.0,65.0,63.9,200.0,9.0,29.89,10.0,78.1
2021-06-07 06:00:00,78.0,65.0,63.9,210.0,9.0,29.89,10.0,78.1
2021-06-07 07:00:00,77.0,65.0,66.27,200.0,7.0,29.9,10.0,77.0
2021-06-07 08:00:00,77.0,66.0,68.85,210.0,8.0,29.9,10.0,77.0
2021-06-07 09:00:00,75.0,66.0,73.59,220.0,7.0,29.9,10.0,75.0
2021-06-07 10:00:00,75.0,67.0,75.92,220.0,7.0,29.92,10.0,75.0
2021-06-07 11:00:00,75.0,68.0,78.86,220.0,8.0,29.93,10.0,75.0
2021-06-07 12:00:00,76.0,68.0,76.53,220.0,9.0,29.94,10.0,75.9
2021-06-07 13:00:00,78.0,69.0,73.88,230.0,8.0,29.94,10.0,78.1
2021-06-07 14:00:00,79.0,69.0,71.72,220.0,6.0,29.94,10.0,79.0
2021-06-07 15:00:00,80.0,69.0,69.18,220.0,6.0,29.95,10.0,83.01
2021-06-07 16:00:00,79.0,69.0,71.72,210.0,8.0,29.95,10.0,79.0
2021-06-07 17:00:00,79.0,69.0,71.72,220.0,6.0,29.94,10.0,79.0
2021-06-07 18:00:00,79.0,69.0,71.72,190.0,8.0,29.94,10.0,79.0
2021-06-07 19:00:00,80.0,71.0,74.07,160.0,7.0,29.93,10.0,83.64
2021-06-07 20:00:00,81.0,70.0,69.28,170.0,6.0,29.93,10.0,84.5
2021-06-07 21:00:00,81.0,71.0,71.92,140.0,7.0,29.92,10.0,84.95
2021-06-07 22:00:00,81.0,70.0,69.28,160.0,7.0,29.92,10.0,84.5
2021-06-07 23:00:00,78.0,69.0,73.88,130.0,9.0,29.92,10.0,78.1
2021-06-08 00:00:00,77.0,68.0,73.78,160.0,6.0,29.93,10.0,77.0
2021-06-08 01:00:00,75.0,67.0,75.92,170.0,5.0,29.94,10.0,75.0
2021-06-08 02:00:00,74.0,67.0,78.77,200.0,3.0,29.95,10.0,73.9
2021-06-08 03:00:00,74.0,68.0,81.82,190.0,5.0,29.96,10.0,73.9
2021-06-08 04:00:00,74.0,69.0,84.97,180.0,6.0,29.97,10.0,73.9
2021-06-08 05:00:00,73.0,68.0,84.34,200.0,5.0,29.97,10.0,73.0
2021-06-08 06:00:00,73.0,68.0,84.34,200.0,3.0,29.96,10.0,73.0
2021-06-08 07:00:00,71.0,67.0,86.59,220.0,3.0,29.97,10.0,71.1
2021-06-08 08:00:00,71.0,67.0,86.59,0.0,0.0,29.99,10.0,71.1
2021-06-08 09:00:00,70.0,66.0,87.14,290.0,4.0,29.99,10.0,70.0
2021-06-08 10:00:00,71.0,67.0,86.59,0.0,0.0,30.01,10.0,71.1
2021-06-08 11:00:00,74.0,67.0,78.77,0.0,0.0,30.0,10.0,73.9
2021-06-08 12:00:00,77.0,68.0,73.78,190.0,3.0,30.02,10.0,77.0
2021-06-08 13:00:00,80.0,67.0,64.14,0.0,0.0,30.03,10.0,82.4
2021-06-08 14:00:00,83.0,68.0,60.81,40.0,5.0,30.04,10.0,85.94
2021-06-08 15:00:00,82.0,67.0,60.28,100.0,4.0,30.05,10.0,84.48
2021-06-08 16:00:00,86.0,67.0,52.99,100.0,6.0,30.04,10.0,88.77
2021-06-08 17:00:00,87.0,67.0,51.17,70.0,8.0,30.03,10.0,89.96
2021-06-08 18:00:00,83.0,67.0,58.55,120.0,10.0,30.02,10.0,85.45
2021-06-08 19:00:00,85.0,66.0,53.21,140.0,9.0,30.01,10.0,87.13
2021-06-08 20:00:00,85.0,65.0,51.21,160.0,5.0,30.0,10.0,86.62
2021-06-08 21:00:00,86.0,65.0,49.44,130.0,6.0,29.99,10.0,87.73
2021-06-08 22:00:00,85.0,66.0,53.21,100.0,7.0,29.98,10.0,87.13
2021-06-08 23:00:00,81.0,67.0,62.28,80.0,6.0,29.97,10.0,83.4
2021-06-09 00:00:00,78.0,67.0,68.49,110.0,4.0,29.98,10.0,78.1
2021-06-09 01:00:00,74.0,66.0,76.36,80.0,5.0,30.0,10.0,73.9
2021-06-09 02:00:00,70.0,66.0,87.14,80.0,3.0,30.02,9.0,70.0
2021-06-09 03:00:00,71.0,67.0,86.59,140.0,4.0,30.04,5.0,71.1
2021-06-09 04:00:00,70.0,67.0,89.9,130.0,3.0,30.03,4.0,70.0
2021-06-09 05:00:00,68.0,65.0,89.81,10.0,3.0,30.03,1.5,68.0
2021-06-09 06:00:00,66.0,64.0,93.26,80.0,3.0,30.03,1.0,66.0
2021-06-09 07:00:00,66.0,64.0,93.26,80.0,3.0,30.01,3.0,66.0
2021-06-09 08:00:00,65.0,63.0,93.56,0.0,0.0,30.01,6.0,64.9
2021-06-09 09:00:00,64.0,63.0,96.55,0.0,0.0,30.02,2.5,64.0
2021-06-09 10:00:00,66.0,63.0,90.05,20.0,3.0,30.03,3.0,66.0
2021-06-09 11:00:00,70.0,65.0,83.86,0.0,0.0,30.05,10.0,70.0
2021-06-09 12:00:00,75.0,66.0,73.59,0.0,0.0,30.06,10.0,75.0
2021-06-09 13:00:00,78.0,67.0,68.49,0.0,0.0,30.08,10.0,78.1
2021-06-09 14:00:00,82.0,68.0,62.62,90.0,4.0,30.08,10.0,84.92
2021-06-09 15:00:00,84.0,68.0,58.69,80.0,6.0,30.08,10.0,87.18
2021-06-09 16:00:00,80.6,66.2,61.58,80.0,10.0,30.08,10.0,82.75
2021-06-09 17:00:00,80.6,66.2,61.58,100.0,11.0,30.07,10.0,82.75
2021-06-09 18:00:00,77.0,69.8,78.48,80.0,14.0,30.06,10.0,77.0
2021-06-09 19:00:00,80.6,68.0,65.54,100.0,10.0,30.04,10.0,83.29
2021-06-09 20:00:00,80.6,68.0,65.54,80.0,11.0,30.03,10.0,83.29
2021-06-09 21:00:00,82.4,66.2,58.08,80.0,11.0,30.02,10.0,84.63
2021-06-09 22:00:00,82.4,66.2,58.08,272.0,10.0,30.01,10.0,84.63
2021-06-09 23:00:00,78.8,66.2,65.33,80.0,11.0,30.02,10.0,78.8
2021-06-10 00:00:00,76.0,65.0,68.73,70.0,9.0,30.02,10.0,75.9
2021-06-10 01:00:00,69.0,62.0,78.39,60.0,4.0,30.02,10.0,69.1
2021-06-10 02:00:00,70.0,62.0,76.01,320.0,4.0,30.04,10.0,70.0
2021-06-10 03:00:00,69.0,62.0,78.39,0.0,0.0,30.04,10.0,69.1
2021-06-10 04:00:00,69.0,62.0,78.39,0.0,0.0,30.03,10.0,69.1
2021-06-10 05:00:00,69.0,63.0,80.92,0.0,0.0,30.03,10.0,69.1
2021-06-10 06:00:00,67.0,62.0,84.56,10.0,3.0,30.01,10.0,66.9
2021-06-10 07:00:00,66.0,63.0,90.05,50.0,3.0,29.99,10.0,66.0
2021-06-10 08:00:00,65.0,61.0,87.18,360.0,3.0,29.98,10.0,64.9
2021-06-10 09:00:00,63.0,60.0,90.25,0.0,0.0,29.98,10.0,63.0
2021-06-10 10:00:00,65.0,61.0,87.18,320.0,4.0,29.98,10.0,64.9
2021-06-10 11:00:00,69.0,62.0,78.39,0.0,0.0,29.98,10.0,69.1
2021-06-10 12:00:00,74.0,65.0,73.49,0.0,3.0,29.98,10.0,73.9
2021-06-10 13:00:00,79.0,67.0,66.49,0.0,0.0,29.99,10.0,79.0
2021-06-10 14:00:00,84.0,68.0,58.69,0.0,0.0,29.98,10.0,87.18
2021-06-10 15:00:00,82.0,68.0,62.62,90.0,9.0,29.98,10.0,84.92
2021-06-10 16:00:00,81.0,67.0,62.28,90.0,10.0,29.98,10.0,83.4
2021-06-10 17:00:00,82.0,68.0,62.62,90.0,9.0,29.97,10.0,84.92
2021-06-10 18:00:00,83.0,69.0,63.16,110.0,10.0,29.95,10.0,86.48
2021-06-10 19:00:00,84.0,68.0,58.69,120.0,8.0,29.92,10.0,87.18
2021-06-10 20:00:00,86.0,67.0,52.99,90.0,7.0,29.91,10.0,88.77
2021-06-10 21:00:00,83.0,68.0,60.81,80.0,9.0,29.9,10.0,85.94
2021-06-10 22:00:00,82.0,67.0,60.28,110.0,9.0,29.89,10.0,84.48
2021-06-10 23:00:00,80.0,66.0,62.17,110.0,7.0,29.89,10.0,82.17
2021-06-11 00:00:00,78.0,66.0,66.39,150.0,5.0,29.88,10.0,78.1
2021-06-11 01:00:00,72.0,64.0,75.92,0.0,0.0,29.88,10.0,72.0
2021-06-11 02:00:00,70.0,65.0,83.86,0.0,0.0,29.89,10.0,70.0
2021-06-11 03:00:00,70.0,65.0,83.86,0.0,0.0,29.88,10.0,70.0
2021-06-11 04:00:00,68.0,64.0,87.03,50.0,3.0,29.91,10.0,68.0
2021-06-11 05:00:00,67.0,64.0,90.4,0.0,0.0,29.9,8.0,66.9
2021-06-11 06:00:00,67.0,64.0,90.4,0.0,0.0,29.87,10.0,66.9
2021-06-11 07:00:00,69.0,65.0,86.48,150.0,3.0,29.85,8.0,69.1
2021-06-11 08:00:00,65.0,63.0,93.56,0.0,0.0,29.86,4.0,64.9
2021-06-11 09:00:00,64.0,62.0,93.54,30.0,3.0,29.86,2.5,64.0
2021-06-11 10:00:00,68.0,66.0,93.32,0.0,0.0,29.86,2.5,68.0
2021-06-11 11:00:00,72.0,67.0,83.99,0.0,0.0,29.85,8.0,72.0
2021-06-11 12:00:00,76.0,67.0,73.68,0.0,0.0,29.86,10.0,75.9
2021-06-11 13:00:00,81.0,68.0,64.69,220.0,3.0,29.87,10.0,83.76
2021-06-11 14:00:00,85.0,69.0,59.21,220.0,3.0,29.87,10.0,88.83
2021-06-11 15:00:00,88.0,70.0,55.32,0.0,0.0,29.86,10.0,93.11
2021-06-11 16:00:00,90.0,69.0,50.36,140.0,7.0,29.86,10.0,94.76
2021-06-11 17:00:00,90.0,70.0,51.93,100.0,8.0,29.86,10.0,95.49
2021-06-11 18:00:00,91.0,69.0,48.8,120.0,10.0,29.84,10.0,95.94
2021-06-11 19:00:00,90.0,69.0,50.36,110.0,11.0,29.82,10.0,94.76
2021-06-11 20:00:00,89.0,67.0,48.03,120.0,10.0,29.81,10.0,92.16
2021-06-11 21:00:00,89.0,65.0,44.8,140.0,9.0,29.82,10.0,90.97
2021-06-11 22:00:00,87.0,64.0,46.26,120.0,7.0,29.82,10.0,88.42
2021-06-11 23:00:00,85.0,62.0,46.42,90.0,6.0,29.83,10.0,85.49
2021-06-12 00:00:00,79.0,66.0,64.45,100.0,6.0,29.79,10.0,79.0
2021-06-12 01:00:00,76.0,66.0,71.41,100.0,3.0,29.82,10.0,75.9
2021-06-12 02:00:00,73.0,65.0,75.75,60.0,7.0,29.86,10.0,73.0
2021-06-12 03:00:00,72.0,65.0,78.35,50.0,6.0,29.88,10.0,72.0
2021-06-12 04:00:00,70.0,65.0,83.86,70.0,5.0,29.88,10.0,70.0
2021-06-12 05:00:00,69.0,64.0,83.81,0.0,0.0,29.88,10.0,69.1
2021-06-12 06:00:00,68.0,63.0,84.03,0.0,0.0,29.87,10.0,68.0
2021-06-12 07:00:00,67.0,62.0,84.56,0.0,0.0,29.86,10.0,66.9
2021-06-12 08:00:00,67.0,62.0,84.56,20.0,3.0,29.86,10.0,66.9
2021-06-12 09:00:00,65.0,62.0,90.64,0.0,0.0,29.86,10.0,64.9
2021-06-12 10:00:00,65.0,62.0,90.64,0.0,0.0,29.86,10.0,64.9
2021-06-12 11:00:00,70.0,63.0,78.46,0.0,0.0,29.86,10.0,70.0
2021-06-12 12:00:00,75.0,65.0,70.83,90.0,3.0,29.86,10.0,75.0
2021-06-12 13:00:00,79.0,67.0,66.49,120.0,3.0,29.88,10.0,79.0
2021-06-12 14:00:00,83.0,67.0,58.55,80.0,3.0,29.88,10.0,85.45
2021-06-12 15:00:00,84.0,67.0,56.51,100.0,6.0,29.88,10.0,86.62
2021-06-12 16:00:00,84.0,67.0,56.51,90.0,8.0,29.88,10.0,86.62
2021-06-12 17:00:00,86.0,66.0,51.37,80.0,10.0,29.88,10.0,88.28
2021-06-12 18:00:00,82.0,67.0,60.28,70.0,11.0,29.86,10.0,84.48
2021-06-12 19:00:00,87.0,67.0,51.17,80.0,11.0,29.86,10.0,89.96
2021-06-12 20:00:00,85.0,68.0,57.02,100.0,9.0,29.87,10.0,88.18
2021-06-12 21:00:00,84.0,67.0,56.51,100.0,5.0,29.86,10.0,86.62
2021-06-12 22:00:00,84.0,67.0,56.51,0.0,0.0,29.85,10.0,86.62
2021-06-12 23:00:00,82.0,68.0,62.62,30.0,4.0,29.84,10.0,84.92
2021-06-13 00:00:00,82.0,68.0,62.62,20.0,3.0,29.86,10.0,84.92
2021-06-13 01:00:00,79.0,68.0,69.07,360.0,4.0,29.88,10.0,79.0
2021-06-13 02:00:00,76.0,67.0,73.68,360.0,4.0,29.91,10.0,75.9
2021-06-13 03:00:00,74.0,66.0,76.36,360.0,3.0,29.93,10.0,73.9
2021-06-13 04:00:00,73.0,64.0,73.4,320.0,3.0,29.94,10.0,73.0
2021-06-13 05:00:00,68.0,57.0,67.86,310.0,3.0,29.94,10.0,68.0
2021-06-13 06:00:00,68.0,52.0,56.55,320.0,5.0,29.93,10.0,68.0
2021-06-13 07:00:00,69.0,51.0,52.67,330.0,4.0,29.94,10.0,69.1
2021-06-13 08:00:00,66.0,52.0,60.6,360.0,4.0,29.95,10.0,66.0
2021-06-13 09:00:00,64.0,53.0,67.66,330.0,3.0,29.96,10.0,64.0
2021-06-13 10:00:00,64.0,58.0,80.54,330.0,3.0,29.97,10.0,64.0
2021-06-13 11:00:00,68.0,59.0,72.92,0.0,0.0,30.0,10.0,68.0
2021-06-13 12:00:00,73.0,62.0,68.66,340.0,3.0,30.02,10.0,73.0
2021-06-13 13:00:00,78.0,60.0,53.95,300.0,3.0,30.02,10.0,78.1
2021-06-13 14:00:00,83.0,54.0,37.01,350.0,6.0,30.02,10.0,81.87
2021-06-13 15:00:00,85.0,50.0,29.94,340.0,7.0,30.01,10.0,82.76
2021-06-13 16:00:00,88.0,52.0,29.21,80.0,10.0,30.01,10.0,85.6
2021-06-13 17:00:00,85.0,51.0,31.19,100.0,4.0,30.0,10.0,82.9
2021-06-13 18:00:00,86.0,49.0,27.74,130.0,6.0,29.99,10.0,83.48
2021-06-13 19:00:00,86.0,50.0,28.9,130.0,5.0,29.98,10.0,83.62
2021-06-13 20:00:00,87.0,50.0,27.91,110.0,8.0,29.96,10.0,84.51
2021-06-13 21:00:00,86.0,50.0,28.9,120.0,10.0,29.95,10.0,83.62
2021-06-13 22:00:00,83.0,49.0,30.65,110.0,9.0,29.94,10.0,81.2
2021-06-13 23:00:00,82.0,49.0,31.56,130.0,8.0,29.93,10.0,80.61
2021-06-14 00:00:00,80.0,49.0,33.58,140.0,7.0,29.92,10.0,79.5
2021-06-14 01:00:00,76.0,50.0,40.19,180.0,6.0,29.92,10.0,75.9
2021-06-14 02:00:00,73.0,50.0,44.29,200.0,5.0,29.91,10.0,73.0
2021-06-14 03:00:00,72.0,50.0,45.81,200.0,8.0,29.89,10.0,72.0
2021-06-14 04:00:00,73.0,50.0,44.29,200.0,9.0,29.86,10.0,73.0
2021-06-14 05:00:00,74.0,52.0,46.27,220.0,8.0,29.84,10.0,73.9
2021-06-14 06:00:00,73.0,53.0,49.66,230.0,9.0,29.81,10.0,73.0
2021-06-14 07:00:00,73.0,53.0,49.66,360.0,7.0,29.84,10.0,73.0
2021-06-14 08:00:00,66.0,58.0,75.12,10.0,13.0,29.86,10.0,66.0
2021-06-14 09:00:00,63.0,56.0,77.61,10.0,11.0,29.9,10.0,63.0
2021-06-14 10:00:00,63.0,54.0,72.42,30.0,10.0,29.93,10.0,63.0
2021-06-14 11:00:00,65.0,55.0,70.28,20.0,9.0,29.96,10.0,64.9
2021-06-14 12:00:00,68.0,55.0,63.12,20.0,9.0,29.97,10.0,68.0
2021-06-14 13:00:00,72.0,55.0,55.06,340.0,7.0,29.99,10.0,72.0
2021-06-14 14:00:00,75.0,54.0,47.99,360.0,6.0,29.99,10.0,75.0
2021-06-14 15:00:00,79.0,54.0,42.03,320.0,9.0,30.0,10.0,79.0
2021-06-14 16:00:00,82.0,53.0,36.87,350.0,9.0,29.99,10.0,81.11
2021-06-14 17:00:00,81.0,54.0,39.37,70.0,8.0,29.98,10.0,80.59
2021-06-14 18:00:00,79.0,54.0,42.03,60.0,12.0,29.97,10.0,79.0
2021-06-14 19:00:00,82.0,54.0,38.11,80.0,12.0,29.97,10.0,81.24
2021-06-14 20:00:00,81.0,53.0,38.09,80.0,10.0,29.98,10.0,80.47
2021-06-14 21:00:00,73.0,53.0,49.66,70.0,11.0,29.99,10.0,73.0
2021-06-14 22:00:00,73.0,51.0,46.13,40.0,7.0,30.01,10.0,73.0
2021-06-14 23:00:00,73.0,52.0,47.69,360.0,3.0,30.01,10.0,73.0
2021-06-15 00:00:00,73.0,51.0,46.13,0.0,0.0,30.02,10.0,73.0
2021-06-15 01:00:00,66.0,51.0,58.62,0.0,0.0,30.02,10.0,66.0
2021-06-15 02:00:00,63.0,52.0,67.29,0.0,0.0,30.03,10.0,63.0
2021-06-15 03:00:00,62.0,52.0,69.46,270.0,3.0,30.04,10.0,62.1
2021-06-15 04:00:00,62.0,52.0,69.46,0.0,0.0,30.04,10.0,62.1
2021-06-15 05:00:00,57.0,51.0,80.6,300.0,3.0,30.04,10.0,57.0
2021-06-15 06:00:00,60.0,52.0,74.57,320.0,5.0,30.05,10.0,60.1
2021-06-15 07:00:00,57.0,50.0,77.38,320.0,3.0,30.05,10.0,57.0
2021-06-15 08:00:00,57.0,52.0,83.33,360.0,3.0,30.06,10.0,57.0
2021-06-15 09:00:00,60.0,53.0,77.65,360.0,4.0,30.07,10.0,60.1
2021-06-15 10:00:00,61.0,53.0,75.2,10.0,3.0,30.09,10.0,61.0
2021-06-15 11:00:00,65.0,56.0,72.61,30.0,5.0,30.1,10.0,64.9
2021-06-15 12:00:00,69.0,55.0,60.78,40.0,7.0,30.12,10.0,69.1
2021-06-15 13:00:00,73.0,53.0,49.66,30.0,7.0,30.12,10.0,73.0
2021-06-15 14:00:00,72.0,52.0,49.33,60.0,6.0,30.13,10.0,72.0
2021-06-15 15:00:00,75.0,53.0,46.44,30.0,6.0,30.12,10.0,75.0
2021-06-15 16:00:00,78.0,52.0,40.23,30.0,10.0,30.12,10.0,78.1
2021-06-15 17:00:00,78.0,52.0,40.23,40.0,13.0,30.12,10.0,78.1
2021-06-15 18:00:00,77.0,53.0,43.44,40.0,12.0,30.11,10.0,77.0
2021-06-15 19:00:00,77.0,51.0,40.36,60.0,13.0,30.12,10.0,77.0
2021-06-15 20:00:00,77.0,49.0,37.19,30.0,11.0,30.12,10.0,77.0
2021-06-15 21:00:00,75.0,46.0,35.64,20.0,12.0,30.12,10.0,75.0
2021-06-15 22:00:00,73.0,38.0,27.89,30.0,11.0,30.11,10.0,73.0
2021-06-15 23:00:00,72.0,40.0,31.2,40.0,9.0,30.1,10.0,72.0
2021-06-16 00:00:00,69.0,41.0,35.94,40.0,8.0,30.11,10.0,69.1
2021-06-16 01:00:00,65.0,43.0,44.88,30.0,6.0,30.11,10.0,64.9
2021-06-16 02:00:00,64.0,44.0,48.31,340.0,5.0,30.12,10.0,64.0
2021-06-16 03:00:00,61.0,46.0,57.72,10.0,5.0,30.13,10.0,61.0
2021-06-16 04:00:00,59.0,45.0,59.67,20.0,3.0,30.13,10.0,59.0
2021-06-16 05:00:00,59.0,46.0,61.98,360.0,4.0,30.13,10.0,59.0
2021-06-16 06:00:00,58.0,46.0,64.47,360.0,4.0,30.13,10.0,57.9
2021-06-16 07:00:00,55.0,45.0,68.93,30.0,4.0,30.13,10.0,55.0
2021-06-16 08:00:00,56.0,45.0,66.72,360.0,6.0,30.14,10.0,55.9
2021-06-16 09:00:00,55.0,46.0,71.6,20.0,5.0,30.14,10.0,55.0
2021-06-16 10:00:00,56.0,48.0,74.72,10.0,4.0,30.14,10.0,55.9
2021-06-16 11:00:00,61.0,51.0,69.86,30.0,5.0,30.15,10.0,61.0
2021-06-16 12:00:00,66.0,49.0,54.01,30.0,5.0,30.17,10.0,66.0
2021-06-16 13:00:00,69.0,44.0,40.48,10.0,4.0,30.17,10.0,69.1
2021-06-16 14:00:00,71.0,47.0,42.05,10.0,4.0,30.16,10.0,71.1
2021-06-16 15:00:00,70.0,49.0,47.06,100.0,6.0,30.16,10.0,70.0
2021-06-16 16:00:00,72.0,47.0,40.79,90.0,9.0,30.15,10.0,72.0
2021-06-16 17:00:00,75.0,45.0,34.31,90.0,4.0,30.14,10.0,75.0
2021-06-16 18:00:00,75.0,46.0,35.64,120.0,8.0,30.12,10.0,75.0
2021-06-16 19:00:00,75.0,44.0,33.16,80.0,12.0,30.11,10.0,75.0
2021-06-16 20:00:00,74.0,42.0,31.86,80.0,11.0,30.1,10.0,73.9
2021-06-16 21:00:00,72.0,41.0,32.56,70.0,10.0,30.09,10.0,72.0
2021-06-16 22:00:00,71.0,42.0,35.02,100.0,10.0,30.08,10.0,71.1
2021-06-16 23:00:00,69.0,41.0,35.94,90.0,8.0,30.06,10.0,69.1
2021-06-17 00:00:00,67.0,41.0,38.76,110.0,4.0,30.06,10.0,66.9
2021-06-17 01:00:00,62.0,42.0,47.83,110.0,3.0,30.06,10.0,62.1
2021-06-17 02:00:00,59.0,42.0,53.4,130.0,3.0,30.06,10.0,59.0
2021-06-17 03:00:00,60.0,46.0,59.59,170.0,4.0,30.06,10.0,60.1
2021-06-17 04:00:00,56.0,46.0,69.3,190.0,3.0,30.05,10.0,55.9
2021-06-17 05:00:00,56.0,47.0,71.69,160.0,3.0,30.04,10.0,55.9
2021-06-17 06:00:00,54.0,48.0,80.07,0.0,0.0,30.04,10.0,54.0
2021-06-17 07:00:00,52.0,47.0,82.68,0.0,0.0,30.03,10.0,52.0
2021-06-17 08:00:00,53.0,47.0,79.4,0.0,0.0,30.01,10.0,53.1
2021-06-17 09:00:00,51.0,46.0,82.62,180.0,3.0,30.01,10.0,51.1
2021-06-17 10:00:00,52.0,48.0,86.17,220.0,3.0,30.03,10.0,52.0
2021-06-17 11:00:00,62.0,51.0,67.19,200.0,4.0,30.02,10.0,62.1
2021-06-17 12:00:00,69.0,45.0,41.9,220.0,6.0,30.02,10.0,69.1
2021-06-17 13:00:00,77.0,44.0,31.02,190.0,7.0,30.0,10.0,77.0
2021-06-17 14:00:00,81.0,46.0,29.23,180.0,7.0,29.99,10.0,79.76
2021-06-17 15:00:00,83.0,48.0,29.64,220.0,10.0,29.98,10.0,81.11
2021-06-17 16:00:00,81.0,49.0,32.6,210.0,13.0,29.95,10.0,80.01
2021-06-17 17:00:00,83.0,51.0,33.27,210.0,7.0,29.97,10.0,81.45
2021-06-17 18:00:00,88.0,52.0,29.21,200.0,13.0,29.93,10.0,85.6
2021-06-17 19:00:00,89.0,52.0,28.21,210.0,7.0,29.92,10.0,86.58
2021-06-17 20:00:00,91.0,53.0,27.67,210.0,9.0,29.89,10.0,88.57
2021-06-17 21:00:00,88.0,55.0,32.6,150.0,12.0,29.85,10.0,86.2
2021-06-17 22:00:00,88.0,56.0,33.68,160.0,8.0,29.85,10.0,86.42
2021-06-17 23:00:00,87.0,55.0,33.55,220.0,8.0,29.87,10.0,85.4
2021-06-18 00:00:00,84.0,56.0,38.28,240.0,7.0,29.91,10.0,83.03
2021-06-18 01:00:00,84.0,57.0,39.83,200.0,4.0,29.86,10.0,83.26
2021-06-18 02:00:00,83.0,57.0,41.27,190.0,10.0,29.8,10.0,82.41
2021-06-18 03:00:00,83.0,57.0,41.27,170.0,9.0,29.79,10.0,82.41
2021-06-18 04:00:00,82.0,58.0,43.89,210.0,8.0,29.78,10.0,81.92
2021-06-18 05:00:00,83.0,60.0,46.12,210.0,7.0,29.8,10.0,83.13
2021-06-18 06:00:00,82.0,61.0,49.03,70.0,4.0,29.8,10.0,82.62
2021-06-18 07:00:00,72.0,62.0,71.02,40.0,6.0,29.79,10.0,72.0
2021-06-18 08:00:00,67.0,63.0,87.28,20.0,18.0,29.87,8.0,66.9
2021-06-18 09:00:00,67.0,63.0,87.28,20.0,18.0,29.87,8.0,66.9
2021-06-18 10:00:00,71.0,63.0,75.58,170.0,19.0,29.68,10.0,71.1
2021-06-18 11:00:00,73.0,64.0,73.4,320.0,8.0,29.75,10.0,73.0
2021-06-18 12:00:00,73.0,65.0,75.75,260.0,7.0,29.76,10.0,73.0
2021-06-18 13:00:00,76.0,66.0,71.41,260.0,6.0,29.78,10.0,75.9
2021-06-18 14:00:00,79.0,66.0,64.45,240.0,10.0,29.78,10.0,79.0
2021-06-18 15:00:00,81.0,69.0,67.18,280.0,10.0,29.78,10.0,84.16
2021-06-18 16:00:00,84.0,70.0,62.86,280.0,8.0,29.78,10.0,88.31
2021-06-18 17:00:00,86.0,69.0,57.16,300.0,7.0,29.78,10.0,90.11
2021-06-18 18:00:00,88.0,64.0,44.95,310.0,5.0,29.76,10.0,89.34
2021-06-18 19:00:00,90.0,62.0,39.47,290.0,7.0,29.77,10.0,90.51
2021-06-18 20:00:00,91.0,61.0,36.8,280.0,9.0,29.77,10.0,91.06
2021-06-18 21:00:00,91.0,58.0,32.94,270.0,8.0,29.77,10.0,89.88
2021-06-18 22:00:00,88.0,57.0,35.05,280.0,7.0,29.77,10.0,86.71
2021-06-18 23:00:00,84.0,62.0,47.78,270.0,5.0,29.78,10.0,84.67
2021-06-19 00:00:00,81.0,64.0,56.3,260.0,5.0,29.79,10.0,82.54
2021-06-19 01:00:00,74.0,62.0,66.61,260.0,4.0,29.79,10.0,73.9
2021-06-19 02:00:00,75.0,62.0,64.2,270.0,4.0,29.81,10.0,75.0
2021-06-19 03:00:00,71.0,61.0,70.42,270.0,5.0,29.81,10.0,71.1
2021-06-19 04:00:00,76.0,62.0,62.3,0.0,0.0,29.79,10.0,75.9
2021-06-19 05:00:00,71.0,63.0,75.58,190.0,4.0,29.77,10.0,71.1
2021-06-19 06:00:00,72.0,63.0,73.31,0.0,0.0,29.78,10.0,72.0
2021-06-19 07:00:00,70.0,64.0,81.27,0.0,0.0,29.79,10.0,70.0
2021-06-19 08:00:00,72.0,63.0,73.31,0.0,0.0,29.79,10.0,72.0
2021-06-19 09:00:00,71.0,63.0,75.58,360.0,4.0,29.79,10.0,71.1
2021-06-19 10:00:00,71.0,63.0,75.58,50.0,5.0,29.79,10.0,71.1
2021-06-19 11:00:00,72.0,56.0,56.89,70.0,12.0,29.77,10.0,72.0
2021-06-19 12:00:00,74.0,54.0,49.79,100.0,10.0,29.78,10.0,73.9
2021-06-19 13:00:00,73.0,56.0,55.0,120.0,11.0,29.78,10.0,73.0
2021-06-19 14:00:00,77.0,60.0,55.95,230.0,5.0,29.77,10.0,77.0
2021-06-19 15:00:00,81.0,65.0,58.1,250.0,13.0,29.76,10.0,82.79
2021-06-19 16:00:00,84.0,67.0,56.51,250.0,11.0,29.75,10.0,86.62
2021-06-19 17:00:00,85.0,66.0,53.21,270.0,9.0,29.73,10.0,87.13
2021-06-19 18:00:00,78.0,65.0,63.9,70.0,10.0,29.73,10.0,78.1
2021-06-19 19:00:00,80.0,66.0,62.17,50.0,8.0,29.73,10.0,82.17
2021-06-19 20:00:00,81.0,67.0,62.28,50.0,9.0,29.73,10.0,83.4
2021-06-19 21:00:00,79.0,64.0,60.11,40.0,9.0,29.73,10.0,79.0
2021-06-19 22:00:00,76.0,62.0,62.3,40.0,10.0,29.74,10.0,75.9
2021-06-19 23:00:00,73.0,62.0,68.66,60.0,8.0,29.75,10.0,73.0
2021-06-20 00:00:00,68.0,61.0,78.3,60.0,9.0,29.76,10.0,68.0
2021-06-20 01:00:00,63.0,58.0,83.42,70.0,7.0,29.76,10.0,63.0
2021-06-20 02:00:00,62.0,57.0,83.36,60.0,3.0,29.79,10.0,62.1
2021-06-20 03:00:00,61.0,57.0,86.67,0.0,0.0,29.79,10.0,61.0
2021-06-20 04:00:00,60.0,56.0,85.99,0.0,0.0,29.79,10.0,60.1
2021-06-20 05:00:00,58.0,56.0,93.04,290.0,3.0,29.79,10.0,57.9
2021-06-20 06:00:00,59.0,56.0,89.44,0.0,0.0,29.75,10.0,59.0
2021-06-20 07:00:00,58.0,55.0,90.04,300.0,4.0,29.77,10.0,57.9
2021-06-20 08:00:00,57.0,55.0,93.01,0.0,0.0,29.75,5.0,57.0
2021-06-20 09:00:00,57.0,55.0,93.01,60.0,3.0,29.73,6.0,57.0
2021-06-20 10:00:00,60.0,57.0,89.48,0.0,0.0,29.76,10.0,60.1
2021-06-20 11:00:00,63.0,58.0,83.42,0.0,0.0,29.78,10.0,63.0
2021-06-20 12:00:00,67.0,60.0,78.77,50.0,3.0,29.77,10.0,66.9
2021-06-20 13:00:00,71.0,61.0,70.42,0.0,0.0,29.78,10.0,71.1
2021-06-20 14:00:00,76.0,61.0,59.92,0.0,0.0,29.75,10.0,75.9
2021-06-20 15:00:00,77.0,64.0,64.21,0.0,4.0,29.74,10.0,77.0
2021-06-20 16:00:00,79.0,64.0,60.11,170.0,6.0,29.73,10.0,79.0
2021-06-20 17:00:00,79.0,63.0,58.04,110.0,9.0,29.69,10.0,79.0
2021-06-20 18:00:00,75.0,61.0,61.75,150.0,13.0,29.66,10.0,75.0
2021-06-20 19:00:00,75.0,63.0,66.27,220.0,3.0,29.7,9.0,75.0
2021-06-20 20:00:00,75.0,65.0,70.83,60.0,7.0,29.66,10.0,75.0
2021-06-20 21:00:00,72.0,66.0,81.41,60.0,6.0,29.66,4.0,72.0
2021-06-20 22:00:00,74.0,67.0,78.77,100.0,10.0,29.6,10.0,73.9
2021-06-20 23:00:00,72.0,63.0,73.31,100.0,5.0,29.58,10.0,72.0
2021-06-21 00:00:00,70.0,63.0,78.46,70.0,3.0,29.59,10.0,70.0
2021-06-21 01:00:00,68.0,64.0,87.03,80.0,6.0,29.57,10.0,68.0
2021-06-21 02:00:00,69.0,64.0,83.81,170.0,7.0,29.57,8.0,69.1
2021-06-21 03:00:00,70.0,66.0,87.14,200.0,14.0,29.45,10.0,70.0
2021-06-21 04:00:00,69.0,66.0,89.86,220.0,9.0,29.41,10.0,69.1
2021-06-21 05:00:00,69.0,66.0,89.86,250.0,7.0,29.47,10.0,69.1
2021-06-21 06:00:00,69.0,65.0,86.48,240.0,13.0,29.48,10.0,69.1
2021-06-21 07:00:00,69.0,64.0,83.81,260.0,10.0,29.46,10.0,69.1
2021-06-21 08:00:00,69.0,65.0,86.48,280.0,9.0,29.47,10.0,69.1
2021-06-21 09:00:00,69.0,62.0,78.39,290.0,15.0,29.51,10.0,69.1
2021-06-21 10:00:00,64.0,56.0,74.93,300.0,14.0,29.57,10.0,64.0
2021-06-21 11:00:00,64.0,55.0,72.52,300.0,12.0,29.61,10.0,64.0
2021-06-21 12:00:00,64.0,54.0,69.92,320.0,11.0,29.64,10.0,64.0
2021-06-21 13:00:00,65.0,53.0,65.56,310.0,12.0,29.69,10.0,64.9
2021-06-21 14:00:00,67.0,54.0,63.21,300.0,15.0,29.72,10.0,66.9
2021-06-21 15:00:00,69.0,54.0,58.6,310.0,13.0,29.74,10.0,69.1
2021-06-21 16:00:00,71.0,51.0,49.2,300.0,14.0,29.76,10.0,71.1
2021-06-21 17:00:00,72.0,48.0,42.51,300.0,17.0,29.76,10.0,72.0
2021-06-21 18:00:00,71.0,45.0,39.13,310.0,15.0,29.77,10.0,71.1
2021-06-21 19:00:00,72.0,46.0,39.42,310.0,15.0,29.78,10.0,72.0
2021-06-21 20:00:00,70.0,45.0,40.63,320.0,14.0,29.8,10.0,70.0
2021-06-21 21:00:00,68.0,42.0,38.94,320.0,12.0,29.83,10.0,68.0
2021-06-21 22:00:00,67.0,42.0,40.45,340.0,7.0,29.85,10.0,66.9
2021-06-21 23:00:00,66.0,40.0,38.32,320.0,12.0,29.86,10.0,66.0
2021-06-22 00:00:00,64.0,40.0,41.09,330.0,8.0,29.88,10.0,64.0
2021-06-22 01:00:00,63.0,40.0,42.56,350.0,5.0,29.9,10.0,63.0
2021-06-22 02:00:00,57.0,49.0,74.27,100.0,7.0,29.93,10.0,57.0
2021-06-22 03:00:00,56.0,48.0,74.72,130.0,4.0,29.94,10.0,55.9
2021-06-22 04:00:00,55.0,48.0,77.21,190.0,3.0,29.95,10.0,55.0
2021-06-22 05:00:00,50.0,46.0,86.06,230.0,4.0,29.95,10.0,50.0
2021-06-22 06:00:00,51.0,47.0,85.48,220.0,4.0,29.93,10.0,51.1
2021-06-22 07:00:00,50.0,46.0,86.06,230.0,4.0,29.93,10.0,50.0
2021-06-22 08:00:00,50.0,47.0,89.04,230.0,5.0,29.93,10.0,50.0
2021-06-22 09:00:00,50.0,47.0,89.04,270.0,3.0,29.94,10.0,50.0
2021-06-22 10:00:00,50.0,47.0,89.04,250.0,4.0,29.95,10.0,50.0
2021-06-22 11:00:00,55.0,48.0,77.21,260.0,6.0,29.97,10.0,55.0
2021-06-22 12:00:00,60.0,48.0,64.26,270.0,5.0,29.98,10.0,60.1
2021-06-22 13:00:00,65.0,46.0,50.32,270.0,8.0,29.99,10.0,64.9
2021-06-22 14:00:00,66.0,45.0,46.62,260.0,9.0,29.99,10.0,66.0
2021-06-22 15:00:00,69.0,43.0,38.82,280.0,14.0,29.99,10.0,69.1
2021-06-22 16:00:00,70.0,40.0,33.39,280.0,13.0,29.98,10.0,70.0
2021-06-22 17:00:00,71.0,42.0,35.02,300.0,14.0,29.97,10.0,71.1
2021-06-22 18:00:00,71.0,41.0,33.57,290.0,9.0,29.95,10.0,71.1
2021-06-22 19:00:00,72.0,41.0,32.56,300.0,11.0,29.95,10.0,72.0
2021-06-22 20:00:00,71.0,43.0,36.25,280.0,6.0,29.95,10.0,71.1
2021-06-22 21:00:00,72.0,44.0,36.68,280.0,8.0,29.94,10.0,72.0
2021-06-22 22:00:00,71.0,44.0,37.81,0.0,0.0,29.94,10.0,71.1
2021-06-22 23:00:00,69.0,45.0,41.9,110.0,7.0,29.95,10.0,69.1
2021-06-23 00:00:00,67.0,46.0,46.94,130.0,8.0,29.95,10.0,66.9
2021-06-23 01:00:00,64.0,50.0,60.34,130.0,8.0,29.96,10.0,64.0
2021-06-23 02:00:00,65.0,51.0,60.9,150.0,8.0,29.98,10.0,64.9
2021-06-23 03:00:00,65.0,51.0,60.9,150.0,8.0,29.99,10.0,64.9
2021-06-23 04:00:00,66.0,50.0,56.27,150.0,9.0,29.98,10.0,66.0
2021-06-23 05:00:00,65.0,52.0,62.96,150.0,6.0,29.97,10.0,64.9
2021-06-23 06:00:00,64.0,53.0,67.66,150.0,5.0,29.96,10.0,64.0
2021-06-23 07:00:00,61.0,53.0,75.2,190.0,3.0,29.96,10.0,61.0
2021-06-23 08:00:00,60.0,52.0,74.57,200.0,4.0,29.97,10.0,60.1
2021-06-23 09:00:00,60.0,52.0,74.57,200.0,4.0,29.97,10.0,60.1
2021-06-23 10:00:00,63.0,53.0,70.07,210.0,3.0,29.99,10.0,63.0
2021-06-23 11:00:00,66.0,55.0,67.64,210.0,7.0,29.99,10.0,66.0
2021-06-23 12:00:00,67.0,56.0,67.74,210.0,9.0,30.01,10.0,66.9
2021-06-23 13:00:00,68.0,57.0,67.86,230.0,12.0,30.02,10.0,68.0
2021-06-23 14:00:00,71.0,58.0,63.05,220.0,11.0,30.01,10.0,71.1
2021-06-23 15:00:00,68.0,58.0,70.1,220.0,13.0,30.01,10.0,68.0
2021-06-23 16:00:00,68.0,56.0,65.22,220.0,15.0,30.0,10.0,68.0
2021-06-23 17:00:00,71.0,57.0,61.04,220.0,17.0,29.99,10.0,71.1
2021-06-23 18:00:00,69.0,57.0,65.35,210.0,13.0,29.98,10.0,69.1
2021-06-23 19:00:00,78.0,55.0,44.9,210.0,16.0,29.97,10.0,78.1
2021-06-23 20:00:00,79.0,52.0,39.06,220.0,14.0,29.96,10.0,79.0
2021-06-23 21:00:00,81.0,54.0,39.37,200.0,21.0,29.95,10.0,80.59
2021-06-23 22:00:00,81.0,53.0,38.09,210.0,19.0,29.94,10.0,80.47
2021-06-23 23:00:00,80.0,52.0,37.67,210.0,14.0,29.94,10.0,79.81
2021-06-24 00:00:00,80.0,52.0,37.67,210.0,14.0,29.94,10.0,79.81
2021-06-24 01:00:00,76.0,53.0,45.06,200.0,12.0,29.96,10.0,75.9
2021-06-24 02:00:00,76.0,53.0,45.06,200.0,12.0,29.96,10.0,75.9
2021-06-24 03:00:00,74.0,54.0,49.79,190.0,12.0,29.98,10.0,73.9
2021-06-24 04:00:00,74.0,54.0,49.79,190.0,12.0,29.98,10.0,73.9
2021-06-24 05:00:00,73.0,54.0,51.33,200.0,10.0,29.98,10.0,73.0
2021-06-24 06:00:00,72.0,54.0,53.09,190.0,10.0,29.97,10.0,72.0
2021-06-24 07:00:00,70.0,54.0,56.82,190.0,8.0,29.96,10.0,70.0
2021-06-24 08:00:00,69.0,54.0,58.6,190.0,8.0,29.96,10.0,69.1
2021-06-24 09:00:00,70.0,54.0,56.82,190.0,9.0,29.95,10.0,70.0
2021-06-24 10:00:00,70.0,55.0,58.94,190.0,10.0,29.93,10.0,70.0
2021-06-24 11:00:00,70.0,55.0,58.94,190.0,10.0,29.93,10.0,70.0
2021-06-24 12:00:00,73.4,57.2,56.88,220.0,12.0,29.93,10.0,73.4
2021-06-24 13:00:00,73.0,57.0,57.23,210.0,11.0,29.94,10.0,73.0
2021-06-24 14:00:00,74.0,58.0,57.36,210.0,13.0,29.93,10.0,73.9
2021-06-24 15:00:00,76.0,60.0,58.04,210.0,13.0,29.91,10.0,75.9
2021-06-24 16:00:00,79.0,62.0,56.23,220.0,9.0,29.92,10.0,79.0
2021-06-24 17:00:00,78.0,63.0,59.78,220.0,9.0,29.96,10.0,78.1
2021-06-24 18:00:00,75.0,67.0,75.92,220.0,8.0,29.97,10.0,75.0
2021-06-24 19:00:00,74.0,66.0,76.36,190.0,10.0,29.98,10.0,73.9
2021-06-24 20:00:00,74.0,66.0,76.36,180.0,10.0,29.96,10.0,73.9
2021-06-24 21:00:00,73.0,66.0,78.7,170.0,11.0,29.94,10.0,73.0
2021-06-24 22:00:00,70.0,66.0,87.14,160.0,15.0,29.93,7.0,70.0
2021-06-24 23:00:00,70.0,67.0,89.9,180.0,7.0,29.94,9.0,70.0
2021-06-25 00:00:00,72.0,67.0,83.99,160.0,3.0,29.95,10.0,72.0
2021-06-25 01:00:00,71.0,67.0,86.59,160.0,4.0,29.93,10.0,71.1
2021-06-25 02:00:00,72.0,67.0,83.99,200.0,7.0,29.95,10.0,72.0
2021-06-25 03:00:00,72.0,67.0,83.99,200.0,11.0,29.95,10.0,72.0
2021-06-25 04:00:00,72.0,68.0,87.24,190.0,5.0,29.96,10.0,72.0
2021-06-25 05:00:00,72.0,68.0,87.24,0.0,0.0,29.94,10.0,72.0
2021-06-25 06:00:00,71.0,68.0,89.94,120.0,4.0,29.91,10.0,71.1
2021-06-25 07:00:00,72.0,68.0,87.24,190.0,5.0,29.91,10.0,72.0
2021-06-25 08:00:00,71.0,68.0,89.94,180.0,9.0,29.87,5.0,71.1
2021-06-25 09:00:00,71.0,68.0,89.94,180.0,5.0,29.82,5.0,71.1
2021-06-25 10:00:00,68.0,66.0,93.32,80.0,9.0,29.84,1.5,68.0
2021-06-25 11:00:00,67.0,65.0,93.29,60.0,5.0,29.86,0.25,66.9
2021-06-25 12:00:00,67.0,65.0,93.29,60.0,5.0,29.86,0.25,66.9
2021-06-25 13:00:00,71.0,68.0,89.94,0.0,0.0,29.85,4.0,71.1
2021-06-25 14:00:00,73.0,70.0,90.32,0.0,3.0,29.82,10.0,73.0
2021-06-25 15:00:00,76.0,70.0,81.96,270.0,6.0,29.82,10.0,75.9
2021-06-25 16:00:00,79.0,70.0,73.97,280.0,7.0,29.82,10.0,79.0
2021-06-25 17:00:00,81.0,71.0,71.92,280.0,3.0,29.82,10.0,84.95
2021-06-25 18:00:00,82.0,71.0,69.62,280.0,8.0,29.82,10.0,86.35
2021-06-25 19:00:00,77.0,68.0,73.78,80.0,10.0,29.84,10.0,77.0
2021-06-25 20:00:00,75.0,68.0,78.86,110.0,7.0,29.86,10.0,75.0
2021-06-25 21:00:00,75.0,68.0,78.86,160.0,3.0,29.87,10.0,75.0
2021-06-25 22:00:00,75.0,71.0,87.68,250.0,7.0,29.85,10.0,75.0
2021-06-25 23:00:00,76.0,72.0,87.73,230.0,3.0,29.84,10.0,75.9
2021-06-26 00:00:00,75.0,72.0,90.4,0.0,0.0,29.85,10.0,75.0
2021-06-26 01:00:00,75.0,71.0,87.68,0.0,0.0,29.84,10.0,75.0
2021-06-26 02:00:00,75.0,71.0,87.68,0.0,0.0,29.84,10.0,75.0
2021-06-26 03:00:00,73.0,70.0,90.32,110.0,4.0,29.86,10.0,73.0
2021-06-26 04:00:00,69.0,67.0,92.71,120.0,4.0,29.86,4.0,69.1
2021-06-26 05:00:00,70.0,68.0,93.37,0.0,0.0,29.85,10.0,70.0
2021-06-26 06:00:00,71.0,68.0,89.94,100.0,3.0,29.84,8.0,71.1
2021-06-26 07:00:00,71.0,68.0,89.94,0.0,0.0,29.82,6.0,71.1
2021-06-26 08:00:00,74.0,70.0,87.63,220.0,5.0,29.81,10.0,73.9
2021-06-26 09:00:00,73.0,70.0,90.32,220.0,5.0,29.8,10.0,73.0
2021-06-26 10:00:00,73.0,69.0,87.59,160.0,4.0,29.81,10.0,73.0
2021-06-26 11:00:00,71.0,68.0,89.94,100.0,5.0,29.82,10.0,71.1
2021-06-26 12:00:00,73.0,70.0,90.32,190.0,6.0,29.82,10.0,73.0
2021-06-26 13:00:00,74.0,71.0,90.97,190.0,5.0,29.8,10.0,73.9
2021-06-26 14:00:00,75.0,70.0,84.46,190.0,6.0,29.81,10.0,75.0
2021-06-26 15:00:00,75.0,71.0,87.68,220.0,4.0,29.8,4.0,75.0
2021-06-26 16:00:00,76.0,71.0,85.09,220.0,6.0,29.79,10.0,75.9
2021-06-26 17:00:00,78.0,69.0,73.88,220.0,7.0,29.78,10.0,78.1
2021-06-26 18:00:00,80.0,69.0,69.18,220.0,8.0,29.77,10.0,83.01
2021-06-26 19:00:00,82.0,70.0,67.06,210.0,10.0,29.76,10.0,85.81
2021-06-26 20:00:00,82.0,69.0,65.03,240.0,8.0,29.75,10.0,85.39
2021-06-26 21:00:00,83.0,70.0,65.13,240.0,14.0,29.75,10.0,86.95
2021-06-26 22:00:00,82.0,69.0,65.03,220.0,9.0,29.74,10.0,85.39
2021-06-26 23:00:00,81.0,69.0,67.18,230.0,7.0,29.72,10.0,84.16
2021-06-27 00:00:00,81.0,69.0,67.18,220.0,9.0,29.73,10.0,84.16
2021-06-27 01:00:00,79.0,68.0,69.07,210.0,8.0,29.76,10.0,79.0
2021-06-27 02:00:00,77.0,69.0,76.62,210.0,7.0,29.78,10.0,77.0
2021-06-27 03:00:00,77.0,70.0,79.02,200.0,10.0,29.78,10.0,77.0
2021-06-27 04:00:00,77.0,71.0,82.03,200.0,10.0,29.78,10.0,77.0
2021-06-27 05:00:00,77.0,70.0,79.02,210.0,11.0,29.78,10.0,77.0
2021-06-27 06:00:00,77.0,70.0,79.02,220.0,11.0,29.77,10.0,77.0
2021-06-27 07:00:00,78.0,70.0,76.19,220.0,10.0,29.77,10.0,78.1
2021-06-27 08:00:00,77.0,69.0,76.62,220.0,12.0,29.77,10.0,77.0
2021-06-27 09:00:00,76.0,69.0,79.47,230.0,10.0,29.78,10.0,75.9
2021-06-27 10:00:00,76.0,69.0,79.47,240.0,15.0,29.8,10.0,75.9
2021-06-27 11:00:00,76.0,68.0,76.53,230.0,11.0,29.82,10.0,75.9
2021-06-27 12:00:00,78.0,67.0,68.49,240.0,10.0,29.83,10.0,78.1
2021-06-27 13:00:00,76.0,66.0,71.41,240.0,15.0,29.85,10.0,75.9
2021-06-27 14:00:00,79.0,67.0,66.49,240.0,17.0,29.87,10.0,79.0
2021-06-27 15:00:00,76.0,67.0,73.68,240.0,15.0,29.89,10.0,75.9
2021-06-27 16:00:00,80.0,67.0,64.14,250.0,16.0,29.91,10.0,82.4
2021-06-27 17:00:00,80.0,67.0,64.14,240.0,15.0,29.93,10.0,82.4
2021-06-27 18:00:00,81.0,68.0,64.69,240.0,15.0,29.94,10.0,83.76
2021-06-27 19:00:00,79.0,66.0,64.45,280.0,9.0,29.95,10.0,79.0
2021-06-27 20:00:00,80.0,65.0,59.83,290.0,13.0,29.96,10.0,81.91
2021-06-27 21:00:00,80.0,64.0,57.98,310.0,9.0,29.98,10.0,81.71
2021-06-27 22:00:00,78.0,63.0,59.78,320.0,7.0,29.99,10.0,78.1
2021-06-27 23:00:00,76.0,62.0,62.3,290.0,5.0,30.01,10.0,75.9
2021-06-28 00:00:00,70.0,61.0,73.11,80.0,7.0,30.02,10.0,70.0
2021-06-28 01:00:00,65.0,60.0,84.44,80.0,5.0,30.04,10.0,64.9
2021-06-28 02:00:00,67.0,61.0,81.33,130.0,4.0,30.07,10.0,66.9
2021-06-28 03:00:00,64.0,60.0,87.14,0.0,0.0,30.07,10.0,64.0
2021-06-28 04:00:00,64.0,60.0,87.14,0.0,0.0,30.07,10.0,64.0
2021-06-28 05:00:00,65.0,60.0,84.44,140.0,4.0,30.09,10.0,64.9
2021-06-28 06:00:00,66.0,61.0,83.91,150.0,5.0,30.1,10.0,66.0
2021-06-28 07:00:00,66.0,61.0,83.91,150.0,4.0,30.09,10.0,66.0
2021-06-28 08:00:00,67.0,61.0,81.33,150.0,4.0,30.1,10.0,66.9
2021-06-28 09:00:00,67.0,61.0,81.33,100.0,3.0,30.09,10.0,66.9
2021-06-28 10:00:00,66.0,62.0,87.24,140.0,4.0,30.11,8.0,66.0
2021-06-28 11:00:00,66.0,62.0,87.24,140.0,4.0,30.11,5.0,66.0
2021-06-28 12:00:00,67.0,63.0,87.28,130.0,7.0,30.14,10.0,66.9
2021-06-28 13:00:00,68.0,64.0,87.03,110.0,5.0,30.15,10.0,68.0
2021-06-28 14:00:00,70.0,63.0,78.46,120.0,5.0,30.16,10.0,70.0
2021-06-28 15:00:00,72.0,65.0,78.35,100.0,7.0,30.15,10.0,72.0
2021-06-28 16:00:00,73.0,65.0,75.75,120.0,5.0,30.15,10.0,73.0
2021-06-28 17:00:00,74.0,65.0,73.49,100.0,4.0,30.16,10.0,73.9
2021-06-28 18:00:00,76.0,66.0,71.41,100.0,3.0,30.14,10.0,75.9
2021-06-28 19:00:00,76.0,65.0,68.73,90.0,4.0,30.13,10.0,75.9
2021-06-28 20:00:00,70.0,64.0,81.27,90.0,8.0,30.13,10.0,70.0
2021-06-28 21:00:00,72.0,66.0,81.41,110.0,6.0,30.12,10.0,72.0
2021-06-28 22:00:00,72.0,64.0,75.92,90.0,5.0,30.1,10.0,72.0
2021-06-28 23:00:00,70.0,63.0,78.46,140.0,7.0,30.12,10.0,70.0
2021-06-29 00:00:00,69.0,63.0,80.92,110.0,4.0,30.11,10.0,69.1
2021-06-29 01:00:00,69.0,64.0,83.81,170.0,3.0,30.12,10.0,69.1
2021-06-29 02:00:00,69.0,66.0,89.86,0.0,0.0,30.13,10.0,69.1
2021-06-29 03:00:00,70.0,67.0,89.9,180.0,4.0,30.14,9.0,70.0
2021-06-29 04:00:00,70.0,68.0,93.37,190.0,6.0,30.14,8.0,70.0
2021-06-29 05:00:00,72.0,68.0,87.24,220.0,6.0,30.14,10.0,72.0
2021-06-29 06:00:00,72.0,69.0,90.59,230.0,3.0,30.12,10.0,72.0
2021-06-29 07:00:00,72.0,69.0,90.59,240.0,5.0,30.13,10.0,72.0
2021-06-29 08:00:00,72.0,69.0,90.59,240.0,4.0,30.13,10.0,72.0
2021-06-29 09:00:00,72.0,69.0,90.59,210.0,3.0,30.12,10.0,72.0
2021-06-29 10:00:00,72.0,69.0,90.59,220.0,4.0,30.14,10.0,72.0
2021-06-29 11:00:00,73.0,69.0,87.59,240.0,4.0,30.15,10.0,73.0
2021-06-29 12:00:00,74.0,70.0,87.63,210.0,5.0,30.16,10.0,73.9
2021-06-29 13:00:00,76.0,71.0,85.09,210.0,7.0,30.17,10.0,75.9
2021-06-29 14:00:00,77.0,71.0,82.03,220.0,7.0,30.17,10.0,77.0
2021-06-29 15:00:00,78.0,73.0,84.36,200.0,8.0,30.16,10.0,78.1
2021-06-29 16:00:00,80.0,73.0,78.99,240.0,10.0,30.15,10.0,84.3
2021-06-29 17:00:00,82.0,71.0,69.62,210.0,7.0,30.15,10.0,86.35
2021-06-29 18:00:00,83.0,72.0,69.71,220.0,9.0,30.13,10.0,88.11
2021-06-29 19:00:00,77.0,69.0,76.62,310.0,9.0,30.13,10.0,77.0
2021-06-29 20:00:00,80.0,72.0,76.36,0.0,0.0,30.11,10.0,83.94
2021-06-29 21:00:00,80.0,73.0,78.99,260.0,5.0,30.1,10.0,84.3
2021-06-29 22:00:00,80.0,70.0,71.35,280.0,8.0,30.1,10.0,83.28
2021-06-29 23:00:00,80.0,69.0,69.18,270.0,7.0,30.1,10.0,83.01
2021-06-30 00:00:00,77.0,69.0,76.62,250.0,5.0,30.11,10.0,77.0
2021-06-30 01:00:00,76.0,68.0,76.53,260.0,5.0,30.1,10.0,75.9
2021-06-30 02:00:00,73.0,68.0,84.34,230.0,5.0,30.13,10.0,73.0
2021-06-30 03:00:00,72.0,68.0,87.24,250.0,4.0,30.13,10.0,72.0
2021-06-30 04:00:00,72.0,68.0,87.24,250.0,5.0,30.12,10.0,72.0
2021-06-30 05:00:00,72.0,68.0,87.24,250.0,6.0,30.11,10.0,72.0
2021-06-30 06:00:00,73.0,69.0,87.59,280.0,6.0,30.1,10.0,73.0
2021-06-30 07:00:00,72.0,68.0,87.24,230.0,5.0,30.08,10.0,72.0
2021-06-30 08:00:00,72.0,68.0,87.24,230.0,6.0,30.07,10.0,72.0
2021-06-30 09:00:00,71.0,68.0,89.94,270.0,9.0,30.07,10.0,71.1
2021-06-30 10:00:00,71.0,69.0,93.4,310.0,7.0,30.09,10.0,71.1
2021-06-30 11:00:00,73.0,69.0,87.59,310.0,4.0,30.09,10.0,73.0
2021-06-30 12:00:00,75.0,69.0,81.9,300.0,7.0,30.09,10.0,75.0
2021-06-30 13:00:00,76.0,69.0,79.47,0.0,0.0,30.11,10.0,75.9
2021-06-30 14:00:00,77.0,67.0,71.03,0.0,0.0,30.11,10.0,77.0
2021-06-30 15:00:00,81.0,67.0,62.28,280.0,4.0,30.1,10.0,83.4
2021-06-30 16:00:00,81.0,67.0,62.28,0.0,0.0,30.08,10.0,83.4
2021-06-30 17:00:00,82.0,68.0,62.62,310.0,3.0,30.08,10.0,84.92
2021-06-30 18:00:00,83.0,69.0,63.16,0.0,0.0,30.05,10.0,86.48
2021-06-30 19:00:00,83.0,70.0,65.13,0.0,3.0,30.04,10.0,86.95
2021-06-30 20:00:00,85.0,65.0,51.21,250.0,5.0,30.02,10.0,86.62
2021-06-30 21:00:00,86.0,63.0,46.25,250.0,6.0,30.02,10.0,86.88
2021-06-30 22:00:00,81.0,69.0,67.18,130.0,10.0,30.0,10.0,84.16
2021-06-30 23:00:00,80.0,68.0,66.62,150.0,8.0,30.0,10.0,82.7
2021-07-01 00:00:00,77.0,68.0,73.78,160.0,8.0,30.01,10.0,77.0
2021-07-01 01:00:00,73.0,67.0,81.2,0.0,0.0,30.0,10.0,73.0
2021-07-01 02:00:00,74.0,68.0,81.82,190.0,3.0,30.0,10.0,73.9
2021-07-01 03:00:00,70.0,64.0,81.27,50.0,18.0,30.03,10.0,70.0
2021-07-01 04:00:00,66.0,61.0,83.91,100.0,8.0,30.03,10.0,66.0
2021-07-01 05:00:00,68.0,60.0,75.84,200.0,3.0,30.0,10.0,68.0
2021-07-01 06:00:00,66.0,62.0,87.24,280.0,3.0,29.99,10.0,66.0
2021-07-01 07:00:00,65.0,60.0,84.44,40.0,8.0,30.01,10.0,64.9
2021-07-01 08:00:00,66.0,63.0,90.05,30.0,6.0,30.01,10.0,66.0
2021-07-01 09:00:00,65.0,62.0,90.64,360.0,4.0,30.02,9.0,64.9
2021-07-01 10:00:00,64.0,61.0,89.97,360.0,4.0,30.03,10.0,64.0
2021-07-01 11:00:00,66.0,61.0,83.91,20.0,6.0,30.04,10.0,66.0
2021-07-01 12:00:00,69.0,63.0,80.92,10.0,8.0,30.04,10.0,69.1
2021-07-01 13:00:00,71.0,61.0,70.42,10.0,8.0,30.06,10.0,71.1
2021-07-01 14:00:00,74.0,60.0,62.05,40.0,9.0,30.07,10.0,73.9
2021-07-01 15:00:00,74.0,61.0,64.07,20.0,10.0,30.08,10.0,73.9
2021-07-01 16:00:00,74.0,60.0,62.05,10.0,11.0,30.08,10.0,73.9
2021-07-01 17:00:00,75.0,59.0,57.5,40.0,12.0,30.09,10.0,75.0
2021-07-01 18:00:00,75.0,56.0,51.43,40.0,14.0,30.08,10.0,75.0
2021-07-01 19:00:00,74.0,54.0,49.79,30.0,14.0,30.09,10.0,73.9
2021-07-01 20:00:00,73.0,54.0,51.33,30.0,11.0,30.08,10.0,73.0
2021-07-01 21:00:00,70.0,55.0,58.94,20.0,13.0,30.07,10.0,70.0
2021-07-01 22:00:00,69.0,56.0,62.8,30.0,10.0,30.08,10.0,69.1
2021-07-01 23:00:00,67.0,54.0,63.21,40.0,9.0,30.08,10.0,66.9
2021-07-02 00:00:00,64.0,53.0,67.66,20.0,7.0,30.08,10.0,64.0
2021-07-02 01:00:00,61.0,53.0,75.2,20.0,8.0,30.08,10.0,61.0
2021-07-02 02:00:00,60.0,53.0,77.65,20.0,5.0,30.09,10.0,60.1
2021-07-02 03:00:00,60.0,53.0,77.65,20.0,6.0,30.09,10.0,60.1
2021-07-02 04:00:00,59.0,53.0,80.75,10.0,4.0,30.09,10.0,59.0
2021-07-02 05:00:00,58.0,53.0,84.0,350.0,5.0,30.09,10.0,57.9
2021-07-02 06:00:00,57.0,52.0,83.33,10.0,3.0,30.1,10.0,57.0
2021-07-02 07:00:00,57.0,52.0,83.33,350.0,4.0,30.09,10.0,57.0
2021-07-02 08:00:00,57.0,52.0,83.33,350.0,4.0,30.1,10.0,57.0
2021-07-02 09:00:00,56.0,52.0,86.71,360.0,5.0,30.11,10.0,55.9
2021-07-02 10:00:00,57.0,53.0,86.77,350.0,4.0,30.11,10.0,57.0
2021-07-02 11:00:00,61.0,56.0,83.29,30.0,6.0,30.12,10.0,61.0
2021-07-02 12:00:00,64.0,57.0,77.97,30.0,8.0,30.14,10.0,64.0
2021-07-02 13:00:00,66.0,57.0,72.72,30.0,7.0,30.14,10.0,66.0
2021-07-02 14:00:00,69.0,56.0,62.8,30.0,5.0,30.14,10.0,69.1
2021-07-02 15:00:00,71.0,57.0,61.04,30.0,5.0,30.14,10.0,71.1
2021-07-02 16:00:00,71.0,55.0,56.77,340.0,6.0,30.13,10.0,71.1
2021-07-02 17:00:00,73.0,52.0,47.69,10.0,4.0,30.13,10.0,73.0
2021-07-02 18:00:00,73.0,52.0,47.69,10.0,4.0,30.11,10.0,73.0
2021-07-02 19:00:00,73.0,54.0,51.33,80.0,10.0,30.11,10.0,73.0
2021-07-02 20:00:00,72.0,52.0,49.33,100.0,10.0,30.1,10.0,72.0
2021-07-02 21:00:00,71.0,52.0,50.86,100.0,7.0,30.08,10.0,71.1
2021-07-02 22:00:00,71.0,50.0,47.23,80.0,7.0,30.07,10.0,71.1
2021-07-02 23:00:00,69.0,51.0,52.67,90.0,5.0,30.08,10.0,69.1
2021-07-03 00:00:00,66.0,51.0,58.62,100.0,4.0,30.08,10.0,66.0
2021-07-03 01:00:00,61.0,50.0,67.06,80.0,3.0,30.06,10.0,61.0
2021-07-03 02:00:00,57.0,49.0,74.27,0.0,0.0,30.06,10.0,57.0
2021-07-03 03:00:00,57.0,50.0,77.38,0.0,0.0,30.05,10.0,57.0
2021-07-03 04:00:00,58.0,52.0,80.67,0.0,0.0,30.06,10.0,57.9
2021-07-03 05:00:00,54.0,50.0,86.29,260.0,3.0,30.06,10.0,54.0
2021-07-03 06:00:00,54.0,50.0,86.29,260.0,3.0,30.06,10.0,54.0
2021-07-03 07:00:00,53.0,50.0,89.18,250.0,5.0,30.05,10.0,53.1
2021-07-03 08:00:00,57.0,52.0,83.33,260.0,7.0,30.05,10.0,57.0
2021-07-03 09:00:00,56.0,50.0,80.52,250.0,7.0,30.05,10.0,55.9
2021-07-03 10:00:00,58.0,50.0,74.91,270.0,7.0,30.06,10.0,57.9
2021-07-03 11:00:00,63.0,53.0,70.07,260.0,7.0,30.06,10.0,63.0
2021-07-03 12:00:00,68.0,55.0,63.12,280.0,12.0,30.05,10.0,68.0
2021-07-03 13:00:00,73.0,58.0,59.12,280.0,9.0,30.04,10.0,73.0
2021-07-03 14:00:00,77.0,58.0,51.72,290.0,9.0,30.02,10.0,77.0
2021-07-03 15:00:00,81.0,61.0,50.65,290.0,11.0,30.01,10.0,81.81
2021-07-03 16:00:00,84.0,61.0,45.96,290.0,14.0,29.99,10.0,84.32
2021-07-03 17:00:00,86.0,62.0,44.81,300.0,10.0,29.97,10.0,86.52
2021-07-03 18:00:00,88.0,63.0,43.4,280.0,10.0,29.95,10.0,88.86
2021-07-03 19:00:00,88.0,63.0,43.4,290.0,14.0,29.94,10.0,88.86
2021-07-03 20:00:00,89.0,64.0,43.42,290.0,13.0,29.93,10.0,90.49
2021-07-03 21:00:00,88.0,64.0,44.95,290.0,10.0,29.93,10.0,89.34
2021-07-03 22:00:00,87.0,64.0,46.26,290.0,11.0,29.92,10.0,88.42
2021-07-03 23:00:00,86.0,64.0,47.91,290.0,8.0,29.93,10.0,87.31
2021-07-04 00:00:00,82.0,64.0,54.5,280.0,6.0,29.93,10.0,83.47
2021-07-04 01:00:00,79.0,64.0,60.11,280.0,6.0,29.93,10.0,79.0
2021-07-04 02:00:00,75.0,63.0,66.27,270.0,5.0,29.94,10.0,75.0
2021-07-04 03:00:00,74.0,63.0,68.76,280.0,6.0,29.94,10.0,73.9
2021-07-04 04:00:00,72.0,63.0,73.31,270.0,5.0,29.93,10.0,72.0
2021-07-04 05:00:00,71.0,63.0,75.58,280.0,5.0,29.93,10.0,71.1
2021-07-04 06:00:00,69.0,63.0,80.92,270.0,4.0,29.94,10.0,69.1
2021-07-04 07:00:00,68.0,62.0,81.41,260.0,5.0,29.94,10.0,68.0
2021-07-04 08:00:00,68.0,63.0,84.03,270.0,4.0,29.94,10.0,68.0
2021-07-04 09:00:00,68.0,62.0,81.41,280.0,5.0,29.94,10.0,68.0
2021-07-04 10:00:00,68.0,62.0,81.41,230.0,3.0,29.94,10.0,68.0
2021-07-04 11:00:00,70.0,64.0,81.27,260.0,5.0,29.95,10.0,70.0
2021-07-04 12:00:00,76.0,64.0,66.6,290.0,6.0,29.96,10.0,75.9
2021-07-04 13:00:00,79.0,66.0,64.45,280.0,8.0,29.97,10.0,79.0
2021-07-04 14:00:00,83.0,67.0,58.55,300.0,7.0,29.96,10.0,85.45
2021-07-04 15:00:00,85.0,68.0,57.02,300.0,4.0,29.97,10.0,88.18
2021-07-04 16:00:00,88.0,69.0,53.64,290.0,6.0,29.96,10.0,92.43
2021-07-04 17:00:00,89.0,68.0,49.88,220.0,5.0,29.95,10.0,92.9
2021-07-04 18:00:00,90.0,68.0,48.49,210.0,7.0,29.94,10.0,93.93
2021-07-04 19:00:00,92.0,66.0,42.64,230.0,9.0,29.93,10.0,94.72
2021-07-04 20:00:00,91.0,67.0,45.24,240.0,9.0,29.92,10.0,94.3
2021-07-04 21:00:00,91.0,66.0,43.85,220.0,7.0,29.91,10.0,93.71
2021-07-04 22:00:00,89.0,69.0,51.8,230.0,9.0,29.91,10.0,93.71
2021-07-04 23:00:00,87.0,68.0,53.15,230.0,8.0,29.92,10.0,90.64
2021-07-05 00:00:00,84.0,68.0,58.69,230.0,8.0,29.91,10.0,87.18
2021-07-05 01:00:00,80.0,67.0,64.14,240.0,9.0,29.92,10.0,82.4
2021-07-05 02:00:00,79.0,68.0,69.07,230.0,7.0,29.94,10.0,79.0
2021-07-05 03:00:00,78.0,68.0,71.14,240.0,9.0,29.94,10.0,78.1
2021-07-05 04:00:00,76.0,67.0,73.68,250.0,9.0,29.94,10.0,75.9
2021-07-05 05:00:00,75.0,67.0,75.92,240.0,9.0,29.94,10.0,75.0
2021-07-05 06:00:00,75.0,67.0,75.92,250.0,10.0,29.93,10.0,75.0
2021-07-05 07:00:00,75.0,66.0,73.59,260.0,11.0,29.93,10.0,75.0
2021-07-05 08:00:00,75.0,65.0,70.83,260.0,10.0,29.93,10.0,75.0
2021-07-05 09:00:00,74.0,65.0,73.49,250.0,10.0,29.92,10.0,73.9
2021-07-05 10:00:00,73.0,66.0,78.7,250.0,12.0,29.94,10.0,73.0
2021-07-05 11:00:00,75.0,67.0,75.92,260.0,10.0,29.95,10.0,75.0
2021-07-05 12:00:00,78.0,68.0,71.14,260.0,10.0,29.95,10.0,78.1
2021-07-05 13:00:00,82.0,68.0,62.62,270.0,12.0,29.96,10.0,84.92
2021-07-05 14:00:00,86.0,69.0,57.16,260.0,15.0,29.96,10.0,90.11
2021-07-05 15:00:00,89.0,69.0,51.8,260.0,16.0,29.95,10.0,93.71
2021-07-05 16:00:00,91.0,68.0,46.99,260.0,17.0,29.95,10.0,95.08
2021-07-05 17:00:00,93.0,66.0,41.2,240.0,21.0,29.94,10.0,95.98
2021-07-05 18:00:00,94.0,66.0,40.07,260.0,16.0,29.93,10.0,97.03
2021-07-05 19:00:00,95.0,66.0,38.73,230.0,17.0,29.92,10.0,98.32
2021-07-05 20:00:00,95.0,64.0,36.12,260.0,19.0,29.92,10.0,97.02
2021-07-05 21:00:00,94.0,67.0,41.34,240.0,14.0,29.91,10.0,97.66
2021-07-05 22:00:00,90.0,67.0,46.68,240.0,13.0,29.93,10.0,93.17
2021-07-05 23:00:00,88.0,68.0,51.65,250.0,9.0,29.94,10.0,91.65
2021-07-06 00:00:00,86.0,69.0,57.16,250.0,10.0,29.95,10.0,90.11
2021-07-06 01:00:00,84.0,69.0,60.95,240.0,10.0,29.95,10.0,87.78
2021-07-06 02:00:00,83.0,69.0,63.16,250.0,11.0,29.96,10.0,86.48
2021-07-06 03:00:00,82.0,69.0,65.03,230.0,9.0,29.96,10.0,85.39
2021-07-06 04:00:00,80.0,69.0,69.18,250.0,10.0,29.98,10.0,83.01
2021-07-06 05:00:00,80.0,69.0,69.18,240.0,11.0,29.98,10.0,83.01
2021-07-06 06:00:00,79.0,69.0,71.72,250.0,12.0,29.98,10.0,79.0
2021-07-06 07:00:00,78.0,68.0,71.14,240.0,11.0,29.99,10.0,78.1
2021-07-06 08:00:00,77.0,68.0,73.78,240.0,9.0,29.99,10.0,77.0
2021-07-06 09:00:00,76.0,67.0,73.68,250.0,9.0,30.0,10.0,75.9
2021-07-06 10:00:00,76.0,67.0,73.68,250.0,9.0,30.01,10.0,75.9
2021-07-06 11:00:00,78.0,68.0,71.14,250.0,9.0,30.01,10.0,78.1
2021-07-06 12:00:00,81.0,68.0,64.69,260.0,11.0,30.01,10.0,83.76
2021-07-06 13:00:00,84.0,69.0,60.95,260.0,13.0,30.01,10.0,87.78
2021-07-06 14:00:00,87.0,69.0,55.19,280.0,11.0,30.01,10.0,91.38
2021-07-06 15:00:00,89.0,70.0,53.42,270.0,11.0,30.01,10.0,94.41
2021-07-06 16:00:00,92.0,70.0,48.93,270.0,10.0,30.0,10.0,97.77
2021-07-06 17:00:00,93.0,70.0,47.28,240.0,10.0,29.99,10.0,99.1
2021-07-06 18:00:00,92.0,70.0,48.93,260.0,12.0,29.98,10.0,97.77
2021-07-06 19:00:00,94.0,69.0,44.59,230.0,11.0,29.96,10.0,99.4
2021-07-06 20:00:00,94.0,68.0,42.93,250.0,13.0,29.95,10.0,98.5
2021-07-06 21:00:00,92.0,67.0,43.99,250.0,12.0,29.92,10.0,95.33
2021-07-06 22:00:00,91.0,66.0,43.85,230.0,12.0,29.92,10.0,93.71
2021-07-06 23:00:00,88.0,66.0,48.2,240.0,15.0,29.94,10.0,90.41
2021-07-07 00:00:00,85.0,67.0,54.89,240.0,11.0,29.95,10.0,87.59
2021-07-07 01:00:00,83.0,68.0,60.81,240.0,9.0,29.95,10.0,85.94
2021-07-07 02:00:00,81.0,68.0,64.69,220.0,6.0,29.97,10.0,83.76
2021-07-07 03:00:00,71.0,64.0,78.28,40.0,7.0,29.98,10.0,71.1
2021-07-07 04:00:00,68.0,63.0,84.03,50.0,4.0,29.98,10.0,68.0
2021-07-07 05:00:00,67.0,62.0,84.56,70.0,5.0,29.97,10.0,66.9
2021-07-07 06:00:00,66.0,62.0,87.24,0.0,0.0,29.97,10.0,66.0
2021-07-07 07:00:00,66.0,63.0,90.05,30.0,3.0,29.95,10.0,66.0
2021-07-07 08:00:00,65.0,63.0,93.56,0.0,0.0,29.95,10.0,64.9
2021-07-07 09:00:00,66.0,63.0,90.05,90.0,3.0,29.94,10.0,66.0
2021-07-07 10:00:00,67.0,63.0,87.28,80.0,4.0,29.94,10.0,66.9
2021-07-07 11:00:00,67.0,64.0,90.4,60.0,5.0,29.94,0.5,66.9
2021-07-07 12:00:00,70.0,66.0,87.14,80.0,4.0,29.95,5.0,70.0
2021-07-07 13:00:00,71.0,66.0,83.93,50.0,3.0,29.95,10.0,71.1
2021-07-07 14:00:00,75.0,67.0,75.92,120.0,3.0,29.94,10.0,75.0
2021-07-07 15:00:00,76.0,66.0,71.41,100.0,6.0,29.93,10.0,75.9
2021-07-07 16:00:00,77.0,66.0,68.85,80.0,8.0,29.92,10.0,77.0
2021-07-07 17:00:00,77.0,66.0,68.85,90.0,7.0,29.89,10.0,77.0
2021-07-07 18:00:00,71.0,65.0,80.78,70.0,8.0,29.9,9.0,71.1
2021-07-07 19:00:00,70.0,65.0,83.86,60.0,4.0,29.9,10.0,70.0
2021-07-07 20:00:00,70.0,67.0,89.9,10.0,3.0,29.9,4.0,70.0
2021-07-07 21:00:00,72.0,67.0,83.99,80.0,5.0,29.87,10.0,72.0
2021-07-07 22:00:00,69.0,65.0,86.48,60.0,8.0,29.88,10.0,69.1
2021-07-07 23:00:00,67.0,64.0,90.4,60.0,8.0,29.88,6.0,66.9
2021-07-08 00:00:00,66.0,63.0,90.05,70.0,9.0,29.89,10.0,66.0
2021-07-08 01:00:00,66.0,63.0,90.05,40.0,7.0,29.9,10.0,66.0
2021-07-08 02:00:00,64.0,61.0,89.97,30.0,8.0,29.91,10.0,64.0
2021-07-08 03:00:00,64.0,61.0,89.97,40.0,5.0,29.91,10.0,64.0
2021-07-08 04:00:00,63.0,60.0,90.25,20.0,8.0,29.91,10.0,63.0
2021-07-08 05:00:00,63.0,59.0,86.77,10.0,6.0,29.9,10.0,63.0
2021-07-08 06:00:00,62.0,59.0,89.57,10.0,5.0,29.89,10.0,62.1
2021-07-08 07:00:00,62.0,59.0,89.57,10.0,6.0,29.89,10.0,62.1
2021-07-08 08:00:00,62.0,58.0,86.11,350.0,4.0,29.89,10.0,62.1
2021-07-08 09:00:00,62.0,58.0,86.11,340.0,5.0,29.89,10.0,62.1
2021-07-08 10:00:00,62.0,58.0,86.11,350.0,6.0,29.9,10.0,62.1
2021-07-08 11:00:00,62.0,57.0,83.36,350.0,6.0,29.91,10.0,62.1
2021-07-08 12:00:00,62.0,57.0,83.36,10.0,5.0,29.92,10.0,62.1
2021-07-08 13:00:00,62.0,56.0,80.11,360.0,7.0,29.94,10.0,62.1
2021-07-08 14:00:00,63.0,57.0,80.76,10.0,6.0,29.94,10.0,63.0
2021-07-08 15:00:00,63.0,56.0,77.61,330.0,5.0,29.94,10.0,63.0
2021-07-08 16:00:00,65.0,56.0,72.61,330.0,3.0,29.94,10.0,64.9
2021-07-08 17:00:00,66.0,56.0,69.88,330.0,5.0,29.97,10.0,66.0
2021-07-08 18:00:00,68.0,57.0,67.86,330.0,5.0,29.97,10.0,68.0
2021-07-08 19:00:00,68.0,57.0,67.86,340.0,7.0,29.96,10.0,68.0
2021-07-08 20:00:00,67.0,58.0,72.81,30.0,4.0,29.96,10.0,66.9
2021-07-08 21:00:00,65.0,57.0,75.56,30.0,5.0,29.97,10.0,64.9
2021-07-08 22:00:00,64.0,57.0,77.97,30.0,5.0,29.97,10.0,64.0
2021-07-08 23:00:00,65.0,57.0,75.56,30.0,6.0,29.97,10.0,64.9
2021-07-09 00:00:00,63.0,57.0,80.76,50.0,6.0,29.98,10.0,63.0
2021-07-09 01:00:00,63.0,57.0,80.76,0.0,0.0,29.99,10.0,63.0
2021-07-09 02:00:00,60.0,55.0,83.23,270.0,4.0,30.0,10.0,60.1
2021-07-09 03:00:00,56.0,54.0,93.32,270.0,4.0,30.0,10.0,55.9
2021-07-09 04:00:00,59.0,55.0,86.56,320.0,4.0,30.01,10.0,59.0
2021-07-09 05:00:00,57.0,54.0,89.68,300.0,4.0,30.01,10.0,57.0
2021-07-09 06:00:00,58.0,55.0,90.04,300.0,5.0,30.01,10.0,57.9
2021-07-09 07:00:00,56.0,53.0,90.29,300.0,4.0,30.01,10.0,55.9
2021-07-09 08:00:00,58.0,54.0,86.82,300.0,7.0,30.02,10.0,57.9
2021-07-09 09:00:00,56.0,53.0,90.29,0.0,0.0,30.0,10.0,55.9
2021-07-09 10:00:00,55.0,52.0,89.59,300.0,5.0,30.05,10.0,55.0
2021-07-09 11:00:00,60.0,56.0,85.99,320.0,4.0,30.07,10.0,60.1
2021-07-09 12:00:00,66.0,58.0,75.12,320.0,6.0,30.09,10.0,66.0
2021-07-09 13:00:00,71.0,59.0,65.58,330.0,4.0,30.09,10.0,71.1
2021-07-09 14:00:00,73.0,57.0,57.23,360.0,7.0,30.07,10.0,73.0
2021-07-09 15:00:00,74.0,58.0,57.36,100.0,10.0,30.07,10.0,73.9
2021-07-09 16:00:00,73.0,57.0,57.23,100.0,11.0,30.07,10.0,73.0
2021-07-09 17:00:00,73.4,57.2,56.88,90.0,8.0,30.07,10.0,73.4
2021-07-09 18:00:00,73.4,55.4,53.29,110.0,10.0,30.07,10.0,73.4
2021-07-09 19:00:00,71.6,55.4,56.63,120.0,7.0,30.07,10.0,71.6
2021-07-09 20:00:00,71.6,55.4,56.63,130.0,7.0,30.07,10.0,71.6
2021-07-09 21:00:00,71.6,53.6,53.03,130.0,4.0,30.07,10.0,71.6
2021-07-09 22:00:00,71.6,53.6,53.03,130.0,4.0,30.07,10.0,71.6
2021-07-09 23:00:00,74.0,51.0,44.76,110.0,6.0,30.07,10.0,73.9
2021-07-10 00:00:00,71.0,52.0,50.86,140.0,6.0,30.08,10.0,71.1
2021-07-10 01:00:00,68.0,51.0,54.7,120.0,3.0,30.08,10.0,68.0
2021-07-10 02:00:00,63.0,51.0,65.09,150.0,3.0,30.09,10.0,63.0
2021-07-10 03:00:00,59.0,51.0,75.02,0.0,0.0,30.07,10.0,59.0
2021-07-10 04:00:00,59.0,51.0,75.02,0.0,0.0,30.06,10.0,59.0
2021-07-10 05:00:00,56.0,51.0,83.88,60.0,3.0,30.04,10.0,55.9
2021-07-10 06:00:00,55.0,50.0,83.2,0.0,0.0,30.02,10.0,55.0
2021-07-10 07:00:00,55.0,52.0,89.59,240.0,4.0,30.06,10.0,55.0
2021-07-10 08:00:00,58.0,55.0,90.04,70.0,4.0,30.04,10.0,57.9
2021-07-10 09:00:00,58.0,56.0,93.04,60.0,3.0,30.03,10.0,57.9
2021-07-10 10:00:00,58.0,55.0,90.04,80.0,3.0,30.03,10.0,57.9
2021-07-10 11:00:00,63.0,59.0,86.77,0.0,0.0,30.04,10.0,63.0
2021-07-10 12:00:00,67.0,60.0,78.77,90.0,8.0,30.05,10.0,66.9
2021-07-10 13:00:00,71.0,58.0,63.05,80.0,9.0,30.03,10.0,71.1
2021-07-10 14:00:00,71.0,58.0,63.05,90.0,10.0,30.04,10.0,71.1
2021-07-10 15:00:00,71.0,59.0,65.58,70.0,10.0,30.03,10.0,71.1
2021-07-10 16:00:00,75.0,60.0,59.81,90.0,11.0,30.01,10.0,75.0
2021-07-10 17:00:00,74.0,60.0,62.05,90.0,12.0,30.01,10.0,73.9
2021-07-10 18:00:00,72.0,60.0,66.16,100.0,10.0,30.0,10.0,72.0
2021-07-10 19:00:00,72.0,60.0,66.16,70.0,11.0,29.98,10.0,72.0
2021-07-10 20:00:00,72.0,59.0,63.61,60.0,12.0,29.97,10.0,72.0
2021-07-10 21:00:00,71.0,59.0,65.58,70.0,11.0,29.97,10.0,71.1
2021-07-10 22:00:00,71.0,58.0,63.05,50.0,8.0,29.96,10.0,71.1
2021-07-10 23:00:00,68.0,59.0,72.92,50.0,8.0,29.95,10.0,68.0
2021-07-11 00:00:00,68.0,60.0,75.84,30.0,6.0,29.96,10.0,68.0
2021-07-11 01:00:00,68.0,58.0,70.1,30.0,9.0,29.96,10.0,68.0
2021-07-11 02:00:00,68.0,58.0,70.1,50.0,10.0,29.96,10.0,68.0
2021-07-11 03:00:00,69.0,58.0,67.5,50.0,12.0,29.96,10.0,69.1
2021-07-11 04:00:00,69.0,58.0,67.5,50.0,11.0,29.96,10.0,69.1
2021-07-11 05:00:00,69.0,59.0,70.21,60.0,10.0,29.95,10.0,69.1
2021-07-11 06:00:00,69.0,60.0,73.03,80.0,10.0,29.95,10.0,69.1
2021-07-11 07:00:00,68.0,61.0,78.3,80.0,12.0,29.93,10.0,68.0
2021-07-11 08:00:00,68.0,61.0,78.3,90.0,11.0,29.93,10.0,68.0
2021-07-11 09:00:00,67.0,61.0,81.33,60.0,9.0,29.93,10.0,66.9
2021-07-11 10:00:00,67.0,60.0,78.77,60.0,9.0,29.93,10.0,66.9
2021-07-11 11:00:00,68.0,60.0,75.84,60.0,9.0,29.95,10.0,68.0
2021-07-11 12:00:00,68.0,60.0,75.84,60.0,11.0,29.96,10.0,68.0
2021-07-11 13:00:00,69.0,59.0,70.21,60.0,11.0,29.97,10.0,69.1
2021-07-11 14:00:00,70.0,59.0,68.09,60.0,12.0,29.98,10.0,70.0
2021-07-11 15:00:00,71.0,59.0,65.58,70.0,12.0,29.99,10.0,71.1
2021-07-11 16:00:00,73.0,58.0,59.12,70.0,13.0,30.0,10.0,73.0
2021-07-11 17:00:00,72.0,58.0,61.15,50.0,12.0,30.01,10.0,72.0
2021-07-11 18:00:00,71.0,58.0,63.05,50.0,13.0,30.01,10.0,71.1
2021-07-11 19:00:00,71.0,59.0,65.58,50.0,9.0,30.01,10.0,71.1
2021-07-11 20:00:00,70.0,60.0,70.81,40.0,9.0,30.01,10.0,70.0
2021-07-11 21:00:00,72.0,61.0,68.31,30.0,8.0,30.0,10.0,72.0
2021-07-11 22:00:00,71.0,59.0,65.58,40.0,9.0,30.0,10.0,71.1
2021-07-11 23:00:00,70.0,59.0,68.09,40.0,9.0,30.01,10.0,70.0
2021-07-12 00:00:00,68.0,59.0,72.92,40.0,8.0,30.01,10.0,68.0
2021-07-12 01:00:00,67.0,59.0,75.74,30.0,6.0,30.02,10.0,66.9
2021-07-12 02:00:00,67.0,59.0,75.74,30.0,6.0,30.03,10.0,66.9
2021-07-12 03:00:00,68.0,59.0,72.92,30.0,6.0,30.03,10.0,68.0
2021-07-12 04:00:00,67.0,59.0,75.74,30.0,4.0,30.04,10.0,66.9
2021-07-12 05:00:00,67.0,60.0,78.77,40.0,5.0,30.04,10.0,66.9
2021-07-12 06:00:00,68.0,59.0,72.92,70.0,9.0,30.04,10.0,68.0
2021-07-12 07:00:00,68.0,59.0,72.92,60.0,8.0,30.03,10.0,68.0
2021-07-12 08:00:00,68.0,59.0,72.92,70.0,9.0,30.03,10.0,68.0
2021-07-12 09:00:00,68.0,59.0,72.92,80.0,10.0,30.03,10.0,68.0
2021-07-12 10:00:00,68.0,60.0,75.84,80.0,7.0,30.03,10.0,68.0
2021-07-12 11:00:00,68.0,60.0,75.84,80.0,9.0,30.04,10.0,68.0
2021-07-12 12:00:00,67.0,60.0,78.77,60.0,9.0,30.06,10.0,66.9
2021-07-12 13:00:00,67.0,59.0,75.74,60.0,8.0,30.07,10.0,66.9
2021-07-12 14:00:00,67.0,60.0,78.77,60.0,6.0,30.07,10.0,66.9
2021-07-12 15:00:00,68.0,60.0,75.84,50.0,6.0,30.07,9.0,68.0
2021-07-12 16:00:00,67.0,61.0,81.33,60.0,7.0,30.08,9.0,66.9
2021-07-12 17:00:00,68.0,61.0,78.3,60.0,10.0,30.07,6.0,68.0
2021-07-12 18:00:00,68.0,62.0,81.41,70.0,5.0,30.06,4.0,68.0
2021-07-12 19:00:00,69.0,63.0,80.92,80.0,8.0,30.06,6.0,69.1
2021-07-12 20:00:00,70.0,64.0,81.27,90.0,8.0,30.05,8.0,70.0
2021-07-12 21:00:00,70.0,64.0,81.27,60.0,9.0,30.03,9.0,70.0
2021-07-12 22:00:00,70.0,64.0,81.27,70.0,8.0,30.03,9.0,70.0
2021-07-12 23:00:00,70.0,64.0,81.27,50.0,6.0,30.03,10.0,70.0
2021-07-13 00:00:00,69.0,63.0,80.92,30.0,3.0,30.03,10.0,69.1
2021-07-13 01:00:00,68.0,63.0,84.03,20.0,3.0,30.02,10.0,68.0
2021-07-13 02:00:00,67.0,63.0,87.28,50.0,5.0,30.03,10.0,66.9
2021-07-13 03:00:00,68.0,64.0,87.03,50.0,5.0,30.02,9.0,68.0
2021-07-13 04:00:00,68.0,65.0,89.81,40.0,5.0,30.02,7.0,68.0
2021-07-13 05:00:00,69.0,65.0,86.48,360.0,3.0,30.01,6.0,69.1
2021-07-13 06:00:00,68.0,65.0,89.81,10.0,3.0,29.99,5.0,68.0
2021-07-13 07:00:00,68.0,65.0,89.81,0.0,0.0,29.99,5.0,68.0
2021-07-13 08:00:00,68.0,65.0,89.81,350.0,4.0,29.98,4.0,68.0
2021-07-13 09:00:00,68.0,64.0,87.03,340.0,4.0,29.98,4.0,68.0
2021-07-13 10:00:00,68.0,65.0,89.81,330.0,4.0,29.98,2.5,68.0
2021-07-13 11:00:00,69.0,65.0,86.48,310.0,4.0,30.0,3.0,69.1
2021-07-13 12:00:00,69.0,65.0,86.48,320.0,5.0,30.01,4.0,69.1
2021-07-13 13:00:00,69.0,66.0,89.86,0.0,0.0,30.02,1.25,69.1
2021-07-13 14:00:00,70.0,66.0,87.14,0.0,3.0,30.02,5.0,70.0
2021-07-13 15:00:00,74.0,68.0,81.82,50.0,3.0,30.02,7.0,73.9
2021-07-13 16:00:00,75.0,66.0,73.59,50.0,3.0,30.02,10.0,75.0
2021-07-13 17:00:00,78.0,67.0,68.49,270.0,8.0,30.02,10.0,78.1
2021-07-13 18:00:00,81.0,67.0,62.28,270.0,7.0,30.02,10.0,83.4
2021-07-13 19:00:00,80.0,66.0,62.17,280.0,6.0,30.02,10.0,82.17
2021-07-13 20:00:00,83.0,66.0,56.75,280.0,9.0,30.02,10.0,85.07
2021-07-13 21:00:00,80.0,66.0,62.17,10.0,5.0,30.02,10.0,82.17
2021-07-13 22:00:00,76.0,67.0,73.68,80.0,6.0,30.03,10.0,75.9
2021-07-13 23:00:00,78.0,68.0,71.14,70.0,3.0,30.03,10.0,78.1
2021-07-14 00:00:00,75.0,67.0,75.92,0.0,0.0,30.04,10.0,75.0
2021-07-14 01:00:00,74.0,67.0,78.77,190.0,3.0,30.04,10.0,73.9
2021-07-14 02:00:00,71.0,66.0,83.93,170.0,3.0,30.06,10.0,71.1
2021-07-14 03:00:00,71.0,66.0,83.93,200.0,3.0,30.06,10.0,71.1
2021-07-14 04:00:00,69.0,65.0,86.48,190.0,5.0,30.07,10.0,69.1
2021-07-14 05:00:00,70.0,65.0,83.86,240.0,6.0,30.08,10.0,70.0
2021-07-14 06:00:00,68.0,64.0,87.03,250.0,7.0,30.08,10.0,68.0
2021-07-14 07:00:00,69.0,64.0,83.81,240.0,7.0,30.1,10.0,69.1
2021-07-14 08:00:00,67.0,64.0,90.4,260.0,6.0,30.1,10.0,66.9
2021-07-14 09:00:00,66.0,63.0,90.05,230.0,4.0,30.09,10.0,66.0
2021-07-14 10:00:00,68.0,65.0,89.81,220.0,4.0,30.09,9.0,68.0
2021-07-14 11:00:00,71.0,66.0,83.93,230.0,4.0,30.1,10.0,71.1
2021-07-14 12:00:00,75.0,68.0,78.86,240.0,8.0,30.12,10.0,75.0
2021-07-14 13:00:00,78.0,68.0,71.14,240.0,8.0,30.12,10.0,78.1
2021-07-14 14:00:00,82.0,66.0,58.43,240.0,7.0,30.11,10.0,84.15
2021-07-14 15:00:00,84.0,66.0,54.77,220.0,9.0,30.1,10.0,86.2
2021-07-14 16:00:00,86.0,65.0,49.44,220.0,7.0,30.09,10.0,87.73
2021-07-14 17:00:00,86.0,65.0,49.44,230.0,9.0,30.09,10.0,87.73
2021-07-14 18:00:00,85.0,65.0,51.21,200.0,10.0,30.06,10.0,86.62
2021-07-14 19:00:00,84.0,66.0,54.77,200.0,8.0,30.07,10.0,86.2
2021-07-14 20:00:00,82.0,67.0,60.28,240.0,8.0,30.08,10.0,84.48
2021-07-14 21:00:00,71.0,67.0,86.59,280.0,4.0,30.09,4.0,71.1
2021-07-14 22:00:00,72.0,69.0,90.59,180.0,5.0,30.04,6.0,72.0
2021-07-14 23:00:00,73.0,69.0,87.59,120.0,6.0,30.0,10.0,73.0
2021-07-15 00:00:00,71.0,67.0,86.59,140.0,8.0,29.97,10.0,71.1
2021-07-15 01:00:00,73.0,67.0,81.2,170.0,5.0,29.97,10.0,73.0
2021-07-15 02:00:00,76.0,69.0,79.47,180.0,10.0,29.94,10.0,75.9
2021-07-15 03:00:00,79.0,70.0,73.97,210.0,14.0,29.94,10.0,79.0
2021-07-15 04:00:00,79.0,70.0,73.97,210.0,16.0,29.93,10.0,79.0
2021-07-15 05:00:00,80.0,69.0,69.18,210.0,14.0,29.92,10.0,83.01
2021-07-15 06:00:00,79.0,69.0,71.72,210.0,12.0,29.91,10.0,79.0
2021-07-15 07:00:00,73.0,68.0,84.34,200.0,11.0,29.88,9.0,73.0
2021-07-15 08:00:00,70.0,66.0,87.14,220.0,10.0,29.88,10.0,70.0
2021-07-15 09:00:00,70.0,67.0,89.9,250.0,13.0,29.89,10.0,70.0
2021-07-15 10:00:00,71.0,66.0,83.93,230.0,14.0,29.91,10.0,71.1
2021-07-15 11:00:00,70.0,66.0,87.14,240.0,12.0,29.92,4.0,70.0
2021-07-15 12:00:00,71.0,67.0,86.59,250.0,10.0,29.94,9.0,71.1
2021-07-15 13:00:00,71.0,68.0,89.94,260.0,10.0,29.95,4.0,71.1
2021-07-15 14:00:00,74.0,70.0,87.63,270.0,10.0,29.95,8.0,73.9
2021-07-15 15:00:00,75.0,70.0,84.46,310.0,8.0,29.96,10.0,75.0
2021-07-15 16:00:00,76.0,67.0,73.68,300.0,8.0,29.97,10.0,75.9
2021-07-15 17:00:00,77.0,67.0,71.03,310.0,4.0,29.97,10.0,77.0
2021-07-15 18:00:00,74.0,66.0,76.36,90.0,8.0,29.99,10.0,73.9
2021-07-15 19:00:00,73.0,66.0,78.7,70.0,9.0,29.98,10.0,73.0
2021-07-15 20:00:00,74.0,65.0,73.49,90.0,8.0,29.98,10.0,73.9
2021-07-15 21:00:00,72.0,65.0,78.35,80.0,9.0,29.99,10.0,72.0
2021-07-15 22:00:00,72.0,64.0,75.92,90.0,6.0,29.99,10.0,72.0
2021-07-15 23:00:00,71.0,64.0,78.28,80.0,7.0,29.99,10.0,71.1
2021-07-16 00:00:00,70.0,63.0,78.46,90.0,7.0,30.0,10.0,70.0
2021-07-16 01:00:00,66.0,62.0,87.24,80.0,5.0,30.0,10.0,66.0
2021-07-16 02:00:00,66.0,63.0,90.05,50.0,4.0,30.01,10.0,66.0
2021-07-16 03:00:00,65.0,62.0,90.64,0.0,0.0,30.01,10.0,64.9
2021-07-16 04:00:00,64.0,61.0,89.97,350.0,3.0,30.01,6.0,64.0
2021-07-16 05:00:00,63.0,61.0,93.18,10.0,4.0,30.0,6.0,63.0
2021-07-16 06:00:00,62.0,59.0,89.57,0.0,0.0,30.0,6.0,62.1
2021-07-16 07:00:00,62.0,59.0,89.57,0.0,0.0,30.0,6.0,62.1
2021-07-16 08:00:00,62.0,60.0,93.16,20.0,3.0,30.0,4.0,62.1
2021-07-16 09:00:00,62.0,60.0,93.16,20.0,3.0,30.0,4.0,62.1
2021-07-16 10:00:00,63.0,61.0,93.18,30.0,4.0,30.01,2.0,63.0
2021-07-16 11:00:00,66.0,64.0,93.26,30.0,5.0,30.02,3.0,66.0
2021-07-16 12:00:00,68.0,65.0,89.81,30.0,5.0,30.03,4.0,68.0
2021-07-16 13:00:00,70.0,65.0,83.86,40.0,5.0,30.03,7.0,70.0
2021-07-16 14:00:00,73.0,65.0,75.75,30.0,7.0,30.03,10.0,73.0
2021-07-16 15:00:00,74.0,64.0,71.21,40.0,8.0,30.04,10.0,73.9
2021-07-16 16:00:00,73.0,64.0,73.4,40.0,9.0,30.04,10.0,73.0
2021-07-16 17:00:00,76.0,64.0,66.6,40.0,9.0,30.04,10.0,75.9
2021-07-16 18:00:00,76.0,60.0,58.04,40.0,9.0,30.03,10.0,75.9
2021-07-16 19:00:00,73.0,59.0,61.5,30.0,10.0,30.03,10.0,73.0
2021-07-16 20:00:00,73.0,58.0,59.12,30.0,7.0,30.03,10.0,73.0
2021-07-16 21:00:00,72.0,55.0,55.06,30.0,7.0,30.02,10.0,72.0
2021-07-16 22:00:00,72.0,56.0,56.89,30.0,6.0,30.01,10.0,72.0
2021-07-16 23:00:00,70.0,58.0,65.45,20.0,6.0,30.01,10.0,70.0
2021-07-17 00:00:00,70.0,60.0,70.81,60.0,8.0,30.02,10.0,70.0
2021-07-17 01:00:00,68.0,62.0,81.41,10.0,4.0,30.04,10.0,68.0
2021-07-17 02:00:00,68.0,62.0,81.41,350.0,4.0,30.04,10.0,68.0
2021-07-17 03:00:00,67.0,61.0,81.33,360.0,5.0,30.04,10.0,66.9
2021-07-17 04:00:00,66.0,60.0,81.27,360.0,6.0,30.04,10.0,66.0
2021-07-17 05:00:00,64.0,60.0,87.14,20.0,3.0,30.03,10.0,64.0
2021-07-17 06:00:00,64.0,61.0,89.97,360.0,5.0,30.04,10.0,64.0
2021-07-17 07:00:00,65.0,61.0,87.18,360.0,5.0,30.04,10.0,64.9
2021-07-17 08:00:00,65.0,61.0,87.18,360.0,5.0,30.04,10.0,64.9
2021-07-17 09:00:00,64.0,61.0,89.97,350.0,6.0,30.06,8.0,64.0
2021-07-17 10:00:00,64.0,61.0,89.97,350.0,5.0,30.07,7.0,64.0
2021-07-17 11:00:00,65.0,61.0,87.18,10.0,7.0,30.09,8.0,64.9
2021-07-17 12:00:00,69.0,62.0,78.39,360.0,7.0,30.1,10.0,69.1
2021-07-17 13:00:00,73.0,64.0,73.4,20.0,5.0,30.12,10.0,73.0
2021-07-17 14:00:00,75.0,63.0,66.27,50.0,10.0,30.14,10.0,75.0
2021-07-17 15:00:00,75.0,62.0,64.2,40.0,9.0,30.14,10.0,75.0
2021-07-17 16:00:00,76.0,63.0,64.31,30.0,8.0,30.14,10.0,75.9
2021-07-17 17:00:00,77.0,61.0,57.77,50.0,8.0,30.15,10.0,77.0
2021-07-17 18:00:00,78.0,62.0,57.92,40.0,8.0,30.15,10.0,78.1
2021-07-17 19:00:00,79.0,60.0,52.38,20.0,6.0,30.16,10.0,79.0
2021-07-17 20:00:00,79.0,61.0,54.08,50.0,9.0,30.15,10.0,79.0
2021-07-17 21:00:00,79.0,61.0,54.08,50.0,6.0,30.15,10.0,79.0
2021-07-17 22:00:00,77.0,61.0,57.77,50.0,8.0,30.14,10.0,77.0
2021-07-17 23:00:00,75.0,59.0,57.5,20.0,6.0,30.15,10.0,75.0
2021-07-18 00:00:00,70.0,58.0,65.45,30.0,5.0,30.15,10.0,70.0
2021-07-18 01:00:00,67.0,59.0,75.74,30.0,4.0,30.17,10.0,66.9
2021-07-18 02:00:00,68.0,59.0,72.92,20.0,4.0,30.18,10.0,68.0
2021-07-18 03:00:00,68.0,59.0,72.92,40.0,3.0,30.19,10.0,68.0
2021-07-18 04:00:00,65.0,58.0,78.05,20.0,5.0,30.19,10.0,64.9
2021-07-18 05:00:00,63.0,58.0,83.42,0.0,0.0,30.2,10.0,63.0
2021-07-18 06:00:00,64.0,58.0,80.54,350.0,3.0,30.2,10.0,64.0
2021-07-18 07:00:00,63.0,58.0,83.42,350.0,4.0,30.2,10.0,63.0
2021-07-18 08:00:00,62.0,57.0,83.36,10.0,5.0,30.2,10.0,62.1
2021-07-18 09:00:00,62.0,57.0,83.36,10.0,5.0,30.22,10.0,62.1
2021-07-18 10:00:00,60.0,57.0,89.48,10.0,3.0,30.23,10.0,60.1
2021-07-18 11:00:00,65.0,59.0,81.19,10.0,3.0,30.24,10.0,64.9
2021-07-18 12:00:00,71.0,63.0,75.58,10.0,3.0,30.25,10.0,71.1
2021-07-18 13:00:00,75.0,64.0,68.64,70.0,6.0,30.24,10.0,75.0
2021-07-18 14:00:00,77.0,62.0,60.06,90.0,7.0,30.25,10.0,77.0
2021-07-18 15:00:00,78.0,62.0,57.92,90.0,9.0,30.25,10.0,78.1
2021-07-18 16:00:00,79.0,61.0,54.08,60.0,7.0,30.25,10.0,79.0
2021-07-18 17:00:00,79.0,61.0,54.08,90.0,10.0,30.24,10.0,79.0
2021-07-18 18:00:00,80.0,60.0,50.52,80.0,7.0,30.23,10.0,80.94
2021-07-18 19:00:00,80.0,60.0,50.52,60.0,7.0,30.22,10.0,80.94
2021-07-18 20:00:00,80.0,59.0,48.58,80.0,8.0,30.22,10.0,80.76
2021-07-18 21:00:00,79.0,58.0,48.41,70.0,9.0,30.21,10.0,79.0
2021-07-18 22:00:00,77.0,58.0,51.72,80.0,8.0,30.2,10.0,77.0
2021-07-18 23:00:00,76.0,57.0,51.93,70.0,7.0,30.2,10.0,75.9
2021-07-19 00:00:00,72.0,58.0,61.15,50.0,5.0,30.2,10.0,72.0
2021-07-19 01:00:00,65.0,57.0,75.56,40.0,3.0,30.2,10.0,64.9
2021-07-19 02:00:00,62.0,57.0,83.36,0.0,0.0,30.21,10.0,62.1
2021-07-19 03:00:00,61.0,57.0,86.67,0.0,0.0,30.21,10.0,61.0
2021-07-19 04:00:00,59.0,56.0,89.44,0.0,0.0,30.21,10.0,59.0
2021-07-19 05:00:00,59.0,56.0,89.44,0.0,0.0,30.21,10.0,59.0
2021-07-19 06:00:00,58.0,54.0,86.82,0.0,0.0,30.2,10.0,57.9
2021-07-19 07:00:00,58.0,56.0,93.04,0.0,0.0,30.19,5.0,57.9
2021-07-19 08:00:00,58.0,56.0,93.04,280.0,3.0,30.19,7.0,57.9
2021-07-19 09:00:00,56.0,54.0,93.32,0.0,0.0,30.19,6.0,55.9
2021-07-19 10:00:00,57.0,54.0,89.68,300.0,3.0,30.2,6.0,57.0
2021-07-19 11:00:00,63.0,60.0,90.25,330.0,3.0,30.21,10.0,63.0
2021-07-19 12:00:00,68.0,61.0,78.3,280.0,3.0,30.22,10.0,68.0
2021-07-19 13:00:00,74.0,61.0,64.07,350.0,3.0,30.22,10.0,73.9
2021-07-19 14:00:00,79.0,59.0,50.36,0.0,0.0,30.21,10.0,79.0
2021-07-19 15:00:00,81.0,60.0,49.06,60.0,4.0,30.2,10.0,81.62
2021-07-19 16:00:00,81.0,60.0,49.06,0.0,0.0,30.19,10.0,81.62
2021-07-19 17:00:00,83.0,61.0,47.62,90.0,7.0,30.18,10.0,83.37
2021-07-19 18:00:00,83.0,60.0,46.12,80.0,6.0,30.19,10.0,83.13
2021-07-19 19:00:00,83.0,60.0,46.12,80.0,7.0,30.18,10.0,83.13
2021-07-19 20:00:00,82.0,59.0,45.66,120.0,7.0,30.16,10.0,82.15
2021-07-19 21:00:00,81.0,59.0,47.17,120.0,6.0,30.15,10.0,81.4
2021-07-19 22:00:00,80.0,59.0,48.58,130.0,5.0,30.13,10.0,80.76
2021-07-19 23:00:00,78.0,59.0,51.88,140.0,4.0,30.13,10.0,78.1
2021-07-20 00:00:00,76.0,59.0,55.8,200.0,4.0,30.12,10.0,75.9
2021-07-20 01:00:00,74.0,59.0,59.66,200.0,4.0,30.12,10.0,73.9
2021-07-20 02:00:00,69.0,59.0,70.21,0.0,0.0,30.13,10.0,69.1
2021-07-20 03:00:00,65.0,59.0,81.19,240.0,3.0,30.12,10.0,64.9
2021-07-20 04:00:00,65.0,59.0,81.19,240.0,3.0,30.12,10.0,64.9
2021-07-20 05:00:00,64.0,60.0,87.14,250.0,3.0,30.11,10.0,64.0
2021-07-20 06:00:00,62.0,59.0,89.57,260.0,5.0,30.11,9.0,62.1
2021-07-20 07:00:00,62.0,59.0,89.57,250.0,5.0,30.1,9.0,62.1
2021-07-20 08:00:00,62.0,59.0,89.57,260.0,5.0,30.1,9.0,62.1
2021-07-20 09:00:00,63.0,59.0,86.77,260.0,3.0,30.1,9.0,63.0
2021-07-20 10:00:00,63.0,59.0,86.77,240.0,5.0,30.09,7.0,63.0
2021-07-20 11:00:00,65.0,61.0,87.18,270.0,3.0,30.09,8.0,64.9
2021-07-20 12:00:00,71.0,64.0,78.28,280.0,5.0,30.1,10.0,71.1
2021-07-20 13:00:00,77.0,65.0,66.27,280.0,8.0,30.09,10.0,77.0
2021-07-20 14:00:00,81.0,66.0,60.37,270.0,9.0,30.08,10.0,83.11
2021-07-20 15:00:00,84.0,65.0,52.71,260.0,10.0,30.07,10.0,85.72
2021-07-20 16:00:00,86.0,66.0,51.37,270.0,11.0,30.06,10.0,88.28
2021-07-20 17:00:00,88.0,66.0,48.2,270.0,6.0,30.05,10.0,90.41
2021-07-20 18:00:00,89.0,66.0,46.55,300.0,7.0,30.04,10.0,91.6
2021-07-20 19:00:00,88.0,67.0,49.73,80.0,9.0,30.04,10.0,90.95
2021-07-20 20:00:00,80.0,68.0,66.62,70.0,12.0,30.05,8.0,82.7
2021-07-20 21:00:00,76.0,66.0,71.41,50.0,10.0,30.06,6.0,75.9
2021-07-20 22:00:00,74.0,65.0,73.49,70.0,10.0,30.07,7.0,73.9
2021-07-20 23:00:00,73.0,64.0,73.4,60.0,7.0,30.07,7.0,73.0
2021-07-21 00:00:00,70.0,62.0,76.01,30.0,6.0,30.08,5.0,70.0
2021-07-21 01:00:00,68.0,62.0,81.41,30.0,5.0,30.09,6.0,68.0
2021-07-21 02:00:00,66.0,61.0,83.91,30.0,3.0,30.1,6.0,66.0
2021-07-21 03:00:00,66.0,61.0,83.91,50.0,5.0,30.11,7.0,66.0
2021-07-21 04:00:00,65.0,61.0,87.18,40.0,6.0,30.1,9.0,64.9
2021-07-21 05:00:00,66.0,61.0,83.91,50.0,7.0,30.09,10.0,66.0
2021-07-21 06:00:00,66.0,60.0,81.27,40.0,6.0,30.1,10.0,66.0
2021-07-21 07:00:00,66.0,59.0,78.14,30.0,7.0,30.11,10.0,66.0
2021-07-21 08:00:00,65.0,59.0,81.19,30.0,4.0,30.11,10.0,64.9
2021-07-21 09:00:00,65.0,59.0,81.19,360.0,4.0,30.12,10.0,64.9
2021-07-21 10:00:00,63.0,59.0,86.77,10.0,4.0,30.13,10.0,63.0
2021-07-21 11:00:00,65.0,60.0,84.44,10.0,3.0,30.15,8.0,64.9
2021-07-21 12:00:00,68.0,60.0,75.84,30.0,6.0,30.16,10.0,68.0
2021-07-21 13:00:00,68.0,60.0,75.84,50.0,8.0,30.17,10.0,68.0
2021-07-21 14:00:00,69.0,60.0,73.03,50.0,7.0,30.17,10.0,69.1
2021-07-21 15:00:00,69.0,61.0,75.4,40.0,6.0,30.19,10.0,69.1
2021-07-21 16:00:00,71.0,61.0,70.42,40.0,6.0,30.19,10.0,71.1
2021-07-21 17:00:00,74.0,61.0,64.07,40.0,6.0,30.18,10.0,73.9
2021-07-21 18:00:00,73.0,61.0,66.04,50.0,8.0,30.17,10.0,73.0
2021-07-21 19:00:00,75.0,60.0,59.81,50.0,6.0,30.17,10.0,75.0
2021-07-21 20:00:00,74.0,59.0,59.66,80.0,10.0,30.17,10.0,73.9
2021-07-21 21:00:00,74.0,60.0,62.05,60.0,10.0,30.16,10.0,73.9
2021-07-21 22:00:00,74.0,58.0,57.36,40.0,6.0,30.15,10.0,73.9
2021-07-21 23:00:00,71.0,58.0,63.05,40.0,7.0,30.16,10.0,71.1
2021-07-22 00:00:00,66.0,57.0,72.72,40.0,5.0,30.16,10.0,66.0
2021-07-22 01:00:00,64.0,57.0,77.97,0.0,0.0,30.17,10.0,64.0
2021-07-22 02:00:00,63.0,57.0,80.76,90.0,4.0,30.17,10.0,63.0
2021-07-22 03:00:00,62.0,57.0,83.36,50.0,3.0,30.18,10.0,62.1
2021-07-22 04:00:00,59.0,55.0,86.56,0.0,0.0,30.19,10.0,59.0
2021-07-22 05:00:00,58.0,55.0,90.04,60.0,3.0,30.19,10.0,57.9
2021-07-22 06:00:00,56.0,53.0,90.29,0.0,0.0,30.18,9.0,55.9
2021-07-22 07:00:00,57.0,55.0,93.01,260.0,4.0,30.18,9.0,57.0
2021-07-22 08:00:00,58.0,56.0,93.04,290.0,3.0,30.19,10.0,57.9
2021-07-22 09:00:00,59.0,56.0,89.44,310.0,3.0,30.2,9.0,59.0
2021-07-22 10:00:00,60.0,57.0,89.48,0.0,0.0,30.2,10.0,60.1
2021-07-22 11:00:00,65.0,60.0,84.44,0.0,0.0,30.19,10.0,64.9
2021-07-22 12:00:00,68.0,62.0,81.41,0.0,0.0,30.21,10.0,68.0
2021-07-22 13:00:00,72.0,63.0,73.31,170.0,4.0,30.2,10.0,72.0
2021-07-22 14:00:00,74.0,64.0,71.21,210.0,5.0,30.2,10.0,73.9
2021-07-22 15:00:00,77.0,64.0,64.21,210.0,3.0,30.2,10.0,77.0
2021-07-22 16:00:00,79.0,64.0,60.11,220.0,3.0,30.19,9.0,79.0
2021-07-22 17:00:00,82.0,67.0,60.28,230.0,6.0,30.16,7.0,84.48
2021-07-22 18:00:00,79.0,66.0,64.45,90.0,9.0,30.16,10.0,79.0
2021-07-22 19:00:00,81.0,67.0,62.28,120.0,8.0,30.15,10.0,83.4
2021-07-22 20:00:00,82.0,68.0,62.62,100.0,9.0,30.14,10.0,84.92
2021-07-22 21:00:00,79.0,67.0,66.49,140.0,8.0,30.13,7.0,79.0
2021-07-22 22:00:00,79.0,66.0,64.45,140.0,9.0,30.13,7.0,79.0
2021-07-22 23:00:00,79.0,66.0,64.45,170.0,7.0,30.12,5.0,79.0
2021-07-23 00:00:00,78.0,67.0,68.49,160.0,6.0,30.12,5.0,78.1
2021-07-23 01:00:00,77.0,67.0,71.03,170.0,7.0,30.12,6.0,77.0
2021-07-23 02:00:00,76.0,67.0,73.68,170.0,8.0,30.12,7.0,75.9
2021-07-23 03:00:00,75.0,68.0,78.86,190.0,5.0,30.13,6.0,75.0
2021-07-23 04:00:00,73.0,68.0,84.34,190.0,3.0,30.12,6.0,73.0
2021-07-23 05:00:00,73.0,68.0,84.34,200.0,4.0,30.12,5.0,73.0
2021-07-23 06:00:00,74.0,69.0,84.97,250.0,5.0,30.11,4.0,73.9
2021-07-23 07:00:00,74.0,70.0,87.63,220.0,4.0,30.1,4.0,73.9
2021-07-23 08:00:00,72.0,69.0,90.59,240.0,6.0,30.09,4.0,72.0
2021-07-23 09:00:00,71.0,69.0,93.4,230.0,4.0,30.1,3.0,71.1
2021-07-23 10:00:00,71.0,69.0,93.4,250.0,5.0,30.11,1.75,71.1
2021-07-23 11:00:00,75.0,72.0,90.4,230.0,6.0,30.1,3.0,75.0
2021-07-23 12:00:00,76.0,72.0,87.73,260.0,4.0,30.12,3.0,75.9
2021-07-23 13:00:00,81.0,72.0,74.15,260.0,6.0,30.12,5.0,85.35
2021-07-23 14:00:00,85.0,71.0,63.4,260.0,8.0,30.12,6.0,90.16
2021-07-23 15:00:00,87.0,71.0,59.09,240.0,8.0,30.1,7.0,92.9
2021-07-23 16:00:00,87.0,71.0,59.09,260.0,10.0,30.09,7.0,92.9
2021-07-23 17:00:00,86.0,71.0,61.2,250.0,8.0,30.08,7.0,91.53
2021-07-23 18:00:00,90.0,69.0,50.36,270.0,12.0,30.07,8.0,94.76
2021-07-23 19:00:00,90.0,68.0,48.49,240.0,10.0,30.05,9.0,93.93
2021-07-23 20:00:00,90.0,68.0,48.49,280.0,10.0,30.04,10.0,93.93
2021-07-23 21:00:00,91.0,66.0,43.85,240.0,12.0,30.03,10.0,93.71
2021-07-23 22:00:00,90.0,68.0,48.49,220.0,8.0,30.01,9.0,93.93
2021-07-23 23:00:00,88.0,70.0,55.32,220.0,6.0,30.0,8.0,93.11
2021-07-24 00:00:00,83.0,70.0,65.13,200.0,5.0,29.99,6.0,86.95
2021-07-24 01:00:00,80.0,70.0,71.35,190.0,5.0,30.0,7.0,83.28
2021-07-24 02:00:00,78.0,70.0,76.19,190.0,5.0,30.0,6.0,78.1
2021-07-24 03:00:00,77.0,70.0,79.02,190.0,4.0,30.0,6.0,77.0
2021-07-24 04:00:00,77.0,70.0,79.02,190.0,5.0,29.98,6.0,77.0
2021-07-24 05:00:00,78.0,71.0,79.1,210.0,8.0,29.96,6.0,78.1
2021-07-24 06:00:00,76.0,71.0,85.09,220.0,5.0,29.96,5.0,75.9
2021-07-24 07:00:00,77.0,71.0,82.03,210.0,7.0,29.96,5.0,77.0
2021-07-24 08:00:00,76.0,71.0,85.09,220.0,7.0,29.94,5.0,75.9
2021-07-24 09:00:00,76.0,71.0,85.09,220.0,7.0,29.92,5.0,75.9
2021-07-24 10:00:00,77.0,71.0,82.03,240.0,8.0,29.92,4.0,77.0
2021-07-24 11:00:00,78.0,71.0,79.1,240.0,9.0,29.92,4.0,78.1
2021-07-24 12:00:00,80.0,71.0,74.07,240.0,11.0,29.92,5.0,83.64
2021-07-24 13:00:00,83.0,71.0,67.62,240.0,11.0,29.92,6.0,87.57
2021-07-24 14:00:00,84.0,71.0,65.26,240.0,13.0,29.89,7.0,89.01
2021-07-24 15:00:00,89.0,72.0,57.18,240.0,12.0,29.87,9.0,96.17
2021-07-24 16:00:00,92.0,73.0,54.17,250.0,14.0,29.85,10.0,100.71
2021-07-24 17:00:00,91.0,73.0,55.72,240.0,15.0,29.84,10.0,99.57
2021-07-24 18:00:00,94.0,73.0,50.91,240.0,15.0,29.82,10.0,103.26
2021-07-24 19:00:00,94.0,73.0,50.91,270.0,13.0,29.8,10.0,103.26
2021-07-24 20:00:00,93.0,72.0,50.61,280.0,14.0,29.81,10.0,101.04
2021-07-24 21:00:00,94.0,70.0,45.98,270.0,16.0,29.8,10.0,100.2
2021-07-24 22:00:00,92.0,70.0,48.93,290.0,12.0,29.81,10.0,97.77
2021-07-24 23:00:00,89.0,68.0,49.88,310.0,9.0,29.81,10.0,92.9
2021-07-25 00:00:00,87.0,69.0,55.19,340.0,4.0,29.83,10.0,91.38
2021-07-25 01:00:00,82.0,69.0,65.03,10.0,3.0,29.84,10.0,85.39
2021-07-25 02:00:00,75.0,69.0,81.9,0.0,0.0,29.87,10.0,75.0
2021-07-25 03:00:00,73.0,68.0,84.34,200.0,5.0,29.91,10.0,73.0
2021-07-25 04:00:00,71.0,68.0,89.94,240.0,3.0,29.91,9.0,71.1
2021-07-25 05:00:00,71.0,68.0,89.94,280.0,3.0,29.9,9.0,71.1
2021-07-25 06:00:00,69.0,67.0,92.71,280.0,3.0,29.91,10.0,69.1
2021-07-25 07:00:00,73.0,68.0,84.34,310.0,5.0,29.91,10.0,73.0
2021-07-25 08:00:00,73.0,67.0,81.2,320.0,4.0,29.92,10.0,73.0
2021-07-25 09:00:00,70.0,66.0,87.14,300.0,5.0,29.92,10.0,70.0
2021-07-25 10:00:00,66.0,64.0,93.26,280.0,3.0,29.94,9.0,66.0
2021-07-25 11:00:00,70.0,65.0,83.86,290.0,5.0,29.95,10.0,70.0
2021-07-25 12:00:00,76.0,65.0,68.73,290.0,4.0,29.96,10.0,75.9
2021-07-25 13:00:00,80.0,62.0,54.23,290.0,6.0,29.97,10.0,81.31
2021-07-25 14:00:00,86.0,59.0,40.14,290.0,8.0,29.96,10.0,85.47
2021-07-25 15:00:00,88.0,57.0,35.05,270.0,9.0,29.96,10.0,86.71
2021-07-25 16:00:00,91.0,55.0,29.66,280.0,8.0,29.97,10.0,89.03
2021-07-25 17:00:00,91.0,51.0,25.7,270.0,11.0,29.96,10.0,88.18
2021-07-25 18:00:00,92.0,52.0,25.84,280.0,7.0,29.95,10.0,89.21
2021-07-25 19:00:00,92.0,51.0,24.99,280.0,11.0,29.94,10.0,89.04
2021-07-25 20:00:00,93.0,50.0,23.18,270.0,10.0,29.93,10.0,89.9
2021-07-25 21:00:00,90.0,52.0,27.42,320.0,4.0,29.92,10.0,87.4
2021-07-25 22:00:00,88.0,55.0,32.6,280.0,7.0,29.92,10.0,86.2
2021-07-25 23:00:00,87.0,56.0,34.66,290.0,6.0,29.91,10.0,85.61
2021-07-26 00:00:00,82.0,58.0,43.89,280.0,3.0,29.92,10.0,81.92
2021-07-26 01:00:00,76.0,58.0,53.64,320.0,3.0,29.94,10.0,75.9
2021-07-26 02:00:00,72.0,58.0,61.15,290.0,3.0,29.96,10.0,72.0
2021-07-26 03:00:00,68.0,58.0,70.1,250.0,4.0,29.97,10.0,68.0
2021-07-26 04:00:00,66.0,58.0,75.12,280.0,3.0,29.98,10.0,66.0
2021-07-26 05:00:00,65.0,56.0,72.61,290.0,4.0,29.99,10.0,64.9
2021-07-26 06:00:00,68.0,57.0,67.86,290.0,4.0,29.98,10.0,68.0
2021-07-26 07:00:00,66.0,58.0,75.12,280.0,3.0,29.99,10.0,66.0
2021-07-26 08:00:00,65.0,58.0,78.05,290.0,3.0,29.99,10.0,64.9
2021-07-26 09:00:00,64.0,58.0,80.54,280.0,3.0,30.0,10.0,64.0
2021-07-26 10:00:00,60.0,56.0,85.99,270.0,4.0,30.01,10.0,60.1
2021-07-26 11:00:00,70.0,60.0,70.81,290.0,4.0,30.03,10.0,70.0
2021-07-26 12:00:00,76.0,61.0,59.92,290.0,5.0,30.04,10.0,75.9
2021-07-26 13:00:00,81.0,62.0,52.66,300.0,6.0,30.05,10.0,82.06
2021-07-26 14:00:00,86.0,59.0,40.14,270.0,3.0,30.04,10.0,85.47
2021-07-26 15:00:00,89.0,54.0,30.36,320.0,4.0,30.04,10.0,86.98
2021-07-26 16:00:00,91.0,50.0,24.68,320.0,4.0,30.04,10.0,87.99
2021-07-26 17:00:00,93.0,52.0,24.97,300.0,7.0,30.04,10.0,90.29
2021-07-26 18:00:00,94.0,52.0,24.28,290.0,6.0,30.03,10.0,91.19
2021-07-26 19:00:00,95.0,53.0,24.44,270.0,4.0,30.02,10.0,92.58
2021-07-26 20:00:00,94.0,55.0,27.1,250.0,7.0,30.01,10.0,91.95
2021-07-26 21:00:00,93.0,57.0,29.96,280.0,8.0,30.0,10.0,91.64
2021-07-26 22:00:00,92.0,58.0,32.03,250.0,9.0,30.0,10.0,90.8
2021-07-26 23:00:00,89.0,56.0,32.53,250.0,7.0,30.0,10.0,87.44
2021-07-27 00:00:00,81.0,59.0,47.17,240.0,5.0,29.99,10.0,81.4
2021-07-27 01:00:00,79.0,60.0,52.38,240.0,5.0,29.99,10.0,79.0
2021-07-27 02:00:00,79.0,60.0,52.38,210.0,4.0,30.01,10.0,79.0
2021-07-27 03:00:00,73.0,61.0,66.04,250.0,6.0,30.02,9.0,73.0
2021-07-27 04:00:00,73.0,62.0,68.66,260.0,7.0,30.03,10.0,73.0
2021-07-27 05:00:00,70.0,62.0,76.01,240.0,5.0,30.03,10.0,70.0
2021-07-27 06:00:00,70.0,63.0,78.46,260.0,6.0,30.02,10.0,70.0
2021-07-27 07:00:00,70.0,63.0,78.46,260.0,3.0,30.03,10.0,70.0
2021-07-27 08:00:00,70.0,63.0,78.46,280.0,5.0,30.04,10.0,70.0
2021-07-27 09:00:00,72.0,63.0,73.31,310.0,4.0,30.04,10.0,72.0
2021-07-27 10:00:00,69.0,63.0,80.92,20.0,4.0,30.05,10.0,69.1
2021-07-27 11:00:00,73.0,63.0,70.87,340.0,3.0,30.08,10.0,73.0
2021-07-27 12:00:00,74.0,61.0,64.07,30.0,7.0,30.09,10.0,73.9
2021-07-27 13:00:00,78.0,62.0,57.92,20.0,5.0,30.08,10.0,78.1
2021-07-27 14:00:00,79.0,60.0,52.38,310.0,3.0,30.11,10.0,79.0
2021-07-27 15:00:00,80.0,61.0,52.16,240.0,8.0,30.09,10.0,81.1
2021-07-27 16:00:00,80.0,63.0,55.98,240.0,7.0,30.02,10.0,81.5
2021-07-27 17:00:00,86.0,64.0,47.91,220.0,11.0,29.99,10.0,87.31
2021-07-27 18:00:00,90.0,63.0,40.75,240.0,10.0,30.0,10.0,90.93
2021-07-27 19:00:00,91.0,64.0,40.9,260.0,11.0,30.0,10.0,92.52
2021-07-27 20:00:00,90.0,65.0,43.55,270.0,9.0,30.01,10.0,91.94
2021-07-27 21:00:00,90.0,65.0,43.55,270.0,8.0,30.0,10.0,91.94
2021-07-27 22:00:00,88.0,62.0,42.05,270.0,9.0,30.0,10.0,88.47
2021-07-27 23:00:00,86.0,63.0,46.25,260.0,9.0,29.99,10.0,86.88
2021-07-28 00:00:00,82.0,65.0,56.24,270.0,5.0,30.0,10.0,83.76
2021-07-28 01:00:00,76.0,66.0,71.41,260.0,4.0,30.01,10.0,75.9
2021-07-28 02:00:00,74.0,66.0,76.36,250.0,5.0,30.02,10.0,73.9
2021-07-28 03:00:00,79.0,67.0,66.49,0.0,0.0,30.02,10.0,79.0
2021-07-28 04:00:00,73.0,67.0,81.2,0.0,0.0,30.02,9.0,73.0
2021-07-28 05:00:00,72.0,67.0,83.99,260.0,4.0,30.03,8.0,72.0
2021-07-28 06:00:00,74.0,68.0,81.82,0.0,0.0,30.03,8.0,73.9
2021-07-28 07:00:00,72.0,68.0,87.24,250.0,3.0,30.02,7.0,72.0
2021-07-28 08:00:00,72.0,68.0,87.24,300.0,3.0,30.05,7.0,72.0
2021-07-28 09:00:00,75.0,69.0,81.9,260.0,7.0,30.05,8.0,75.0
2021-07-28 10:00:00,73.0,68.0,84.34,250.0,6.0,30.05,8.0,73.0
2021-07-28 11:00:00,74.0,68.0,81.82,0.0,0.0,30.04,8.0,73.9
2021-07-28 12:00:00,78.0,68.0,71.14,240.0,9.0,30.05,8.0,78.1
2021-07-28 13:00:00,81.0,69.0,67.18,210.0,4.0,30.06,9.0,84.16
2021-07-28 14:00:00,85.0,71.0,63.4,300.0,3.0,30.05,9.0,90.16
2021-07-28 15:00:00,87.0,71.0,59.09,300.0,4.0,30.04,8.0,92.9
2021-07-28 16:00:00,89.0,70.0,53.42,270.0,9.0,30.04,8.0,94.41
2021-07-28 17:00:00,88.0,71.0,57.43,280.0,6.0,30.03,8.0,94.0
2021-07-28 18:00:00,90.0,72.0,55.58,250.0,7.0,30.0,7.0,97.29
2021-07-28 19:00:00,87.0,71.0,59.09,110.0,9.0,29.99,8.0,92.9
2021-07-28 20:00:00,87.0,71.0,59.09,130.0,8.0,29.99,7.0,92.9
2021-07-28 21:00:00,85.0,71.0,63.4,130.0,7.0,29.97,6.0,90.16
2021-07-28 22:00:00,86.0,72.0,63.1,110.0,8.0,29.95,6.0,92.25
2021-07-28 23:00:00,83.0,71.0,67.62,150.0,3.0,29.96,5.0,87.57
2021-07-29 00:00:00,82.0,71.0,69.62,190.0,4.0,29.95,5.0,86.35
2021-07-29 01:00:00,81.0,71.0,71.92,190.0,5.0,29.94,6.0,84.95
2021-07-29 02:00:00,79.0,72.0,79.17,200.0,5.0,29.92,6.0,79.0
2021-07-29 03:00:00,80.0,74.0,81.42,200.0,6.0,29.9,6.0,84.64
2021-07-29 04:00:00,79.0,75.0,87.58,240.0,3.0,29.92,6.0,79.0
2021-07-29 05:00:00,80.0,76.0,87.05,250.0,6.0,29.93,6.0,85.75
2021-07-29 06:00:00,80.0,76.0,87.05,260.0,7.0,29.95,5.0,85.75
2021-07-29 07:00:00,72.0,68.0,87.24,250.0,10.0,29.94,6.0,72.0
2021-07-29 08:00:00,71.0,67.0,86.59,230.0,10.0,29.86,10.0,71.1
2021-07-29 09:00:00,73.0,66.0,78.7,250.0,11.0,29.84,10.0,73.0
2021-07-29 10:00:00,72.0,67.0,83.99,270.0,10.0,29.85,9.0,72.0
2021-07-29 11:00:00,74.0,68.0,81.82,270.0,11.0,29.85,9.0,73.9
2021-07-29 12:00:00,77.0,69.0,76.62,290.0,10.0,29.88,9.0,77.0
2021-07-29 13:00:00,80.0,70.0,71.35,290.0,12.0,29.89,10.0,83.28
2021-07-29 14:00:00,84.0,70.0,62.86,300.0,14.0,29.91,9.0,88.31
2021-07-29 15:00:00,84.0,70.0,62.86,310.0,16.0,29.92,10.0,88.31
2021-07-29 16:00:00,85.0,70.0,61.06,320.0,11.0,29.92,10.0,89.4
2021-07-29 17:00:00,85.0,71.0,63.4,330.0,8.0,29.92,10.0,90.16
2021-07-29 18:00:00,86.0,71.0,61.2,50.0,7.0,29.93,9.0,91.53
2021-07-29 19:00:00,86.0,69.0,57.16,70.0,11.0,29.93,9.0,90.11
2021-07-29 20:00:00,83.0,67.0,58.55,60.0,12.0,29.96,8.0,85.45
2021-07-29 21:00:00,81.0,66.0,60.37,50.0,13.0,29.98,8.0,83.11
2021-07-29 22:00:00,78.0,66.0,66.39,60.0,12.0,30.0,7.0,78.1
2021-07-29 23:00:00,75.0,65.0,70.83,50.0,7.0,30.01,7.0,75.0
2021-07-30 00:00:00,73.0,63.0,70.87,40.0,8.0,30.02,7.0,73.0
2021-07-30 01:00:00,71.0,59.0,65.58,40.0,7.0,30.03,9.0,71.1
2021-07-30 02:00:00,68.0,60.0,75.84,30.0,5.0,30.03,9.0,68.0
2021-07-30 03:00:00,67.0,61.0,81.33,30.0,6.0,30.05,8.0,66.9
2021-07-30 04:00:00,69.0,63.0,80.92,30.0,9.0,30.08,9.0,69.1
2021-07-30 05:00:00,69.0,60.0,73.03,50.0,11.0,30.1,10.0,69.1
2021-07-30 06:00:00,67.0,60.0,78.77,40.0,9.0,30.11,10.0,66.9
2021-07-30 07:00:00,67.0,55.0,65.56,40.0,11.0,30.11,10.0,66.9
2021-07-30 08:00:00,65.0,55.0,70.28,20.0,6.0,30.12,10.0,64.9
2021-07-30 09:00:00,63.0,55.0,75.11,30.0,5.0,30.13,10.0,63.0
2021-07-30 10:00:00,62.0,54.0,74.75,30.0,4.0,30.15,10.0,62.1
2021-07-30 11:00:00,65.0,55.0,70.28,0.0,0.0,30.16,10.0,64.9
2021-07-30 12:00:00,69.0,55.0,60.78,40.0,9.0,30.17,10.0,69.1
2021-07-30 13:00:00,70.0,55.0,58.94,30.0,8.0,30.18,10.0,70.0
2021-07-30 14:00:00,71.0,56.0,58.65,30.0,9.0,30.19,10.0,71.1
2021-07-30 15:00:00,71.0,55.0,56.77,30.0,6.0,30.21,10.0,71.1
2021-07-30 16:00:00,73.0,55.0,53.23,10.0,7.0,30.21,10.0,73.0
2021-07-30 17:00:00,74.0,54.0,49.79,10.0,7.0,30.19,10.0,73.9
2021-07-30 18:00:00,74.0,53.0,48.18,80.0,8.0,30.17,10.0,73.9
2021-07-30 19:00:00,72.0,54.0,53.09,90.0,11.0,30.14,10.0,72.0
2021-07-30 20:00:00,71.0,55.0,56.77,90.0,9.0,30.14,10.0,71.1
2021-07-30 21:00:00,70.0,54.0,56.82,90.0,10.0,30.14,10.0,70.0
2021-07-30 22:00:00,69.0,53.0,56.7,110.0,9.0,30.15,10.0,69.1
2021-07-30 23:00:00,67.0,53.0,61.16,70.0,5.0,30.14,10.0,66.9
2021-07-31 00:00:00,67.0,54.0,63.21,110.0,5.0,30.14,10.0,66.9
2021-07-31 01:00:00,64.0,55.0,72.52,50.0,4.0,30.14,10.0,64.0
2021-07-31 02:00:00,62.0,55.0,77.53,30.0,4.0,30.14,10.0,62.1
2021-07-31 03:00:00,59.0,54.0,83.46,0.0,0.0,30.13,8.0,59.0
2021-07-31 04:00:00,59.0,54.0,83.46,0.0,0.0,30.12,8.0,59.0
2021-07-31 05:00:00,57.0,53.0,86.77,270.0,3.0,30.12,8.0,57.0
2021-07-31 06:00:00,56.0,53.0,90.29,0.0,0.0,30.1,8.0,55.9
2021-07-31 07:00:00,56.0,53.0,90.29,230.0,3.0,30.09,7.0,55.9
2021-07-31 08:00:00,54.0,52.0,92.92,250.0,3.0,30.07,7.0,54.0
2021-07-31 09:00:00,54.0,52.0,92.92,0.0,0.0,30.07,5.0,54.0
2021-07-31 10:00:00,54.0,52.0,92.92,280.0,3.0,30.07,0.5,54.0
2021-07-31 11:00:00,58.0,55.0,90.04,250.0,3.0,30.06,8.0,57.9
2021-07-31 12:00:00,64.0,59.0,83.78,260.0,6.0,30.06,7.0,64.0
2021-07-31 13:00:00,70.0,59.0,68.09,240.0,6.0,30.05,7.0,70.0
2021-07-31 14:00:00,73.0,58.0,59.12,230.0,6.0,30.05,7.0,73.0
2021-07-31 15:00:00,77.0,58.0,51.72,230.0,9.0,30.05,6.0,77.0
2021-07-31 16:00:00,80.0,57.0,45.21,250.0,10.0,30.03,6.0,80.45
2021-07-31 17:00:00,80.0,57.0,45.21,290.0,10.0,30.0,6.0,80.45
2021-07-31 18:00:00,81.0,56.0,42.19,290.0,3.0,29.99,6.0,80.87
2021-07-31 19:00:00,83.0,58.0,42.63,300.0,8.0,29.97,5.0,82.6
2021-07-31 20:00:00,84.0,58.0,41.14,270.0,12.0,29.95,5.0,83.47
2021-07-31 21:00:00,83.0,59.0,44.34,260.0,11.0,29.94,5.0,82.86
2021-07-31 22:00:00,81.0,59.0,47.17,270.0,12.0,29.94,5.0,81.4
2021-07-31 23:00:00,80.0,59.0,48.58,280.0,6.0,29.94,5.0,80.76
2021-08-01 00:00:00,76.0,61.0,59.92,280.0,5.0,29.94,4.0,75.9
2021-08-01 01:00:00,74.0,61.0,64.07,280.0,5.0,29.94,6.0,73.9
2021-08-01 02:00:00,70.0,61.0,73.11,270.0,6.0,29.92,5.0,70.0
2021-08-01 03:00:00,71.0,61.0,70.42,300.0,6.0,29.93,5.0,71.1
2021-08-01 04:00:00,68.0,61.0,78.3,280.0,4.0,29.93,5.0,68.0
2021-08-01 05:00:00,64.0,60.0,87.14,260.0,4.0,29.92,4.0,64.0
2021-08-01 06:00:00,65.0,61.0,87.18,280.0,3.0,29.93,4.0,64.9
2021-08-01 07:00:00,67.0,62.0,84.56,350.0,4.0,29.94,5.0,66.9
2021-08-01 08:00:00,66.0,61.0,83.91,350.0,5.0,29.96,4.0,66.0
2021-08-01 09:00:00,65.0,61.0,87.18,340.0,3.0,29.97,4.0,64.9
2021-08-01 10:00:00,64.0,60.0,87.14,350.0,4.0,29.98,3.0,64.0
2021-08-01 11:00:00,65.0,61.0,87.18,340.0,4.0,30.01,3.0,64.9
2021-08-01 12:00:00,67.0,59.0,75.74,340.0,8.0,30.03,3.0,66.9
2021-08-01 13:00:00,71.0,56.0,58.65,10.0,8.0,30.03,3.0,71.1
2021-08-01 14:00:00,73.0,54.0,51.33,10.0,9.0,30.05,4.0,73.0
2021-08-01 15:00:00,74.0,53.0,48.18,30.0,7.0,30.07,4.0,73.9
2021-08-01 16:00:00,75.0,53.0,46.44,40.0,8.0,30.07,4.0,75.0
2021-08-01 17:00:00,77.0,55.0,46.57,70.0,7.0,30.07,4.0,77.0
2021-08-01 18:00:00,77.0,57.0,50.07,20.0,8.0,30.07,5.0,77.0
2021-08-01 19:00:00,76.0,56.0,49.91,40.0,10.0,30.08,4.0,75.9
2021-08-01 20:00:00,76.0,57.0,51.93,50.0,10.0,30.09,4.0,75.9
2021-08-01 21:00:00,75.0,56.0,51.43,30.0,9.0,30.1,6.0,75.0
2021-08-01 22:00:00,74.0,56.0,53.36,40.0,10.0,30.1,10.0,73.9
2021-08-01 23:00:00,71.0,56.0,58.65,30.0,8.0,30.11,10.0,71.1
2021-08-02 00:00:00,68.0,56.0,65.22,30.0,5.0,30.12,10.0,68.0
2021-08-02 01:00:00,64.0,56.0,74.93,10.0,3.0,30.13,6.0,64.0
2021-08-02 02:00:00,63.0,56.0,77.61,10.0,5.0,30.14,6.0,63.0
2021-08-02 03:00:00,63.0,56.0,77.61,350.0,4.0,30.14,6.0,63.0
2021-08-02 04:00:00,62.0,55.0,77.53,320.0,3.0,30.14,6.0,62.1
2021-08-02 05:00:00,56.0,52.0,86.71,0.0,0.0,30.14,6.0,55.9
2021-08-02 06:00:00,55.0,52.0,89.59,290.0,3.0,30.14,5.0,55.0
2021-08-02 07:00:00,54.0,52.0,92.92,270.0,3.0,30.16,5.0,54.0
2021-08-02 08:00:00,53.0,50.0,89.18,310.0,3.0,30.16,5.0,53.1
2021-08-02 09:00:00,53.0,50.0,89.18,0.0,0.0,30.16,5.0,53.1
2021-08-02 10:00:00,53.0,51.0,92.89,310.0,4.0,30.18,4.0,53.1
2021-08-02 11:00:00,59.0,56.0,89.44,0.0,0.0,30.19,6.0,59.0
2021-08-02 12:00:00,66.0,58.0,75.12,0.0,0.0,30.19,5.0,66.0
2021-08-02 13:00:00,72.0,60.0,66.16,0.0,3.0,30.19,5.0,72.0
2021-08-02 14:00:00,73.0,57.0,57.23,260.0,3.0,30.19,5.0,73.0
2021-08-02 15:00:00,77.0,55.0,46.57,310.0,5.0,30.19,7.0,77.0
2021-08-02 16:00:00,77.0,54.0,44.9,360.0,4.0,30.18,7.0,77.0
2021-08-02 17:00:00,75.0,58.0,55.28,80.0,8.0,30.16,7.0,75.0
2021-08-02 18:00:00,74.0,56.0,53.36,90.0,9.0,30.15,5.0,73.9
2021-08-02 19:00:00,77.0,55.0,46.57,100.0,9.0,30.15,5.0,77.0
2021-08-02 20:00:00,75.0,54.0,47.99,140.0,6.0,30.13,7.0,75.0
2021-08-02 21:00:00,77.0,54.0,44.9,110.0,9.0,30.13,5.0,77.0
2021-08-02 22:00:00,75.0,55.0,49.78,130.0,7.0,30.12,10.0,75.0
2021-08-02 23:00:00,74.0,52.0,46.27,120.0,5.0,30.12,10.0,73.9
2021-08-03 00:00:00,71.0,56.0,58.65,140.0,5.0,30.11,10.0,71.1
2021-08-03 01:00:00,70.0,57.0,63.37,140.0,5.0,30.12,6.0,70.0
2021-08-03 02:00:00,68.0,58.0,70.1,170.0,3.0,30.12,6.0,68.0
2021-08-03 03:00:00,66.0,58.0,75.12,200.0,3.0,30.12,6.0,66.0
2021-08-03 04:00:00,62.0,56.0,80.11,200.0,3.0,30.12,5.0,62.1
2021-08-03 05:00:00,59.0,55.0,86.56,220.0,3.0,30.12,5.0,59.0
2021-08-03 06:00:00,59.0,55.0,86.56,0.0,0.0,30.11,5.0,59.0
2021-08-03 07:00:00,57.0,54.0,89.68,260.0,3.0,30.11,4.0,57.0
2021-08-03 08:00:00,58.0,54.0,86.82,260.0,4.0,30.11,5.0,57.9
2021-08-03 09:00:00,56.0,53.0,90.29,260.0,4.0,30.11,5.0,55.9
2021-08-03 10:00:00,55.0,52.0,89.59,250.0,4.0,30.12,4.0,55.0
2021-08-03 11:00:00,61.0,57.0,86.67,0.0,0.0,30.12,4.0,61.0
2021-08-03 12:00:00,68.0,56.0,65.22,280.0,5.0,30.12,6.0,68.0
2021-08-03 13:00:00,73.0,57.0,57.23,290.0,6.0,30.13,5.0,73.0
2021-08-03 14:00:00,78.0,55.0,44.9,300.0,7.0,30.12,5.0,78.1
2021-08-03 15:00:00,81.0,52.0,36.58,340.0,8.0,30.12,10.0,80.34
2021-08-03 16:00:00,79.0,52.0,39.06,50.0,4.0,30.11,10.0,79.0
2021-08-03 17:00:00,83.0,51.0,33.27,50.0,3.0,30.1,6.0,81.45
2021-08-03 18:00:00,84.0,55.0,37.05,100.0,10.0,30.09,5.0,82.85
2021-08-03 19:00:00,83.0,54.0,37.01,110.0,10.0,30.08,5.0,81.87
2021-08-03 20:00:00,82.0,54.0,38.11,150.0,9.0,30.08,10.0,81.24
2021-08-03 21:00:00,81.0,53.0,38.09,120.0,8.0,30.07,5.0,80.47
2021-08-03 22:00:00,81.0,53.0,38.09,120.0,6.0,30.07,5.0,80.47
2021-08-03 23:00:00,77.0,53.0,43.44,150.0,6.0,30.07,5.0,77.0
2021-08-04 00:00:00,72.0,53.0,51.37,110.0,3.0,30.08,5.0,72.0
2021-08-04 01:00:00,70.0,55.0,58.94,360.0,3.0,30.09,7.0,70.0
2021-08-04 02:00:00,65.0,56.0,72.61,280.0,3.0,30.09,6.0,64.9
2021-08-04 03:00:00,64.0,56.0,74.93,0.0,0.0,30.09,6.0,64.0
2021-08-04 04:00:00,63.0,57.0,80.76,250.0,3.0,30.1,6.0,63.0
2021-08-04 05:00:00,60.0,56.0,85.99,260.0,3.0,30.1,6.0,60.1
2021-08-04 06:00:00,62.0,57.0,83.36,0.0,0.0,30.1,5.0,62.1
2021-08-04 07:00:00,61.0,57.0,86.67,0.0,0.0,30.1,5.0,61.0
2021-08-04 08:00:00,59.0,56.0,89.44,280.0,3.0,30.11,5.0,59.0
2021-08-04 09:00:00,60.0,57.0,89.48,280.0,3.0,30.11,5.0,60.1
2021-08-04 10:00:00,60.0,56.0,85.99,290.0,3.0,30.12,4.0,60.1
2021-08-04 11:00:00,63.0,58.0,83.42,0.0,0.0,30.13,8.0,63.0
2021-08-04 12:00:00,68.0,60.0,75.84,270.0,3.0,30.15,6.0,68.0
2021-08-04 13:00:00,74.0,61.0,64.07,280.0,4.0,30.15,6.0,73.9
2021-08-04 14:00:00,80.0,60.0,50.52,360.0,3.0,30.15,6.0,80.94
2021-08-04 15:00:00,83.0,58.0,42.63,360.0,4.0,30.14,6.0,82.6
2021-08-04 16:00:00,83.0,57.0,41.27,0.0,0.0,30.14,6.0,82.41
2021-08-04 17:00:00,83.0,59.0,44.34,120.0,5.0,30.13,5.0,82.86
2021-08-04 18:00:00,85.0,59.0,41.58,100.0,6.0,30.12,4.0,84.51
2021-08-04 19:00:00,84.0,58.0,41.14,120.0,7.0,30.12,6.0,83.47
2021-08-04 20:00:00,84.0,58.0,41.14,130.0,9.0,30.11,6.0,83.47
2021-08-04 21:00:00,83.0,57.0,41.27,140.0,8.0,30.1,6.0,82.41
2021-08-04 22:00:00,82.0,55.0,39.52,140.0,7.0,30.1,6.0,81.4
2021-08-04 23:00:00,80.0,54.0,40.54,150.0,6.0,30.09,5.0,80.04
2021-08-05 00:00:00,76.0,54.0,46.57,190.0,5.0,30.09,5.0,75.9
2021-08-05 01:00:00,74.0,55.0,51.64,180.0,4.0,30.1,6.0,73.9
2021-08-05 02:00:00,72.0,56.0,56.89,190.0,4.0,30.12,6.0,72.0
2021-08-05 03:00:00,72.0,57.0,59.2,180.0,4.0,30.11,6.0,72.0
2021-08-05 04:00:00,66.0,56.0,69.88,0.0,0.0,30.11,6.0,66.0
2021-08-05 05:00:00,65.0,56.0,72.61,210.0,3.0,30.11,6.0,64.9
2021-08-05 06:00:00,62.0,56.0,80.11,250.0,3.0,30.1,6.0,62.1
2021-08-05 07:00:00,63.0,56.0,77.61,250.0,3.0,30.09,5.0,63.0
2021-08-05 08:00:00,60.0,56.0,85.99,260.0,3.0,30.1,5.0,60.1
2021-08-05 09:00:00,61.0,57.0,86.67,250.0,3.0,30.1,5.0,61.0
2021-08-05 10:00:00,61.0,58.0,89.52,250.0,3.0,30.1,3.0,61.0
2021-08-05 11:00:00,64.0,60.0,87.14,250.0,4.0,30.11,5.0,64.0
2021-08-05 12:00:00,72.0,62.0,71.02,250.0,5.0,30.12,4.0,72.0
2021-08-05 13:00:00,77.0,60.0,55.95,250.0,4.0,30.12,5.0,77.0
2021-08-05 14:00:00,82.0,60.0,47.49,200.0,8.0,30.12,5.0,82.4
2021-08-05 15:00:00,84.0,59.0,42.8,250.0,9.0,30.11,6.0,83.75
2021-08-05 16:00:00,85.0,58.0,39.97,210.0,7.0,30.1,6.0,84.21
2021-08-05 17:00:00,86.0,58.0,38.58,230.0,10.0,30.08,6.0,85.16
2021-08-05 18:00:00,86.0,56.0,35.9,230.0,10.0,30.06,6.0,84.66
2021-08-05 19:00:00,87.0,56.0,34.66,210.0,8.0,30.04,6.0,85.61
2021-08-05 20:00:00,89.0,53.0,29.37,240.0,12.0,30.03,7.0,86.79
2021-08-05 21:00:00,88.0,52.0,29.21,230.0,10.0,30.02,8.0,85.6
2021-08-05 22:00:00,85.0,54.0,34.7,240.0,10.0,30.02,7.0,83.37
2021-08-05 23:00:00,82.0,55.0,39.52,230.0,8.0,30.01,7.0,81.4
2021-08-06 00:00:00,81.0,57.0,43.9,220.0,7.0,30.02,7.0,81.05
2021-08-06 01:00:00,79.0,59.0,50.36,220.0,6.0,30.02,9.0,79.0
2021-08-06 02:00:00,78.0,60.0,53.95,220.0,6.0,30.02,8.0,78.1
2021-08-06 03:00:00,77.0,59.0,53.8,200.0,8.0,30.01,8.0,77.0
2021-08-06 04:00:00,77.0,59.0,53.8,210.0,6.0,30.02,8.0,77.0
2021-08-06 05:00:00,76.0,59.0,55.8,190.0,6.0,30.0,8.0,75.9
2021-08-06 06:00:00,75.0,60.0,59.81,190.0,5.0,29.99,8.0,75.0
2021-08-06 07:00:00,75.0,61.0,61.75,190.0,6.0,29.98,8.0,75.0
2021-08-06 08:00:00,74.0,62.0,66.61,230.0,7.0,29.98,8.0,73.9
2021-08-06 09:00:00,69.0,65.0,86.48,200.0,11.0,29.98,5.0,69.1
2021-08-06 10:00:00,69.0,65.0,86.48,200.0,5.0,29.97,7.0,69.1
2021-08-06 11:00:00,70.0,65.0,83.86,180.0,4.0,29.97,6.0,70.0
2021-08-06 12:00:00,71.0,65.0,80.78,220.0,6.0,29.98,6.0,71.1
2021-08-06 13:00:00,74.0,65.0,73.49,220.0,11.0,29.98,7.0,73.9
2021-08-06 14:00:00,77.0,67.0,71.03,250.0,10.0,29.98,7.0,77.0
2021-08-06 15:00:00,81.0,68.0,64.69,210.0,9.0,29.98,7.0,83.76
2021-08-06 16:00:00,81.0,67.0,62.28,220.0,8.0,29.98,6.0,83.4
2021-08-06 17:00:00,84.0,67.0,56.51,230.0,9.0,29.96,7.0,86.62
2021-08-06 18:00:00,87.0,67.0,51.17,240.0,11.0,29.95,7.0,89.96
2021-08-06 19:00:00,85.0,68.0,57.02,220.0,12.0,29.95,7.0,88.18
2021-08-06 20:00:00,87.0,67.0,51.17,230.0,12.0,29.94,7.0,89.96
2021-08-06 21:00:00,84.0,65.0,52.71,210.0,14.0,29.92,7.0,85.72
2021-08-06 22:00:00,83.0,67.0,58.55,230.0,9.0,29.93,7.0,85.45
2021-08-06 23:00:00,81.0,68.0,64.69,210.0,5.0,29.94,7.0,83.76
2021-08-07 00:00:00,72.0,60.0,66.16,50.0,8.0,29.98,9.0,72.0
2021-08-07 01:00:00,66.0,63.0,90.05,50.0,8.0,30.0,3.0,66.0
2021-08-07 02:00:00,67.0,62.0,84.56,90.0,6.0,29.99,7.0,66.9
2021-08-07 03:00:00,67.0,63.0,87.28,0.0,0.0,30.0,9.0,66.9
2021-08-07 04:00:00,65.0,62.0,90.64,250.0,4.0,29.98,7.0,64.9
2021-08-07 05:00:00,65.0,63.0,93.56,0.0,0.0,29.98,6.0,64.9
2021-08-07 06:00:00,66.0,63.0,90.05,220.0,5.0,29.98,8.0,66.0
2021-08-07 07:00:00,67.0,64.0,90.4,220.0,5.0,29.98,8.0,66.9
2021-08-07 08:00:00,67.0,63.0,87.28,220.0,5.0,29.96,8.0,66.9
2021-08-07 09:00:00,67.0,63.0,87.28,220.0,4.0,29.96,8.0,66.9
2021-08-07 10:00:00,67.0,64.0,90.4,200.0,4.0,29.98,6.0,66.9
2021-08-07 11:00:00,68.0,64.0,87.03,140.0,4.0,29.99,5.0,68.0
2021-08-07 12:00:00,71.0,67.0,86.59,220.0,3.0,30.0,5.0,71.1
2021-08-07 13:00:00,75.0,69.0,81.9,0.0,0.0,29.99,5.0,75.0
2021-08-07 14:00:00,78.0,70.0,76.19,160.0,3.0,29.99,6.0,78.1
2021-08-07 15:00:00,82.0,71.0,69.62,200.0,4.0,29.98,6.0,86.35
2021-08-07 16:00:00,83.0,72.0,69.71,200.0,5.0,29.98,6.0,88.11
2021-08-07 17:00:00,83.0,72.0,69.71,110.0,7.0,29.97,6.0,88.11
2021-08-07 18:00:00,81.0,71.0,71.92,110.0,8.0,29.96,6.0,84.95
2021-08-07 19:00:00,81.0,70.0,69.28,130.0,5.0,29.97,6.0,84.5
2021-08-07 20:00:00,78.0,71.0,79.1,120.0,5.0,29.95,4.0,78.1
2021-08-07 21:00:00,79.0,73.0,81.89,170.0,6.0,29.92,4.0,79.0
2021-08-07 22:00:00,80.0,73.0,78.99,130.0,4.0,29.93,4.0,84.3
2021-08-07 23:00:00,78.0,73.0,84.36,110.0,5.0,29.91,4.0,78.1
2021-08-08 00:00:00,77.0,72.0,84.58,110.0,4.0,29.91,6.0,77.0
2021-08-08 01:00:00,75.0,72.0,90.4,20.0,5.0,29.93,4.0,75.0
2021-08-08 02:00:00,74.0,69.0,84.97,100.0,3.0,29.93,6.0,73.9
2021-08-08 03:00:00,74.0,70.0,87.63,50.0,3.0,29.91,5.0,73.9
2021-08-08 04:00:00,74.0,70.0,87.63,300.0,3.0,29.91,5.0,73.9
2021-08-08 05:00:00,73.0,70.0,90.32,60.0,3.0,29.89,4.0,73.0
2021-08-08 06:00:00,74.0,71.0,90.97,70.0,8.0,29.92,4.0,73.9
2021-08-08 07:00:00,71.0,67.0,86.59,50.0,9.0,29.94,8.0,71.1
2021-08-08 08:00:00,70.0,66.0,87.14,110.0,6.0,29.92,8.0,70.0
2021-08-08 09:00:00,70.0,67.0,89.9,150.0,7.0,29.88,7.0,70.0
2021-08-08 10:00:00,71.0,68.0,89.94,140.0,7.0,29.87,8.0,71.1
2021-08-08 11:00:00,72.0,69.0,90.59,150.0,4.0,29.88,7.0,72.0
2021-08-08 12:00:00,75.0,70.0,84.46,160.0,8.0,29.88,6.0,75.0
2021-08-08 13:00:00,78.0,71.0,79.1,170.0,9.0,29.88,5.0,78.1
2021-08-08 14:00:00,83.0,72.0,69.71,200.0,10.0,29.89,6.0,88.11
2021-08-08 15:00:00,84.0,71.0,65.26,200.0,12.0,29.88,6.0,89.01
2021-08-08 16:00:00,87.0,70.0,56.92,210.0,13.0,29.88,6.0,92.04
2021-08-08 17:00:00,90.0,70.0,51.93,200.0,14.0,29.86,7.0,95.49
2021-08-08 18:00:00,92.0,69.0,47.45,200.0,13.0,29.85,7.0,97.0
2021-08-08 19:00:00,93.0,70.0,47.28,200.0,11.0,29.84,7.0,99.1
2021-08-08 20:00:00,91.0,70.0,50.33,200.0,14.0,29.81,8.0,96.69
2021-08-08 21:00:00,87.0,66.0,49.6,200.0,18.0,29.81,8.0,89.44
2021-08-08 22:00:00,89.0,71.0,55.46,200.0,14.0,29.81,8.0,95.35
2021-08-08 23:00:00,88.0,72.0,59.21,220.0,10.0,29.82,7.0,94.79
2021-08-09 00:00:00,83.0,68.0,60.81,200.0,13.0,29.85,8.0,85.94
2021-08-09 01:00:00,80.0,68.0,66.62,210.0,10.0,29.88,9.0,82.7
2021-08-09 02:00:00,78.0,66.0,66.39,220.0,14.0,29.89,9.0,78.1
2021-08-09 03:00:00,76.0,66.0,71.41,220.0,12.0,29.88,9.0,75.9
2021-08-09 04:00:00,75.0,65.0,70.83,220.0,7.0,29.88,9.0,75.0
2021-08-09 05:00:00,74.0,65.0,73.49,220.0,6.0,29.86,10.0,73.9
2021-08-09 06:00:00,75.0,65.0,70.83,190.0,6.0,29.87,10.0,75.0
2021-08-09 07:00:00,75.0,65.0,70.83,190.0,7.0,29.86,10.0,75.0
2021-08-09 08:00:00,75.0,65.0,70.83,190.0,6.0,29.86,10.0,75.0
2021-08-09 09:00:00,74.0,66.0,76.36,190.0,7.0,29.87,9.0,73.9
2021-08-09 10:00:00,73.0,66.0,78.7,160.0,6.0,29.86,9.0,73.0
2021-08-09 11:00:00,73.0,67.0,81.2,170.0,9.0,29.86,8.0,73.0
2021-08-09 12:00:00,75.0,67.0,75.92,190.0,7.0,29.85,8.0,75.0
2021-08-09 13:00:00,75.0,68.0,78.86,200.0,6.0,29.85,8.0,75.0
2021-08-09 14:00:00,73.0,69.0,87.59,210.0,4.0,29.88,3.0,73.0
2021-08-09 15:00:00,71.0,69.0,93.4,150.0,8.0,29.87,4.0,71.1
2021-08-09 16:00:00,72.0,69.0,90.59,170.0,10.0,29.85,5.0,72.0
2021-08-09 17:00:00,73.0,70.0,90.32,160.0,12.0,29.83,2.5,73.0
2021-08-09 18:00:00,77.0,72.0,84.58,180.0,11.0,29.82,7.0,77.0
2021-08-09 19:00:00,77.0,70.0,79.02,170.0,10.0,29.81,8.0,77.0
2021-08-09 20:00:00,79.0,72.0,79.17,190.0,7.0,29.8,8.0,79.0
2021-08-09 21:00:00,79.0,72.0,79.17,200.0,9.0,29.8,8.0,79.0
2021-08-09 22:00:00,78.0,73.0,84.36,200.0,7.0,29.79,7.0,78.1
2021-08-09 23:00:00,78.0,73.0,84.36,230.0,4.0,29.8,8.0,78.1
2021-08-10 00:00:00,78.0,74.0,86.95,220.0,5.0,29.82,7.0,78.1
2021-08-10 01:00:00,76.0,73.0,90.74,250.0,4.0,29.83,7.0,75.9
2021-08-10 02:00:00,75.0,73.0,93.51,250.0,7.0,29.84,7.0,75.0
2021-08-10 03:00:00,74.0,70.0,87.63,280.0,5.0,29.85,10.0,73.9
2021-08-10 04:00:00,73.0,69.0,87.59,300.0,6.0,29.86,10.0,73.0
2021-08-10 05:00:00,71.0,69.0,93.4,290.0,3.0,29.87,9.0,71.1
2021-08-10 06:00:00,70.0,68.0,93.37,220.0,4.0,29.88,8.0,70.0
2021-08-10 07:00:00,70.0,67.0,89.9,230.0,4.0,29.88,8.0,70.0
2021-08-10 08:00:00,68.0,66.0,93.32,240.0,3.0,29.89,7.0,68.0
2021-08-10 09:00:00,68.0,66.0,93.32,220.0,3.0,29.89,7.0,68.0
2021-08-10 10:00:00,67.0,65.0,93.29,240.0,4.0,29.9,5.0,66.9
2021-08-10 11:00:00,69.0,67.0,92.71,260.0,4.0,29.91,6.0,69.1
2021-08-10 12:00:00,74.0,69.0,84.97,200.0,3.0,29.93,7.0,73.9
2021-08-10 13:00:00,77.0,71.0,82.03,190.0,6.0,29.93,9.0,77.0
2021-08-10 14:00:00,81.0,71.0,71.92,190.0,5.0,29.91,9.0,84.95
2021-08-10 15:00:00,85.0,73.0,67.61,200.0,9.0,29.91,9.0,91.6
2021-08-10 16:00:00,88.0,75.0,65.49,220.0,6.0,29.9,9.0,97.81
2021-08-10 17:00:00,90.0,78.0,68.16,180.0,7.0,29.88,8.0,104.68
2021-08-10 18:00:00,91.0,79.0,68.04,240.0,9.0,29.87,8.0,107.54
2021-08-10 19:00:00,93.0,78.0,62.06,230.0,10.0,29.84,9.0,108.92
2021-08-10 20:00:00,94.0,77.0,58.19,220.0,9.0,29.81,8.0,108.46
2021-08-10 21:00:00,94.0,76.0,56.1,230.0,12.0,29.8,9.0,106.89
2021-08-10 22:00:00,91.0,76.0,61.4,230.0,13.0,29.81,9.0,103.01
2021-08-10 23:00:00,89.0,77.0,67.61,230.0,8.0,29.81,8.0,101.83
2021-08-11 00:00:00,71.6,68.0,88.43,270.0,15.0,29.87,6.0,71.6
2021-08-11 01:00:00,71.6,68.0,88.43,270.0,15.0,29.87,6.0,71.6
2021-08-11 02:00:00,71.6,68.0,88.43,270.0,15.0,29.87,6.0,71.6
2021-08-11 03:00:00,71.6,68.0,88.43,270.0,15.0,29.87,6.0,71.6
2021-08-11 04:00:00,71.6,68.0,88.43,270.0,15.0,29.87,6.0,71.6
2021-08-11 05:00:00,71.6,68.0,88.43,270.0,15.0,29.87,6.0,71.6
2021-08-11 06:00:00,71.6,68.0,88.43,270.0,15.0,29.87,6.0,71.6
2021-08-11 07:00:00,71.6,68.0,88.43,270.0,15.0,29.87,6.0,71.6
2021-08-11 08:00:00,72.0,69.0,90.59,180.0,5.0,29.85,10.0,72.0
2021-08-11 09:00:00,73.0,69.0,87.59,210.0,3.0,29.84,10.0,73.0
2021-08-11 10:00:00,73.0,70.0,90.32,190.0,4.0,29.82,10.0,73.0
2021-08-11 11:00:00,74.0,71.0,90.97,190.0,5.0,29.81,7.0,73.9
2021-08-11 12:00:00,77.0,74.0,90.17,220.0,6.0,29.8,8.0,77.0
2021-08-11 13:00:00,81.0,75.0,82.03,210.0,12.0,29.78,10.0,86.83
2021-08-11 14:00:00,82.0,76.0,81.82,240.0,13.0,29.81,10.0,89.26
2021-08-11 15:00:00,75.0,68.0,78.86,240.0,17.0,29.84,10.0,75.0
2021-08-11 16:00:00,76.0,68.0,76.53,240.0,9.0,29.84,10.0,75.9
2021-08-11 17:00:00,82.0,66.0,58.43,220.0,13.0,29.82,10.0,84.15
2021-08-11 18:00:00,85.0,66.0,53.21,210.0,13.0,29.75,10.0,87.13
2021-08-11 19:00:00,89.0,68.0,49.88,230.0,14.0,29.72,10.0,92.9
2021-08-11 20:00:00,88.0,71.0,57.43,220.0,17.0,29.72,10.0,94.0
2021-08-11 21:00:00,88.0,72.0,59.21,240.0,16.0,29.76,10.0,94.79
2021-08-11 22:00:00,86.0,73.0,65.27,240.0,14.0,29.76,10.0,93.09
2021-08-11 23:00:00,85.0,74.0,69.69,240.0,13.0,29.75,10.0,92.36
2021-08-12 00:00:00,85.0,75.0,72.3,220.0,12.0,29.74,10.0,93.35
2021-08-12 01:00:00,84.0,75.0,74.43,230.0,4.0,29.76,10.0,91.96
2021-08-12 02:00:00,84.0,76.0,76.69,220.0,8.0,29.78,10.0,92.76
2021-08-12 03:00:00,84.0,74.0,71.73,220.0,13.0,29.78,10.0,91.04
2021-08-12 04:00:00,82.0,76.0,81.82,290.0,9.0,29.79,10.0,89.26
2021-08-12 05:00:00,81.0,74.0,79.06,290.0,9.0,29.82,10.0,86.25
2021-08-12 06:00:00,77.0,71.0,82.03,290.0,6.0,29.83,10.0,77.0
2021-08-12 07:00:00,74.0,67.0,78.77,290.0,6.0,29.82,10.0,73.9
2021-08-12 08:00:00,70.0,66.0,87.14,270.0,5.0,29.86,10.0,70.0
2021-08-12 09:00:00,69.0,64.0,83.81,230.0,3.0,29.87,10.0,69.1
2021-08-12 10:00:00,69.0,65.0,86.48,210.0,6.0,29.89,10.0,69.1
2021-08-12 11:00:00,70.0,65.0,83.86,200.0,4.0,29.91,10.0,70.0
2021-08-12 12:00:00,72.0,66.0,81.41,220.0,3.0,29.94,10.0,72.0
2021-08-12 13:00:00,76.0,67.0,73.68,210.0,5.0,29.94,10.0,75.9
2021-08-12 14:00:00,80.0,65.0,59.83,220.0,5.0,29.94,10.0,81.91
2021-08-12 15:00:00,83.0,63.0,51.1,220.0,8.0,29.93,10.0,83.98
2021-08-12 16:00:00,87.0,63.0,44.66,210.0,8.0,29.91,10.0,87.96
2021-08-12 17:00:00,88.0,65.0,46.39,220.0,7.0,29.9,10.0,89.8
2021-08-12 18:00:00,90.0,64.0,42.2,230.0,11.0,29.9,10.0,91.44
2021-08-12 19:00:00,89.0,68.0,49.88,240.0,14.0,29.92,10.0,92.9
2021-08-12 20:00:00,87.0,73.0,63.02,240.0,13.0,29.91,10.0,94.55
2021-08-12 21:00:00,83.0,74.0,74.33,260.0,13.0,29.92,10.0,89.37
2021-08-12 22:00:00,83.0,74.0,74.33,240.0,11.0,29.9,10.0,89.37
2021-08-12 23:00:00,81.0,73.0,76.7,240.0,10.0,29.9,10.0,85.81
2021-08-13 00:00:00,79.0,73.0,81.89,230.0,7.0,29.9,10.0,79.0
2021-08-13 01:00:00,78.0,74.0,86.95,230.0,6.0,29.92,10.0,78.1
2021-08-13 02:00:00,78.0,72.0,81.55,240.0,9.0,29.94,10.0,78.1
2021-08-13 03:00:00,76.0,71.0,85.09,270.0,6.0,29.95,10.0,75.9
2021-08-13 04:00:00,76.0,71.0,85.09,270.0,6.0,29.97,10.0,75.9
2021-08-13 05:00:00,75.0,71.0,87.68,260.0,4.0,29.98,10.0,75.0
2021-08-13 06:00:00,75.0,70.0,84.46,280.0,4.0,30.0,10.0,75.0
2021-08-13 07:00:00,75.0,59.0,57.5,330.0,5.0,30.01,10.0,75.0
2021-08-13 08:00:00,70.0,60.0,70.81,310.0,5.0,30.02,10.0,70.0
2021-08-13 09:00:00,71.0,57.0,61.04,330.0,5.0,30.04,10.0,71.1
2021-08-13 10:00:00,70.0,56.0,60.89,320.0,4.0,30.05,10.0,70.0
2021-08-13 11:00:00,69.0,56.0,62.8,330.0,5.0,30.05,10.0,69.1
2021-08-13 12:00:00,70.0,57.0,63.37,330.0,5.0,30.07,10.0,70.0
2021-08-13 13:00:00,72.0,57.0,59.2,330.0,5.0,30.09,10.0,72.0
2021-08-13 14:00:00,76.0,59.0,55.8,330.0,5.0,30.1,10.0,75.9
2021-08-13 15:00:00,78.0,60.0,53.95,330.0,4.0,30.11,10.0,78.1
2021-08-13 16:00:00,80.0,58.0,46.7,330.0,6.0,30.13,10.0,80.58
2021-08-13 17:00:00,80.0,54.0,40.54,280.0,7.0,30.12,10.0,80.04
2021-08-13 18:00:00,82.0,54.0,38.11,360.0,6.0,30.12,10.0,81.24
2021-08-13 19:00:00,82.0,52.0,35.41,270.0,8.0,30.11,10.0,80.97
2021-08-13 20:00:00,83.0,52.0,34.39,270.0,8.0,30.09,10.0,81.57
2021-08-13 21:00:00,83.0,51.0,33.27,290.0,9.0,30.08,10.0,81.45
2021-08-13 22:00:00,82.0,54.0,38.11,310.0,7.0,30.09,10.0,81.24
2021-08-13 23:00:00,79.0,55.0,43.59,270.0,5.0,30.09,10.0,79.0
2021-08-14 00:00:00,73.0,57.0,57.23,250.0,3.0,30.11,10.0,73.0
2021-08-14 01:00:00,72.0,57.0,59.2,280.0,5.0,30.13,10.0,72.0
2021-08-14 02:00:00,72.0,54.0,53.09,340.0,4.0,30.16,10.0,72.0
2021-08-14 03:00:00,67.0,55.0,65.56,20.0,4.0,30.17,10.0,66.9
2021-08-14 04:00:00,66.0,54.0,65.21,330.0,3.0,30.19,10.0,66.0
2021-08-14 05:00:00,63.0,53.0,70.07,0.0,0.0,30.2,10.0,63.0
2021-08-14 06:00:00,59.0,53.0,80.75,290.0,3.0,30.19,10.0,59.0
2021-08-14 07:00:00,57.0,52.0,83.33,0.0,0.0,30.2,10.0,57.0
2021-08-14 08:00:00,56.0,52.0,86.71,310.0,3.0,30.21,10.0,55.9
2021-08-14 09:00:00,56.0,51.0,83.88,320.0,4.0,30.23,10.0,55.9
2021-08-14 10:00:00,56.0,50.0,80.52,0.0,0.0,30.25,10.0,55.9
2021-08-14 11:00:00,58.0,54.0,86.82,0.0,0.0,30.26,10.0,57.9
2021-08-14 12:00:00,66.0,58.0,75.12,0.0,0.0,30.28,10.0,66.0
2021-08-14 13:00:00,73.0,59.0,61.5,0.0,0.0,30.29,10.0,73.0
2021-08-14 14:00:00,76.0,53.0,45.06,0.0,3.0,30.29,10.0,75.9
2021-08-14 15:00:00,78.0,48.0,34.67,90.0,7.0,30.3,10.0,78.1
2021-08-14 16:00:00,78.0,51.0,38.92,90.0,7.0,30.29,10.0,78.1
2021-08-14 17:00:00,78.0,50.0,37.36,120.0,8.0,30.29,10.0,78.1
2021-08-14 18:00:00,80.0,49.0,33.58,120.0,7.0,30.29,10.0,79.5
2021-08-14 19:00:00,79.0,47.0,32.29,100.0,8.0,30.29,10.0,79.0
2021-08-14 20:00:00,79.0,48.0,33.66,150.0,8.0,30.27,10.0,79.0
2021-08-14 21:00:00,78.0,46.0,32.15,120.0,7.0,30.26,10.0,78.1
2021-08-14 22:00:00,77.0,46.0,33.34,140.0,8.0,30.25,10.0,77.0
2021-08-14 23:00:00,75.0,46.0,35.64,140.0,5.0,30.24,10.0,75.0
2021-08-15 00:00:00,72.0,49.0,43.97,140.0,5.0,30.24,10.0,72.0
2021-08-15 01:00:00,70.0,52.0,52.8,140.0,4.0,30.26,10.0,70.0
2021-08-15 02:00:00,66.0,53.0,63.1,140.0,3.0,30.26,10.0,66.0
2021-08-15 03:00:00,60.0,54.0,80.25,0.0,0.0,30.26,10.0,60.1
2021-08-15 04:00:00,59.0,53.0,80.75,0.0,0.0,30.26,10.0,59.0
2021-08-15 05:00:00,57.0,53.0,86.77,0.0,0.0,30.26,10.0,57.0
2021-08-15 06:00:00,56.0,52.0,86.71,0.0,0.0,30.26,10.0,55.9
2021-08-15 07:00:00,57.0,53.0,86.77,290.0,3.0,30.25,10.0,57.0
2021-08-15 08:00:00,57.0,52.0,83.33,0.0,0.0,30.24,4.0,57.0
2021-08-15 09:00:00,54.0,52.0,92.92,0.0,0.0,30.25,10.0,54.0
2021-08-15 10:00:00,54.0,51.0,89.88,0.0,0.0,30.25,9.0,54.0
2021-08-15 11:00:00,58.0,54.0,86.82,0.0,0.0,30.26,10.0,57.9
2021-08-15 12:00:00,67.0,59.0,75.74,0.0,0.0,30.27,10.0,66.9
2021-08-15 13:00:00,72.0,59.0,63.61,0.0,0.0,30.27,10.0,72.0
2021-08-15 14:00:00,75.0,57.0,53.52,160.0,5.0,30.27,10.0,75.0
2021-08-15 15:00:00,78.0,56.0,46.4,170.0,9.0,30.27,10.0,78.1
2021-08-15 16:00:00,79.0,54.0,42.03,130.0,5.0,30.26,10.0,79.0
2021-08-15 17:00:00,79.0,51.0,37.78,80.0,6.0,30.25,10.0,79.0
2021-08-15 18:00:00,79.0,48.0,33.66,130.0,9.0,30.23,10.0,79.0
2021-08-15 19:00:00,79.0,48.0,33.66,120.0,7.0,30.22,10.0,79.0
2021-08-15 20:00:00,78.0,48.0,34.67,120.0,5.0,30.2,10.0,78.1
2021-08-15 21:00:00,78.0,50.0,37.36,110.0,9.0,30.19,10.0,78.1
2021-08-15 22:00:00,76.0,49.0,38.57,100.0,6.0,30.18,10.0,75.9
2021-08-15 23:00:00,74.0,54.0,49.79,90.0,6.0,30.15,10.0,73.9
2021-08-16 00:00:00,67.0,55.0,65.56,80.0,5.0,30.15,10.0,66.9
2021-08-16 01:00:00,66.0,56.0,69.88,80.0,4.0,30.16,10.0,66.0
2021-08-16 02:00:00,63.0,55.0,75.11,70.0,3.0,30.15,10.0,63.0
2021-08-16 03:00:00,61.0,55.0,80.61,0.0,0.0,30.15,10.0,61.0
2021-08-16 04:00:00,60.0,55.0,83.23,0.0,0.0,30.16,10.0,60.1
2021-08-16 05:00:00,60.0,55.0,83.23,0.0,0.0,30.15,10.0,60.1
2021-08-16 06:00:00,58.0,55.0,90.04,0.0,0.0,30.14,10.0,57.9
2021-08-16 07:00:00,57.0,54.0,89.68,0.0,0.0,30.13,10.0,57.0
2021-08-16 08:00:00,56.0,53.0,90.29,0.0,0.0,30.13,10.0,55.9
2021-08-16 09:00:00,56.0,54.0,93.32,0.0,0.0,30.12,8.0,55.9
2021-08-16 10:00:00,57.0,54.0,89.68,0.0,0.0,30.13,10.0,57.0
2021-08-16 11:00:00,60.0,56.0,85.99,0.0,0.0,30.13,9.0,60.1
2021-08-16 12:00:00,69.0,62.0,78.39,0.0,0.0,30.14,10.0,69.1
2021-08-16 13:00:00,74.0,61.0,64.07,0.0,0.0,30.14,10.0,73.9
2021-08-16 14:00:00,75.0,61.0,61.75,40.0,3.0,30.14,10.0,75.0
2021-08-16 15:00:00,76.0,55.0,48.3,90.0,7.0,30.14,10.0,75.9
2021-08-16 16:00:00,79.0,55.0,43.59,80.0,9.0,30.13,10.0,79.0
2021-08-16 17:00:00,77.0,55.0,46.57,110.0,10.0,30.12,10.0,77.0
2021-08-16 18:00:00,81.0,56.0,42.19,60.0,7.0,30.11,10.0,80.87
2021-08-16 19:00:00,77.0,55.0,46.57,90.0,8.0,30.1,10.0,77.0
2021-08-16 20:00:00,78.0,57.0,48.28,90.0,8.0,30.08,10.0,78.1
2021-08-16 21:00:00,77.0,57.0,50.07,110.0,8.0,30.07,10.0,77.0
2021-08-16 22:00:00,76.0,55.0,48.3,110.0,6.0,30.06,10.0,75.9
2021-08-16 23:00:00,74.0,56.0,53.36,120.0,5.0,30.05,10.0,73.9
2021-08-17 00:00:00,68.0,55.0,63.12,110.0,4.0,30.04,10.0,68.0
2021-08-17 01:00:00,67.0,57.0,70.49,0.0,0.0,30.05,10.0,66.9
2021-08-17 02:00:00,67.0,56.0,67.74,0.0,0.0,30.06,10.0,66.9
2021-08-17 03:00:00,62.0,57.0,83.36,0.0,0.0,30.05,10.0,62.1
2021-08-17 04:00:00,60.0,56.0,85.99,0.0,0.0,30.05,10.0,60.1
2021-08-17 05:00:00,59.0,56.0,89.44,0.0,0.0,30.05,10.0,59.0
2021-08-17 06:00:00,59.0,56.0,89.44,0.0,0.0,30.04,10.0,59.0
2021-08-17 07:00:00,59.0,56.0,89.44,0.0,0.0,30.04,10.0,59.0
2021-08-17 08:00:00,58.0,55.0,90.04,0.0,0.0,30.05,10.0,57.9
2021-08-17 09:00:00,57.0,54.0,89.68,0.0,0.0,30.05,10.0,57.0
2021-08-17 10:00:00,58.0,55.0,90.04,0.0,0.0,30.06,10.0,57.9
2021-08-17 11:00:00,61.0,58.0,89.52,0.0,0.0,30.07,8.0,61.0
2021-08-17 12:00:00,69.0,63.0,80.92,0.0,0.0,30.08,10.0,69.1
2021-08-17 13:00:00,75.0,65.0,70.83,0.0,0.0,30.08,10.0,75.0
2021-08-17 14:00:00,77.0,64.0,64.21,0.0,0.0,30.08,10.0,77.0
2021-08-17 15:00:00,80.0,63.0,55.98,90.0,4.0,30.08,10.0,81.5
2021-08-17 16:00:00,79.0,63.0,58.04,110.0,8.0,30.07,10.0,79.0
2021-08-17 17:00:00,81.0,62.0,52.66,130.0,8.0,30.06,10.0,82.06
2021-08-17 18:00:00,81.0,61.0,50.65,140.0,9.0,30.05,10.0,81.81
2021-08-17 19:00:00,81.0,62.0,52.66,110.0,9.0,30.05,10.0,82.06
2021-08-17 20:00:00,81.0,61.0,50.65,130.0,8.0,30.03,10.0,81.81
2021-08-17 21:00:00,80.0,63.0,55.98,120.0,9.0,30.03,10.0,81.5
2021-08-17 22:00:00,79.0,63.0,58.04,120.0,7.0,30.02,10.0,79.0
2021-08-17 23:00:00,77.0,62.0,60.06,120.0,7.0,30.01,10.0,77.0
2021-08-18 00:00:00,74.0,64.0,71.21,110.0,4.0,30.02,10.0,73.9
2021-08-18 01:00:00,70.0,63.0,78.46,110.0,4.0,30.03,10.0,70.0
2021-08-18 02:00:00,72.0,65.0,78.35,110.0,4.0,30.04,10.0,72.0
2021-08-18 03:00:00,68.0,64.0,87.03,0.0,0.0,30.05,10.0,68.0
2021-08-18 04:00:00,68.0,64.0,87.03,0.0,0.0,30.06,9.0,68.0
2021-08-18 05:00:00,66.0,64.0,93.26,0.0,0.0,30.06,6.0,66.0
2021-08-18 06:00:00,65.0,63.0,93.56,0.0,0.0,30.06,2.0,64.9
2021-08-18 07:00:00,65.0,62.0,90.64,0.0,0.0,30.06,5.0,64.9
2021-08-18 08:00:00,66.0,63.0,90.05,340.0,3.0,30.06,4.0,66.0
2021-08-18 09:00:00,67.0,65.0,93.29,360.0,4.0,30.08,3.0,66.9
2021-08-18 10:00:00,66.0,63.0,90.05,0.0,0.0,30.09,0.25,66.0
2021-08-18 11:00:00,66.0,63.0,90.05,0.0,0.0,30.09,0.25,66.0
2021-08-18 12:00:00,73.0,70.0,90.32,50.0,3.0,30.11,6.0,73.0
2021-08-18 13:00:00,78.0,71.0,79.1,50.0,5.0,30.12,10.0,78.1
2021-08-18 14:00:00,81.0,70.0,69.28,70.0,6.0,30.12,10.0,84.5
2021-08-18 15:00:00,82.0,70.0,67.06,70.0,5.0,30.13,10.0,85.81
2021-08-18 16:00:00,82.0,70.0,67.06,80.0,8.0,30.13,10.0,85.81
2021-08-18 17:00:00,84.0,70.0,62.86,120.0,9.0,30.12,10.0,88.31
2021-08-18 18:00:00,85.0,70.0,61.06,110.0,7.0,30.12,10.0,89.4
2021-08-18 19:00:00,84.0,68.0,58.69,100.0,9.0,30.11,10.0,87.18
2021-08-18 20:00:00,83.0,70.0,65.13,120.0,7.0,30.1,10.0,86.95
2021-08-18 21:00:00,83.0,70.0,65.13,80.0,9.0,30.09,10.0,86.95
2021-08-18 22:00:00,82.0,69.0,65.03,90.0,8.0,30.09,10.0,85.39
2021-08-18 23:00:00,79.0,69.0,71.72,70.0,7.0,30.09,10.0,79.0
2021-08-19 00:00:00,76.0,70.0,81.96,90.0,6.0,30.09,10.0,75.9
2021-08-19 01:00:00,74.0,71.0,90.97,70.0,4.0,30.11,9.0,73.9
2021-08-19 02:00:00,74.0,71.0,90.97,70.0,4.0,30.12,6.0,73.9
2021-08-19 03:00:00,73.0,70.0,90.32,80.0,3.0,30.12,2.0,73.0
2021-08-19 04:00:00,72.0,70.0,93.43,0.0,0.0,30.12,0.5,72.0
2021-08-19 05:00:00,70.0,68.0,93.37,0.0,0.0,30.11,0.25,70.0
2021-08-19 06:00:00,71.0,69.0,93.4,0.0,0.0,30.1,4.0,71.1
2021-08-19 07:00:00,69.0,67.0,92.71,340.0,3.0,30.1,2.5,69.1
2021-08-19 08:00:00,71.0,69.0,93.4,340.0,3.0,30.1,0.5,71.1
2021-08-19 09:00:00,70.0,68.0,93.37,340.0,3.0,30.09,0.5,70.0
2021-08-19 10:00:00,68.0,66.0,93.32,0.0,0.0,30.09,0.25,68.0
2021-08-19 11:00:00,68.0,66.0,93.32,0.0,0.0,30.11,2.5,68.0
2021-08-19 12:00:00,75.0,71.0,87.68,0.0,0.0,30.11,4.0,75.0
2021-08-19 13:00:00,81.0,72.0,74.15,0.0,3.0,30.11,10.0,85.35
2021-08-19 14:00:00,83.0,72.0,69.71,30.0,3.0,30.11,10.0,88.11
2021-08-19 15:00:00,84.0,71.0,65.26,90.0,5.0,30.11,10.0,89.01
2021-08-19 16:00:00,86.0,70.0,58.95,100.0,9.0,30.1,10.0,90.73
2021-08-19 17:00:00,86.0,70.0,58.95,90.0,10.0,30.1,10.0,90.73
2021-08-19 18:00:00,84.0,69.0,60.95,90.0,10.0,30.09,10.0,87.78
2021-08-19 19:00:00,84.0,70.0,62.86,100.0,8.0,30.08,10.0,88.31
2021-08-19 20:00:00,85.0,70.0,61.06,130.0,7.0,30.06,10.0,89.4
2021-08-19 21:00:00,83.0,71.0,67.62,90.0,6.0,30.04,10.0,87.57
2021-08-19 22:00:00,83.0,72.0,69.71,70.0,7.0,30.04,10.0,88.11
2021-08-19 23:00:00,80.0,71.0,74.07,70.0,6.0,30.02,10.0,83.64
2021-08-20 00:00:00,75.0,70.0,84.46,80.0,5.0,30.03,10.0,75.0
2021-08-20 01:00:00,74.0,72.0,93.79,70.0,4.0,30.04,5.0,73.9
2021-08-20 02:00:00,74.0,72.0,93.79,70.0,3.0,30.05,5.0,73.9
2021-08-20 03:00:00,72.0,70.0,93.43,110.0,3.0,30.03,6.0,72.0
2021-08-20 04:00:00,71.0,69.0,93.4,0.0,0.0,30.03,5.0,71.1
2021-08-20 05:00:00,69.0,67.0,92.71,0.0,0.0,30.03,0.25,69.1
2021-08-20 06:00:00,70.0,68.0,93.37,0.0,0.0,30.02,0.25,70.0
2021-08-20 07:00:00,67.0,66.0,96.93,0.0,0.0,30.01,0.25,66.9
2021-08-20 08:00:00,69.0,67.0,92.71,0.0,0.0,30.01,0.75,69.1
2021-08-20 09:00:00,68.0,67.0,96.28,0.0,0.0,30.0,0.25,68.0
2021-08-20 10:00:00,68.0,66.0,93.32,0.0,0.0,30.01,0.25,68.0
2021-08-20 11:00:00,68.0,66.0,93.32,30.0,3.0,30.01,0.5,68.0
2021-08-20 12:00:00,73.0,71.0,93.77,80.0,3.0,30.0,4.0,73.0
2021-08-20 13:00:00,80.0,71.0,74.07,90.0,5.0,30.0,10.0,83.64
2021-08-20 14:00:00,83.0,70.0,65.13,90.0,5.0,30.01,10.0,86.95
2021-08-20 15:00:00,85.0,70.0,61.06,100.0,7.0,30.0,10.0,89.4
2021-08-20 16:00:00,86.0,69.0,57.16,130.0,8.0,29.99,10.0,90.11
2021-08-20 17:00:00,87.0,69.0,55.19,120.0,7.0,29.99,10.0,91.38
2021-08-20 18:00:00,87.0,69.0,55.19,100.0,8.0,29.97,10.0,91.38
2021-08-20 19:00:00,86.0,69.0,57.16,110.0,9.0,29.94,10.0,90.11
2021-08-20 20:00:00,86.0,69.0,57.16,130.0,9.0,29.92,10.0,90.11
2021-08-20 21:00:00,85.0,69.0,59.21,130.0,8.0,29.9,10.0,88.83
2021-08-20 22:00:00,83.0,70.0,65.13,110.0,9.0,29.89,10.0,86.95
2021-08-20 23:00:00,82.0,70.0,67.06,130.0,7.0,29.89,10.0,85.81
2021-08-21 00:00:00,80.0,71.0,74.07,140.0,5.0,29.89,10.0,83.64
2021-08-21 01:00:00,79.0,72.0,79.17,130.0,4.0,29.89,10.0,79.0
2021-08-21 02:00:00,78.0,74.0,86.95,140.0,6.0,29.88,9.0,78.1
2021-08-21 03:00:00,77.0,73.0,87.48,160.0,6.0,29.9,8.0,77.0
2021-08-21 04:00:00,76.0,72.0,87.73,160.0,5.0,29.9,8.0,75.9
2021-08-21 05:00:00,76.0,72.0,87.73,160.0,4.0,29.9,8.0,75.9
2021-08-21 06:00:00,74.0,71.0,90.97,190.0,3.0,29.88,6.0,73.9
2021-08-21 07:00:00,75.0,71.0,87.68,200.0,4.0,29.87,7.0,75.0
2021-08-21 08:00:00,75.0,69.0,81.9,180.0,5.0,29.85,8.0,75.0
2021-08-21 09:00:00,74.0,69.0,84.97,200.0,4.0,29.85,7.0,73.9
2021-08-21 10:00:00,72.0,68.0,87.24,190.0,3.0,29.86,7.0,72.0
2021-08-21 11:00:00,75.0,69.0,81.9,180.0,4.0,29.87,6.0,75.0
2021-08-21 12:00:00,76.0,70.0,81.96,190.0,5.0,29.88,7.0,75.9
2021-08-21 13:00:00,81.0,71.0,71.92,190.0,8.0,29.86,9.0,84.95
2021-08-21 14:00:00,85.0,72.0,65.36,200.0,9.0,29.86,10.0,90.82
2021-08-21 15:00:00,88.0,71.0,57.43,190.0,14.0,29.85,10.0,94.0
2021-08-21 16:00:00,87.0,71.0,59.09,210.0,11.0,29.85,10.0,92.9
2021-08-21 17:00:00,86.0,70.0,58.95,210.0,8.0,29.85,10.0,90.73
2021-08-21 18:00:00,88.0,71.0,57.43,210.0,8.0,29.84,10.0,94.0
2021-08-21 19:00:00,89.0,71.0,55.46,200.0,10.0,29.84,10.0,95.35
2021-08-21 20:00:00,89.0,71.0,55.46,210.0,8.0,29.83,10.0,95.35
2021-08-21 21:00:00,86.0,72.0,63.1,220.0,12.0,29.83,10.0,92.25
2021-08-21 22:00:00,85.0,71.0,63.4,220.0,7.0,29.84,10.0,90.16
2021-08-21 23:00:00,80.0,75.0,84.47,210.0,6.0,29.85,10.0,85.09
2021-08-22 00:00:00,77.0,74.0,90.17,230.0,5.0,29.85,10.0,77.0
2021-08-22 01:00:00,77.0,74.0,90.17,310.0,6.0,29.87,10.0,77.0
2021-08-22 02:00:00,78.0,74.0,86.95,300.0,6.0,29.89,10.0,78.1
2021-08-22 03:00:00,77.0,73.0,87.48,0.0,0.0,29.91,10.0,77.0
2021-08-22 04:00:00,76.0,68.0,76.53,330.0,11.0,29.92,10.0,75.9
2021-08-22 05:00:00,73.0,64.0,73.4,350.0,6.0,29.94,10.0,73.0
2021-08-22 06:00:00,72.0,62.0,71.02,320.0,4.0,29.96,10.0,72.0
2021-08-22 07:00:00,70.0,61.0,73.11,320.0,4.0,29.97,10.0,70.0
2021-08-22 08:00:00,70.0,61.0,73.11,340.0,4.0,29.98,10.0,70.0
2021-08-22 09:00:00,68.0,60.0,75.84,330.0,5.0,30.0,10.0,68.0
2021-08-22 10:00:00,66.0,59.0,78.14,10.0,4.0,30.0,10.0,66.0
2021-08-22 11:00:00,67.0,60.0,78.77,350.0,4.0,30.01,10.0,66.9
2021-08-22 12:00:00,70.0,60.0,70.81,360.0,6.0,30.02,10.0,70.0
2021-08-22 13:00:00,72.0,61.0,68.31,10.0,6.0,30.03,10.0,72.0
2021-08-22 14:00:00,75.0,64.0,68.64,40.0,7.0,30.04,10.0,75.0
2021-08-22 15:00:00,77.0,64.0,64.21,60.0,7.0,30.04,10.0,77.0
2021-08-22 16:00:00,77.0,64.0,64.21,20.0,8.0,30.04,10.0,77.0
2021-08-22 17:00:00,77.0,64.0,64.21,30.0,7.0,30.04,10.0,77.0
2021-08-22 18:00:00,77.0,64.0,64.21,10.0,8.0,30.03,10.0,77.0
2021-08-22 19:00:00,79.0,64.0,60.11,30.0,7.0,30.02,10.0,79.0
2021-08-22 20:00:00,76.0,64.0,66.6,80.0,11.0,30.01,10.0,75.9
2021-08-22 21:00:00,77.0,64.0,64.21,60.0,12.0,30.0,10.0,77.0
2021-08-22 22:00:00,75.0,63.0,66.27,70.0,9.0,30.0,10.0,75.0
2021-08-22 23:00:00,72.0,63.0,73.31,70.0,8.0,30.0,10.0,72.0
2021-08-23 00:00:00,68.0,62.0,81.41,70.0,5.0,29.99,10.0,68.0
2021-08-23 01:00:00,67.0,62.0,84.56,60.0,4.0,30.0,10.0,66.9
2021-08-23 02:00:00,65.0,61.0,87.18,20.0,3.0,30.01,10.0,64.9
2021-08-23 03:00:00,65.0,61.0,87.18,0.0,0.0,30.0,10.0,64.9
2021-08-23 04:00:00,64.0,61.0,89.97,0.0,0.0,30.01,10.0,64.0
2021-08-23 05:00:00,63.0,60.0,90.25,0.0,0.0,30.01,8.0,63.0
2021-08-23 06:00:00,62.0,59.0,89.57,0.0,0.0,30.0,7.0,62.1
2021-08-23 07:00:00,61.0,59.0,93.12,270.0,3.0,30.0,7.0,61.0
2021-08-23 08:00:00,60.0,58.0,92.43,0.0,0.0,30.0,5.0,60.1
2021-08-23 09:00:00,60.0,59.0,96.15,0.0,0.0,30.0,6.0,60.1
2021-08-23 10:00:00,60.0,58.0,92.43,350.0,3.0,30.01,6.0,60.1
2021-08-23 11:00:00,62.0,60.0,93.16,260.0,3.0,30.01,6.0,62.1
2021-08-23 12:00:00,70.0,65.0,83.86,200.0,5.0,30.01,10.0,70.0
2021-08-23 13:00:00,75.0,68.0,78.86,230.0,8.0,30.0,10.0,75.0
2021-08-23 14:00:00,76.0,68.0,76.53,240.0,9.0,30.0,10.0,75.9
2021-08-23 15:00:00,77.0,67.0,71.03,230.0,7.0,29.99,10.0,77.0
2021-08-23 16:00:00,80.0,67.0,64.14,140.0,4.0,29.95,10.0,82.4
2021-08-23 17:00:00,84.0,66.0,54.77,180.0,6.0,29.93,10.0,86.2
2021-08-23 18:00:00,88.0,66.0,48.2,0.0,0.0,29.95,10.0,90.41
2021-08-23 19:00:00,88.0,68.0,51.65,160.0,4.0,29.94,10.0,91.65
2021-08-23 20:00:00,86.0,67.0,52.99,230.0,8.0,29.95,10.0,88.77
2021-08-23 21:00:00,88.0,67.0,49.73,250.0,8.0,29.94,10.0,90.95
2021-08-23 22:00:00,86.0,67.0,52.99,230.0,7.0,29.93,10.0,88.77
2021-08-23 23:00:00,84.0,68.0,58.69,220.0,4.0,29.93,10.0,87.18
2021-08-24 00:00:00,84.0,68.0,58.69,220.0,4.0,29.93,10.0,87.18
2021-08-24 01:00:00,79.0,69.0,71.72,220.0,3.0,29.95,10.0,79.0
2021-08-24 02:00:00,74.0,69.0,84.97,240.0,3.0,29.96,10.0,73.9
2021-08-24 03:00:00,75.0,69.0,81.9,0.0,0.0,29.96,10.0,75.0
2021-08-24 04:00:00,76.0,69.0,79.47,200.0,3.0,29.96,10.0,75.9
2021-08-24 05:00:00,72.0,69.0,90.59,0.0,0.0,29.97,10.0,72.0
2021-08-24 06:00:00,73.0,70.0,90.32,0.0,0.0,29.96,10.0,73.0
2021-08-24 07:00:00,73.0,70.0,90.32,0.0,0.0,29.96,10.0,73.0
2021-08-24 08:00:00,73.0,70.0,90.32,0.0,0.0,29.96,10.0,73.0
2021-08-24 09:00:00,72.0,69.0,90.59,0.0,0.0,29.96,8.0,72.0
2021-08-24 10:00:00,72.0,70.0,93.43,0.0,0.0,29.97,6.0,72.0
2021-08-24 11:00:00,73.0,70.0,90.32,0.0,0.0,29.97,6.0,73.0
2021-08-24 12:00:00,79.0,73.0,81.89,190.0,5.0,29.97,8.0,79.0
2021-08-24 13:00:00,82.0,74.0,76.53,230.0,3.0,29.98,10.0,87.93
2021-08-24 14:00:00,86.0,74.0,67.27,210.0,6.0,29.98,10.0,93.91
2021-08-24 15:00:00,89.0,75.0,63.26,200.0,6.0,29.97,10.0,99.32
2021-08-24 16:00:00,92.0,75.0,57.93,190.0,10.0,29.96,10.0,103.06
2021-08-24 17:00:00,94.0,75.0,54.44,220.0,10.0,29.94,10.0,105.68
2021-08-24 18:00:00,96.8,73.4,47.19,240.0,13.0,29.96,10.0,107.45
2021-08-24 19:00:00,96.8,73.4,47.19,240.0,13.0,29.96,10.0,107.45
2021-08-24 20:00:00,71.6,69.8,94.06,30.0,17.0,29.96,3.0,71.6
2021-08-24 21:00:00,71.6,69.8,94.06,20.0,7.0,29.96,1.0,71.6
2021-08-24 22:00:00,73.4,69.8,88.51,130.0,5.0,29.94,10.0,73.4
2021-08-24 23:00:00,75.2,71.6,88.59,150.0,5.0,29.94,10.0,75.2
2021-08-25 00:00:00,75.2,71.6,88.59,150.0,4.0,29.92,8.0,75.2
2021-08-25 01:00:00,75.2,69.8,83.32,0.0,0.0,29.91,10.0,75.2
2021-08-25 02:00:00,75.2,69.8,83.32,0.0,0.0,29.91,10.0,75.2
2021-08-25 03:00:00,75.2,69.8,83.32,0.0,0.0,29.91,10.0,75.2
2021-08-25 04:00:00,75.2,69.8,83.32,0.0,0.0,29.91,10.0,75.2
2021-08-25 05:00:00,75.2,69.8,83.32,0.0,0.0,29.91,10.0,75.2
2021-08-25 06:00:00,75.2,69.8,83.32,0.0,0.0,29.91,10.0,75.2
2021-08-25 07:00:00,75.2,69.8,83.32,0.0,0.0,29.91,10.0,75.2
2021-08-25 08:00:00,75.2,69.8,83.32,0.0,0.0,29.91,10.0,75.2
2021-08-25 09:00:00,75.2,69.8,83.32,0.0,0.0,29.91,10.0,75.2
2021-08-25 10:00:00,75.2,69.8,83.32,0.0,0.0,29.91,10.0,75.2
2021-08-25 11:00:00,71.6,69.8,94.06,240.0,4.0,30.03,10.0,71.6
2021-08-25 12:00:00,75.2,71.6,88.59,240.0,4.0,30.06,10.0,75.2
2021-08-25 13:00:00,75.2,71.6,88.59,240.0,4.0,30.06,10.0,75.2
2021-08-25 14:00:00,80.6,73.4,78.76,250.0,10.0,30.07,10.0,85.32
2021-08-25 15:00:00,86.0,73.4,66.15,270.0,10.0,20.08,10.0,93.45
2021-08-25 16:00:00,87.8,73.4,62.47,290.0,7.0,30.08,10.0,95.86
2021-08-25 17:00:00,89.6,71.6,55.53,290.0,5.0,30.06,10.0,96.41
2021-08-25 18:00:00,89.6,71.6,55.53,290.0,5.0,30.06,10.0,96.41
2021-08-25 19:00:00,89.6,71.6,55.53,290.0,5.0,30.06,10.0,96.41
2021-08-25 20:00:00,91.4,71.6,52.48,0.0,0.0,30.05,10.0,98.64
2021-08-25 21:00:00,89.6,71.6,55.53,230.0,3.0,30.05,10.0,96.41
2021-08-25 22:00:00,86.0,73.4,66.15,240.0,6.0,30.05,10.0,93.45
2021-08-25 23:00:00,86.0,73.4,66.15,240.0,6.0,30.05,10.0,93.45
2021-08-26 00:00:00,78.8,71.6,78.62,250.0,5.0,30.07,10.0,78.8
2021-08-26 01:00:00,78.8,71.6,78.62,250.0,5.0,30.07,10.0,78.8
2021-08-26 02:00:00,78.8,71.6,78.62,250.0,5.0,30.07,10.0,78.8
2021-08-26 03:00:00,78.8,71.6,78.62,250.0,5.0,30.07,10.0,78.8
2021-08-26 04:00:00,78.8,71.6,78.62,250.0,5.0,30.07,10.0,78.8
2021-08-26 05:00:00,78.8,71.6,78.62,250.0,5.0,30.07,10.0,78.8
2021-08-26 06:00:00,78.8,71.6,78.62,250.0,5.0,30.07,10.0,78.8
2021-08-26 07:00:00,78.8,71.6,78.62,250.0,5.0,30.07,10.0,78.8
2021-08-26 08:00:00,78.8,71.6,78.62,250.0,5.0,30.07,10.0,78.8
2021-08-26 09:00:00,78.8,71.6,78.62,250.0,5.0,30.07,10.0,78.8
2021-08-26 10:00:00,78.8,71.6,78.62,250.0,5.0,30.07,10.0,78.8
2021-08-26 11:00:00,71.6,69.8,94.06,230.0,4.0,30.15,10.0,71.6
2021-08-26 12:00:00,71.6,69.8,94.06,230.0,3.0,30.16,10.0,71.6
2021-08-26 13:00:00,78.8,71.6,78.62,0.0,0.0,30.16,10.0,78.8
2021-08-26 14:00:00,80.6,73.4,78.76,100.0,6.0,30.15,10.0,85.32
2021-08-26 15:00:00,84.2,69.8,62.03,100.0,8.0,30.16,10.0,88.43
2021-08-26 16:00:00,84.2,69.8,62.03,100.0,6.0,30.16,10.0,88.43
2021-08-26 17:00:00,80.6,71.6,74.11,100.0,10.0,30.14,10.0,84.57
2021-08-26 18:00:00,84.0,72.0,67.28,90.0,5.0,30.13,10.0,89.62
2021-08-26 19:00:00,84.0,73.0,69.59,80.0,5.0,30.14,10.0,90.34
2021-08-26 20:00:00,83.0,72.0,69.71,60.0,6.0,30.13,10.0,88.11
2021-08-26 21:00:00,83.0,71.0,67.62,80.0,9.0,30.13,10.0,87.57
2021-08-26 22:00:00,80.0,70.0,71.35,90.0,8.0,30.11,10.0,83.28
2021-08-26 23:00:00,78.0,71.0,79.1,60.0,6.0,30.09,10.0,78.1
2021-08-27 00:00:00,76.0,70.0,81.96,90.0,7.0,30.08,10.0,75.9
2021-08-27 01:00:00,76.0,71.0,85.09,110.0,5.0,30.07,10.0,75.9
2021-08-27 02:00:00,73.0,70.0,90.32,50.0,5.0,30.09,10.0,73.0
2021-08-27 03:00:00,74.0,71.0,90.97,350.0,3.0,30.12,10.0,73.9
2021-08-27 04:00:00,74.0,71.0,90.97,80.0,3.0,30.12,8.0,73.9
2021-08-27 05:00:00,72.0,70.0,93.43,100.0,4.0,30.09,8.0,72.0
2021-08-27 06:00:00,75.0,72.0,90.4,110.0,6.0,30.04,10.0,75.0
2021-08-27 07:00:00,76.0,74.0,93.53,90.0,5.0,30.03,7.0,75.9
2021-08-27 08:00:00,76.0,73.0,90.74,100.0,3.0,30.04,8.0,75.9
2021-08-27 09:00:00,72.0,71.0,96.99,0.0,0.0,30.05,0.25,72.0
2021-08-27 10:00:00,73.0,71.0,93.77,90.0,3.0,30.04,3.0,73.0
2021-08-27 11:00:00,74.0,72.0,93.79,0.0,0.0,30.07,4.0,73.9
2021-08-27 12:00:00,77.0,73.0,87.48,0.0,0.0,30.07,7.0,77.0
2021-08-27 13:00:00,79.0,73.0,81.89,250.0,6.0,30.06,10.0,79.0
2021-08-27 14:00:00,81.0,72.0,74.15,220.0,6.0,30.06,10.0,85.35
2021-08-27 15:00:00,84.0,72.0,67.28,220.0,3.0,30.07,10.0,89.62
2021-08-27 16:00:00,85.0,73.0,67.61,140.0,4.0,30.06,10.0,91.6
2021-08-27 17:00:00,85.0,74.0,69.69,110.0,11.0,30.05,10.0,92.36
2021-08-27 18:00:00,84.0,74.0,71.73,130.0,8.0,30.05,10.0,91.04
2021-08-27 19:00:00,86.0,73.0,65.27,110.0,8.0,30.03,10.0,93.09
2021-08-27 20:00:00,87.0,73.0,63.02,130.0,9.0,30.01,10.0,94.55
2021-08-27 21:00:00,85.0,70.0,61.06,130.0,11.0,29.99,10.0,89.4
2021-08-27 22:00:00,85.0,70.0,61.06,130.0,8.0,30.01,10.0,89.4
2021-08-27 23:00:00,83.0,72.0,69.71,130.0,9.0,30.0,10.0,88.11
2021-08-28 00:00:00,81.0,73.0,76.7,150.0,9.0,30.0,10.0,85.81
2021-08-28 01:00:00,81.0,73.0,76.7,180.0,6.0,30.02,10.0,85.81
2021-08-28 02:00:00,80.0,74.0,81.42,180.0,7.0,30.01,10.0,84.64
2021-08-28 03:00:00,80.0,73.0,78.99,190.0,4.0,30.02,10.0,84.3
2021-08-28 04:00:00,79.0,73.0,81.89,180.0,6.0,30.02,10.0,79.0
2021-08-28 05:00:00,79.0,74.0,84.41,200.0,3.0,30.02,10.0,79.0
2021-08-28 06:00:00,76.0,73.0,90.74,0.0,0.0,30.04,8.0,75.9
2021-08-28 07:00:00,80.0,74.0,81.42,220.0,7.0,30.04,9.0,84.64
2021-08-28 08:00:00,78.0,73.0,84.36,220.0,5.0,30.05,9.0,78.1
2021-08-28 09:00:00,78.0,72.0,81.55,210.0,7.0,30.05,9.0,78.1
2021-08-28 10:00:00,78.0,72.0,81.55,220.0,5.0,30.06,10.0,78.1
2021-08-28 11:00:00,77.0,72.0,84.58,240.0,6.0,30.08,8.0,77.0
2021-08-28 12:00:00,78.0,73.0,84.36,200.0,8.0,30.06,8.0,78.1
2021-08-28 13:00:00,80.0,73.0,78.99,200.0,9.0,30.05,9.0,84.3
2021-08-28 14:00:00,84.0,73.0,69.59,210.0,10.0,30.05,10.0,90.34
2021-08-28 15:00:00,88.0,74.0,63.12,220.0,7.0,30.07,10.0,96.63
2021-08-28 16:00:00,91.0,75.0,59.59,250.0,9.0,30.07,10.0,101.87
2021-08-28 17:00:00,92.0,75.0,57.93,260.0,10.0,30.06,10.0,103.06
2021-08-28 18:00:00,93.0,74.0,53.96,240.0,9.0,30.05,10.0,103.15
2021-08-28 19:00:00,94.0,72.0,49.22,240.0,13.0,30.04,10.0,102.17
2021-08-28 20:00:00,92.0,73.0,54.17,240.0,10.0,30.03,10.0,100.71
2021-08-28 21:00:00,89.0,74.0,60.97,260.0,7.0,30.03,10.0,98.09
2021-08-28 22:00:00,84.0,74.0,71.73,260.0,3.0,30.04,10.0,91.04
2021-08-28 23:00:00,84.0,72.0,67.28,0.0,0.0,30.03,10.0,89.62
2021-08-29 00:00:00,80.0,73.0,78.99,320.0,4.0,30.05,10.0,84.3
2021-08-29 01:00:00,80.0,72.0,76.36,100.0,7.0,30.05,10.0,83.94
2021-08-29 02:00:00,80.0,72.0,76.36,200.0,6.0,30.03,10.0,83.94
2021-08-29 03:00:00,80.0,73.0,78.99,200.0,6.0,30.03,10.0,84.3
2021-08-29 04:00:00,81.0,73.0,76.7,220.0,5.0,30.03,10.0,85.81
2021-08-29 05:00:00,79.0,72.0,79.17,220.0,6.0,30.04,10.0,79.0
2021-08-29 06:00:00,78.0,72.0,81.55,220.0,4.0,30.05,10.0,78.1
2021-08-29 07:00:00,78.0,71.0,79.1,200.0,5.0,30.03,10.0,78.1
2021-08-29 08:00:00,77.0,71.0,82.03,210.0,4.0,30.04,10.0,77.0
2021-08-29 09:00:00,77.0,71.0,82.03,200.0,6.0,30.02,10.0,77.0
2021-08-29 10:00:00,77.0,71.0,82.03,200.0,6.0,30.01,10.0,77.0
2021-08-29 11:00:00,78.0,71.0,79.1,210.0,8.0,30.01,10.0,78.1
2021-08-29 12:00:00,80.0,72.0,76.36,220.0,8.0,30.0,10.0,83.94
2021-08-29 13:00:00,81.0,72.0,74.15,220.0,10.0,29.99,10.0,85.35
2021-08-29 14:00:00,82.0,70.0,67.06,210.0,15.0,29.96,10.0,85.81
2021-08-29 15:00:00,85.0,72.0,65.36,220.0,15.0,29.94,10.0,90.82
2021-08-29 16:00:00,87.0,73.0,63.02,240.0,14.0,29.95,10.0,94.55
2021-08-29 17:00:00,89.0,73.0,59.15,240.0,17.0,29.95,10.0,97.14
2021-08-29 18:00:00,75.0,70.0,84.46,230.0,9.0,29.97,10.0,75.0
2021-08-29 19:00:00,81.0,73.0,76.7,250.0,9.0,29.95,10.0,85.81
2021-08-29 20:00:00,85.0,74.0,69.69,250.0,10.0,29.93,10.0,92.36
2021-08-29 21:00:00,87.0,72.0,60.92,260.0,9.0,29.91,10.0,93.65
2021-08-29 22:00:00,85.0,69.0,59.21,260.0,11.0,29.92,10.0,88.83
2021-08-29 23:00:00,82.0,69.0,65.03,280.0,6.0,29.93,10.0,85.39
2021-08-30 00:00:00,76.0,66.0,71.41,270.0,4.0,29.95,10.0,75.9
2021-08-30 01:00:00,73.0,64.0,73.4,280.0,4.0,29.98,10.0,73.0
2021-08-30 02:00:00,70.0,63.0,78.46,280.0,5.0,29.98,10.0,70.0
2021-08-30 03:00:00,69.0,62.0,78.39,290.0,4.0,29.99,10.0,69.1
2021-08-30 04:00:00,67.0,60.0,78.77,260.0,3.0,30.0,10.0,66.9
2021-08-30 05:00:00,64.0,60.0,87.14,240.0,5.0,30.02,10.0,64.0
2021-08-30 06:00:00,66.0,61.0,83.91,250.0,3.0,30.01,10.0,66.0
2021-08-30 07:00:00,63.0,61.0,93.18,240.0,4.0,30.0,10.0,63.0
2021-08-30 08:00:00,63.0,60.0,90.25,270.0,3.0,30.0,10.0,63.0
2021-08-30 09:00:00,62.0,59.0,89.57,290.0,4.0,30.01,10.0,62.1
2021-08-30 10:00:00,62.0,58.0,86.11,240.0,3.0,30.01,10.0,62.1
2021-08-30 11:00:00,60.0,59.0,96.15,260.0,3.0,30.02,8.0,60.1
2021-08-30 12:00:00,68.0,63.0,84.03,280.0,4.0,30.01,10.0,68.0
2021-08-30 13:00:00,73.0,63.0,70.87,310.0,5.0,30.01,10.0,73.0
2021-08-30 14:00:00,77.0,64.0,64.21,290.0,3.0,30.01,10.0,77.0
2021-08-30 15:00:00,80.0,60.0,50.52,290.0,5.0,30.0,10.0,80.94
2021-08-30 16:00:00,82.0,59.0,45.66,0.0,0.0,29.99,10.0,82.15
2021-08-30 17:00:00,82.0,57.0,42.49,0.0,0.0,29.97,10.0,81.75
2021-08-30 18:00:00,84.0,57.0,39.83,300.0,5.0,29.94,10.0,83.26
2021-08-30 19:00:00,82.0,59.0,45.66,70.0,8.0,29.91,10.0,82.15
2021-08-30 20:00:00,81.0,59.0,47.17,90.0,11.0,29.92,10.0,81.4
2021-08-30 21:00:00,80.0,57.0,45.21,110.0,9.0,29.92,10.0,80.45
2021-08-30 22:00:00,78.0,57.0,48.28,140.0,10.0,29.92,10.0,78.1
2021-08-30 23:00:00,76.0,59.0,55.8,130.0,6.0,29.92,10.0,75.9
2021-08-31 00:00:00,74.0,59.0,59.66,150.0,4.0,29.92,10.0,73.9
2021-08-31 01:00:00,73.0,60.0,63.96,150.0,3.0,29.93,10.0,73.0
2021-08-31 02:00:00,67.0,60.0,78.77,0.0,0.0,29.94,10.0,66.9
2021-08-31 03:00:00,64.0,60.0,87.14,0.0,0.0,29.91,10.0,64.0
2021-08-31 04:00:00,64.0,60.0,87.14,0.0,0.0,29.91,10.0,64.0
2021-08-31 05:00:00,63.0,59.0,86.77,0.0,0.0,29.9,10.0,63.0
2021-08-31 06:00:00,62.0,59.0,89.57,0.0,0.0,29.89,10.0,62.1
2021-08-31 07:00:00,62.0,59.0,89.57,300.0,3.0,29.88,10.0,62.1
2021-08-31 08:00:00,60.0,57.0,89.48,0.0,0.0,29.86,10.0,60.1
2021-08-31 09:00:00,61.0,58.0,89.52,0.0,0.0,29.86,10.0,61.0
2021-08-31 10:00:00,60.0,58.0,92.43,0.0,0.0,29.87,2.5,60.1
2021-08-31 11:00:00,62.0,59.0,89.57,0.0,0.0,29.88,8.0,62.1
2021-08-31 12:00:00,67.0,62.0,84.56,0.0,0.0,29.88,9.0,66.9
2021-08-31 13:00:00,72.0,63.0,73.31,20.0,3.0,29.89,10.0,72.0
2021-08-31 14:00:00,78.0,64.0,61.92,50.0,5.0,29.89,10.0,78.1
2021-08-31 15:00:00,81.0,58.0,45.34,50.0,3.0,29.89,10.0,81.2
2021-08-31 16:00:00,79.0,57.0,46.87,70.0,8.0,29.89,10.0,79.0
2021-08-31 17:00:00,79.0,58.0,48.41,80.0,7.0,29.88,10.0,79.0
2021-08-31 18:00:00,77.0,63.0,62.0,60.0,9.0,29.87,10.0,77.0
2021-08-31 19:00:00,75.0,64.0,68.64,60.0,10.0,29.86,10.0,75.0
2021-08-31 20:00:00,75.0,64.0,68.64,40.0,7.0,29.85,10.0,75.0
2021-08-31 21:00:00,75.0,66.0,73.59,50.0,12.0,29.85,10.0,75.0
2021-08-31 22:00:00,73.0,65.0,75.75,40.0,11.0,29.86,10.0,73.0
2021-08-31 23:00:00,72.0,62.0,71.02,30.0,7.0,29.86,10.0,72.0
2021-09-01 00:00:00,71.0,61.0,70.42,30.0,8.0,29.87,10.0,71.1
2021-09-01 01:00:00,71.0,60.0,68.21,40.0,9.0,29.88,10.0,71.1
2021-09-01 02:00:00,70.0,61.0,73.11,20.0,6.0,29.9,10.0,70.0
2021-09-01 03:00:00,68.0,61.0,78.3,30.0,6.0,29.9,10.0,68.0
2021-09-01 04:00:00,67.0,61.0,81.33,360.0,5.0,29.89,10.0,66.9
2021-09-01 05:00:00,66.0,61.0,83.91,360.0,5.0,29.89,10.0,66.0
2021-09-01 06:00:00,65.0,60.0,84.44,10.0,5.0,29.9,10.0,64.9
2021-09-01 07:00:00,66.0,60.0,81.27,10.0,5.0,29.9,10.0,66.0
2021-09-01 08:00:00,64.0,59.0,83.78,340.0,4.0,29.91,10.0,64.0
2021-09-01 09:00:00,63.0,58.0,83.42,330.0,4.0,29.91,10.0,63.0
2021-09-01 10:00:00,62.0,58.0,86.11,350.0,6.0,29.93,10.0,62.1
2021-09-01 11:00:00,63.0,59.0,86.77,340.0,5.0,29.96,10.0,63.0
2021-09-01 12:00:00,65.0,60.0,84.44,350.0,6.0,29.98,10.0,64.9
2021-09-01 13:00:00,72.0,63.0,73.31,10.0,4.0,29.98,10.0,72.0
2021-09-01 14:00:00,72.0,59.0,63.61,80.0,14.0,30.0,10.0,72.0
2021-09-01 15:00:00,74.0,59.0,59.66,50.0,12.0,30.01,10.0,73.9
2021-09-01 16:00:00,72.0,58.0,61.15,70.0,9.0,30.02,10.0,72.0
2021-09-01 17:00:00,76.0,57.0,51.93,60.0,12.0,30.02,10.0,75.9
2021-09-01 18:00:00,77.0,57.0,50.07,40.0,7.0,30.02,10.0,77.0
2021-09-01 19:00:00,76.0,56.0,49.91,40.0,10.0,30.02,10.0,75.9
2021-09-01 20:00:00,76.0,55.0,48.3,30.0,9.0,30.02,10.0,75.9
2021-09-01 21:00:00,74.0,54.0,49.79,40.0,9.0,30.03,10.0,73.9
2021-09-01 22:00:00,73.0,53.0,49.66,30.0,8.0,30.03,10.0,73.0
2021-09-01 23:00:00,70.0,51.0,51.07,20.0,6.0,30.04,10.0,70.0
2021-09-02 00:00:00,65.0,53.0,65.56,360.0,5.0,30.04,10.0,64.9
2021-09-02 01:00:00,64.0,55.0,72.52,360.0,4.0,30.05,10.0,64.0
2021-09-02 02:00:00,63.0,56.0,77.61,350.0,5.0,30.06,10.0,63.0
2021-09-02 03:00:00,63.0,56.0,77.61,350.0,5.0,30.07,10.0,63.0
2021-09-02 04:00:00,62.0,55.0,77.53,350.0,5.0,30.07,10.0,62.1
2021-09-02 05:00:00,62.0,55.0,77.53,350.0,5.0,30.07,10.0,62.1
2021-09-02 06:00:00,59.0,54.0,83.46,340.0,3.0,30.07,10.0,59.0
2021-09-02 07:00:00,61.0,56.0,83.29,330.0,4.0,30.09,10.0,61.0
2021-09-02 08:00:00,58.0,54.0,86.82,320.0,3.0,30.11,10.0,57.9
2021-09-02 09:00:00,57.0,53.0,86.77,0.0,0.0,30.1,10.0,57.0
2021-09-02 10:00:00,57.0,53.0,86.77,340.0,3.0,30.12,10.0,57.0
2021-09-02 11:00:00,56.0,52.0,86.71,0.0,0.0,30.14,10.0,55.9
2021-09-02 12:00:00,66.0,56.0,69.88,340.0,3.0,30.15,10.0,66.0
2021-09-02 13:00:00,72.0,60.0,66.16,30.0,5.0,30.14,10.0,72.0
2021-09-02 14:00:00,74.0,59.0,59.66,80.0,3.0,30.15,10.0,73.9
2021-09-02 15:00:00,75.0,60.0,59.81,80.0,3.0,30.15,10.0,75.0
2021-09-02 16:00:00,75.0,60.0,59.81,90.0,7.0,30.15,10.0,75.0
2021-09-02 17:00:00,76.0,60.0,58.04,110.0,10.0,30.15,10.0,75.9
2021-09-02 18:00:00,74.0,59.0,59.66,110.0,9.0,30.15,10.0,73.9
2021-09-02 19:00:00,76.0,59.0,55.8,120.0,6.0,30.13,10.0,75.9
2021-09-02 20:00:00,75.0,58.0,55.28,120.0,7.0,30.13,10.0,75.0
2021-09-02 21:00:00,74.0,57.0,55.53,120.0,11.0,30.13,10.0,73.9
2021-09-02 22:00:00,73.0,58.0,59.12,100.0,10.0,30.13,10.0,73.0
2021-09-02 23:00:00,71.0,56.0,58.65,120.0,6.0,30.14,10.0,71.1
2021-09-03 00:00:00,69.0,57.0,65.35,100.0,7.0,30.13,10.0,69.1
2021-09-03 01:00:00,68.0,56.0,65.22,0.0,0.0,30.14,10.0,68.0
2021-09-03 02:00:00,65.0,56.0,72.61,80.0,4.0,30.13,10.0,64.9
2021-09-03 03:00:00,65.0,56.0,72.61,140.0,4.0,30.12,10.0,64.9
2021-09-03 04:00:00,64.0,57.0,77.97,0.0,0.0,30.12,10.0,64.0
2021-09-03 05:00:00,62.0,57.0,83.36,0.0,0.0,30.12,10.0,62.1
2021-09-03 06:00:00,61.0,57.0,86.67,0.0,0.0,30.11,10.0,61.0
2021-09-03 07:00:00,60.0,56.0,85.99,0.0,0.0,30.12,10.0,60.1
2021-09-03 08:00:00,61.0,57.0,86.67,0.0,0.0,30.1,10.0,61.0
2021-09-03 09:00:00,58.0,55.0,90.04,0.0,0.0,30.1,10.0,57.9
2021-09-03 10:00:00,57.0,55.0,93.01,0.0,0.0,30.1,10.0,57.0
2021-09-03 11:00:00,57.0,55.0,93.01,0.0,0.0,30.12,10.0,57.0
2021-09-03 12:00:00,66.0,60.0,81.27,200.0,3.0,30.12,10.0,66.0
2021-09-03 13:00:00,73.0,58.0,59.12,190.0,5.0,30.12,10.0,73.0
2021-09-03 14:00:00,75.0,54.0,47.99,190.0,8.0,30.12,10.0,75.0
2021-09-03 15:00:00,75.0,52.0,44.59,170.0,9.0,30.11,10.0,75.0
2021-09-03 16:00:00,75.0,56.0,51.43,150.0,9.0,30.11,10.0,75.0
2021-09-03 17:00:00,75.0,55.0,49.78,140.0,9.0,30.1,10.0,75.0
2021-09-03 18:00:00,73.0,59.0,61.5,150.0,8.0,30.09,10.0,73.0
2021-09-03 19:00:00,71.0,62.0,73.22,140.0,7.0,30.07,10.0,71.1
2021-09-03 20:00:00,73.0,63.0,70.87,150.0,7.0,30.04,10.0,73.0
2021-09-03 21:00:00,72.0,60.0,66.16,150.0,8.0,30.02,10.0,72.0
2021-09-03 22:00:00,72.0,60.0,66.16,150.0,10.0,30.01,10.0,72.0
2021-09-03 23:00:00,70.0,62.0,76.01,120.0,5.0,30.01,10.0,70.0
2021-09-04 00:00:00,70.0,61.0,73.11,140.0,7.0,30.02,10.0,70.0
2021-09-04 01:00:00,71.0,60.0,68.21,140.0,8.0,30.03,10.0,71.1
2021-09-04 02:00:00,72.0,60.0,66.16,150.0,10.0,30.01,10.0,72.0
2021-09-04 03:00:00,72.0,59.0,63.61,160.0,9.0,30.01,10.0,72.0
2021-09-04 04:00:00,71.0,58.0,63.05,160.0,8.0,30.0,10.0,71.1
2021-09-04 05:00:00,70.0,57.0,63.37,150.0,9.0,29.99,10.0,70.0
2021-09-04 06:00:00,68.0,60.0,75.84,120.0,3.0,29.97,10.0,68.0
2021-09-04 07:00:00,69.0,60.0,73.03,140.0,4.0,29.94,10.0,69.1
2021-09-04 08:00:00,70.0,60.0,70.81,160.0,8.0,29.93,10.0,70.0
2021-09-04 09:00:00,71.0,57.0,61.04,170.0,8.0,29.92,10.0,71.1
2021-09-04 10:00:00,70.0,57.0,63.37,180.0,5.0,29.93,10.0,70.0
2021-09-04 11:00:00,69.0,58.0,67.5,180.0,4.0,29.91,10.0,69.1
2021-09-04 12:00:00,66.0,61.0,83.91,160.0,4.0,29.9,10.0,66.0
2021-09-04 13:00:00,69.0,61.0,75.4,170.0,6.0,29.89,10.0,69.1
2021-09-04 14:00:00,72.0,62.0,71.02,210.0,9.0,29.89,10.0,72.0
2021-09-04 15:00:00,73.0,63.0,70.87,210.0,8.0,29.88,10.0,73.0
2021-09-04 16:00:00,74.0,64.0,71.21,250.0,7.0,29.87,10.0,73.9
2021-09-04 17:00:00,75.0,65.0,70.83,250.0,10.0,29.87,10.0,75.0
2021-09-04 18:00:00,76.0,66.0,71.41,250.0,11.0,29.85,10.0,75.9
2021-09-04 19:00:00,76.0,66.0,71.41,270.0,6.0,29.83,10.0,75.9
2021-09-04 20:00:00,74.0,65.0,73.49,310.0,10.0,29.83,10.0,73.9
2021-09-04 21:00:00,72.0,65.0,78.35,290.0,7.0,29.83,10.0,72.0
2021-09-04 22:00:00,68.0,65.0,89.81,300.0,5.0,29.84,8.0,68.0
2021-09-04 23:00:00,69.0,64.0,83.81,300.0,5.0,29.85,10.0,69.1
2021-09-05 00:00:00,69.0,60.0,73.03,330.0,9.0,29.87,10.0,69.1
2021-09-05 01:00:00,67.0,59.0,75.74,310.0,5.0,29.88,10.0,66.9
2021-09-05 02:00:00,61.0,58.0,89.52,280.0,4.0,29.88,10.0,61.0
2021-09-05 03:00:00,58.0,56.0,93.04,270.0,4.0,29.88,10.0,57.9
2021-09-05 04:00:00,60.0,57.0,89.48,270.0,5.0,29.88,10.0,60.1
2021-09-05 05:00:00,60.0,57.0,89.48,270.0,5.0,29.88,10.0,60.1
2021-09-05 06:00:00,59.0,56.0,89.44,260.0,5.0,29.87,10.0,59.0
2021-09-05 07:00:00,59.0,55.0,86.56,230.0,6.0,29.86,10.0,59.0
2021-09-05 08:00:00,58.0,55.0,90.04,260.0,6.0,29.86,10.0,57.9
2021-09-05 09:00:00,58.0,55.0,90.04,270.0,6.0,29.86,10.0,57.9
2021-09-05 10:00:00,59.0,55.0,86.56,270.0,5.0,29.87,10.0,59.0
2021-09-05 11:00:00,57.0,54.0,89.68,270.0,4.0,29.88,10.0,57.0
2021-09-05 12:00:00,63.0,57.0,80.76,270.0,8.0,29.89,10.0,63.0
2021-09-05 13:00:00,67.0,58.0,72.81,260.0,8.0,29.9,10.0,66.9
2021-09-05 14:00:00,73.0,58.0,59.12,250.0,7.0,29.91,10.0,73.0
2021-09-05 15:00:00,77.0,54.0,44.9,260.0,11.0,29.91,10.0,77.0
2021-09-05 16:00:00,80.0,53.0,39.23,270.0,11.0,29.9,10.0,79.94
2021-09-05 17:00:00,82.0,53.0,36.87,280.0,13.0,29.88,10.0,81.11
2021-09-05 18:00:00,83.0,53.0,35.81,280.0,10.0,29.87,10.0,81.73
2021-09-05 19:00:00,82.0,52.0,35.41,290.0,10.0,29.85,10.0,80.97
2021-09-05 20:00:00,80.0,52.0,37.67,290.0,8.0,29.85,10.0,79.81
2021-09-05 21:00:00,82.0,52.0,35.41,260.0,12.0,29.84,10.0,80.97
2021-09-05 22:00:00,80.0,51.0,36.44,270.0,10.0,29.84,10.0,79.72
2021-09-05 23:00:00,76.0,53.0,45.06,260.0,9.0,29.84,10.0,75.9
2021-09-06 00:00:00,72.0,52.0,49.33,250.0,9.0,29.84,10.0,72.0
2021-09-06 01:00:00,68.0,52.0,56.55,250.0,8.0,29.85,10.0,68.0
2021-09-06 02:00:00,69.0,52.0,54.45,240.0,10.0,29.85,10.0,69.1
2021-09-06 03:00:00,67.0,52.0,58.74,260.0,10.0,29.86,10.0,66.9
2021-09-06 04:00:00,68.0,54.0,60.86,0.0,0.0,29.89,10.0,68.0
2021-09-06 05:00:00,64.0,58.0,80.54,270.0,4.0,29.9,10.0,64.0
2021-09-06 06:00:00,60.0,56.0,85.99,280.0,4.0,29.91,10.0,60.1
2021-09-06 07:00:00,60.0,56.0,85.99,310.0,3.0,29.91,10.0,60.1
2021-09-06 08:00:00,58.0,55.0,90.04,300.0,3.0,29.92,10.0,57.9
2021-09-06 09:00:00,56.0,54.0,93.32,300.0,3.0,29.93,10.0,55.9
2021-09-06 10:00:00,54.0,52.0,92.92,280.0,3.0,29.93,3.0,54.0
2021-09-06 11:00:00,54.0,53.0,96.76,310.0,3.0,29.95,10.0,54.0
2021-09-06 12:00:00,64.0,56.0,74.93,350.0,3.0,29.97,10.0,64.0
2021-09-06 13:00:00,68.0,53.0,58.88,20.0,4.0,29.98,10.0,68.0
2021-09-06 14:00:00,71.0,52.0,50.86,0.0,0.0,29.99,10.0,71.1
2021-09-06 15:00:00,74.0,52.0,46.27,170.0,3.0,29.98,10.0,73.9
2021-09-06 16:00:00,76.0,50.0,40.19,310.0,8.0,29.98,10.0,75.9
2021-09-06 17:00:00,78.0,51.0,38.92,280.0,10.0,29.96,10.0,78.1
2021-09-06 18:00:00,80.0,52.0,37.67,250.0,5.0,29.95,10.0,79.81
2021-09-06 19:00:00,80.0,52.0,37.67,250.0,5.0,29.93,10.0,79.81
2021-09-06 20:00:00,77.0,56.0,48.12,110.0,10.0,29.92,10.0,77.0
2021-09-06 21:00:00,76.0,56.0,49.91,140.0,11.0,29.91,10.0,75.9
2021-09-06 22:00:00,74.0,55.0,51.64,140.0,9.0,29.91,10.0,73.9
2021-09-06 23:00:00,71.0,56.0,58.65,130.0,7.0,29.9,10.0,71.1
2021-09-07 00:00:00,68.0,57.0,67.86,140.0,4.0,29.89,10.0,68.0
2021-09-07 01:00:00,67.0,57.0,70.49,150.0,5.0,29.9,10.0,66.9
2021-09-07 02:00:00,65.0,57.0,75.56,190.0,3.0,29.9,10.0,64.9
2021-09-07 03:00:00,64.0,58.0,80.54,190.0,5.0,29.9,10.0,64.0
2021-09-07 04:00:00,63.0,58.0,83.42,180.0,4.0,29.89,10.0,63.0
2021-09-07 05:00:00,64.0,58.0,80.54,180.0,4.0,29.87,10.0,64.0
2021-09-07 06:00:00,65.0,58.0,78.05,180.0,6.0,29.84,10.0,64.9
2021-09-07 07:00:00,64.0,56.0,74.93,190.0,6.0,29.83,10.0,64.0
2021-09-07 08:00:00,65.0,57.0,75.56,190.0,4.0,29.82,10.0,64.9
2021-09-07 09:00:00,63.0,57.0,80.76,190.0,6.0,29.8,10.0,63.0
2021-09-07 10:00:00,64.0,58.0,80.54,200.0,7.0,29.78,10.0,64.0
2021-09-07 11:00:00,69.0,63.0,80.92,220.0,7.0,29.77,10.0,69.1
2021-09-07 12:00:00,72.0,64.0,75.92,230.0,11.0,29.74,10.0,72.0
2021-09-07 13:00:00,76.0,65.0,68.73,230.0,15.0,29.73,10.0,75.9
2021-09-07 14:00:00,76.0,65.0,68.73,230.0,15.0,29.73,10.0,75.9
2021-09-07 15:00:00,81.0,64.0,56.3,210.0,16.0,29.65,10.0,82.54
2021-09-07 16:00:00,84.0,64.0,51.08,250.0,17.0,29.65,10.0,85.36
2021-09-07 17:00:00,81.0,64.0,56.3,290.0,14.0,29.69,10.0,82.54
2021-09-07 18:00:00,71.0,68.0,89.94,240.0,17.0,29.67,1.5,71.1
2021-09-07 19:00:00,69.0,65.0,86.48,210.0,4.0,29.66,10.0,69.1
2021-09-07 20:00:00,73.0,68.0,84.34,270.0,6.0,29.66,10.0,73.0
2021-09-07 21:00:00,79.0,66.0,64.45,330.0,8.0,29.67,10.0,79.0
2021-09-07 22:00:00,79.0,65.0,62.03,300.0,8.0,29.67,10.0,79.0
2021-09-07 23:00:00,76.0,57.0,51.93,300.0,9.0,29.7,10.0,75.9
2021-09-08 00:00:00,66.0,55.0,67.64,270.0,4.0,29.73,9.0,66.0
2021-09-08 01:00:00,64.0,56.0,74.93,270.0,5.0,29.75,10.0,64.0
2021-09-08 02:00:00,64.0,55.0,72.52,280.0,6.0,29.76,10.0,64.0
2021-09-08 03:00:00,64.0,54.0,69.92,280.0,6.0,29.77,10.0,64.0
2021-09-08 04:00:00,58.0,52.0,80.67,250.0,5.0,29.77,10.0,57.9
2021-09-08 05:00:00,57.0,52.0,83.33,250.0,6.0,29.76,10.0,57.0
2021-09-08 06:00:00,59.0,52.0,77.55,280.0,6.0,29.76,10.0,59.0
2021-09-08 07:00:00,59.0,52.0,77.55,280.0,6.0,29.77,10.0,59.0
2021-09-08 08:00:00,59.0,51.0,75.02,280.0,6.0,29.77,10.0,59.0
2021-09-08 09:00:00,56.0,51.0,83.88,280.0,5.0,29.77,10.0,55.9
2021-09-08 10:00:00,54.0,50.0,86.29,250.0,7.0,29.78,10.0,54.0
2021-09-08 11:00:00,56.0,51.0,83.88,270.0,6.0,29.79,10.0,55.9
2021-09-08 12:00:00,61.0,53.0,75.2,270.0,7.0,29.79,10.0,61.0
2021-09-08 13:00:00,67.0,52.0,58.74,280.0,12.0,29.79,10.0,66.9
2021-09-08 14:00:00,71.0,51.0,49.2,280.0,12.0,29.79,10.0,71.1
2021-09-08 15:00:00,74.0,51.0,44.76,280.0,12.0,29.8,10.0,73.9
2021-09-08 16:00:00,76.0,50.0,40.19,300.0,13.0,29.79,10.0,75.9
2021-09-08 17:00:00,77.0,51.0,40.36,280.0,14.0,29.79,10.0,77.0
2021-09-08 18:00:00,74.0,51.0,44.76,290.0,12.0,29.79,10.0,73.9
2021-09-08 19:00:00,74.0,50.0,42.97,290.0,11.0,29.8,10.0,73.9
2021-09-08 20:00:00,73.0,51.0,46.13,310.0,8.0,29.81,10.0,73.0
2021-09-08 21:00:00,73.0,50.0,44.29,310.0,14.0,29.83,10.0,73.0
2021-09-08 22:00:00,71.0,51.0,49.2,300.0,11.0,29.85,10.0,71.1
2021-09-08 23:00:00,70.0,51.0,51.07,310.0,6.0,29.86,10.0,70.0
2021-09-09 00:00:00,66.0,53.0,63.1,290.0,5.0,29.87,10.0,66.0
2021-09-09 01:00:00,64.0,53.0,67.66,300.0,5.0,29.89,10.0,64.0
2021-09-09 02:00:00,65.0,54.0,67.76,300.0,4.0,29.9,10.0,64.9
2021-09-09 03:00:00,62.0,53.0,72.33,300.0,4.0,29.91,10.0,62.1
2021-09-09 04:00:00,60.0,52.0,74.57,290.0,4.0,29.91,10.0,60.1
2021-09-09 05:00:00,58.0,52.0,80.67,290.0,4.0,29.92,10.0,57.9
2021-09-09 06:00:00,59.0,52.0,77.55,300.0,5.0,29.92,10.0,59.0
2021-09-09 07:00:00,59.0,52.0,77.55,300.0,6.0,29.93,10.0,59.0
2021-09-09 08:00:00,58.0,52.0,80.67,300.0,5.0,29.94,10.0,57.9
2021-09-09 09:00:00,55.0,51.0,86.66,310.0,4.0,29.95,10.0,55.0
2021-09-09 10:00:00,56.0,52.0,86.71,320.0,5.0,29.96,10.0,55.9
2021-09-09 11:00:00,54.0,51.0,89.88,300.0,4.0,29.99,10.0,54.0
2021-09-09 12:00:00,60.0,53.0,77.65,310.0,4.0,30.0,10.0,60.1
2021-09-09 13:00:00,64.0,54.0,69.92,310.0,3.0,30.02,10.0,64.0
2021-09-09 14:00:00,69.0,54.0,58.6,310.0,4.0,30.03,10.0,69.1
2021-09-09 15:00:00,72.0,50.0,45.81,0.0,0.0,30.03,10.0,72.0
2021-09-09 16:00:00,74.0,49.0,41.24,0.0,0.0,30.03,10.0,73.9
2021-09-09 17:00:00,76.0,49.0,38.57,50.0,3.0,30.02,10.0,75.9
2021-09-09 18:00:00,74.0,54.0,49.79,110.0,8.0,30.01,10.0,73.9
2021-09-09 19:00:00,73.0,54.0,51.33,130.0,8.0,30.0,10.0,73.0
2021-09-09 20:00:00,74.0,54.0,49.79,120.0,6.0,30.0,10.0,73.9
2021-09-09 21:00:00,71.0,53.0,52.96,110.0,7.0,30.0,10.0,71.1
2021-09-09 22:00:00,71.0,52.0,50.86,120.0,6.0,30.0,10.0,71.1
2021-09-09 23:00:00,68.0,52.0,56.55,150.0,5.0,30.01,10.0,68.0
2021-09-10 00:00:00,66.0,53.0,63.1,140.0,4.0,30.01,10.0,66.0
2021-09-10 01:00:00,65.0,53.0,65.56,160.0,4.0,30.03,10.0,64.9
2021-09-10 02:00:00,64.0,54.0,69.92,190.0,3.0,30.04,10.0,64.0
2021-09-10 03:00:00,59.0,53.0,80.75,0.0,0.0,30.04,10.0,59.0
2021-09-10 04:00:00,60.0,54.0,80.25,240.0,3.0,30.06,10.0,60.1
2021-09-10 05:00:00,58.0,53.0,84.0,0.0,0.0,30.06,10.0,57.9
2021-09-10 06:00:00,58.0,53.0,84.0,0.0,0.0,30.05,10.0,57.9
2021-09-10 07:00:00,56.0,52.0,86.71,0.0,0.0,30.05,10.0,55.9
2021-09-10 08:00:00,55.0,51.0,86.66,240.0,3.0,30.06,10.0,55.0
2021-09-10 09:00:00,54.0,52.0,92.92,250.0,3.0,30.06,10.0,54.0
2021-09-10 10:00:00,53.0,51.0,92.89,260.0,3.0,30.08,10.0,53.1
2021-09-10 11:00:00,56.0,52.0,86.71,250.0,3.0,30.09,10.0,55.9
2021-09-10 12:00:00,61.0,56.0,83.29,260.0,3.0,30.09,10.0,61.0
2021-09-10 13:00:00,68.0,58.0,70.1,290.0,4.0,30.1,10.0,68.0
2021-09-10 14:00:00,72.0,57.0,59.2,250.0,4.0,30.09,10.0,72.0
2021-09-10 15:00:00,75.0,55.0,49.78,260.0,7.0,30.09,10.0,75.0
2021-09-10 16:00:00,77.0,53.0,43.44,240.0,8.0,30.08,10.0,77.0
2021-09-10 17:00:00,80.0,54.0,40.54,220.0,9.0,30.06,10.0,80.04
2021-09-10 18:00:00,78.0,53.0,41.89,260.0,9.0,30.05,10.0,78.1
2021-09-10 19:00:00,81.0,53.0,38.09,230.0,9.0,30.03,10.0,80.47
2021-09-10 20:00:00,81.0,52.0,36.58,230.0,9.0,30.0,10.0,80.34
2021-09-10 21:00:00,77.0,56.0,48.12,140.0,12.0,29.98,10.0,77.0
2021-09-10 22:00:00,76.0,57.0,51.93,140.0,9.0,29.99,10.0,75.9
2021-09-10 23:00:00,73.0,58.0,59.12,150.0,6.0,29.99,10.0,73.0
2021-09-11 00:00:00,69.0,59.0,70.21,160.0,4.0,29.99,10.0,69.1
2021-09-11 01:00:00,67.0,59.0,75.74,190.0,3.0,29.99,10.0,66.9
2021-09-11 02:00:00,67.0,58.0,72.81,200.0,5.0,29.99,10.0,66.9
2021-09-11 03:00:00,66.0,55.0,67.64,180.0,5.0,29.98,10.0,66.0
2021-09-11 04:00:00,65.0,54.0,67.76,190.0,5.0,29.98,10.0,64.9
2021-09-11 05:00:00,64.0,54.0,69.92,190.0,4.0,29.98,10.0,64.0
2021-09-11 06:00:00,63.0,54.0,72.42,200.0,4.0,29.96,10.0,63.0
2021-09-11 07:00:00,63.0,54.0,72.42,210.0,5.0,29.94,10.0,63.0
2021-09-11 08:00:00,63.0,55.0,75.11,210.0,4.0,29.94,10.0,63.0
2021-09-11 09:00:00,61.0,55.0,80.61,0.0,0.0,29.93,10.0,61.0
2021-09-11 10:00:00,63.0,56.0,77.61,210.0,6.0,29.93,10.0,63.0
2021-09-11 11:00:00,62.0,57.0,83.36,230.0,6.0,29.94,10.0,62.1
2021-09-11 12:00:00,66.0,59.0,78.14,230.0,7.0,29.93,10.0,66.0
2021-09-11 13:00:00,70.0,61.0,73.11,230.0,6.0,29.93,10.0,70.0
2021-09-11 14:00:00,73.0,63.0,70.87,240.0,11.0,29.93,10.0,73.0
2021-09-11 15:00:00,77.0,64.0,64.21,230.0,6.0,29.93,10.0,77.0
2021-09-11 16:00:00,81.0,65.0,58.1,230.0,8.0,29.92,10.0,82.79
2021-09-11 17:00:00,83.0,65.0,54.62,210.0,9.0,29.89,10.0,84.64
2021-09-11 18:00:00,85.0,66.0,53.21,230.0,12.0,29.88,10.0,87.13
2021-09-11 19:00:00,86.0,67.0,52.99,210.0,12.0,29.86,10.0,88.77
2021-09-11 20:00:00,87.0,67.0,51.17,240.0,12.0,29.85,10.0,89.96
2021-09-11 21:00:00,87.0,68.0,53.15,240.0,10.0,29.84,10.0,90.64
2021-09-11 22:00:00,86.0,68.0,55.04,230.0,7.0,29.84,10.0,89.41
2021-09-11 23:00:00,78.0,68.0,71.14,250.0,4.0,29.85,10.0,78.1
2021-09-12 00:00:00,78.0,68.0,71.14,210.0,4.0,29.86,10.0,78.1
2021-09-12 01:00:00,77.0,68.0,73.78,230.0,4.0,29.89,10.0,77.0
2021-09-12 02:00:00,78.0,68.0,71.14,230.0,6.0,29.91,10.0,78.1
2021-09-12 03:00:00,78.0,67.0,68.49,230.0,8.0,29.91,10.0,78.1
2021-09-12 04:00:00,77.0,67.0,71.03,220.0,6.0,29.9,10.0,77.0
2021-09-12 05:00:00,75.0,66.0,73.59,230.0,4.0,29.91,10.0,75.0
2021-09-12 06:00:00,75.0,66.0,73.59,210.0,6.0,29.9,10.0,75.0
2021-09-12 07:00:00,73.0,65.0,75.75,230.0,5.0,29.89,10.0,73.0
2021-09-12 08:00:00,72.0,65.0,78.35,220.0,5.0,29.9,10.0,72.0
2021-09-12 09:00:00,71.0,65.0,80.78,310.0,6.0,29.91,10.0,71.1
2021-09-12 10:00:00,70.0,65.0,83.86,330.0,4.0,29.93,10.0,70.0
2021-09-12 11:00:00,70.0,65.0,83.86,300.0,4.0,29.94,10.0,70.0
2021-09-12 12:00:00,71.0,66.0,83.93,270.0,3.0,29.95,10.0,71.1
2021-09-12 13:00:00,75.0,66.0,73.59,260.0,9.0,29.96,10.0,75.0
2021-09-12 14:00:00,77.0,66.0,68.85,250.0,8.0,29.97,10.0,77.0
2021-09-12 15:00:00,79.0,66.0,64.45,250.0,7.0,29.97,10.0,79.0
2021-09-12 16:00:00,81.0,67.0,62.28,0.0,0.0,29.95,10.0,83.4
2021-09-12 17:00:00,83.0,68.0,60.81,290.0,5.0,29.97,10.0,85.94
2021-09-12 18:00:00,79.0,69.0,71.72,60.0,10.0,29.97,10.0,79.0
2021-09-12 19:00:00,75.0,67.0,75.92,60.0,10.0,29.98,10.0,75.0
2021-09-12 20:00:00,77.0,67.0,71.03,60.0,6.0,29.99,10.0,77.0
2021-09-12 21:00:00,76.0,64.0,66.6,20.0,9.0,30.0,10.0,75.9
2021-09-12 22:00:00,72.0,60.0,66.16,40.0,10.0,30.01,10.0,72.0
2021-09-12 23:00:00,67.0,60.0,78.77,360.0,8.0,30.03,10.0,66.9
2021-09-13 00:00:00,66.0,60.0,81.27,360.0,3.0,30.06,10.0,66.0
2021-09-13 01:00:00,66.0,60.0,81.27,0.0,0.0,30.06,10.0,66.0
2021-09-13 02:00:00,66.0,60.0,81.27,0.0,0.0,30.08,10.0,66.0
2021-09-13 03:00:00,67.0,61.0,81.33,50.0,3.0,30.08,10.0,66.9
2021-09-13 04:00:00,68.0,59.0,72.92,80.0,4.0,30.07,10.0,68.0
2021-09-13 05:00:00,66.0,59.0,78.14,20.0,4.0,30.09,10.0,66.0
2021-09-13 06:00:00,67.0,59.0,75.74,20.0,5.0,30.08,10.0,66.9
2021-09-13 07:00:00,67.0,61.0,81.33,10.0,4.0,30.08,10.0,66.9
2021-09-13 08:00:00,68.0,62.0,81.41,30.0,4.0,30.09,10.0,68.0
2021-09-13 09:00:00,68.0,61.0,78.3,60.0,7.0,30.08,10.0,68.0
2021-09-13 10:00:00,69.0,59.0,70.21,120.0,6.0,30.05,10.0,69.1
2021-09-13 11:00:00,69.0,61.0,75.4,30.0,3.0,30.08,10.0,69.1
2021-09-13 12:00:00,69.0,61.0,75.4,350.0,3.0,30.08,10.0,69.1
2021-09-13 13:00:00,69.0,63.0,80.92,30.0,7.0,30.1,10.0,69.1
2021-09-13 14:00:00,68.0,60.0,75.84,50.0,9.0,30.09,10.0,68.0
2021-09-13 15:00:00,72.0,63.0,73.31,80.0,12.0,30.07,10.0,72.0
2021-09-13 16:00:00,74.0,63.0,68.76,80.0,9.0,30.07,10.0,73.9
2021-09-13 17:00:00,72.0,63.0,73.31,100.0,11.0,30.05,10.0,72.0
2021-09-13 18:00:00,73.0,65.0,75.75,120.0,9.0,30.01,10.0,73.0
2021-09-13 19:00:00,73.0,66.0,78.7,70.0,7.0,30.01,7.0,73.0
2021-09-13 20:00:00,73.0,67.0,81.2,70.0,10.0,30.0,6.0,73.0
2021-09-13 21:00:00,71.0,67.0,86.59,60.0,13.0,29.99,8.0,71.1
2021-09-13 22:00:00,70.0,65.0,83.86,50.0,9.0,29.99,5.0,70.0
2021-09-13 23:00:00,69.0,66.0,89.86,60.0,9.0,29.98,1.0,69.1
2021-09-14 00:00:00,70.0,67.0,89.9,100.0,10.0,29.97,6.0,70.0
2021-09-14 01:00:00,71.0,68.0,89.94,90.0,4.0,29.96,7.0,71.1
2021-09-14 02:00:00,72.0,68.0,87.24,140.0,5.0,29.95,6.0,72.0
2021-09-14 03:00:00,70.0,67.0,89.9,130.0,4.0,29.92,5.0,70.0
2021-09-14 04:00:00,68.0,66.0,93.32,150.0,3.0,29.9,2.0,68.0
2021-09-14 05:00:00,69.0,67.0,92.71,190.0,5.0,29.88,3.0,69.1
2021-09-14 06:00:00,69.0,66.0,89.86,190.0,6.0,29.85,5.0,69.1
2021-09-14 07:00:00,71.0,65.0,80.78,200.0,8.0,29.83,10.0,71.1
2021-09-14 08:00:00,74.0,65.0,73.49,210.0,11.0,29.81,10.0,73.9
2021-09-14 09:00:00,74.0,66.0,76.36,210.0,9.0,29.79,10.0,73.9
2021-09-14 10:00:00,76.0,66.0,71.41,220.0,10.0,29.77,10.0,75.9
2021-09-14 11:00:00,76.0,66.0,71.41,220.0,11.0,29.76,10.0,75.9
2021-09-14 12:00:00,77.0,67.0,71.03,220.0,12.0,29.77,10.0,77.0
2021-09-14 13:00:00,79.0,67.0,66.49,230.0,11.0,29.77,10.0,79.0
2021-09-14 14:00:00,82.0,67.0,60.28,240.0,16.0,29.77,10.0,84.48
2021-09-14 15:00:00,84.0,67.0,56.51,230.0,13.0,29.77,10.0,86.62
2021-09-14 16:00:00,83.0,67.0,58.55,260.0,15.0,29.77,10.0,85.45
2021-09-14 17:00:00,82.0,66.0,58.43,260.0,15.0,29.78,10.0,84.15
2021-09-14 18:00:00,83.0,62.0,49.51,250.0,17.0,29.77,10.0,83.7
2021-09-14 19:00:00,85.0,63.0,47.91,290.0,13.0,29.78,10.0,85.83
2021-09-14 20:00:00,78.0,60.0,53.95,300.0,11.0,29.8,10.0,78.1
2021-09-14 21:00:00,76.0,57.0,51.93,310.0,16.0,29.82,10.0,75.9
2021-09-14 22:00:00,72.0,56.0,56.89,290.0,10.0,29.85,10.0,72.0
2021-09-14 23:00:00,69.0,56.0,62.8,300.0,8.0,29.86,10.0,69.1
2021-09-15 00:00:00,66.0,56.0,69.88,290.0,5.0,29.87,10.0,66.0
2021-09-15 01:00:00,63.0,56.0,77.61,280.0,4.0,29.89,10.0,63.0
2021-09-15 02:00:00,62.0,56.0,80.11,280.0,6.0,29.9,10.0,62.1
2021-09-15 03:00:00,63.0,57.0,80.76,280.0,5.0,29.91,10.0,63.0
2021-09-15 04:00:00,63.0,57.0,80.76,260.0,5.0,29.93,10.0,63.0
2021-09-15 05:00:00,63.0,57.0,80.76,290.0,4.0,29.93,10.0,63.0
2021-09-15 06:00:00,60.0,55.0,83.23,290.0,3.0,29.93,10.0,60.1
2021-09-15 07:00:00,61.0,56.0,83.29,290.0,4.0,29.94,10.0,61.0
2021-09-15 08:00:00,57.0,54.0,89.68,280.0,3.0,29.95,10.0,57.0
2021-09-15 09:00:00,56.0,52.0,86.71,240.0,3.0,29.96,10.0,55.9
2021-09-15 10:00:00,55.0,52.0,89.59,280.0,4.0,29.96,10.0,55.0
2021-09-15 11:00:00,55.0,52.0,89.59,310.0,3.0,29.99,10.0,55.0
2021-09-15 12:00:00,61.0,56.0,83.29,300.0,3.0,30.02,10.0,61.0
2021-09-15 13:00:00,66.0,55.0,67.64,300.0,3.0,30.03,10.0,66.0
2021-09-15 14:00:00,70.0,53.0,54.98,300.0,3.0,30.04,10.0,70.0
2021-09-15 15:00:00,73.0,47.0,39.43,300.0,5.0,30.05,10.0,73.0
2021-09-15 16:00:00,74.0,50.0,42.97,50.0,5.0,30.05,10.0,73.9
2021-09-15 17:00:00,76.0,48.0,37.29,70.0,12.0,30.04,10.0,75.9
2021-09-15 18:00:00,75.0,48.0,38.43,90.0,8.0,30.05,10.0,75.0
2021-09-15 19:00:00,76.0,50.0,40.19,80.0,11.0,30.03,10.0,75.9
2021-09-15 20:00:00,74.0,50.0,42.97,110.0,8.0,30.03,10.0,73.9
2021-09-15 21:00:00,74.0,49.0,41.24,90.0,8.0,30.04,10.0,73.9
2021-09-15 22:00:00,72.0,49.0,43.97,90.0,8.0,30.05,10.0,72.0
2021-09-15 23:00:00,67.0,51.0,56.82,100.0,6.0,30.05,10.0,66.9
2021-09-16 00:00:00,62.0,51.0,67.19,90.0,3.0,30.07,10.0,62.1
2021-09-16 01:00:00,59.0,51.0,75.02,120.0,3.0,30.09,10.0,59.0
2021-09-16 02:00:00,56.0,50.0,80.52,0.0,0.0,30.09,10.0,55.9
2021-09-16 03:00:00,56.0,50.0,80.52,170.0,3.0,30.09,10.0,55.9
2021-09-16 04:00:00,54.0,51.0,89.88,280.0,3.0,30.1,10.0,54.0
2021-09-16 05:00:00,53.0,50.0,89.18,0.0,0.0,30.09,10.0,53.1
2021-09-16 06:00:00,52.0,49.0,89.13,0.0,0.0,30.09,10.0,52.0
2021-09-16 07:00:00,50.0,48.0,92.8,0.0,0.0,30.08,7.0,50.0
2021-09-16 08:00:00,52.0,48.0,86.17,0.0,0.0,30.08,10.0,52.0
2021-09-16 09:00:00,50.0,47.0,89.04,0.0,0.0,30.09,10.0,50.0
2021-09-16 10:00:00,50.0,48.0,92.8,0.0,0.0,30.1,10.0,50.0
2021-09-16 11:00:00,52.0,49.0,89.13,0.0,0.0,30.12,10.0,52.0
2021-09-16 12:00:00,60.0,55.0,83.23,0.0,0.0,30.13,10.0,60.1
2021-09-16 13:00:00,69.0,58.0,67.5,180.0,4.0,30.13,10.0,69.1
2021-09-16 14:00:00,73.0,56.0,55.0,180.0,9.0,30.13,10.0,73.0
2021-09-16 15:00:00,77.0,47.0,34.5,160.0,9.0,30.12,10.0,77.0
2021-09-16 16:00:00,80.0,49.0,33.58,180.0,8.0,30.11,10.0,79.5
2021-09-16 17:00:00,81.0,48.0,31.52,190.0,11.0,30.09,10.0,79.92
2021-09-16 18:00:00,82.0,52.0,35.41,180.0,7.0,30.07,10.0,80.97
2021-09-16 19:00:00,81.0,51.0,35.38,150.0,9.0,30.05,10.0,80.23
2021-09-16 20:00:00,80.0,48.0,32.46,130.0,11.0,30.05,10.0,79.42
2021-09-16 21:00:00,79.0,47.0,32.29,130.0,9.0,30.05,10.0,79.0
2021-09-16 22:00:00,77.0,51.0,40.36,140.0,8.0,30.04,10.0,77.0
2021-09-16 23:00:00,73.0,55.0,53.23,140.0,6.0,30.04,10.0,73.0
2021-09-17 00:00:00,70.0,58.0,65.45,160.0,5.0,30.05,10.0,70.0
2021-09-17 01:00:00,69.0,59.0,70.21,160.0,6.0,30.05,10.0,69.1
2021-09-17 02:00:00,70.0,59.0,68.09,160.0,7.0,30.04,10.0,70.0
2021-09-17 03:00:00,67.0,60.0,78.77,180.0,4.0,30.04,10.0,66.9
2021-09-17 04:00:00,64.0,60.0,87.14,180.0,3.0,30.05,10.0,64.0
2021-09-17 05:00:00,61.0,59.0,93.12,190.0,3.0,30.05,10.0,61.0
2021-09-17 06:00:00,63.0,60.0,90.25,180.0,5.0,30.03,10.0,63.0
2021-09-17 07:00:00,65.0,58.0,78.05,190.0,5.0,30.01,10.0,64.9
2021-09-17 08:00:00,64.0,57.0,77.97,210.0,6.0,30.02,10.0,64.0
2021-09-17 09:00:00,63.0,57.0,80.76,220.0,4.0,30.05,10.0,63.0
2021-09-17 10:00:00,62.0,57.0,83.36,230.0,3.0,30.06,10.0,62.1
2021-09-17 11:00:00,64.0,59.0,83.78,200.0,5.0,30.07,10.0,64.0
2021-09-17 12:00:00,68.0,61.0,78.3,210.0,5.0,30.08,10.0,68.0
2021-09-17 13:00:00,73.0,63.0,70.87,220.0,9.0,30.08,10.0,73.0
2021-09-17 14:00:00,79.0,60.0,52.38,230.0,11.0,30.08,10.0,79.0
2021-09-17 15:00:00,83.0,60.0,46.12,230.0,11.0,30.08,10.0,83.13
2021-09-17 16:00:00,86.0,59.0,40.14,240.0,15.0,30.07,10.0,85.47
2021-09-17 17:00:00,88.0,59.0,37.66,220.0,11.0,30.05,10.0,87.31
2021-09-17 18:00:00,89.0,60.0,37.83,220.0,14.0,30.04,10.0,88.76
2021-09-17 19:00:00,91.0,61.0,36.8,260.0,14.0,30.03,10.0,91.06
2021-09-17 20:00:00,89.0,62.0,40.61,270.0,8.0,30.02,10.0,89.58
2021-09-17 21:00:00,87.0,62.0,43.27,300.0,10.0,30.02,10.0,87.58
2021-09-17 22:00:00,75.0,68.0,78.86,270.0,6.0,30.05,3.0,75.0
2021-09-17 23:00:00,78.0,67.0,68.49,340.0,6.0,30.06,10.0,78.1
2021-09-18 00:00:00,75.0,64.0,68.64,30.0,3.0,30.09,10.0,75.0
2021-09-18 01:00:00,74.0,64.0,71.21,20.0,6.0,30.13,10.0,73.9
2021-09-18 02:00:00,73.0,63.0,70.87,360.0,5.0,30.15,10.0,73.0
2021-09-18 03:00:00,71.0,61.0,70.42,10.0,7.0,30.16,10.0,71.1
2021-09-18 04:00:00,69.0,59.0,70.21,360.0,6.0,30.17,10.0,69.1
2021-09-18 05:00:00,67.0,56.0,67.74,360.0,5.0,30.17,10.0,66.9
2021-09-18 06:00:00,65.0,54.0,67.76,360.0,5.0,30.18,10.0,64.9
2021-09-18 07:00:00,63.0,52.0,67.29,360.0,5.0,30.19,10.0,63.0
2021-09-18 08:00:00,62.0,51.0,67.19,360.0,5.0,30.19,10.0,62.1
2021-09-18 09:00:00,60.0,52.0,74.57,10.0,3.0,30.2,10.0,60.1
2021-09-18 10:00:00,61.0,53.0,75.2,50.0,6.0,30.21,10.0,61.0
2021-09-18 11:00:00,65.0,52.0,62.96,50.0,9.0,30.22,10.0,64.9
2021-09-18 12:00:00,68.0,52.0,56.55,70.0,13.0,30.23,10.0,68.0
2021-09-18 13:00:00,70.0,51.0,51.07,60.0,15.0,30.23,10.0,70.0
2021-09-18 14:00:00,71.0,52.0,50.86,80.0,13.0,30.24,10.0,71.1
2021-09-18 15:00:00,74.0,53.0,48.18,60.0,12.0,30.25,10.0,73.9
2021-09-18 16:00:00,73.0,55.0,53.23,70.0,13.0,30.24,10.0,73.0
2021-09-18 17:00:00,74.0,53.0,48.18,80.0,10.0,30.23,10.0,73.9
2021-09-18 18:00:00,75.0,53.0,46.44,90.0,11.0,30.21,10.0,75.0
2021-09-18 19:00:00,74.0,54.0,49.79,60.0,9.0,30.19,10.0,73.9
2021-09-18 20:00:00,74.0,54.0,49.79,60.0,9.0,30.18,10.0,73.9
2021-09-18 21:00:00,73.0,54.0,51.33,90.0,9.0,30.17,10.0,73.0
2021-09-18 22:00:00,70.0,53.0,54.98,70.0,10.0,30.17,10.0,70.0
2021-09-18 23:00:00,64.0,54.0,69.92,50.0,5.0,30.17,10.0,64.0
2021-09-19 00:00:00,63.0,54.0,72.42,10.0,4.0,30.18,10.0,63.0
2021-09-19 01:00:00,62.0,53.0,72.33,20.0,3.0,30.18,10.0,62.1
2021-09-19 02:00:00,57.0,52.0,83.33,20.0,3.0,30.17,10.0,57.0
2021-09-19 03:00:00,57.0,52.0,83.33,70.0,5.0,30.16,10.0,57.0
2021-09-19 04:00:00,55.0,51.0,86.66,0.0,0.0,30.16,10.0,55.0
2021-09-19 05:00:00,56.0,53.0,90.29,0.0,0.0,30.15,10.0,55.9
2021-09-19 06:00:00,57.0,54.0,89.68,0.0,0.0,30.14,10.0,57.0
2021-09-19 07:00:00,56.0,54.0,93.32,0.0,0.0,30.14,10.0,55.9
2021-09-19 08:00:00,56.0,54.0,93.32,0.0,0.0,30.13,10.0,55.9
2021-09-19 09:00:00,56.0,54.0,93.32,0.0,0.0,30.13,10.0,55.9
2021-09-19 10:00:00,56.0,53.0,90.29,0.0,0.0,30.14,10.0,55.9
2021-09-19 11:00:00,57.0,54.0,89.68,0.0,0.0,30.14,2.0,57.0
2021-09-19 12:00:00,65.0,61.0,87.18,0.0,0.0,30.15,6.0,64.9
2021-09-19 13:00:00,73.0,65.0,75.75,140.0,5.0,30.14,10.0,73.0
2021-09-19 14:00:00,77.0,65.0,66.27,160.0,5.0,30.14,10.0,77.0
2021-09-19 15:00:00,80.0,65.0,59.83,120.0,4.0,30.13,10.0,81.91
2021-09-19 16:00:00,82.0,66.0,58.43,110.0,8.0,30.11,10.0,84.15
2021-09-19 17:00:00,84.0,66.0,54.77,120.0,9.0,30.09,10.0,86.2
2021-09-19 18:00:00,84.0,65.0,52.71,130.0,9.0,30.07,10.0,85.72
2021-09-19 19:00:00,83.0,65.0,54.62,130.0,10.0,30.05,10.0,84.64
2021-09-19 20:00:00,82.0,65.0,56.24,120.0,9.0,30.02,10.0,83.76
2021-09-19 21:00:00,80.0,65.0,59.83,130.0,8.0,30.01,10.0,81.91
2021-09-19 22:00:00,79.0,64.0,60.11,110.0,6.0,30.01,10.0,79.0
2021-09-19 23:00:00,77.0,65.0,66.27,130.0,4.0,29.99,10.0,77.0
2021-09-20 00:00:00,75.0,66.0,73.59,140.0,6.0,30.0,10.0,75.0
2021-09-20 01:00:00,75.0,66.0,73.59,140.0,5.0,30.01,10.0,75.0
2021-09-20 02:00:00,75.0,66.0,73.59,140.0,3.0,30.0,10.0,75.0
2021-09-20 03:00:00,76.0,66.0,71.41,150.0,6.0,30.0,10.0,75.9
2021-09-20 04:00:00,75.0,67.0,75.92,190.0,5.0,29.99,10.0,75.0
2021-09-20 05:00:00,76.0,65.0,68.73,190.0,7.0,29.99,10.0,75.9
2021-09-20 06:00:00,75.0,64.0,68.64,190.0,7.0,29.98,10.0,75.0
2021-09-20 07:00:00,73.0,64.0,73.4,190.0,5.0,29.97,10.0,73.0
2021-09-20 08:00:00,72.0,64.0,75.92,170.0,3.0,29.96,10.0,72.0
2021-09-20 09:00:00,73.0,65.0,75.75,150.0,4.0,29.95,10.0,73.0
2021-09-20 10:00:00,73.0,65.0,75.75,150.0,4.0,29.95,10.0,73.0
2021-09-20 11:00:00,73.0,65.0,75.75,170.0,7.0,29.95,10.0,73.0
2021-09-20 12:00:00,74.0,66.0,76.36,170.0,7.0,29.95,10.0,73.9
2021-09-20 13:00:00,75.0,67.0,75.92,170.0,8.0,29.94,10.0,75.0
2021-09-20 14:00:00,72.0,68.0,87.24,160.0,8.0,29.94,4.0,72.0
2021-09-20 15:00:00,72.0,69.0,90.59,180.0,9.0,29.93,5.0,72.0
2021-09-20 16:00:00,74.0,69.0,84.97,200.0,9.0,29.92,9.0,73.9
2021-09-20 17:00:00,77.0,69.0,76.62,200.0,13.0,29.91,10.0,77.0
2021-09-20 18:00:00,75.0,69.0,81.9,190.0,13.0,29.9,2.0,75.0
2021-09-20 19:00:00,79.0,71.0,76.79,190.0,10.0,29.88,10.0,79.0
2021-09-20 20:00:00,82.0,69.0,65.03,180.0,12.0,29.85,10.0,85.39
2021-09-20 21:00:00,80.0,70.0,71.35,150.0,9.0,29.84,10.0,83.28
2021-09-20 22:00:00,80.0,69.0,69.18,160.0,9.0,29.81,10.0,83.01
2021-09-20 23:00:00,79.0,68.0,69.07,180.0,13.0,29.8,10.0,79.0
2021-09-21 00:00:00,78.0,67.0,68.49,190.0,10.0,29.81,10.0,78.1
2021-09-21 01:00:00,78.0,68.0,71.14,190.0,10.0,29.83,10.0,78.1
2021-09-21 02:00:00,78.0,69.0,73.88,190.0,11.0,29.82,10.0,78.1
2021-09-21 03:00:00,77.0,70.0,79.02,180.0,12.0,29.83,10.0,77.0
2021-09-21 04:00:00,77.0,69.0,76.62,190.0,15.0,29.83,10.0,77.0
2021-09-21 05:00:00,78.0,69.0,73.88,200.0,13.0,29.82,10.0,78.1
2021-09-21 06:00:00,70.0,66.0,87.14,250.0,17.0,29.83,10.0,70.0
2021-09-21 07:00:00,68.0,65.0,89.81,220.0,10.0,29.85,10.0,68.0
2021-09-21 08:00:00,68.0,65.0,89.81,240.0,11.0,29.86,10.0,68.0
2021-09-21 09:00:00,68.0,65.0,89.81,250.0,10.0,29.89,10.0,68.0
2021-09-21 10:00:00,65.0,62.0,90.64,310.0,10.0,29.93,6.0,64.9
2021-09-21 11:00:00,63.0,58.0,83.42,310.0,7.0,29.95,10.0,63.0
2021-09-21 12:00:00,63.0,57.0,80.76,320.0,6.0,29.99,10.0,63.0
2021-09-21 13:00:00,64.0,57.0,77.97,320.0,7.0,30.02,10.0,64.0
2021-09-21 14:00:00,64.0,57.0,77.97,320.0,7.0,30.02,10.0,64.0
2021-09-21 15:00:00,64.4,55.4,72.56,330.0,10.0,30.06,10.0,64.4
2021-09-21 16:00:00,64.0,54.0,69.92,320.0,8.0,30.09,10.0,64.0
2021-09-21 17:00:00,65.0,52.0,62.96,300.0,9.0,30.11,10.0,64.9
2021-09-21 18:00:00,67.0,52.0,58.74,360.0,6.0,30.1,10.0,66.9
2021-09-21 19:00:00,66.0,51.0,58.62,330.0,9.0,30.11,10.0,66.0
2021-09-21 20:00:00,65.0,50.0,58.47,350.0,10.0,30.13,10.0,64.9
2021-09-21 21:00:00,61.0,53.0,75.2,10.0,7.0,30.12,10.0,61.0
2021-09-21 22:00:00,61.0,54.0,77.72,40.0,3.0,30.13,10.0,61.0
2021-09-21 23:00:00,61.0,53.0,75.2,340.0,4.0,30.15,10.0,61.0
2021-09-22 00:00:00,61.0,52.0,72.22,340.0,3.0,30.15,10.0,61.0
2021-09-22 01:00:00,62.0,52.0,69.46,340.0,3.0,30.17,10.0,62.1
2021-09-22 02:00:00,61.0,52.0,72.22,320.0,4.0,30.17,10.0,61.0
2021-09-22 03:00:00,61.0,52.0,72.22,330.0,4.0,30.19,10.0,61.0
2021-09-22 04:00:00,61.0,52.0,72.22,340.0,6.0,30.16,10.0,61.0
2021-09-22 05:00:00,61.0,53.0,75.2,340.0,5.0,30.15,10.0,61.0
2021-09-22 06:00:00,61.0,51.0,69.86,10.0,9.0,30.14,10.0,61.0
2021-09-22 07:00:00,60.0,53.0,77.65,360.0,6.0,30.14,10.0,60.1
2021-09-22 08:00:00,60.0,50.0,69.24,360.0,11.0,30.12,10.0,60.1
2021-09-22 09:00:00,59.0,50.0,72.01,10.0,8.0,30.17,10.0,59.0
2021-09-22 10:00:00,58.0,48.0,69.52,360.0,11.0,30.16,10.0,57.9
2021-09-22 11:00:00,57.0,46.0,66.59,10.0,10.0,30.14,10.0,57.0
2021-09-22 12:00:00,57.0,46.0,66.59,330.0,9.0,30.16,10.0,57.0
2021-09-22 13:00:00,57.0,47.0,68.9,340.0,12.0,30.14,10.0,57.0
2021-09-22 14:00:00,59.0,47.0,64.12,350.0,13.0,30.17,10.0,59.0
2021-09-22 15:00:00,61.0,47.0,59.71,340.0,10.0,30.16,10.0,61.0
2021-09-22 16:00:00,62.0,47.0,57.43,350.0,12.0,30.16,10.0,62.1
2021-09-22 17:00:00,63.0,46.0,53.78,20.0,15.0,30.14,10.0,63.0
2021-09-22 18:00:00,65.0,45.0,48.44,10.0,16.0,30.13,10.0,64.9
2021-09-22 19:00:00,65.0,41.0,41.55,10.0,13.0,30.13,10.0,64.9
2021-09-22 20:00:00,64.0,45.0,49.99,10.0,17.0,30.11,10.0,64.0
2021-09-22 21:00:00,64.0,46.0,51.93,10.0,14.0,30.11,10.0,64.0
2021-09-22 22:00:00,61.0,46.0,57.72,10.0,11.0,30.11,10.0,61.0
2021-09-22 23:00:00,60.0,43.0,53.15,360.0,8.0,30.1,10.0,60.1
2021-09-23 00:00:00,60.0,41.0,49.21,350.0,7.0,30.1,10.0,60.1
2021-09-23 01:00:00,59.0,41.0,51.18,350.0,7.0,30.1,10.0,59.0
2021-09-23 02:00:00,59.0,40.0,49.04,340.0,7.0,30.09,10.0,59.0
2021-09-23 03:00:00,59.0,41.0,51.18,340.0,9.0,30.08,10.0,59.0
2021-09-23 04:00:00,57.0,41.0,54.99,350.0,9.0,30.06,10.0,57.0
2021-09-23 05:00:00,57.0,40.0,52.7,350.0,9.0,30.04,10.0,57.0
2021-09-23 06:00:00,55.0,41.0,59.13,340.0,7.0,30.01,10.0,55.0
2021-09-23 07:00:00,54.0,42.0,63.98,350.0,10.0,30.0,10.0,54.0
2021-09-23 08:00:00,54.0,43.0,66.24,340.0,8.0,29.99,10.0,54.0
2021-09-23 09:00:00,54.0,43.0,66.24,330.0,9.0,29.98,10.0,54.0
2021-09-23 10:00:00,53.0,42.0,66.13,340.0,8.0,29.97,10.0,53.1
2021-09-23 11:00:00,53.0,42.0,66.13,320.0,6.0,29.98,10.0,53.1
2021-09-23 12:00:00,53.0,42.0,66.13,310.0,7.0,29.99,10.0,53.1
2021-09-23 13:00:00,54.0,42.0,63.98,330.0,11.0,29.99,10.0,54.0
2021-09-23 14:00:00,57.0,43.0,59.4,340.0,12.0,29.98,10.0,57.0
2021-09-23 15:00:00,63.0,42.0,46.34,330.0,13.0,29.97,10.0,63.0
2021-09-23 16:00:00,63.0,41.0,44.41,330.0,12.0,29.94,10.0,63.0
2021-09-23 17:00:00,62.0,41.0,45.84,320.0,12.0,29.94,10.0,62.1
2021-09-23 18:00:00,64.0,40.0,41.09,310.0,8.0,29.93,10.0,64.0
2021-09-23 19:00:00,66.0,38.0,35.44,350.0,12.0,29.92,6.0,66.0
2021-09-23 20:00:00,67.0,37.0,33.16,10.0,10.0,29.91,10.0,66.9
2021-09-23 21:00:00,69.0,38.0,31.85,340.0,6.0,29.92,10.0,69.1
2021-09-23 22:00:00,68.0,38.0,33.07,330.0,6.0,29.92,10.0,68.0
2021-09-23 23:00:00,59.0,42.0,53.4,0.0,0.0,29.93,10.0,59.0
2021-09-24 00:00:00,57.0,44.0,61.95,190.0,7.0,29.93,10.0,57.0
2021-09-24 01:00:00,58.0,45.0,62.07,210.0,7.0,29.93,10.0,57.9
2021-09-24 02:00:00,54.0,43.0,66.24,230.0,5.0,29.92,10.0,54.0
2021-09-24 03:00:00,53.0,43.0,68.46,260.0,7.0,29.92,10.0,53.1
2021-09-24 04:00:00,57.0,45.0,64.12,270.0,8.0,29.91,10.0,57.0
2021-09-24 05:00:00,56.0,45.0,66.72,280.0,6.0,29.92,10.0,55.9
2021-09-24 06:00:00,57.0,46.0,66.59,270.0,9.0,29.92,10.0,57.0
2021-09-24 07:00:00,56.0,46.0,69.3,260.0,9.0,29.92,10.0,55.9
2021-09-24 08:00:00,54.0,46.0,74.26,270.0,8.0,29.93,10.0,54.0
2021-09-24 09:00:00,54.0,45.0,71.5,260.0,7.0,29.95,10.0,54.0
2021-09-24 10:00:00,52.0,46.0,79.92,260.0,8.0,29.96,10.0,52.0
2021-09-24 11:00:00,51.0,45.0,79.54,250.0,6.0,29.96,10.0,51.1
2021-09-24 12:00:00,56.0,46.0,69.3,250.0,6.0,29.97,10.0,55.9
2021-09-24 13:00:00,62.0,46.0,55.51,240.0,8.0,29.97,10.0,62.1
2021-09-24 14:00:00,68.0,46.0,45.19,230.0,11.0,29.97,10.0,68.0
2021-09-24 15:00:00,72.0,45.0,37.96,220.0,9.0,29.96,10.0,72.0
2021-09-24 16:00:00,76.0,46.0,34.58,230.0,11.0,29.93,10.0,75.9
2021-09-24 17:00:00,78.0,47.0,33.26,200.0,14.0,29.9,10.0,78.1
2021-09-24 18:00:00,79.0,47.0,32.29,200.0,17.0,29.86,10.0,79.0
2021-09-24 19:00:00,80.0,47.0,31.15,200.0,20.0,29.83,10.0,79.33
2021-09-24 20:00:00,80.0,47.0,31.15,210.0,19.0,29.81,10.0,79.33
2021-09-24 21:00:00,81.0,47.0,30.24,210.0,19.0,29.79,10.0,79.83
2021-09-24 22:00:00,78.0,47.0,33.26,210.0,14.0,29.79,10.0,78.1
2021-09-24 23:00:00,69.0,54.0,58.6,210.0,12.0,29.8,10.0,69.1
2021-09-25 00:00:00,71.0,52.0,50.86,210.0,9.0,29.79,10.0,71.1
2021-09-25 01:00:00,68.0,55.0,63.12,290.0,13.0,29.82,10.0,68.0
2021-09-25 02:00:00,59.0,55.0,86.56,300.0,10.0,29.86,4.0,59.0
2021-09-25 03:00:00,57.0,53.0,86.77,300.0,9.0,29.88,10.0,57.0
2021-09-25 04:00:00,56.0,51.0,83.88,300.0,10.0,29.9,10.0,55.9
2021-09-25 05:00:00,54.0,50.0,86.29,290.0,8.0,29.92,10.0,54.0
2021-09-25 06:00:00,52.0,48.0,86.17,290.0,7.0,29.93,10.0,52.0
2021-09-25 07:00:00,52.0,47.0,82.68,290.0,9.0,29.95,10.0,52.0
2021-09-25 08:00:00,49.0,46.0,89.67,260.0,5.0,29.96,10.0,46.47
2021-09-25 09:00:00,49.0,46.0,89.67,260.0,6.0,29.97,10.0,45.88
2021-09-25 10:00:00,48.0,45.0,89.29,240.0,6.0,29.98,10.0,44.8
2021-09-25 11:00:00,48.0,45.0,89.29,250.0,7.0,29.98,10.0,44.28
2021-09-25 12:00:00,51.0,48.0,89.09,260.0,7.0,29.99,10.0,51.1
2021-09-25 13:00:00,55.0,49.0,79.85,260.0,9.0,30.0,10.0,55.0
2021-09-25 14:00:00,60.0,49.0,66.46,240.0,8.0,29.99,10.0,60.1
2021-09-25 15:00:00,64.0,42.0,44.74,270.0,11.0,30.0,10.0,64.0
2021-09-25 16:00:00,66.0,38.0,35.44,280.0,14.0,30.0,10.0,66.0
2021-09-25 17:00:00,68.0,38.0,33.07,290.0,12.0,30.0,10.0,68.0
2021-09-25 18:00:00,70.0,36.0,28.65,280.0,14.0,29.97,10.0,70.0
2021-09-25 19:00:00,70.0,35.0,27.65,260.0,15.0,29.96,10.0,70.0
2021-09-25 20:00:00,70.0,34.0,26.46,260.0,11.0,29.94,10.0,70.0
2021-09-25 21:00:00,69.0,33.0,26.32,260.0,13.0,29.94,10.0,69.1
2021-09-25 22:00:00,67.0,33.0,28.39,260.0,8.0,29.95,10.0,66.9
2021-09-25 23:00:00,63.0,35.0,35.24,260.0,6.0,29.96,10.0,63.0
2021-09-26 00:00:00,60.0,38.0,43.61,250.0,6.0,29.96,10.0,60.1
2021-09-26 01:00:00,60.0,38.0,43.61,240.0,6.0,29.96,10.0,60.1
2021-09-26 02:00:00,57.0,39.0,50.88,240.0,6.0,29.95,10.0,57.0
2021-09-26 03:00:00,57.0,40.0,52.7,230.0,5.0,29.96,10.0,57.0
2021-09-26 04:00:00,58.0,41.0,53.24,220.0,5.0,29.95,10.0,57.9
2021-09-26 05:00:00,61.0,39.0,44.1,240.0,9.0,29.94,10.0,61.0
2021-09-26 06:00:00,59.0,39.0,47.35,260.0,9.0,29.93,10.0,59.0
2021-09-26 07:00:00,58.0,40.0,51.02,250.0,10.0,29.93,10.0,57.9
2021-09-26 08:00:00,58.0,40.0,51.02,250.0,10.0,29.92,10.0,57.9
2021-09-26 09:00:00,57.0,41.0,54.99,250.0,9.0,29.93,10.0,57.0
2021-09-26 10:00:00,54.0,41.0,61.32,230.0,7.0,29.93,10.0,54.0
2021-09-26 11:00:00,54.0,42.0,63.98,240.0,8.0,29.94,10.0,54.0
2021-09-26 12:00:00,59.0,43.0,55.28,230.0,8.0,29.93,10.0,59.0
2021-09-26 13:00:00,65.0,45.0,48.44,240.0,11.0,29.93,10.0,64.9
2021-09-26 14:00:00,70.0,47.0,43.66,250.0,16.0,29.93,10.0,70.0
2021-09-26 15:00:00,75.0,48.0,38.43,250.0,15.0,29.92,10.0,75.0
2021-09-26 16:00:00,80.0,48.0,32.46,240.0,17.0,29.9,10.0,79.42
2021-09-26 17:00:00,83.0,46.0,27.48,230.0,16.0,29.88,10.0,80.94
2021-09-26 18:00:00,86.0,47.0,25.74,240.0,11.0,29.85,10.0,83.27
2021-09-26 19:00:00,85.0,45.0,24.81,230.0,16.0,29.83,10.0,82.27
2021-09-26 20:00:00,84.0,46.0,26.52,230.0,16.0,29.81,10.0,81.69
2021-09-26 21:00:00,82.0,46.0,28.3,220.0,14.0,29.8,10.0,80.36
2021-09-26 22:00:00,80.0,47.0,31.15,220.0,10.0,29.79,10.0,79.33
2021-09-26 23:00:00,78.0,47.0,33.26,210.0,6.0,29.79,10.0,78.1
2021-09-27 00:00:00,76.0,48.0,37.29,210.0,8.0,29.8,10.0,75.9
2021-09-27 01:00:00,74.0,48.0,39.87,210.0,9.0,29.81,10.0,73.9
2021-09-27 02:00:00,75.0,49.0,39.75,220.0,11.0,29.8,10.0,75.0
2021-09-27 03:00:00,74.0,50.0,42.97,210.0,13.0,29.79,10.0,73.9
2021-09-27 04:00:00,74.0,52.0,46.27,220.0,16.0,29.77,10.0,73.9
2021-09-27 05:00:00,73.0,53.0,49.66,230.0,13.0,29.76,10.0,73.0
2021-09-27 06:00:00,72.0,54.0,53.09,230.0,11.0,29.76,10.0,72.0
2021-09-27 07:00:00,70.0,55.0,58.94,240.0,12.0,29.75,10.0,70.0
2021-09-27 08:00:00,69.0,55.0,60.78,240.0,13.0,29.74,10.0,69.1
2021-09-27 09:00:00,68.0,56.0,65.22,230.0,9.0,29.75,10.0,68.0
2021-09-27 10:00:00,66.0,56.0,69.88,240.0,9.0,29.75,10.0,66.0
2021-09-27 11:00:00,66.0,56.0,69.88,240.0,11.0,29.76,10.0,66.0
2021-09-27 12:00:00,68.0,56.0,65.22,240.0,10.0,29.76,10.0,68.0
2021-09-27 13:00:00,72.0,57.0,59.2,260.0,11.0,29.76,10.0,72.0
2021-09-27 14:00:00,75.0,57.0,53.52,270.0,11.0,29.77,10.0,75.0
2021-09-27 15:00:00,79.0,58.0,48.41,260.0,7.0,29.77,10.0,79.0
2021-09-27 16:00:00,82.0,58.0,43.89,0.0,0.0,29.77,10.0,81.92
2021-09-27 17:00:00,84.0,58.0,41.14,0.0,0.0,29.77,10.0,83.47
2021-09-27 18:00:00,78.0,58.0,49.87,80.0,14.0,29.79,10.0,78.1
2021-09-27 19:00:00,76.0,60.0,58.04,70.0,13.0,29.8,10.0,75.9
2021-09-27 20:00:00,72.0,60.0,66.16,40.0,12.0,29.82,10.0,72.0
2021-09-27 21:00:00,69.0,59.0,70.21,50.0,12.0,29.83,10.0,69.1
2021-09-27 22:00:00,67.0,59.0,75.74,40.0,11.0,29.85,10.0,66.9
2021-09-27 23:00:00,64.0,58.0,80.54,30.0,10.0,29.87,10.0,64.0
2021-09-28 00:00:00,63.0,58.0,83.42,20.0,7.0,29.9,10.0,63.0
2021-09-28 01:00:00,63.0,56.0,77.61,10.0,7.0,29.91,10.0,63.0
2021-09-28 02:00:00,64.0,52.0,64.97,30.0,9.0,29.92,10.0,64.0
2021-09-28 03:00:00,63.0,53.0,70.07,30.0,8.0,29.93,10.0,63.0
2021-09-28 04:00:00,62.0,53.0,72.33,50.0,7.0,29.94,10.0,62.1
2021-09-28 05:00:00,60.0,52.0,74.57,50.0,7.0,29.95,10.0,60.1
2021-09-28 06:00:00,59.0,52.0,77.55,40.0,6.0,29.95,10.0,59.0
2021-09-28 07:00:00,56.0,51.0,83.88,30.0,5.0,29.95,10.0,55.9
2021-09-28 08:00:00,56.0,52.0,86.71,30.0,5.0,29.96,10.0,55.9
2021-09-28 09:00:00,55.0,51.0,86.66,20.0,6.0,29.98,10.0,55.0
2021-09-28 10:00:00,54.0,51.0,89.88,20.0,5.0,29.99,10.0,54.0
2021-09-28 11:00:00,54.0,50.0,86.29,20.0,4.0,30.0,10.0,54.0
2021-09-28 12:00:00,57.0,53.0,86.77,20.0,4.0,30.02,10.0,57.0
2021-09-28 13:00:00,64.0,58.0,80.54,70.0,9.0,30.03,10.0,64.0
2021-09-28 14:00:00,65.0,56.0,72.61,80.0,8.0,30.04,10.0,64.9
2021-09-28 15:00:00,69.0,54.0,58.6,100.0,8.0,30.05,10.0,69.1
2021-09-28 16:00:00,69.0,56.0,62.8,100.0,7.0,30.05,10.0,69.1
2021-09-28 17:00:00,70.0,53.0,54.98,80.0,7.0,30.05,10.0,70.0
2021-09-28 18:00:00,70.0,53.0,54.98,70.0,9.0,30.04,10.0,70.0
2021-09-28 19:00:00,70.0,52.0,52.8,90.0,7.0,30.02,10.0,70.0
2021-09-28 20:00:00,69.0,51.0,52.67,90.0,6.0,30.01,10.0,69.1
2021-09-28 21:00:00,68.0,51.0,54.7,90.0,7.0,30.0,10.0,68.0
2021-09-28 22:00:00,65.0,51.0,60.9,90.0,6.0,30.0,10.0,64.9
2021-09-28 23:00:00,60.0,51.0,72.13,70.0,4.0,30.0,10.0,60.1
2021-09-29 00:00:00,58.0,52.0,80.67,20.0,5.0,30.01,10.0,57.9
2021-09-29 01:00:00,55.0,51.0,86.66,60.0,4.0,30.02,10.0,55.0
2021-09-29 02:00:00,52.0,50.0,92.86,0.0,0.0,30.03,10.0,52.0
2021-09-29 03:00:00,51.0,49.0,92.14,30.0,3.0,30.03,10.0,51.1
2021-09-29 04:00:00,53.0,50.0,89.18,30.0,3.0,30.03,10.0,53.1
2021-09-29 05:00:00,52.0,49.0,89.13,0.0,0.0,30.02,0.75,52.0
2021-09-29 06:00:00,50.0,49.0,95.98,0.0,0.0,30.03,0.5,50.0
2021-09-29 07:00:00,50.0,47.0,89.04,0.0,0.0,30.03,0.5,50.0
2021-09-29 08:00:00,49.0,48.0,96.69,360.0,3.0,30.04,8.0,48.01
2021-09-29 09:00:00,49.0,47.0,92.77,0.0,0.0,30.05,0.5,48.9
2021-09-29 10:00:00,48.0,47.0,95.95,0.0,0.0,30.06,0.5,48.0
2021-09-29 11:00:00,50.0,48.0,92.8,0.0,0.0,30.07,1.25,50.0
2021-09-29 12:00:00,54.0,53.0,96.76,0.0,0.0,30.08,0.5,54.0
2021-09-29 13:00:00,65.0,60.0,84.44,0.0,0.0,30.08,10.0,64.9
2021-09-29 14:00:00,71.0,57.0,61.04,120.0,4.0,30.09,10.0,71.1
2021-09-29 15:00:00,74.0,59.0,59.66,110.0,7.0,30.1,10.0,73.9
2021-09-29 16:00:00,76.0,58.0,53.64,100.0,6.0,30.1,10.0,75.9
2021-09-29 17:00:00,77.0,57.0,50.07,110.0,7.0,30.1,10.0,77.0
2021-09-29 18:00:00,78.0,57.0,48.28,140.0,8.0,30.08,10.0,78.1
2021-09-29 19:00:00,78.0,55.0,44.9,130.0,8.0,30.06,10.0,78.1
2021-09-29 20:00:00,76.0,55.0,48.3,110.0,8.0,30.06,10.0,75.9
2021-09-29 21:00:00,75.0,55.0,49.78,100.0,7.0,30.07,10.0,75.0
2021-09-29 22:00:00,69.0,58.0,67.5,80.0,5.0,30.08,10.0,69.1
2021-09-29 23:00:00,61.0,57.0,86.67,80.0,6.0,30.09,10.0,61.0
2021-09-30 00:00:00,61.0,59.0,93.12,50.0,5.0,30.09,8.0,61.0
2021-09-30 01:00:00,59.0,57.0,93.07,50.0,4.0,30.11,0.5,59.0
2021-09-30 02:00:00,57.0,55.0,93.01,20.0,3.0,30.11,0.5,57.0
2021-09-30 03:00:00,59.0,57.0,93.07,20.0,4.0,30.13,0.5,59.0
2021-09-30 04:00:00,55.0,53.0,93.29,0.0,0.0,30.14,0.25,55.0
2021-09-30 05:00:00,56.0,55.0,96.78,0.0,0.0,30.14,0.5,55.9
2021-09-30 06:00:00,54.0,52.0,92.92,50.0,4.0,30.14,0.25,54.0
2021-09-30 07:00:00,53.0,51.0,92.89,0.0,0.0,30.15,2.5,53.1
2021-09-30 08:00:00,55.0,53.0,93.29,10.0,3.0,30.15,0.25,55.0
2021-09-30 09:00:00,53.0,51.0,92.89,0.0,0.0,30.15,0.25,53.1
2021-09-30 10:00:00,52.0,50.0,92.86,0.0,0.0,30.16,0.5,52.0
2021-09-30 11:00:00,52.0,50.0,92.86,0.0,0.0,30.17,0.25,52.0
2021-09-30 12:00:00,56.0,54.0,93.32,0.0,0.0,30.17,0.25,55.9
2021-09-30 13:00:00,65.0,61.0,87.18,0.0,0.0,30.17,8.0,64.9
2021-09-30 14:00:00,70.0,60.0,70.81,100.0,5.0,30.19,10.0,70.0
2021-09-30 15:00:00,74.0,58.0,57.36,100.0,4.0,30.2,10.0,73.9
2021-09-30 16:00:00,76.0,58.0,53.64,100.0,7.0,30.19,10.0,75.9
2021-09-30 17:00:00,76.0,57.0,51.93,100.0,7.0,30.19,10.0,75.9
2021-09-30 18:00:00,77.0,56.0,48.12,100.0,8.0,30.18,10.0,77.0
2021-09-30 19:00:00,77.0,54.0,44.9,100.0,8.0,30.17,10.0,77.0
2021-09-30 20:00:00,75.0,51.0,43.14,120.0,7.0,30.17,10.0,75.0
2021-09-30 21:00:00,74.0,51.0,44.76,120.0,7.0,30.17,10.0,73.9
2021-09-30 22:00:00,71.0,53.0,52.96,110.0,5.0,30.18,10.0,71.1
2021-09-30 23:00:00,64.0,53.0,67.66,130.0,3.0,30.18,8.0,64.0
2021-10-01 00:00:00,61.0,53.0,75.2,100.0,3.0,30.19,10.0,61.0
2021-10-01 01:00:00,57.0,53.0,86.77,0.0,0.0,30.19,10.0,57.0
2021-10-01 02:00:00,56.0,54.0,93.32,0.0,0.0,30.2,9.0,55.9
2021-10-01 03:00:00,56.0,54.0,93.32,50.0,3.0,30.2,1.75,55.9
2021-10-01 04:00:00,55.0,52.0,89.59,0.0,0.0,30.19,1.5,55.0
2021-10-01 05:00:00,55.0,53.0,93.29,0.0,0.0,30.19,0.5,55.0
2021-10-01 06:00:00,55.0,53.0,93.29,40.0,3.0,30.2,2.5,55.0
2021-10-01 07:00:00,54.0,53.0,96.76,0.0,0.0,30.18,0.5,54.0
2021-10-01 08:00:00,54.0,52.0,92.92,0.0,0.0,30.18,0.25,54.0
2021-10-01 09:00:00,54.0,52.0,92.92,0.0,0.0,30.18,0.25,54.0
2021-10-01 10:00:00,56.0,55.0,96.78,0.0,0.0,30.19,5.0,55.9
2021-10-01 11:00:00,57.0,55.0,93.01,0.0,0.0,30.19,1.75,57.0
2021-10-01 12:00:00,62.0,60.0,93.16,130.0,3.0,30.2,7.0,62.1
2021-10-01 13:00:00,69.0,58.0,67.5,170.0,5.0,30.2,10.0,69.1
2021-10-01 14:00:00,72.0,59.0,63.61,180.0,6.0,30.2,10.0,72.0
2021-10-01 15:00:00,77.0,61.0,57.77,200.0,3.0,30.19,10.0,77.0
2021-10-01 16:00:00,81.0,62.0,52.66,200.0,5.0,30.18,10.0,82.06
2021-10-01 17:00:00,83.0,62.0,49.51,110.0,7.0,30.17,10.0,83.7
2021-10-01 18:00:00,83.0,62.0,49.51,100.0,7.0,30.14,10.0,83.7
2021-10-01 19:00:00,84.0,62.0,47.78,120.0,8.0,30.13,10.0,84.67
2021-10-01 20:00:00,81.0,61.0,50.65,110.0,9.0,30.12,10.0,81.81
2021-10-01 21:00:00,79.0,62.0,56.23,140.0,8.0,30.11,10.0,79.0
2021-10-01 22:00:00,78.0,62.0,57.92,150.0,10.0,30.1,10.0,78.1
2021-10-01 23:00:00,75.0,62.0,64.2,150.0,7.0,30.11,10.0,75.0
2021-10-02 00:00:00,73.0,62.0,68.66,160.0,4.0,30.11,10.0,73.0
2021-10-02 01:00:00,73.0,62.0,68.66,160.0,7.0,30.11,10.0,73.0
2021-10-02 02:00:00,72.0,61.0,68.31,170.0,6.0,30.1,10.0,72.0
2021-10-02 03:00:00,71.0,61.0,70.42,180.0,4.0,30.09,10.0,71.1
2021-10-02 04:00:00,70.0,60.0,70.81,190.0,5.0,30.08,10.0,70.0
2021-10-02 05:00:00,71.0,59.0,65.58,210.0,6.0,30.08,10.0,71.1
2021-10-02 06:00:00,71.0,58.0,63.05,210.0,6.0,30.07,10.0,71.1
2021-10-02 07:00:00,72.0,56.0,56.89,190.0,7.0,30.06,10.0,72.0
2021-10-02 08:00:00,72.0,56.0,56.89,210.0,8.0,30.04,10.0,72.0
2021-10-02 09:00:00,70.0,56.0,60.89,200.0,7.0,30.03,10.0,70.0
2021-10-02 10:00:00,70.0,57.0,63.37,210.0,8.0,30.03,10.0,70.0
2021-10-02 11:00:00,68.0,57.0,67.86,230.0,4.0,30.03,10.0,68.0
2021-10-02 12:00:00,70.0,59.0,68.09,200.0,5.0,30.02,10.0,70.0
2021-10-02 13:00:00,72.0,60.0,66.16,210.0,6.0,30.01,10.0,72.0
2021-10-02 14:00:00,75.0,64.0,68.64,220.0,7.0,30.0,10.0,75.0
2021-10-02 15:00:00,76.0,64.0,66.6,210.0,4.0,29.98,10.0,75.9
2021-10-02 16:00:00,80.0,66.0,62.17,210.0,5.0,29.97,10.0,82.17
2021-10-02 17:00:00,80.0,66.0,62.17,240.0,10.0,29.95,10.0,82.17
2021-10-02 18:00:00,79.0,68.0,69.07,250.0,6.0,29.93,10.0,79.0
2021-10-02 19:00:00,83.0,66.0,56.75,260.0,7.0,29.9,10.0,85.07
2021-10-02 20:00:00,80.0,65.0,59.83,240.0,4.0,29.89,10.0,81.91
2021-10-02 21:00:00,77.0,65.0,66.27,170.0,10.0,29.9,10.0,77.0
2021-10-02 22:00:00,73.0,65.0,75.75,190.0,10.0,29.89,10.0,73.0
2021-10-02 23:00:00,71.0,64.0,78.28,230.0,7.0,29.88,10.0,71.1
2021-10-03 00:00:00,70.0,64.0,81.27,210.0,5.0,29.89,10.0,70.0
2021-10-03 01:00:00,69.0,65.0,86.48,220.0,4.0,29.89,10.0,69.1
2021-10-03 02:00:00,69.0,67.0,92.71,190.0,5.0,29.88,6.0,69.1
2021-10-03 03:00:00,68.0,66.0,93.32,0.0,0.0,29.88,4.0,68.0
2021-10-03 04:00:00,70.0,67.0,89.9,220.0,4.0,29.87,7.0,70.0
2021-10-03 05:00:00,71.0,67.0,86.59,210.0,5.0,29.85,7.0,71.1
2021-10-03 06:00:00,70.0,67.0,89.9,220.0,6.0,29.84,7.0,70.0
2021-10-03 07:00:00,70.0,67.0,89.9,230.0,5.0,29.84,7.0,70.0
2021-10-03 08:00:00,70.0,67.0,89.9,250.0,8.0,29.83,9.0,70.0
2021-10-03 09:00:00,67.0,64.0,90.4,270.0,5.0,29.82,10.0,66.9
2021-10-03 10:00:00,67.0,65.0,93.29,220.0,3.0,29.84,9.0,66.9
2021-10-03 11:00:00,67.0,65.0,93.29,240.0,6.0,29.84,8.0,66.9
2021-10-03 12:00:00,67.0,64.0,90.4,0.0,0.0,29.84,10.0,66.9
2021-10-03 13:00:00,69.0,66.0,89.86,240.0,4.0,29.84,10.0,69.1
2021-10-03 14:00:00,72.0,65.0,78.35,230.0,5.0,29.83,10.0,72.0
2021-10-03 15:00:00,72.0,66.0,81.41,260.0,4.0,29.84,10.0,72.0
2021-10-03 16:00:00,76.0,65.0,68.73,0.0,0.0,29.83,10.0,75.9
2021-10-03 17:00:00,76.0,62.0,62.3,350.0,3.0,29.82,10.0,75.9
2021-10-03 18:00:00,70.0,66.0,87.14,110.0,7.0,29.81,10.0,70.0
2021-10-03 19:00:00,75.0,66.0,73.59,110.0,4.0,29.79,10.0,75.0
2021-10-03 20:00:00,73.0,65.0,75.75,80.0,7.0,29.79,10.0,73.0
2021-10-03 21:00:00,71.0,65.0,80.78,90.0,6.0,29.8,10.0,71.1
2021-10-03 22:00:00,70.0,66.0,87.14,100.0,4.0,29.82,10.0,70.0
2021-10-03 23:00:00,69.0,66.0,89.86,20.0,4.0,29.85,6.0,69.1
2021-10-04 00:00:00,67.0,64.0,90.4,50.0,3.0,29.84,10.0,66.9
2021-10-04 01:00:00,66.0,63.0,90.05,30.0,4.0,29.84,7.0,66.0
2021-10-04 02:00:00,66.0,63.0,90.05,340.0,3.0,29.85,7.0,66.0
2021-10-04 03:00:00,65.0,63.0,93.56,0.0,0.0,29.86,6.0,64.9
2021-10-04 04:00:00,66.0,63.0,90.05,0.0,0.0,29.85,9.0,66.0
2021-10-04 05:00:00,66.0,63.0,90.05,10.0,3.0,29.85,10.0,66.0
2021-10-04 06:00:00,66.0,63.0,90.05,350.0,4.0,29.86,9.0,66.0
2021-10-04 07:00:00,66.0,63.0,90.05,340.0,5.0,29.87,8.0,66.0
2021-10-04 08:00:00,66.0,63.0,90.05,330.0,4.0,29.87,8.0,66.0
2021-10-04 09:00:00,65.0,62.0,90.64,330.0,4.0,29.88,6.0,64.9
2021-10-04 10:00:00,66.0,62.0,87.24,350.0,5.0,29.9,8.0,66.0
2021-10-04 11:00:00,66.0,63.0,90.05,340.0,4.0,29.92,3.0,66.0
2021-10-04 12:00:00,66.0,62.0,87.24,340.0,5.0,29.94,9.0,66.0
2021-10-04 13:00:00,66.0,62.0,87.24,340.0,4.0,29.96,10.0,66.0
2021-10-04 14:00:00,68.0,62.0,81.41,20.0,9.0,29.98,10.0,68.0
2021-10-04 15:00:00,70.0,61.0,73.11,10.0,9.0,29.99,10.0,70.0
2021-10-04 16:00:00,70.0,62.0,76.01,40.0,10.0,29.99,10.0,70.0
2021-10-04 17:00:00,70.0,61.0,73.11,20.0,12.0,30.0,10.0,70.0
2021-10-04 18:00:00,69.0,61.0,75.4,20.0,12.0,30.0,10.0,69.1
2021-10-04 19:00:00,68.0,62.0,81.41,20.0,10.0,30.01,7.0,68.0
2021-10-04 20:00:00,67.0,62.0,84.56,10.0,10.0,30.02,7.0,66.9
2021-10-04 21:00:00,67.0,62.0,84.56,10.0,9.0,30.03,10.0,66.9
2021-10-04 22:00:00,66.0,60.0,81.27,30.0,13.0,30.05,10.0,66.0
2021-10-04 23:00:00,66.0,60.0,81.27,20.0,10.0,30.08,10.0,66.0
2021-10-05 00:00:00,66.0,60.0,81.27,20.0,10.0,30.09,10.0,66.0
2021-10-05 01:00:00,66.0,60.0,81.27,20.0,9.0,30.1,10.0,66.0
2021-10-05 02:00:00,66.0,60.0,81.27,10.0,8.0,30.1,10.0,66.0
2021-10-05 03:00:00,65.0,61.0,87.18,10.0,8.0,30.11,10.0,64.9
2021-10-05 04:00:00,65.0,61.0,87.18,20.0,7.0,30.12,10.0,64.9
2021-10-05 05:00:00,66.0,62.0,87.24,30.0,5.0,30.13,10.0,66.0
2021-10-05 06:00:00,66.0,62.0,87.24,30.0,7.0,30.14,10.0,66.0
2021-10-05 07:00:00,66.0,62.0,87.24,50.0,7.0,30.14,10.0,66.0
2021-10-05 08:00:00,66.0,62.0,87.24,50.0,9.0,30.15,10.0,66.0
2021-10-05 09:00:00,65.0,61.0,87.18,50.0,9.0,30.16,10.0,64.9
2021-10-05 10:00:00,65.0,60.0,84.44,40.0,7.0,30.18,10.0,64.9
2021-10-05 11:00:00,65.0,60.0,84.44,30.0,7.0,30.19,10.0,64.9
2021-10-05 12:00:00,65.0,58.0,78.05,40.0,5.0,30.21,10.0,64.9
2021-10-05 13:00:00,65.0,59.0,81.19,40.0,7.0,30.23,10.0,64.9
2021-10-05 14:00:00,66.0,59.0,78.14,40.0,7.0,30.24,10.0,66.0
2021-10-05 15:00:00,66.0,60.0,81.27,50.0,8.0,30.25,10.0,66.0
2021-10-05 16:00:00,66.0,60.0,81.27,50.0,11.0,30.25,10.0,66.0
2021-10-05 17:00:00,66.0,60.0,81.27,30.0,9.0,30.25,10.0,66.0
2021-10-05 18:00:00,67.0,60.0,78.77,40.0,8.0,30.24,10.0,66.9
2021-10-05 19:00:00,66.0,60.0,81.27,30.0,11.0,30.23,10.0,66.0
2021-10-05 20:00:00,67.0,60.0,78.77,50.0,8.0,30.24,10.0,66.9
2021-10-05 21:00:00,66.0,60.0,81.27,60.0,9.0,30.25,10.0,66.0
2021-10-05 22:00:00,67.0,61.0,81.33,40.0,6.0,30.25,10.0,66.9
2021-10-05 23:00:00,66.0,61.0,83.91,40.0,7.0,30.25,8.0,66.0
2021-10-06 00:00:00,66.0,61.0,83.91,30.0,6.0,30.26,10.0,66.0
2021-10-06 01:00:00,66.0,61.0,83.91,30.0,6.0,30.27,10.0,66.0
2021-10-06 02:00:00,66.0,61.0,83.91,50.0,6.0,30.27,10.0,66.0
2021-10-06 03:00:00,66.0,62.0,87.24,60.0,6.0,30.27,10.0,66.0
2021-10-06 04:00:00,66.0,62.0,87.24,60.0,7.0,30.27,10.0,66.0
2021-10-06 05:00:00,65.0,62.0,90.64,70.0,6.0,30.27,10.0,64.9
2021-10-06 06:00:00,63.0,60.0,90.25,50.0,5.0,30.27,7.0,63.0
2021-10-06 07:00:00,64.0,61.0,89.97,50.0,5.0,30.27,7.0,64.0
2021-10-06 08:00:00,64.0,61.0,89.97,90.0,5.0,30.27,9.0,64.0
2021-10-06 09:00:00,64.0,61.0,89.97,80.0,8.0,30.27,8.0,64.0
2021-10-06 10:00:00,64.0,61.0,89.97,70.0,7.0,30.28,8.0,64.0
2021-10-06 11:00:00,65.0,62.0,90.64,90.0,7.0,30.29,10.0,64.9
2021-10-06 12:00:00,65.0,61.0,87.18,90.0,9.0,30.29,3.0,64.9
2021-10-06 13:00:00,65.0,61.0,87.18,90.0,12.0,30.29,5.0,64.9
2021-10-06 14:00:00,65.0,61.0,87.18,80.0,10.0,30.29,6.0,64.9
2021-10-06 15:00:00,65.0,60.0,84.44,70.0,12.0,30.29,10.0,64.9
2021-10-06 16:00:00,67.0,61.0,81.33,80.0,12.0,30.28,10.0,66.9
2021-10-06 17:00:00,68.0,60.0,75.84,80.0,9.0,30.27,10.0,68.0
2021-10-06 18:00:00,67.0,60.0,78.77,60.0,12.0,30.25,10.0,66.9
2021-10-06 19:00:00,64.0,60.0,87.14,70.0,13.0,30.24,4.0,64.0
2021-10-06 20:00:00,64.0,60.0,87.14,70.0,13.0,30.22,3.0,64.0
2021-10-06 21:00:00,65.0,60.0,84.44,70.0,10.0,30.22,6.0,64.9
2021-10-06 22:00:00,65.0,60.0,84.44,60.0,10.0,30.22,4.0,64.9
2021-10-06 23:00:00,65.0,61.0,87.18,60.0,8.0,30.22,6.0,64.9
2021-10-07 00:00:00,65.0,60.0,84.44,50.0,9.0,30.22,8.0,64.9
2021-10-07 01:00:00,65.0,61.0,87.18,50.0,7.0,30.21,10.0,64.9
2021-10-07 02:00:00,66.0,62.0,87.24,50.0,7.0,30.21,10.0,66.0
2021-10-07 03:00:00,66.0,63.0,90.05,50.0,7.0,30.2,8.0,66.0
2021-10-07 04:00:00,66.0,63.0,90.05,60.0,7.0,30.19,6.0,66.0
2021-10-07 05:00:00,66.0,63.0,90.05,60.0,5.0,30.18,6.0,66.0
2021-10-07 06:00:00,66.0,63.0,90.05,70.0,6.0,30.17,6.0,66.0
2021-10-07 07:00:00,66.0,64.0,93.26,80.0,6.0,30.16,3.0,66.0
2021-10-07 08:00:00,66.0,64.0,93.26,70.0,6.0,30.15,2.0,66.0
2021-10-07 09:00:00,66.0,65.0,96.24,70.0,5.0,30.15,1.75,66.0
2021-10-07 10:00:00,67.0,64.0,90.4,100.0,8.0,30.15,3.0,66.9
2021-10-07 11:00:00,66.0,64.0,93.26,90.0,9.0,30.14,1.0,66.0
2021-10-07 12:00:00,66.0,64.0,93.26,90.0,10.0,30.14,1.0,66.0
2021-10-07 13:00:00,67.0,64.0,90.4,100.0,8.0,30.14,1.0,66.9
2021-10-07 14:00:00,67.0,65.0,93.29,120.0,9.0,30.14,1.5,66.9
2021-10-07 15:00:00,68.0,65.0,89.81,110.0,9.0,30.13,2.0,68.0
2021-10-07 16:00:00,68.0,65.0,89.81,120.0,11.0,30.12,0.5,68.0
2021-10-07 17:00:00,68.0,65.0,89.81,120.0,7.0,30.1,1.5,68.0
2021-10-07 18:00:00,68.0,66.0,93.32,110.0,8.0,30.08,2.0,68.0
2021-10-07 19:00:00,69.0,66.0,89.86,120.0,7.0,30.06,3.0,69.1
2021-10-07 20:00:00,70.0,66.0,87.14,120.0,7.0,30.05,5.0,70.0
2021-10-07 21:00:00,71.0,66.0,83.93,110.0,6.0,30.04,10.0,71.1
2021-10-07 22:00:00,70.0,65.0,83.86,140.0,3.0,30.05,10.0,70.0
2021-10-07 23:00:00,65.0,63.0,93.56,70.0,4.0,30.03,5.0,64.9
2021-10-08 00:00:00,65.0,63.0,93.56,100.0,3.0,30.04,0.5,64.9
2021-10-08 01:00:00,64.0,62.0,93.54,0.0,0.0,30.05,5.0,64.0
2021-10-08 02:00:00,64.0,63.0,96.55,0.0,0.0,30.05,0.5,64.0
2021-10-08 03:00:00,65.0,63.0,93.56,0.0,0.0,30.05,2.0,64.9
2021-10-08 04:00:00,65.0,63.0,93.56,0.0,0.0,30.04,1.5,64.9
2021-10-08 05:00:00,66.0,64.0,93.26,0.0,0.0,30.03,2.5,66.0
2021-10-08 06:00:00,65.0,62.0,90.64,0.0,0.0,30.03,4.0,64.9
2021-10-08 07:00:00,63.0,60.0,90.25,80.0,3.0,30.03,4.0,63.0
2021-10-08 08:00:00,61.0,59.0,93.12,0.0,0.0,30.02,0.5,61.0
2021-10-08 09:00:00,60.0,59.0,96.15,0.0,0.0,30.02,0.25,60.1
2021-10-08 10:00:00,61.0,59.0,93.12,0.0,0.0,30.02,0.25,61.0
2021-10-08 11:00:00,61.0,59.0,93.12,190.0,4.0,30.03,4.0,61.0
2021-10-08 12:00:00,62.0,60.0,93.16,0.0,0.0,30.04,1.5,62.1
2021-10-08 13:00:00,65.0,63.0,93.56,170.0,4.0,30.04,0.5,64.9
2021-10-08 14:00:00,67.0,64.0,90.4,150.0,4.0,30.04,0.75,66.9
2021-10-08 15:00:00,66.0,62.0,87.24,260.0,6.0,30.03,3.0,66.0
2021-10-08 16:00:00,70.0,63.0,78.46,240.0,4.0,30.03,5.0,70.0
2021-10-08 17:00:00,72.0,62.0,71.02,240.0,5.0,30.01,7.0,72.0
2021-10-08 18:00:00,75.0,61.0,61.75,210.0,5.0,29.99,10.0,75.0
2021-10-08 19:00:00,74.0,60.0,62.05,190.0,4.0,29.97,10.0,73.9
2021-10-08 20:00:00,70.0,63.0,78.46,130.0,7.0,29.96,10.0,70.0
2021-10-08 21:00:00,71.0,63.0,75.58,120.0,7.0,29.97,10.0,71.1
2021-10-08 22:00:00,69.0,63.0,80.92,130.0,6.0,29.97,10.0,69.1
2021-10-08 23:00:00,67.0,63.0,87.28,130.0,4.0,29.97,5.0,66.9
2021-10-09 00:00:00,66.0,63.0,90.05,140.0,4.0,29.98,4.0,66.0
2021-10-09 01:00:00,64.0,61.0,89.97,180.0,3.0,29.97,3.0,64.0
2021-10-09 02:00:00,63.0,61.0,93.18,180.0,3.0,29.97,2.5,63.0
2021-10-09 03:00:00,61.0,60.0,96.85,180.0,3.0,29.97,2.5,61.0
2021-10-09 04:00:00,62.0,60.0,93.16,220.0,3.0,29.97,3.0,62.1
2021-10-09 05:00:00,63.0,61.0,93.18,250.0,3.0,29.97,6.0,63.0
2021-10-09 06:00:00,63.0,61.0,93.18,0.0,0.0,29.97,7.0,63.0
2021-10-09 07:00:00,64.0,61.0,89.97,230.0,3.0,29.97,8.0,64.0
2021-10-09 08:00:00,64.0,61.0,89.97,250.0,3.0,29.96,7.0,64.0
2021-10-09 09:00:00,65.0,62.0,90.64,0.0,0.0,29.96,5.0,64.9
2021-10-09 10:00:00,64.0,62.0,93.54,0.0,0.0,29.96,5.0,64.0
2021-10-09 11:00:00,64.0,62.0,93.54,0.0,0.0,29.95,6.0,64.0
2021-10-09 12:00:00,65.0,63.0,93.56,0.0,0.0,29.96,5.0,64.9
2021-10-09 13:00:00,68.0,64.0,87.03,190.0,3.0,29.96,6.0,68.0
2021-10-09 14:00:00,71.0,63.0,75.58,160.0,5.0,29.96,10.0,71.1
2021-10-09 15:00:00,73.0,62.0,68.66,150.0,6.0,29.95,10.0,73.0
2021-10-09 16:00:00,76.0,63.0,64.31,180.0,7.0,29.94,10.0,75.9
2021-10-09 17:00:00,76.0,64.0,66.6,140.0,8.0,29.93,10.0,75.9
2021-10-09 18:00:00,75.0,64.0,68.64,130.0,8.0,29.91,10.0,75.0
2021-10-09 19:00:00,75.0,64.0,68.64,100.0,10.0,29.88,10.0,75.0
2021-10-09 20:00:00,75.0,62.0,64.2,120.0,7.0,29.88,10.0,75.0
2021-10-09 21:00:00,73.0,62.0,68.66,110.0,9.0,29.87,10.0,73.0
2021-10-09 22:00:00,69.0,61.0,75.4,100.0,6.0,29.87,10.0,69.1
2021-10-09 23:00:00,66.0,62.0,87.24,90.0,7.0,29.86,10.0,66.0
2021-10-10 00:00:00,68.0,62.0,81.41,100.0,8.0,29.84,10.0,68.0
2021-10-10 01:00:00,70.0,63.0,78.46,110.0,8.0,29.84,10.0,70.0
2021-10-10 02:00:00,70.0,63.0,78.46,110.0,10.0,29.81,10.0,70.0
2021-10-10 03:00:00,72.0,63.0,73.31,140.0,7.0,29.81,10.0,72.0
2021-10-10 04:00:00,72.0,63.0,73.31,150.0,9.0,29.8,10.0,72.0
2021-10-10 05:00:00,72.0,65.0,78.35,150.0,9.0,29.78,10.0,72.0
2021-10-10 06:00:00,72.0,65.0,78.35,150.0,10.0,29.76,10.0,72.0
2021-10-10 07:00:00,71.0,65.0,80.78,150.0,7.0,29.75,10.0,71.1
2021-10-10 08:00:00,72.0,66.0,81.41,190.0,6.0,29.74,10.0,72.0
2021-10-10 09:00:00,73.0,65.0,75.75,200.0,9.0,29.72,10.0,73.0
2021-10-10 10:00:00,73.0,64.0,73.4,190.0,11.0,29.72,10.0,73.0
2021-10-10 11:00:00,72.0,64.0,75.92,190.0,10.0,29.71,10.0,72.0
2021-10-10 12:00:00,72.0,63.0,73.31,200.0,13.0,29.72,10.0,72.0
2021-10-10 13:00:00,72.0,63.0,73.31,210.0,9.0,29.74,10.0,72.0
2021-10-10 14:00:00,73.0,64.0,73.4,190.0,13.0,29.73,10.0,73.0
2021-10-10 15:00:00,72.0,64.0,75.92,150.0,5.0,29.68,10.0,72.0
2021-10-10 16:00:00,73.0,64.0,73.4,220.0,12.0,29.75,10.0,73.0
2021-10-10 17:00:00,73.0,64.0,73.4,240.0,7.0,29.73,10.0,73.0
2021-10-10 18:00:00,72.0,64.0,75.92,200.0,13.0,29.72,10.0,72.0
2021-10-10 19:00:00,70.0,64.0,81.27,250.0,10.0,29.76,10.0,70.0
2021-10-10 20:00:00,69.0,64.0,83.81,230.0,7.0,29.74,10.0,69.1
2021-10-10 21:00:00,71.0,66.0,83.93,180.0,6.0,29.74,10.0,71.1
2021-10-10 22:00:00,72.0,66.0,81.41,180.0,4.0,29.75,10.0,72.0
2021-10-10 23:00:00,70.0,65.0,83.86,140.0,3.0,29.74,10.0,70.0
2021-10-11 00:00:00,70.0,64.0,81.27,140.0,8.0,29.71,10.0,70.0
2021-10-11 01:00:00,71.0,63.0,75.58,160.0,7.0,29.72,10.0,71.1
2021-10-11 02:00:00,69.0,63.0,80.92,170.0,6.0,29.71,10.0,69.1
2021-10-11 03:00:00,71.0,63.0,75.58,180.0,9.0,29.7,10.0,71.1
2021-10-11 04:00:00,73.0,61.0,66.04,200.0,11.0,29.69,10.0,73.0
2021-10-11 05:00:00,74.0,62.0,66.61,210.0,13.0,29.68,10.0,73.9
2021-10-11 06:00:00,74.0,62.0,66.61,210.0,14.0,29.68,10.0,73.9
2021-10-11 07:00:00,73.0,62.0,68.66,210.0,13.0,29.69,10.0,73.0
2021-10-11 08:00:00,73.0,62.0,68.66,210.0,10.0,29.69,10.0,73.0
2021-10-11 09:00:00,71.0,63.0,75.58,210.0,12.0,29.7,10.0,71.1
2021-10-11 10:00:00,70.0,63.0,78.46,200.0,7.0,29.7,10.0,70.0
2021-10-11 11:00:00,70.0,64.0,81.27,200.0,9.0,29.72,10.0,70.0
2021-10-11 12:00:00,71.0,65.0,80.78,210.0,9.0,29.73,10.0,71.1
2021-10-11 13:00:00,72.0,65.0,78.35,210.0,9.0,29.74,10.0,72.0
2021-10-11 14:00:00,73.0,66.0,78.7,200.0,7.0,29.73,10.0,73.0
2021-10-11 15:00:00,76.0,67.0,73.68,200.0,9.0,29.72,10.0,75.9
2021-10-11 16:00:00,75.0,66.0,73.59,170.0,11.0,29.71,10.0,75.0
2021-10-11 17:00:00,78.0,66.0,66.39,200.0,12.0,29.71,10.0,78.1
2021-10-11 18:00:00,77.0,64.0,64.21,180.0,10.0,29.68,10.0,77.0
2021-10-11 19:00:00,72.0,66.0,81.41,230.0,7.0,29.69,3.0,72.0
2021-10-11 20:00:00,67.0,63.0,87.28,180.0,11.0,29.71,2.5,66.9
2021-10-11 21:00:00,67.0,63.0,87.28,190.0,7.0,29.69,5.0,66.9
2021-10-11 22:00:00,67.0,63.0,87.28,130.0,13.0,29.65,5.0,66.9
2021-10-11 23:00:00,67.0,63.0,87.28,110.0,8.0,29.64,10.0,66.9
2021-10-12 00:00:00,67.0,64.0,90.4,110.0,12.0,29.67,10.0,66.9
2021-10-12 01:00:00,67.0,62.0,84.56,130.0,12.0,29.67,10.0,66.9
2021-10-12 02:00:00,66.0,63.0,90.05,120.0,10.0,29.64,10.0,66.0
2021-10-12 03:00:00,66.0,63.0,90.05,150.0,6.0,29.62,10.0,66.0
2021-10-12 04:00:00,64.0,61.0,89.97,200.0,8.0,29.64,9.0,64.0
2021-10-12 05:00:00,64.0,61.0,89.97,210.0,8.0,29.65,10.0,64.0
2021-10-12 06:00:00,63.0,61.0,93.18,210.0,10.0,29.66,5.0,63.0
2021-10-12 07:00:00,63.0,60.0,90.25,200.0,8.0,29.67,10.0,63.0
2021-10-12 08:00:00,63.0,60.0,90.25,210.0,6.0,29.68,10.0,63.0
2021-10-12 09:00:00,63.0,60.0,90.25,210.0,8.0,29.7,6.0,63.0
2021-10-12 10:00:00,63.0,61.0,93.18,230.0,8.0,29.72,8.0,63.0
2021-10-12 11:00:00,64.0,61.0,89.97,250.0,8.0,29.74,10.0,64.0
2021-10-12 12:00:00,64.0,62.0,93.54,250.0,11.0,29.78,4.0,64.0
2021-10-12 13:00:00,65.0,62.0,90.64,260.0,9.0,29.81,4.0,64.9
2021-10-12 14:00:00,65.0,61.0,87.18,280.0,12.0,29.82,4.0,64.9
2021-10-12 15:00:00,64.0,60.0,87.14,260.0,13.0,29.85,4.0,64.0
2021-10-12 16:00:00,64.0,60.0,87.14,260.0,11.0,29.86,4.0,64.0
2021-10-12 17:00:00,65.0,60.0,84.44,250.0,12.0,29.87,10.0,64.9
2021-10-12 18:00:00,65.0,60.0,84.44,250.0,10.0,29.87,10.0,64.9
2021-10-12 19:00:00,64.0,60.0,87.14,260.0,9.0,29.88,10.0,64.0
2021-10-12 20:00:00,64.0,59.0,83.78,260.0,10.0,29.9,9.0,64.0
2021-10-12 21:00:00,64.0,59.0,83.78,260.0,5.0,29.92,10.0,64.0
2021-10-12 22:00:00,63.0,59.0,86.77,230.0,6.0,29.93,10.0,63.0
2021-10-12 23:00:00,62.0,58.0,86.11,240.0,6.0,29.95,10.0,62.1
2021-10-13 00:00:00,62.0,58.0,86.11,250.0,10.0,29.96,10.0,62.1
2021-10-13 01:00:00,62.0,57.0,83.36,270.0,6.0,29.96,10.0,62.1
2021-10-13 02:00:00,61.0,57.0,86.67,280.0,5.0,29.97,10.0,61.0
2021-10-13 03:00:00,57.0,54.0,89.68,220.0,3.0,29.97,10.0,57.0
2021-10-13 04:00:00,54.0,53.0,96.76,220.0,3.0,29.96,6.0,54.0
2021-10-13 05:00:00,54.0,53.0,96.76,240.0,3.0,29.95,0.5,54.0
2021-10-13 06:00:00,54.0,53.0,96.76,200.0,3.0,29.96,1.0,54.0
2021-10-13 07:00:00,53.0,52.0,96.03,230.0,3.0,29.97,1.5,53.1
2021-10-13 08:00:00,52.0,51.0,96.73,0.0,0.0,29.98,0.25,52.0
2021-10-13 09:00:00,54.0,52.0,92.92,240.0,4.0,29.99,2.5,54.0
2021-10-13 10:00:00,54.0,52.0,92.92,0.0,0.0,29.98,6.0,54.0
2021-10-13 11:00:00,50.0,49.0,95.98,0.0,0.0,29.96,7.0,50.0
2021-10-13 12:00:00,55.0,53.0,93.29,180.0,3.0,29.97,10.0,55.0
2021-10-13 13:00:00,61.0,56.0,83.29,180.0,3.0,29.97,10.0,61.0
2021-10-13 14:00:00,66.0,58.0,75.12,160.0,5.0,29.97,10.0,66.0
2021-10-13 15:00:00,67.0,59.0,75.74,120.0,6.0,29.97,10.0,66.9
2021-10-13 16:00:00,68.0,60.0,75.84,130.0,6.0,29.95,10.0,68.0
2021-10-13 17:00:00,68.0,59.0,72.92,130.0,6.0,29.95,10.0,68.0
2021-10-13 18:00:00,66.0,60.0,81.27,170.0,6.0,29.95,9.0,66.0
2021-10-13 19:00:00,64.0,59.0,83.78,150.0,8.0,29.91,6.0,64.0
2021-10-13 20:00:00,64.0,59.0,83.78,130.0,13.0,29.86,10.0,64.0
2021-10-13 21:00:00,64.0,59.0,83.78,160.0,14.0,29.85,10.0,64.0
2021-10-13 22:00:00,65.0,59.0,81.19,140.0,16.0,29.79,10.0,64.9
2021-10-13 23:00:00,65.0,60.0,84.44,160.0,14.0,29.8,10.0,64.9
2021-10-14 00:00:00,65.0,61.0,87.18,170.0,7.0,29.81,10.0,64.9
2021-10-14 01:00:00,67.0,63.0,87.28,200.0,9.0,29.82,10.0,66.9
2021-10-14 02:00:00,68.0,64.0,87.03,190.0,8.0,29.82,10.0,68.0
2021-10-14 03:00:00,69.0,65.0,86.48,190.0,9.0,29.81,10.0,69.1
2021-10-14 04:00:00,69.0,66.0,89.86,190.0,7.0,29.81,10.0,69.1
2021-10-14 05:00:00,70.0,66.0,87.14,190.0,7.0,29.8,10.0,70.0
2021-10-14 06:00:00,72.0,67.0,83.99,200.0,11.0,29.81,10.0,72.0
2021-10-14 07:00:00,71.0,67.0,86.59,200.0,6.0,29.81,10.0,71.1
2021-10-14 08:00:00,70.0,66.0,87.14,240.0,5.0,29.82,7.0,70.0
2021-10-14 09:00:00,69.0,64.0,83.81,240.0,7.0,29.83,10.0,69.1
2021-10-14 10:00:00,67.0,55.0,65.56,280.0,6.0,29.82,10.0,66.9
2021-10-14 11:00:00,65.0,57.0,75.56,240.0,5.0,29.86,10.0,64.9
2021-10-14 12:00:00,64.0,54.0,69.92,220.0,5.0,29.87,10.0,64.0
2021-10-14 13:00:00,64.0,53.0,67.66,230.0,6.0,29.88,10.0,64.0
2021-10-14 14:00:00,65.0,50.0,58.47,240.0,8.0,29.89,10.0,64.9
2021-10-14 15:00:00,64.0,48.0,55.99,230.0,10.0,29.91,10.0,64.0
2021-10-14 16:00:00,64.0,46.0,51.93,250.0,10.0,29.92,10.0,64.0
2021-10-14 17:00:00,67.0,48.0,50.62,240.0,8.0,29.9,10.0,66.9
2021-10-14 18:00:00,70.0,47.0,43.66,240.0,10.0,29.88,10.0,70.0
2021-10-14 19:00:00,71.0,43.0,36.25,240.0,13.0,29.86,10.0,71.1
2021-10-14 20:00:00,71.0,43.0,36.25,250.0,12.0,29.86,10.0,71.1
2021-10-14 21:00:00,70.0,44.0,39.26,260.0,8.0,29.87,10.0,70.0
2021-10-14 22:00:00,64.0,46.0,51.93,260.0,6.0,29.87,10.0,64.0
2021-10-14 23:00:00,59.0,44.0,57.66,240.0,5.0,29.89,10.0,59.0
2021-10-15 00:00:00,57.0,45.0,64.12,240.0,4.0,29.9,10.0,57.0
2021-10-15 01:00:00,54.0,46.0,74.26,250.0,4.0,29.9,10.0,54.0
2021-10-15 02:00:00,55.0,45.0,68.93,210.0,4.0,29.9,10.0,55.0
2021-10-15 03:00:00,52.0,45.0,76.94,0.0,0.0,29.91,10.0,52.0
2021-10-15 04:00:00,52.0,45.0,76.94,250.0,3.0,29.91,10.0,52.0
2021-10-15 05:00:00,49.0,44.0,83.42,0.0,0.0,29.9,10.0,48.9
2021-10-15 06:00:00,47.0,44.0,89.92,240.0,3.0,29.9,10.0,45.72
2021-10-15 07:00:00,48.0,44.0,86.28,0.0,0.0,29.89,10.0,48.0
2021-10-15 08:00:00,45.0,42.0,89.49,300.0,3.0,29.9,10.0,43.55
2021-10-15 09:00:00,45.0,43.0,92.65,310.0,4.0,29.9,10.0,42.6
2021-10-15 10:00:00,50.0,45.0,82.86,310.0,4.0,29.92,10.0,50.0
2021-10-15 11:00:00,51.0,43.0,73.69,340.0,4.0,29.93,10.0,51.1
2021-10-15 12:00:00,53.0,44.0,71.4,350.0,5.0,29.9,10.0,53.1
2021-10-15 13:00:00,55.0,45.0,68.93,360.0,5.0,29.92,10.0,55.0
2021-10-15 14:00:00,58.0,47.0,66.7,340.0,5.0,29.92,10.0,57.9
2021-10-15 15:00:00,59.0,47.0,64.12,340.0,7.0,29.91,10.0,59.0
2021-10-15 16:00:00,59.0,46.0,61.98,350.0,6.0,29.91,10.0,59.0
2021-10-15 17:00:00,60.0,44.0,55.44,330.0,7.0,29.9,10.0,60.1
2021-10-15 18:00:00,60.0,44.0,55.44,320.0,5.0,29.9,10.0,60.1
2021-10-15 19:00:00,60.0,44.0,55.44,290.0,9.0,29.9,10.0,60.1
2021-10-15 20:00:00,57.0,44.0,61.95,290.0,7.0,29.9,10.0,57.0
2021-10-15 21:00:00,59.0,42.0,53.4,300.0,5.0,29.88,10.0,59.0
2021-10-15 22:00:00,56.0,40.0,54.83,290.0,5.0,29.9,10.0,55.9
2021-10-15 23:00:00,51.0,42.0,71.19,260.0,3.0,29.9,10.0,51.1
2021-10-16 00:00:00,52.0,44.0,74.35,280.0,4.0,29.89,10.0,52.0
2021-10-16 01:00:00,50.0,44.0,80.06,240.0,4.0,29.9,10.0,50.0
2021-10-16 02:00:00,51.0,44.0,76.86,230.0,5.0,29.9,10.0,51.1
2021-10-16 03:00:00,53.0,43.0,68.46,280.0,6.0,29.9,10.0,53.1
2021-10-16 04:00:00,52.0,41.0,66.0,290.0,6.0,29.9,10.0,52.0
2021-10-16 05:00:00,50.0,37.0,60.79,290.0,6.0,29.91,10.0,50.0
2021-10-16 06:00:00,46.0,37.0,70.64,280.0,6.0,29.92,10.0,42.39
2021-10-16 07:00:00,45.0,36.0,70.53,280.0,5.0,29.92,10.0,41.83
2021-10-16 08:00:00,42.0,35.0,76.04,260.0,5.0,29.91,10.0,38.39
2021-10-16 09:00:00,43.0,37.0,79.19,270.0,7.0,29.93,10.0,38.19
2021-10-16 10:00:00,42.0,36.0,78.8,270.0,6.0,29.94,10.0,37.69
2021-10-16 11:00:00,42.0,36.0,78.8,270.0,7.0,29.95,10.0,37.09
2021-10-16 12:00:00,43.0,37.0,79.19,280.0,7.0,29.97,10.0,38.19
2021-10-16 13:00:00,48.0,38.0,67.87,290.0,9.0,29.98,10.0,43.41
2021-10-16 14:00:00,52.0,38.0,58.48,280.0,12.0,29.99,10.0,52.0
2021-10-16 15:00:00,55.0,38.0,52.4,280.0,12.0,29.99,10.0,55.0
2021-10-16 16:00:00,56.0,36.0,47.05,300.0,14.0,29.99,10.0,55.9
2021-10-16 17:00:00,56.0,36.0,47.05,300.0,13.0,29.99,10.0,55.9
2021-10-16 18:00:00,59.0,34.0,38.87,310.0,12.0,29.98,10.0,59.0
2021-10-16 19:00:00,59.0,33.0,37.49,300.0,13.0,29.99,10.0,59.0
2021-10-16 20:00:00,60.0,34.0,37.37,280.0,15.0,30.01,10.0,60.1
2021-10-16 21:00:00,59.0,33.0,37.49,280.0,15.0,30.01,10.0,59.0
2021-10-16 22:00:00,56.0,34.0,43.46,280.0,8.0,30.01,10.0,55.9
2021-10-16 23:00:00,49.0,34.0,56.23,260.0,6.0,30.03,10.0,45.88
2021-10-17 00:00:00,45.0,34.0,65.13,260.0,6.0,30.04,10.0,41.19
2021-10-17 01:00:00,48.0,35.0,60.76,260.0,8.0,30.06,10.0,43.82
2021-10-17 02:00:00,47.0,35.0,63.33,270.0,6.0,30.06,10.0,43.48
2021-10-17 03:00:00,45.0,35.0,68.05,260.0,8.0,30.06,10.0,40.13
2021-10-17 04:00:00,45.0,35.0,68.05,260.0,7.0,30.06,10.0,40.63
2021-10-17 05:00:00,44.0,35.0,70.43,250.0,7.0,30.06,10.0,39.53
2021-10-17 06:00:00,44.0,35.0,70.43,260.0,7.0,30.06,10.0,39.53
2021-10-17 07:00:00,44.0,34.0,67.41,260.0,5.0,30.06,10.0,40.77
2021-10-17 08:00:00,43.0,34.0,70.3,260.0,7.0,30.06,10.0,38.19
2021-10-17 09:00:00,42.0,34.0,72.78,250.0,7.0,30.07,10.0,37.09
2021-10-17 10:00:00,41.0,33.0,73.25,280.0,4.0,30.08,10.0,37.93
2021-10-17 11:00:00,40.0,32.0,73.14,270.0,5.0,30.1,10.0,35.78
2021-10-17 12:00:00,43.0,34.0,70.3,270.0,5.0,30.11,10.0,39.46
2021-10-17 13:00:00,50.0,37.0,60.79,270.0,5.0,30.12,10.0,50.0
2021-10-17 14:00:00,56.0,38.0,50.71,280.0,6.0,30.12,10.0,55.9
2021-10-17 15:00:00,60.0,38.0,43.61,270.0,9.0,30.13,10.0,60.1
2021-10-17 16:00:00,65.0,35.0,32.97,280.0,10.0,30.13,10.0,64.9
2021-10-17 17:00:00,66.0,33.0,29.29,310.0,10.0,30.11,10.0,66.0
2021-10-17 18:00:00,67.0,34.0,29.44,280.0,9.0,30.09,10.0,66.9
2021-10-17 19:00:00,67.0,32.0,27.17,290.0,10.0,30.08,10.0,66.9
2021-10-17 20:00:00,67.0,33.0,28.39,270.0,10.0,30.08,10.0,66.9
2021-10-17 21:00:00,66.0,30.0,25.85,300.0,9.0,30.08,10.0,66.0
2021-10-17 22:00:00,62.0,30.0,29.63,300.0,6.0,30.08,10.0,62.1
2021-10-17 23:00:00,53.0,32.0,44.42,280.0,4.0,30.09,10.0,53.1
2021-10-18 00:00:00,51.0,33.0,49.98,250.0,5.0,30.09,10.0,51.1
2021-10-18 01:00:00,50.0,34.0,53.97,250.0,6.0,30.1,10.0,50.0
2021-10-18 02:00:00,43.0,34.0,70.3,250.0,6.0,30.1,10.0,38.78
2021-10-18 03:00:00,50.0,37.0,60.79,270.0,4.0,30.1,10.0,50.0
2021-10-18 04:00:00,43.0,36.0,76.12,260.0,5.0,30.1,10.0,39.46
2021-10-18 05:00:00,44.0,36.0,72.99,260.0,3.0,30.11,10.0,42.52
2021-10-18 06:00:00,44.0,36.0,72.99,250.0,3.0,30.11,10.0,42.52
2021-10-18 07:00:00,42.0,36.0,78.8,260.0,4.0,30.11,10.0,39.21
2021-10-18 08:00:00,42.0,36.0,78.8,250.0,4.0,30.11,10.0,39.21
2021-10-18 09:00:00,45.0,37.0,73.37,240.0,3.0,30.12,10.0,43.55
2021-10-18 10:00:00,43.0,37.0,79.19,0.0,0.0,30.13,10.0,43.0
2021-10-18 11:00:00,41.0,36.0,82.22,240.0,3.0,30.13,10.0,38.98
2021-10-18 12:00:00,40.0,36.0,85.81,260.0,4.0,30.13,10.0,36.65
2021-10-18 13:00:00,52.0,41.0,66.0,260.0,3.0,30.14,10.0,52.0
2021-10-18 14:00:00,61.0,42.0,49.73,240.0,5.0,30.14,10.0,61.0
2021-10-18 15:00:00,66.0,45.0,46.62,190.0,4.0,30.13,10.0,66.0
2021-10-18 16:00:00,69.0,43.0,38.82,200.0,6.0,30.12,10.0,69.1
2021-10-18 17:00:00,71.0,42.0,35.02,250.0,6.0,30.1,10.0,71.1
2021-10-18 18:00:00,72.0,42.0,33.97,270.0,8.0,30.09,10.0,72.0
2021-10-18 19:00:00,72.0,44.0,36.68,220.0,7.0,30.07,10.0,72.0
2021-10-18 20:00:00,73.0,44.0,35.46,250.0,7.0,30.06,10.0,73.0
2021-10-18 21:00:00,71.0,44.0,37.81,230.0,5.0,30.06,10.0,71.1
2021-10-18 22:00:00,65.0,50.0,58.47,150.0,7.0,30.05,10.0,64.9
2021-10-18 23:00:00,60.0,50.0,69.24,0.0,0.0,30.06,10.0,60.1
2021-10-19 00:00:00,54.0,49.0,82.82,0.0,0.0,30.06,10.0,54.0
2021-10-19 01:00:00,52.0,48.0,86.17,0.0,0.0,30.07,10.0,52.0
2021-10-19 02:00:00,55.0,50.0,83.2,210.0,5.0,30.07,10.0,55.0
2021-10-19 03:00:00,55.0,48.0,77.21,220.0,3.0,30.07,10.0,55.0
2021-10-19 04:00:00,54.0,47.0,76.83,210.0,4.0,30.07,10.0,54.0
2021-10-19 05:00:00,53.0,44.0,71.4,200.0,5.0,30.06,10.0,53.1
2021-10-19 06:00:00,52.0,43.0,71.28,220.0,3.0,30.06,10.0,52.0
2021-10-19 07:00:00,53.0,43.0,68.46,220.0,4.0,30.07,10.0,53.1
2021-10-19 08:00:00,51.0,43.0,73.69,220.0,3.0,30.07,10.0,51.1
2021-10-19 09:00:00,49.0,43.0,79.98,220.0,4.0,30.08,10.0,47.16
2021-10-19 10:00:00,51.0,45.0,79.54,220.0,5.0,30.09,10.0,51.1
2021-10-19 11:00:00,50.0,44.0,80.06,240.0,6.0,30.09,10.0,50.0
2021-10-19 12:00:00,52.0,46.0,79.92,240.0,6.0,30.09,10.0,52.0
2021-10-19 13:00:00,58.0,48.0,69.52,240.0,6.0,30.11,10.0,57.9
2021-10-19 14:00:00,64.0,50.0,60.34,190.0,4.0,30.1,10.0,64.0
2021-10-19 15:00:00,69.0,50.0,50.56,240.0,6.0,30.1,10.0,69.1
2021-10-19 16:00:00,72.0,49.0,43.97,230.0,6.0,30.09,10.0,72.0
2021-10-19 17:00:00,72.0,49.0,43.97,210.0,9.0,30.08,10.0,72.0
2021-10-19 18:00:00,72.0,49.0,43.97,220.0,9.0,30.05,10.0,72.0
2021-10-19 19:00:00,73.0,49.0,42.51,210.0,11.0,30.04,10.0,73.0
2021-10-19 20:00:00,72.0,46.0,39.42,220.0,7.0,30.03,10.0,72.0
2021-10-19 21:00:00,71.0,45.0,39.13,210.0,10.0,30.03,10.0,71.1
2021-10-19 22:00:00,67.0,44.0,43.67,210.0,6.0,30.03,10.0,66.9
2021-10-19 23:00:00,64.0,45.0,49.99,200.0,5.0,30.04,10.0,64.0
2021-10-20 00:00:00,62.0,45.0,53.45,210.0,6.0,30.05,10.0,62.1
2021-10-20 01:00:00,60.0,45.0,57.37,210.0,7.0,30.05,10.0,60.1
2021-10-20 02:00:00,57.0,45.0,64.12,200.0,6.0,30.05,10.0,57.0
2021-10-20 03:00:00,56.0,44.0,64.47,220.0,6.0,30.06,10.0,55.9
2021-10-20 04:00:00,56.0,44.0,64.47,220.0,6.0,30.06,10.0,55.9
2021-10-20 05:00:00,57.0,45.0,64.12,220.0,6.0,30.06,10.0,57.0
2021-10-20 06:00:00,55.0,45.0,68.93,230.0,5.0,30.05,10.0,55.0
2021-10-20 07:00:00,55.0,45.0,68.93,240.0,6.0,30.06,10.0,55.0
2021-10-20 08:00:00,55.0,46.0,71.6,240.0,7.0,30.06,10.0,55.0
2021-10-20 09:00:00,55.0,45.0,68.93,220.0,4.0,30.06,10.0,55.0
2021-10-20 10:00:00,52.0,44.0,74.35,210.0,4.0,30.06,10.0,52.0
2021-10-20 11:00:00,52.0,45.0,76.94,210.0,4.0,30.05,10.0,52.0
2021-10-20 12:00:00,53.0,47.0,79.4,220.0,4.0,30.05,10.0,53.1
2021-10-20 13:00:00,58.0,48.0,69.52,220.0,7.0,30.05,10.0,57.9
2021-10-20 14:00:00,63.0,50.0,62.49,200.0,7.0,30.03,10.0,63.0
2021-10-20 15:00:00,68.0,51.0,54.7,230.0,5.0,30.03,10.0,68.0
2021-10-20 16:00:00,70.0,51.0,51.07,240.0,5.0,30.02,10.0,70.0
2021-10-20 17:00:00,73.0,51.0,46.13,160.0,5.0,29.98,10.0,73.0
2021-10-20 18:00:00,74.0,52.0,46.27,180.0,8.0,29.94,10.0,73.9
2021-10-20 19:00:00,72.0,54.0,53.09,140.0,10.0,29.93,10.0,72.0
2021-10-20 20:00:00,73.0,49.0,42.51,230.0,8.0,29.91,10.0,73.0
2021-10-20 21:00:00,72.0,51.0,47.72,230.0,5.0,29.91,10.0,72.0
2021-10-20 22:00:00,68.0,51.0,54.7,180.0,5.0,29.9,10.0,68.0
2021-10-20 23:00:00,63.0,53.0,70.07,80.0,7.0,29.89,10.0,63.0
2021-10-21 00:00:00,65.0,58.0,78.05,120.0,7.0,29.88,10.0,64.9
2021-10-21 01:00:00,64.0,59.0,83.78,0.0,0.0,29.86,10.0,64.0
2021-10-21 02:00:00,65.0,58.0,78.05,200.0,3.0,29.86,10.0,64.9
2021-10-21 03:00:00,65.0,57.0,75.56,140.0,4.0,29.84,10.0,64.9
2021-10-21 04:00:00,64.0,56.0,74.93,190.0,4.0,29.82,10.0,64.0
2021-10-21 05:00:00,64.0,58.0,80.54,210.0,6.0,29.8,10.0,64.0
2021-10-21 06:00:00,62.0,57.0,83.36,250.0,8.0,29.79,10.0,62.1
2021-10-21 07:00:00,60.0,54.0,80.25,240.0,10.0,29.78,10.0,60.1
2021-10-21 08:00:00,57.0,48.0,71.81,250.0,12.0,29.79,10.0,57.0
2021-10-21 09:00:00,55.0,48.0,77.21,250.0,10.0,29.78,10.0,55.0
2021-10-21 10:00:00,55.0,48.0,77.21,240.0,8.0,29.79,10.0,55.0
2021-10-21 11:00:00,55.0,47.0,74.08,260.0,10.0,29.78,10.0,55.0
2021-10-21 12:00:00,54.0,47.0,76.83,250.0,17.0,29.8,10.0,54.0
2021-10-21 13:00:00,51.0,47.0,85.48,270.0,10.0,29.82,10.0,51.1
2021-10-21 14:00:00,50.0,46.0,86.06,260.0,14.0,29.83,10.0,50.0
2021-10-21 15:00:00,51.0,46.0,82.62,260.0,11.0,29.85,10.0,51.1
2021-10-21 16:00:00,51.0,47.0,85.48,270.0,11.0,29.86,10.0,51.1
2021-10-21 17:00:00,50.0,47.0,89.04,270.0,10.0,29.88,1.0,50.0
2021-10-21 18:00:00,54.0,51.0,89.88,290.0,8.0,29.89,3.0,54.0
2021-10-21 19:00:00,53.0,49.0,85.59,320.0,12.0,29.92,4.0,53.1
2021-10-21 20:00:00,51.0,46.0,82.62,350.0,10.0,29.95,10.0,51.1
2021-10-21 21:00:00,51.0,45.0,79.54,330.0,7.0,29.97,10.0,51.1
2021-10-21 22:00:00,51.0,45.0,79.54,350.0,5.0,30.0,10.0,51.1
2021-10-21 23:00:00,51.0,44.0,76.86,350.0,7.0,30.03,10.0,51.1
2021-10-22 00:00:00,50.0,43.0,76.76,10.0,4.0,30.05,10.0,50.0
2021-10-22 01:00:00,47.0,41.0,79.82,360.0,3.0,30.06,10.0,45.72
2021-10-22 02:00:00,46.0,40.0,79.13,350.0,3.0,30.06,10.0,44.69
2021-10-22 03:00:00,40.0,37.0,89.27,280.0,3.0,30.07,10.0,37.72
2021-10-22 04:00:00,38.0,35.0,89.53,250.0,3.0,30.06,10.0,35.43
2021-10-22 05:00:00,36.0,35.0,96.49,270.0,3.0,30.05,1.5,33.26
2021-10-22 06:00:00,37.0,35.0,92.76,270.0,4.0,30.04,10.0,33.26
2021-10-22 07:00:00,34.0,32.0,92.29,280.0,4.0,30.04,10.0,29.76
2021-10-22 08:00:00,37.0,34.0,88.78,270.0,5.0,30.05,10.0,32.33
2021-10-22 09:00:00,40.0,36.0,85.81,300.0,6.0,30.06,10.0,35.04
2021-10-22 10:00:00,38.0,34.0,85.69,290.0,4.0,30.06,10.0,34.31
2021-10-22 11:00:00,38.0,34.0,85.69,300.0,3.0,30.05,10.0,35.43
2021-10-22 12:00:00,40.0,36.0,85.81,310.0,4.0,30.06,10.0,36.65
2021-10-22 13:00:00,43.0,36.0,76.12,330.0,4.0,30.07,10.0,40.27
2021-10-22 14:00:00,46.0,36.0,67.9,340.0,4.0,30.06,10.0,43.77
2021-10-22 15:00:00,48.0,36.0,62.97,310.0,5.0,30.06,10.0,45.4
2021-10-22 16:00:00,50.0,36.0,58.44,300.0,5.0,30.06,10.0,50.0
2021-10-22 17:00:00,51.0,35.0,54.13,300.0,6.0,30.05,10.0,51.1
2021-10-22 18:00:00,53.0,35.0,50.28,300.0,7.0,30.03,10.0,53.1
2021-10-22 19:00:00,53.0,35.0,50.28,330.0,5.0,30.0,10.0,53.1
2021-10-22 20:00:00,53.0,33.0,46.42,320.0,3.0,30.0,10.0,53.1
2021-10-22 21:00:00,52.0,33.0,48.34,320.0,3.0,30.01,10.0,52.0
2021-10-22 22:00:00,50.0,36.0,58.44,0.0,0.0,30.01,10.0,50.0
2021-10-22 23:00:00,50.0,38.0,62.98,340.0,4.0,30.02,10.0,50.0
2021-10-23 00:00:00,48.0,36.0,62.97,350.0,3.0,30.01,10.0,46.98
2021-10-23 01:00:00,48.0,36.0,62.97,350.0,4.0,30.01,10.0,46.1
2021-10-23 02:00:00,46.0,35.0,65.52,360.0,6.0,30.01,10.0,42.39
2021-10-23 03:00:00,44.0,33.0,65.02,350.0,5.0,30.01,10.0,40.77
2021-10-23 04:00:00,44.0,33.0,65.02,310.0,4.0,30.01,10.0,41.55
2021-10-23 05:00:00,44.0,33.0,65.02,330.0,4.0,30.01,10.0,41.55
2021-10-23 06:00:00,43.0,33.0,67.82,320.0,4.0,30.01,10.0,40.27
2021-10-23 07:00:00,41.0,32.0,70.08,310.0,4.0,30.02,10.0,37.93
2021-10-23 08:00:00,36.0,30.0,78.6,270.0,3.0,30.01,10.0,33.26
2021-10-23 09:00:00,36.0,32.0,85.23,300.0,3.0,30.01,10.0,33.26
2021-10-23 10:00:00,34.0,30.9,88.27,290.0,3.0,30.03,10.0,30.97
2021-10-23 11:00:00,34.0,30.9,88.27,290.0,4.0,30.03,10.0,29.76
2021-10-23 12:00:00,35.0,30.9,84.49,290.0,3.0,30.04,10.0,32.23
2021-10-23 13:00:00,45.0,34.0,65.13,340.0,4.0,30.06,10.0,42.6
2021-10-23 14:00:00,49.0,34.0,56.23,310.0,7.0,30.06,10.0,45.38
2021-10-23 15:00:00,51.0,30.0,44.09,340.0,6.0,30.06,10.0,51.1
2021-10-23 16:00:00,52.0,32.0,46.25,260.0,5.0,30.06,10.0,52.0
2021-10-23 17:00:00,53.0,30.0,40.96,310.0,7.0,30.05,10.0,53.1
2021-10-23 18:00:00,54.0,33.0,44.92,310.0,7.0,30.02,10.0,54.0
2021-10-23 19:00:00,55.0,30.9,39.63,270.0,5.0,30.02,10.0,55.0
2021-10-23 20:00:00,54.0,30.9,41.11,280.0,4.0,30.01,10.0,54.0
2021-10-23 21:00:00,52.0,34.0,50.12,90.0,7.0,30.01,10.0,52.0
2021-10-23 22:00:00,46.0,34.0,62.71,80.0,5.0,30.01,10.0,43.02
2021-10-23 23:00:00,45.0,33.0,62.83,140.0,3.0,30.03,10.0,43.55
2021-10-24 00:00:00,40.0,33.0,76.44,0.0,0.0,30.03,10.0,39.9
2021-10-24 01:00:00,38.0,32.0,79.08,0.0,0.0,30.03,10.0,37.9
2021-10-24 02:00:00,37.0,32.0,81.93,0.0,0.0,30.03,10.0,37.0
2021-10-24 03:00:00,36.0,30.9,81.53,0.0,0.0,30.03,10.0,36.0
2021-10-24 04:00:00,34.0,30.9,88.27,0.0,0.0,30.04,10.0,34.0
2021-10-24 05:00:00,34.0,30.9,88.27,0.0,0.0,30.04,10.0,34.0
2021-10-24 06:00:00,30.9,28.9,92.18,250.0,3.0,30.05,10.0,27.43
2021-10-24 07:00:00,33.0,30.0,88.23,20.0,3.0,30.02,10.0,29.95
2021-10-24 08:00:00,36.0,32.0,85.23,10.0,3.0,30.01,10.0,33.26
2021-10-24 09:00:00,36.0,30.9,81.53,360.0,3.0,29.99,10.0,33.26
2021-10-24 10:00:00,36.0,32.0,85.23,20.0,3.0,29.99,10.0,33.26
2021-10-24 11:00:00,37.0,32.0,81.93,0.0,0.0,29.99,10.0,37.0
2021-10-24 12:00:00,39.0,35.0,85.76,10.0,4.0,29.99,10.0,35.59
2021-10-24 13:00:00,45.0,39.0,79.36,40.0,4.0,29.99,10.0,42.6
2021-10-24 14:00:00,54.0,44.0,69.09,90.0,8.0,29.98,10.0,54.0
2021-10-24 15:00:00,54.0,42.0,63.98,110.0,12.0,29.99,10.0,54.0
2021-10-24 16:00:00,53.0,41.0,63.38,120.0,13.0,29.97,10.0,53.1
2021-10-24 17:00:00,53.0,39.0,58.64,100.0,12.0,29.94,10.0,53.1
2021-10-24 18:00:00,53.0,39.0,58.64,80.0,13.0,29.92,10.0,53.1
2021-10-24 19:00:00,52.0,41.0,66.0,90.0,14.0,29.91,10.0,52.0
2021-10-24 20:00:00,52.0,40.0,63.24,80.0,18.0,29.88,10.0,52.0
2021-10-24 21:00:00,50.0,41.0,71.07,80.0,17.0,29.9,5.0,50.0
2021-10-24 22:00:00,49.0,43.0,79.98,70.0,18.0,29.89,5.0,42.0
2021-10-24 23:00:00,49.0,43.0,79.98,70.0,19.0,29.88,5.0,41.79
2021-10-25 00:00:00,49.0,44.0,83.42,70.0,24.0,29.86,8.0,40.86
2021-10-25 01:00:00,49.0,43.0,79.98,70.0,23.0,29.84,10.0,41.03
2021-10-25 02:00:00,48.0,43.0,82.72,70.0,21.0,29.81,10.0,40.19
2021-10-25 03:00:00,48.0,42.0,79.91,70.0,25.0,29.85,5.0,39.48
2021-10-25 04:00:00,48.0,43.0,82.72,70.0,24.0,29.86,6.0,39.64
2021-10-25 05:00:00,49.0,43.0,79.98,80.0,29.0,29.76,10.0,40.08
2021-10-25 06:00:00,49.0,44.0,83.42,70.0,24.0,29.78,10.0,40.86
2021-10-25 07:00:00,50.0,44.0,80.06,70.0,26.0,29.77,10.0,50.0
2021-10-25 08:00:00,49.0,45.0,86.33,70.0,23.0,29.77,3.0,41.03
2021-10-25 09:00:00,49.0,46.0,89.67,60.0,17.0,29.77,3.0,42.22
2021-10-25 10:00:00,49.0,45.0,86.33,40.0,18.0,29.8,6.0,42.0
2021-10-25 11:00:00,49.0,45.0,86.33,50.0,16.0,29.82,6.0,42.45
2021-10-25 12:00:00,49.0,45.0,86.33,40.0,14.0,29.84,7.0,42.95
2021-10-25 13:00:00,50.0,44.0,80.06,40.0,13.0,29.86,10.0,50.0
2021-10-25 14:00:00,49.0,44.0,83.42,40.0,15.0,29.86,10.0,42.69
2021-10-25 15:00:00,50.0,45.0,82.86,50.0,16.0,29.87,10.0,50.0
2021-10-25 16:00:00,51.0,44.0,76.86,30.0,17.0,29.9,10.0,51.1
2021-10-25 17:00:00,51.0,43.0,73.69,30.0,19.0,29.93,10.0,51.1
2021-10-25 18:00:00,53.0,42.0,66.13,30.0,13.0,29.95,10.0,53.1
2021-10-25 19:00:00,53.0,41.0,63.38,30.0,16.0,29.97,10.0,53.1
2021-10-25 20:00:00,54.0,41.0,61.32,20.0,12.0,29.99,10.0,54.0
2021-10-25 21:00:00,52.0,39.0,61.06,20.0,18.0,30.0,10.0,52.0
2021-10-25 22:00:00,51.0,39.0,63.12,10.0,10.0,30.03,10.0,51.1
2021-10-25 23:00:00,50.0,40.0,68.1,10.0,10.0,30.04,10.0,50.0
2021-10-26 00:00:00,51.0,40.0,65.38,10.0,8.0,30.06,10.0,51.1
2021-10-26 01:00:00,48.0,40.0,73.38,350.0,8.0,30.07,10.0,43.82
2021-10-26 02:00:00,48.0,41.0,76.58,350.0,8.0,30.07,10.0,43.82
2021-10-26 03:00:00,48.0,40.0,73.38,350.0,6.0,30.06,10.0,44.8
2021-10-26 04:00:00,48.0,40.0,73.38,330.0,8.0,30.07,10.0,43.82
2021-10-26 05:00:00,47.0,39.0,73.85,340.0,7.0,30.09,10.0,42.94
2021-10-26 06:00:00,47.0,39.0,73.85,330.0,7.0,30.1,10.0,42.94
2021-10-26 07:00:00,47.0,39.0,73.85,340.0,8.0,30.1,10.0,42.47
2021-10-26 08:00:00,47.0,39.0,73.85,330.0,7.0,30.12,10.0,42.94
2021-10-26 09:00:00,45.0,38.0,76.01,330.0,5.0,30.12,10.0,41.83
2021-10-26 10:00:00,43.0,36.0,76.12,340.0,5.0,30.12,10.0,39.46
2021-10-26 11:00:00,42.0,35.0,76.04,340.0,4.0,30.12,10.0,39.21
2021-10-26 12:00:00,42.0,35.0,76.04,320.0,5.0,30.13,10.0,38.39
2021-10-26 13:00:00,47.0,37.0,68.27,350.0,5.0,30.14,10.0,44.09
2021-10-26 14:00:00,52.0,39.0,61.06,10.0,7.0,30.12,10.0,52.0
2021-10-26 15:00:00,55.0,38.0,52.4,10.0,6.0,30.12,10.0,55.0
2021-10-26 16:00:00,56.0,38.0,50.71,40.0,9.0,30.11,10.0,55.9
2021-10-26 17:00:00,57.0,40.0,52.7,40.0,3.0,30.1,10.0,57.0
2021-10-26 18:00:00,56.0,40.0,54.83,50.0,8.0,30.08,10.0,55.9
2021-10-26 19:00:00,55.0,41.0,59.13,20.0,8.0,30.06,10.0,55.0
2021-10-26 20:00:00,55.0,40.0,56.66,30.0,5.0,30.06,10.0,55.0
2021-10-26 21:00:00,53.0,40.0,60.73,60.0,8.0,30.06,10.0,53.1
2021-10-26 22:00:00,49.0,39.0,68.51,40.0,4.0,30.06,10.0,47.16
2021-10-26 23:00:00,47.0,39.0,73.85,40.0,4.0,30.06,10.0,44.82
2021-10-27 00:00:00,46.0,39.0,76.4,40.0,5.0,30.07,10.0,43.02
2021-10-27 01:00:00,44.0,38.0,78.66,30.0,5.0,30.07,10.0,40.77
2021-10-27 02:00:00,43.0,38.0,82.04,50.0,4.0,30.06,10.0,40.27
2021-10-27 03:00:00,42.0,37.0,81.98,40.0,6.0,30.04,10.0,37.69
2021-10-27 04:00:00,44.0,39.0,82.12,20.0,4.0,30.03,10.0,41.55
2021-10-27 05:00:00,39.0,36.0,88.87,0.0,0.0,30.03,10.0,39.0
2021-10-27 06:00:00,39.0,37.0,92.45,350.0,4.0,30.03,10.0,35.59
2021-10-27 07:00:00,41.0,38.0,88.62,0.0,0.0,30.02,10.0,41.0
2021-10-27 08:00:00,43.0,39.0,85.66,70.0,3.0,30.02,10.0,41.26
2021-10-27 09:00:00,43.0,39.0,85.66,110.0,4.0,30.03,10.0,40.27
2021-10-27 10:00:00,45.0,39.0,79.36,120.0,4.0,30.04,10.0,42.6
2021-10-27 11:00:00,45.0,39.0,79.36,110.0,3.0,30.05,10.0,43.55
2021-10-27 12:00:00,46.0,40.0,79.13,100.0,3.0,30.06,10.0,44.69
2021-10-27 13:00:00,49.0,42.0,77.26,190.0,4.0,30.05,10.0,47.16
2021-10-27 14:00:00,51.0,44.0,76.86,180.0,5.0,30.05,10.0,51.1
2021-10-27 15:00:00,53.0,43.0,68.46,120.0,4.0,30.04,10.0,53.1
2021-10-27 16:00:00,55.0,42.0,61.69,150.0,7.0,30.01,10.0,55.0
2021-10-27 17:00:00,55.0,42.0,61.69,130.0,8.0,29.98,10.0,55.0
2021-10-27 18:00:00,55.0,41.0,59.13,110.0,12.0,29.96,10.0,55.0
2021-10-27 19:00:00,54.0,39.0,56.74,140.0,10.0,29.93,10.0,54.0
2021-10-27 20:00:00,53.0,40.0,60.73,110.0,8.0,29.92,10.0,53.1
2021-10-27 21:00:00,51.0,40.0,65.38,90.0,13.0,29.9,10.0,51.1
2021-10-27 22:00:00,50.0,39.0,65.75,120.0,6.0,29.93,10.0,50.0
2021-10-27 23:00:00,45.0,39.0,79.36,90.0,7.0,29.92,10.0,40.63
2021-10-28 00:00:00,50.0,42.0,74.15,100.0,8.0,29.89,10.0,50.0
2021-10-28 01:00:00,52.0,44.0,74.35,120.0,10.0,29.86,10.0,52.0
2021-10-28 02:00:00,52.0,45.0,76.94,110.0,9.0,29.85,10.0,52.0
2021-10-28 03:00:00,52.0,43.0,71.28,110.0,9.0,29.83,10.0,52.0
2021-10-28 04:00:00,52.0,45.0,76.94,110.0,8.0,29.82,10.0,52.0
2021-10-28 05:00:00,53.0,45.0,73.89,110.0,9.0,29.8,10.0,53.1
2021-10-28 06:00:00,52.0,46.0,79.92,110.0,8.0,29.79,10.0,52.0
2021-10-28 07:00:00,52.0,46.0,79.92,110.0,10.0,29.77,10.0,52.0
2021-10-28 08:00:00,52.0,46.0,79.92,120.0,7.0,29.75,10.0,52.0
2021-10-28 09:00:00,53.0,46.0,76.75,110.0,8.0,29.75,10.0,53.1
2021-10-28 10:00:00,53.0,47.0,79.4,100.0,11.0,29.73,10.0,53.1
2021-10-28 11:00:00,53.0,47.0,79.4,110.0,10.0,29.71,10.0,53.1
2021-10-28 12:00:00,54.0,48.0,80.07,90.0,12.0,29.68,10.0,54.0
2021-10-28 13:00:00,54.0,48.0,80.07,90.0,12.0,29.65,10.0,54.0
2021-10-28 14:00:00,54.0,48.0,80.07,80.0,12.0,29.63,10.0,54.0
2021-10-28 15:00:00,54.0,48.0,80.07,100.0,13.0,29.63,10.0,54.0
2021-10-28 16:00:00,55.0,48.0,77.21,100.0,9.0,29.62,10.0,55.0
2021-10-28 17:00:00,55.0,48.0,77.21,100.0,10.0,29.59,10.0,55.0
2021-10-28 18:00:00,55.0,48.0,77.21,90.0,12.0,29.59,10.0,55.0
2021-10-28 19:00:00,56.0,49.0,77.28,80.0,10.0,29.58,10.0,55.9
2021-10-28 20:00:00,56.0,50.0,80.52,70.0,6.0,29.58,10.0,55.9
2021-10-28 21:00:00,56.0,52.0,86.71,50.0,6.0,29.59,5.0,55.9
2021-10-28 22:00:00,55.0,52.0,89.59,30.0,8.0,29.58,8.0,55.0
2021-10-28 23:00:00,56.0,53.0,90.29,50.0,6.0,29.59,10.0,55.9
2021-10-29 00:00:00,56.0,53.0,90.29,50.0,6.0,29.58,10.0,55.9
2021-10-29 01:00:00,57.0,54.0,89.68,70.0,10.0,29.58,3.0,57.0
2021-10-29 02:00:00,56.0,53.0,90.29,70.0,14.0,29.59,5.0,55.9
2021-10-29 03:00:00,55.0,52.0,89.59,60.0,13.0,29.58,5.0,55.0
2021-10-29 04:00:00,55.0,52.0,89.59,60.0,14.0,29.57,2.0,55.0
2021-10-29 05:00:00,54.0,52.0,92.92,50.0,11.0,29.58,1.75,54.0
2021-10-29 06:00:00,54.0,52.0,92.92,60.0,10.0,29.57,2.0,54.0
2021-10-29 07:00:00,55.0,53.0,93.29,40.0,8.0,29.58,1.75,55.0
2021-10-29 08:00:00,54.0,52.0,92.92,30.0,11.0,29.57,8.0,54.0
2021-10-29 09:00:00,54.0,52.0,92.92,30.0,10.0,29.58,2.0,54.0
2021-10-29 10:00:00,54.0,51.0,89.88,30.0,12.0,29.59,9.0,54.0
2021-10-29 11:00:00,54.0,51.0,89.88,20.0,11.0,29.6,9.0,54.0
2021-10-29 12:00:00,55.0,51.0,86.66,30.0,16.0,29.61,8.0,55.0
2021-10-29 13:00:00,55.0,50.0,83.2,20.0,13.0,29.62,10.0,55.0
2021-10-29 14:00:00,56.0,49.0,77.28,30.0,17.0,29.63,10.0,55.9
2021-10-29 15:00:00,55.0,51.0,86.66,30.0,13.0,29.63,2.0,55.0
2021-10-29 16:00:00,55.0,51.0,86.66,20.0,15.0,29.63,1.75,55.0
2021-10-29 17:00:00,55.0,52.0,89.59,20.0,14.0,29.62,2.5,55.0
2021-10-29 18:00:00,55.0,52.0,89.59,10.0,14.0,29.61,6.0,55.0
2021-10-29 19:00:00,55.0,51.0,86.66,30.0,18.0,29.63,4.0,55.0
2021-10-29 20:00:00,55.0,51.0,86.66,30.0,14.0,29.63,2.0,55.0
2021-10-29 21:00:00,54.0,51.0,89.88,30.0,16.0,29.65,3.0,54.0
2021-10-29 22:00:00,54.0,51.0,89.88,20.0,15.0,29.66,3.0,54.0
2021-10-29 23:00:00,54.0,51.0,89.88,20.0,14.0,29.67,4.0,54.0
2021-10-30 00:00:00,54.0,51.0,89.88,20.0,13.0,29.68,3.0,54.0
2021-10-30 01:00:00,54.0,51.0,89.88,20.0,13.0,29.69,3.0,54.0
2021-10-30 02:00:00,54.0,50.0,86.29,10.0,16.0,29.69,10.0,54.0
2021-10-30 03:00:00,54.0,50.0,86.29,20.0,13.0,29.68,4.0,54.0
2021-10-30 04:00:00,54.0,50.0,86.29,20.0,11.0,29.67,10.0,54.0
2021-10-30 05:00:00,55.0,50.0,83.2,20.0,14.0,29.67,10.0,55.0
2021-10-30 06:00:00,55.0,50.0,83.2,30.0,18.0,29.67,10.0,55.0
2021-10-30 07:00:00,54.0,49.0,82.82,20.0,11.0,29.65,10.0,54.0
2021-10-30 08:00:00,54.0,49.0,82.82,350.0,9.0,29.65,10.0,54.0
2021-10-30 09:00:00,53.0,48.0,82.76,360.0,7.0,29.66,10.0,53.1
2021-10-30 10:00:00,54.0,47.0,76.83,10.0,10.0,29.67,10.0,54.0
2021-10-30 11:00:00,54.0,45.0,71.5,20.0,9.0,29.68,10.0,54.0
2021-10-30 12:00:00,52.0,45.0,76.94,350.0,7.0,29.69,10.0,52.0
2021-10-30 13:00:00,53.0,47.0,79.4,350.0,7.0,29.7,10.0,53.1
2021-10-30 14:00:00,57.0,46.0,66.59,30.0,11.0,29.7,10.0,57.0
2021-10-30 15:00:00,58.0,45.0,62.07,40.0,10.0,29.69,10.0,57.9
2021-10-30 16:00:00,57.0,46.0,66.59,10.0,13.0,29.7,10.0,57.0
2021-10-30 17:00:00,58.0,46.0,64.47,10.0,11.0,29.69,10.0,57.9
2021-10-30 18:00:00,59.0,46.0,61.98,360.0,7.0,29.69,10.0,59.0
2021-10-30 19:00:00,60.0,47.0,61.65,340.0,9.0,29.68,10.0,60.1
2021-10-30 20:00:00,61.0,46.0,57.72,330.0,6.0,29.69,10.0,61.0
2021-10-30 21:00:00,58.0,47.0,66.7,40.0,7.0,29.7,10.0,57.9
2021-10-30 22:00:00,54.0,46.0,74.26,30.0,3.0,29.72,10.0,54.0
2021-10-30 23:00:00,49.0,44.0,83.42,340.0,3.0,29.73,10.0,48.01
2021-10-31 00:00:00,50.0,44.0,80.06,300.0,4.0,29.75,10.0,50.0
2021-10-31 01:00:00,48.0,42.0,79.91,300.0,3.0,29.75,10.0,46.98
2021-10-31 02:00:00,43.0,40.0,88.71,270.0,3.0,29.75,10.0,41.26
2021-10-31 03:00:00,43.0,40.0,88.71,270.0,4.0,29.76,10.0,40.27
2021-10-31 04:00:00,39.0,38.0,95.78,270.0,4.0,29.75,10.0,35.59
2021-10-31 05:00:00,44.0,40.0,85.06,0.0,0.0,29.76,10.0,44.1
2021-10-31 06:00:00,41.0,38.0,88.62,260.0,5.0,29.75,9.0,37.08
2021-10-31 07:00:00,42.0,39.0,88.67,250.0,7.0,29.75,10.0,37.09
2021-10-31 08:00:00,43.0,39.0,85.66,270.0,5.0,29.76,10.0,39.46
2021-10-31 09:00:00,46.0,41.0,82.58,270.0,7.0,29.77,10.0,41.84
2021-10-31 10:00:00,45.0,41.0,85.77,290.0,8.0,29.79,10.0,40.13
2021-10-31 11:00:00,45.0,40.0,82.19,300.0,7.0,29.81,10.0,40.63
2021-10-31 12:00:00,46.0,41.0,82.58,310.0,10.0,29.83,10.0,40.52
2021-10-31 13:00:00,48.0,41.0,76.58,310.0,11.0,29.86,10.0,42.69
2021-10-31 14:00:00,50.0,42.0,74.15,310.0,14.0,29.89,10.0,50.0
2021-10-31 15:00:00,51.0,42.0,71.19,320.0,10.0,29.91,10.0,51.1
2021-10-31 16:00:00,51.0,41.0,68.23,320.0,12.0,29.93,10.0,51.1
2021-10-31 17:00:00,51.0,39.0,63.12,290.0,11.0,29.94,10.0,51.1
2021-10-31 18:00:00,54.0,36.0,50.42,310.0,9.0,29.95,10.0,54.0
2021-10-31 19:00:00,53.0,33.0,46.42,310.0,10.0,29.96,10.0,53.1
2021-10-31 20:00:00,53.0,32.0,44.42,300.0,10.0,29.99,10.0,53.1
2021-10-31 21:00:00,51.0,30.0,44.09,300.0,9.0,30.02,10.0,51.1
2021-10-31 22:00:00,48.0,30.0,49.49,300.0,8.0,30.04,10.0,43.82
2021-10-31 23:00:00,46.0,27.0,47.2,300.0,8.0,30.07,10.0,41.36
2021-11-01 00:00:00,42.0,27.0,54.78,280.0,5.0,30.1,10.0,38.39
2021-11-01 01:00:00,39.0,27.0,61.78,270.0,6.0,30.12,10.0,33.96
2021-11-01 02:00:00,37.0,27.0,66.82,270.0,6.0,30.14,10.0,31.55
2021-11-01 03:00:00,37.0,27.0,66.82,270.0,5.0,30.15,10.0,32.33
2021-11-01 04:00:00,36.0,27.0,69.51,270.0,5.0,30.15,10.0,31.15
2021-11-01 05:00:00,33.0,26.1,75.18,260.0,6.0,30.17,10.0,26.86
2021-11-01 06:00:00,36.0,27.0,69.51,280.0,7.0,30.17,10.0,29.65
2021-11-01 07:00:00,34.0,27.0,75.26,270.0,5.0,30.19,10.0,28.77
2021-11-01 08:00:00,35.0,27.0,72.04,270.0,7.0,30.21,10.0,28.56
2021-11-01 09:00:00,35.0,27.0,72.04,270.0,7.0,30.22,10.0,28.56
2021-11-01 10:00:00,34.0,27.0,75.26,270.0,7.0,30.24,10.0,27.22
2021-11-01 11:00:00,32.0,26.1,78.58,260.0,5.0,30.24,10.0,26.4
2021-11-01 12:00:00,33.0,27.0,78.03,250.0,7.0,30.26,10.0,26.12
2021-11-01 13:00:00,37.0,28.0,69.63,270.0,6.0,30.27,10.0,31.55
2021-11-01 14:00:00,41.0,30.0,64.63,270.0,9.0,30.28,10.0,34.7
2021-11-01 15:00:00,43.0,28.0,55.14,280.0,10.0,30.28,10.0,36.76
2021-11-01 16:00:00,46.0,27.0,47.2,280.0,12.0,30.28,10.0,39.82
2021-11-01 17:00:00,47.0,25.0,41.99,280.0,15.0,30.25,10.0,40.1
2021-11-01 18:00:00,49.0,26.1,40.77,270.0,17.0,30.24,10.0,42.22
2021-11-01 19:00:00,50.0,26.1,39.14,260.0,19.0,30.22,10.0,50.0
2021-11-01 20:00:00,48.0,24.1,38.8,270.0,14.0,30.21,10.0,41.79
2021-11-01 21:00:00,47.0,23.0,38.62,280.0,14.0,30.21,10.0,40.37
2021-11-01 22:00:00,44.0,21.0,39.47,280.0,10.0,30.22,10.0,38.14
2021-11-01 23:00:00,43.0,23.0,44.8,310.0,4.0,30.25,10.0,40.27
2021-11-02 00:00:00,43.0,23.0,44.8,310.0,6.0,30.26,10.0,38.78
2021-11-02 01:00:00,41.0,24.1,50.67,290.0,5.0,30.27,10.0,37.08
2021-11-02 02:00:00,40.0,25.0,54.9,270.0,4.0,30.27,10.0,36.65
2021-11-02 03:00:00,36.0,24.1,61.62,260.0,4.0,30.27,10.0,32.09
2021-11-02 04:00:00,39.0,24.1,54.77,280.0,7.0,30.27,10.0,33.31
2021-11-02 05:00:00,36.0,24.1,61.62,280.0,5.0,30.27,10.0,31.15
2021-11-02 06:00:00,35.0,24.1,63.86,280.0,5.0,30.27,10.0,30.08
2021-11-02 07:00:00,38.0,26.1,62.14,280.0,6.0,30.28,10.0,32.64
2021-11-02 08:00:00,34.0,25.0,69.28,280.0,5.0,30.29,10.0,28.77
2021-11-02 09:00:00,33.0,25.0,71.82,280.0,5.0,30.29,10.0,27.7
2021-11-02 10:00:00,32.0,24.1,72.3,280.0,6.0,30.3,10.0,25.53
2021-11-02 11:00:00,30.9,24.1,75.59,270.0,6.0,30.3,10.0,24.21
2021-11-02 12:00:00,30.9,25.0,78.48,260.0,6.0,30.31,10.0,24.21
2021-11-02 13:00:00,36.0,27.0,69.51,280.0,9.0,30.32,10.0,28.49
2021-11-02 14:00:00,40.0,28.0,62.15,300.0,9.0,30.33,10.0,33.34
2021-11-02 15:00:00,43.0,28.0,55.14,310.0,9.0,30.34,10.0,37.19
2021-11-02 16:00:00,45.0,26.1,47.23,300.0,11.0,30.33,10.0,38.89
2021-11-02 17:00:00,46.0,26.1,45.47,290.0,14.0,30.3,10.0,39.21
2021-11-02 18:00:00,46.0,24.1,41.84,270.0,11.0,30.29,10.0,40.16
2021-11-02 19:00:00,46.0,24.1,41.84,290.0,10.0,30.29,10.0,40.52
2021-11-02 20:00:00,46.0,25.0,43.44,310.0,8.0,30.28,10.0,41.36
2021-11-02 21:00:00,45.0,24.1,43.46,300.0,9.0,30.29,10.0,39.68
2021-11-02 22:00:00,42.0,24.1,48.56,300.0,6.0,30.3,10.0,37.69
2021-11-02 23:00:00,39.0,24.1,54.77,280.0,4.0,30.32,10.0,35.59
2021-11-03 00:00:00,34.0,24.1,66.72,0.0,0.0,30.32,10.0,34.0
2021-11-03 01:00:00,33.0,23.0,66.06,0.0,0.0,30.33,10.0,33.1
2021-11-03 02:00:00,28.9,21.9,74.76,290.0,3.0,30.35,10.0,25.14
2021-11-03 03:00:00,34.0,23.0,63.72,320.0,4.0,30.35,10.0,29.76
2021-11-03 04:00:00,32.0,23.0,69.04,250.0,3.0,30.36,10.0,28.69
2021-11-03 05:00:00,28.9,21.9,74.76,300.0,4.0,30.37,10.0,23.8
2021-11-03 06:00:00,28.9,21.9,74.76,280.0,4.0,30.37,10.0,23.8
2021-11-03 07:00:00,27.0,21.0,77.8,280.0,3.0,30.38,10.0,22.97
2021-11-03 08:00:00,28.0,21.9,77.57,280.0,3.0,30.37,10.0,24.12
2021-11-03 09:00:00,25.0,19.0,77.62,270.0,4.0,30.37,10.0,19.25
2021-11-03 10:00:00,25.0,19.9,80.66,270.0,4.0,30.39,10.0,19.25
2021-11-03 11:00:00,27.0,19.9,74.25,280.0,3.0,30.38,10.0,22.97
2021-11-03 12:00:00,26.1,21.0,80.75,270.0,3.0,30.39,10.0,21.94
2021-11-03 13:00:00,32.0,25.0,75.07,300.0,3.0,30.41,10.0,28.69
2021-11-03 14:00:00,37.0,27.0,66.82,290.0,5.0,30.41,10.0,32.33
2021-11-03 15:00:00,40.0,24.1,52.88,320.0,6.0,30.42,10.0,35.04
2021-11-03 16:00:00,42.0,23.0,46.37,310.0,8.0,30.41,10.0,36.55
2021-11-03 17:00:00,43.0,21.9,42.77,310.0,9.0,30.39,10.0,37.19
2021-11-03 18:00:00,41.0,21.0,44.47,290.0,6.0,30.36,10.0,36.37
2021-11-03 19:00:00,41.0,21.0,44.47,290.0,8.0,30.34,10.0,35.2
2021-11-03 20:00:00,41.0,21.0,44.47,320.0,7.0,30.34,10.0,35.75
2021-11-03 21:00:00,41.0,21.0,44.47,270.0,4.0,30.34,10.0,37.93
2021-11-03 22:00:00,40.0,21.9,48.21,290.0,4.0,30.34,10.0,36.65
2021-11-03 23:00:00,39.0,21.9,49.93,290.0,3.0,30.35,10.0,36.69
2021-11-04 00:00:00,35.0,23.0,60.99,0.0,0.0,30.35,10.0,35.1
2021-11-04 01:00:00,33.0,23.0,66.06,0.0,0.0,30.34,10.0,33.1
2021-11-04 02:00:00,30.0,21.9,71.48,260.0,4.0,30.34,10.0,25.08
2021-11-04 03:00:00,28.9,21.9,74.76,260.0,4.0,30.35,10.0,23.8
2021-11-04 04:00:00,28.9,21.0,71.96,260.0,3.0,30.35,10.0,25.14
2021-11-04 05:00:00,32.0,19.0,58.27,290.0,5.0,30.35,10.0,26.4
2021-11-04 06:00:00,30.0,19.0,63.18,280.0,4.0,30.34,10.0,25.08
2021-11-04 07:00:00,28.0,19.0,68.57,300.0,3.0,30.33,10.0,24.12
2021-11-04 08:00:00,27.0,19.0,71.45,300.0,3.0,30.32,10.0,22.97
2021-11-04 09:00:00,25.0,19.0,77.62,260.0,3.0,30.32,10.0,20.69
2021-11-04 10:00:00,28.9,21.0,71.96,0.0,0.0,30.33,10.0,28.9
2021-11-04 11:00:00,30.0,24.1,78.4,240.0,3.0,30.33,10.0,26.4
2021-11-04 12:00:00,33.0,25.0,71.82,0.0,0.0,30.33,10.0,33.1
2021-11-04 13:00:00,34.0,27.0,75.26,0.0,0.0,30.34,10.0,34.0
2021-11-04 14:00:00,38.0,27.0,64.49,220.0,3.0,30.34,10.0,35.43
2021-11-04 15:00:00,42.0,24.1,48.56,220.0,4.0,30.35,10.0,39.21
2021-11-04 16:00:00,43.0,23.0,44.8,210.0,6.0,30.34,10.0,38.78
2021-11-04 17:00:00,45.0,21.9,39.62,200.0,5.0,30.33,10.0,41.83
2021-11-04 18:00:00,47.0,25.0,41.99,200.0,10.0,30.31,10.0,41.65
2021-11-04 19:00:00,49.0,27.0,42.32,250.0,9.0,30.29,10.0,44.53
2021-11-04 20:00:00,48.0,27.0,43.77,210.0,6.0,30.28,10.0,44.8
2021-11-04 21:00:00,47.0,28.0,47.54,220.0,6.0,30.27,10.0,43.48
2021-11-04 22:00:00,43.0,27.0,52.91,220.0,5.0,30.27,10.0,39.46
2021-11-04 23:00:00,41.0,28.0,59.55,200.0,5.0,30.27,10.0,37.08
2021-11-05 00:00:00,39.0,28.0,64.37,210.0,5.0,30.27,10.0,34.71
2021-11-05 01:00:00,38.0,27.0,64.49,220.0,5.0,30.27,10.0,33.4
2021-11-05 02:00:00,37.0,27.0,66.82,220.0,4.0,30.28,10.0,33.26
2021-11-05 03:00:00,37.0,27.0,66.82,230.0,5.0,30.29,10.0,32.33
2021-11-05 04:00:00,37.0,27.0,66.82,230.0,5.0,30.28,10.0,32.33
2021-11-05 05:00:00,36.0,28.0,72.43,220.0,4.0,30.29,10.0,32.09
2021-11-05 06:00:00,37.0,27.0,66.82,230.0,4.0,30.29,10.0,33.26
2021-11-05 07:00:00,36.0,27.0,69.51,230.0,5.0,30.29,10.0,31.15
2021-11-05 08:00:00,36.0,27.0,69.51,220.0,5.0,30.29,10.0,31.15
2021-11-05 09:00:00,36.0,26.1,66.97,230.0,5.0,30.3,10.0,31.15
2021-11-05 10:00:00,36.0,27.0,69.51,220.0,5.0,30.31,10.0,31.15
2021-11-05 11:00:00,35.0,27.0,72.04,220.0,5.0,30.32,10.0,30.08
2021-11-05 12:00:00,34.0,26.1,72.52,220.0,4.0,30.34,10.0,29.76
2021-11-05 13:00:00,37.0,28.9,72.24,220.0,6.0,30.36,10.0,31.55
2021-11-05 14:00:00,44.0,30.9,59.5,220.0,7.0,30.36,10.0,39.53
2021-11-05 15:00:00,49.0,30.9,49.63,240.0,12.0,30.36,10.0,43.51
2021-11-05 16:00:00,51.0,28.9,42.16,210.0,12.0,30.35,10.0,51.1
2021-11-05 17:00:00,53.0,28.9,39.16,210.0,13.0,30.32,10.0,53.1
2021-11-05 18:00:00,53.0,28.0,37.74,220.0,17.0,30.28,10.0,53.1
2021-11-05 19:00:00,53.0,28.0,37.74,210.0,13.0,30.27,10.0,53.1
2021-11-05 20:00:00,52.0,28.0,39.3,200.0,14.0,30.25,10.0,52.0
2021-11-05 21:00:00,51.0,28.0,40.63,210.0,12.0,30.25,10.0,51.1
2021-11-05 22:00:00,48.0,28.9,47.32,190.0,8.0,30.23,10.0,43.82
2021-11-05 23:00:00,44.0,28.9,54.85,190.0,5.0,30.23,10.0,40.77
2021-11-06 00:00:00,42.0,28.9,59.22,170.0,5.0,30.24,10.0,38.39
2021-11-06 01:00:00,42.0,28.9,59.22,190.0,5.0,30.24,10.0,38.39
2021-11-06 02:00:00,40.0,28.9,64.49,190.0,7.0,30.23,10.0,34.41
2021-11-06 03:00:00,40.0,28.9,64.49,190.0,6.0,30.24,10.0,35.04
2021-11-06 04:00:00,38.0,28.9,69.73,190.0,5.0,30.23,10.0,33.4
2021-11-06 05:00:00,38.0,28.9,69.73,190.0,5.0,30.23,10.0,33.4
2021-11-06 06:00:00,37.0,28.9,72.24,190.0,6.0,30.22,10.0,31.55
2021-11-06 07:00:00,36.0,28.0,72.43,200.0,6.0,30.22,10.0,30.35
2021-11-06 08:00:00,38.0,28.9,69.73,220.0,8.0,30.21,10.0,31.38
2021-11-06 09:00:00,41.0,28.9,61.79,220.0,10.0,30.19,10.0,34.25
2021-11-06 10:00:00,41.0,28.9,61.79,210.0,9.0,30.19,10.0,34.7
2021-11-06 11:00:00,40.0,28.9,64.49,210.0,10.0,30.18,10.0,32.87
2021-11-06 12:00:00,40.0,28.9,64.49,210.0,10.0,30.17,10.0,32.87
2021-11-06 13:00:00,43.0,28.9,57.21,220.0,11.0,30.17,10.0,36.37
2021-11-06 14:00:00,48.0,30.9,51.34,220.0,10.0,30.15,10.0,43.03
2021-11-06 15:00:00,52.0,34.0,50.12,230.0,12.0,30.15,10.0,52.0
2021-11-06 16:00:00,56.0,37.0,48.95,230.0,14.0,30.14,10.0,55.9
2021-11-06 17:00:00,59.0,39.0,47.35,230.0,13.0,30.11,10.0,59.0
2021-11-06 18:00:00,60.0,40.0,47.15,210.0,16.0,30.09,10.0,60.1
2021-11-06 19:00:00,61.0,41.0,47.66,220.0,14.0,30.07,10.0,61.0
2021-11-06 20:00:00,61.0,41.0,47.66,220.0,15.0,30.06,10.0,61.0
2021-11-06 21:00:00,60.0,41.0,49.21,230.0,10.0,30.06,10.0,60.1
2021-11-06 22:00:00,57.0,41.0,54.99,220.0,9.0,30.07,10.0,57.0
2021-11-06 23:00:00,54.0,41.0,61.32,230.0,8.0,30.08,10.0,54.0
2021-11-07 00:00:00,54.0,40.0,58.76,220.0,10.0,30.09,10.0,54.0
2021-11-07 01:00:00,54.0,40.0,58.76,230.0,10.0,30.1,10.0,54.0
2021-11-07 02:00:00,54.0,40.0,58.76,230.0,11.0,30.09,10.0,54.0
2021-11-07 03:00:00,52.0,40.0,63.24,230.0,9.0,30.09,10.0,52.0
2021-11-07 04:00:00,50.0,40.0,68.1,240.0,9.0,30.09,10.0,50.0
2021-11-07 05:00:00,49.0,40.0,70.95,240.0,10.0,30.09,10.0,44.16
2021-11-07 06:00:00,47.0,39.0,73.85,250.0,7.0,30.09,10.0,42.94
2021-11-07 07:00:00,45.0,38.0,76.01,240.0,7.0,30.09,10.0,40.63
2021-11-07 08:00:00,43.0,38.0,82.04,250.0,5.0,30.09,10.0,39.46
2021-11-07 09:00:00,44.0,39.0,82.12,250.0,6.0,30.1,10.0,40.1
2021-11-07 10:00:00,45.0,40.0,82.19,250.0,7.0,30.1,10.0,40.63
2021-11-07 11:00:00,45.0,40.0,82.19,230.0,5.0,30.1,10.0,41.83
2021-11-07 12:00:00,46.0,40.0,79.13,220.0,6.0,30.12,10.0,42.39
2021-11-07 13:00:00,48.0,42.0,79.91,220.0,7.0,30.13,10.0,44.28
2021-11-07 14:00:00,53.0,44.0,71.4,220.0,7.0,30.13,10.0,53.1
2021-11-07 15:00:00,57.0,45.0,64.12,220.0,6.0,30.13,10.0,57.0
2021-11-07 16:00:00,61.0,46.0,57.72,200.0,9.0,30.12,10.0,61.0
2021-11-07 17:00:00,64.0,46.0,51.93,200.0,14.0,30.09,10.0,64.0
2021-11-07 18:00:00,66.0,45.0,46.62,220.0,11.0,30.07,10.0,66.0
2021-11-07 19:00:00,66.0,42.0,41.73,220.0,15.0,30.05,10.0,66.0
2021-11-07 20:00:00,65.0,43.0,44.88,220.0,10.0,30.05,10.0,64.9
2021-11-07 21:00:00,63.0,43.0,47.97,210.0,6.0,30.06,10.0,63.0
2021-11-07 22:00:00,60.0,43.0,53.15,190.0,6.0,30.05,10.0,60.1
2021-11-07 23:00:00,58.0,43.0,57.51,190.0,7.0,30.06,10.0,57.9
2021-11-08 00:00:00,56.0,43.0,61.81,190.0,7.0,30.04,10.0,55.9
2021-11-08 01:00:00,57.0,43.0,59.4,200.0,9.0,30.02,10.0,57.0
2021-11-08 02:00:00,57.0,43.0,59.4,210.0,10.0,30.03,10.0,57.0
2021-11-08 03:00:00,58.0,42.0,55.55,220.0,10.0,30.03,10.0,57.9
2021-11-08 04:00:00,57.0,41.0,54.99,220.0,13.0,30.03,10.0,57.0
2021-11-08 05:00:00,56.0,41.0,57.23,220.0,10.0,30.04,10.0,55.9
2021-11-08 06:00:00,54.0,40.0,58.76,210.0,10.0,30.03,10.0,54.0
2021-11-08 07:00:00,54.0,40.0,58.76,220.0,10.0,30.03,10.0,54.0
2021-11-08 08:00:00,53.0,40.0,60.73,210.0,10.0,30.02,10.0,53.1
2021-11-08 09:00:00,52.0,40.0,63.24,220.0,8.0,30.01,10.0,52.0
2021-11-08 10:00:00,50.0,40.0,68.1,220.0,10.0,30.02,10.0,50.0
2021-11-08 11:00:00,49.0,40.0,70.95,220.0,8.0,30.03,10.0,44.93
2021-11-08 12:00:00,48.0,40.0,73.38,220.0,8.0,30.04,10.0,43.82
2021-11-08 13:00:00,51.0,41.0,68.23,240.0,10.0,30.06,10.0,51.1
2021-11-08 14:00:00,55.0,42.0,61.69,240.0,11.0,30.08,10.0,55.0
2021-11-08 15:00:00,59.0,44.0,57.66,250.0,8.0,30.08,10.0,59.0
2021-11-08 16:00:00,61.0,45.0,55.57,230.0,8.0,30.07,10.0,61.0
2021-11-08 17:00:00,64.0,47.0,53.72,250.0,7.0,30.06,10.0,64.0
2021-11-08 18:00:00,65.0,47.0,52.06,220.0,5.0,30.06,10.0,64.9
2021-11-08 19:00:00,66.0,47.0,50.1,240.0,8.0,30.06,10.0,66.0
2021-11-08 20:00:00,64.0,48.0,55.99,220.0,5.0,30.05,10.0,64.0
2021-11-08 21:00:00,64.0,48.0,55.99,270.0,4.0,30.07,10.0,64.0
2021-11-08 22:00:00,58.0,46.0,64.47,0.0,0.0,30.08,10.0,57.9
2021-11-08 23:00:00,55.0,46.0,71.6,0.0,0.0,30.11,10.0,55.0
2021-11-09 00:00:00,54.0,46.0,74.26,190.0,4.0,30.12,10.0,54.0
2021-11-09 01:00:00,52.0,45.0,76.94,0.0,0.0,30.12,10.0,52.0
2021-11-09 02:00:00,51.0,45.0,79.54,0.0,0.0,30.12,10.0,51.1
2021-11-09 03:00:00,53.0,46.0,76.75,0.0,0.0,30.13,10.0,53.1
2021-11-09 04:00:00,54.0,47.0,76.83,0.0,0.0,30.13,9.0,54.0
2021-11-09 05:00:00,52.0,46.0,79.92,360.0,4.0,30.13,10.0,52.0
2021-11-09 06:00:00,54.0,47.0,76.83,10.0,7.0,30.15,10.0,54.0
2021-11-09 07:00:00,55.0,48.0,77.21,30.0,10.0,30.17,10.0,55.0
2021-11-09 08:00:00,54.0,48.0,80.07,40.0,7.0,30.17,10.0,54.0
2021-11-09 09:00:00,52.0,48.0,86.17,40.0,6.0,30.16,10.0,52.0
2021-11-09 10:00:00,52.0,48.0,86.17,40.0,7.0,30.16,8.0,52.0
2021-11-09 11:00:00,52.0,47.0,82.68,30.0,5.0,30.17,10.0,52.0
2021-11-09 12:00:00,51.0,45.0,79.54,50.0,5.0,30.18,10.0,51.1
2021-11-09 13:00:00,53.0,44.0,71.4,30.0,7.0,30.21,10.0,53.1
2021-11-09 14:00:00,55.0,44.0,66.61,40.0,8.0,30.22,10.0,55.0
2021-11-09 15:00:00,56.0,43.0,61.81,60.0,9.0,30.2,10.0,55.9
2021-11-09 16:00:00,57.0,43.0,59.4,40.0,9.0,30.18,10.0,57.0
2021-11-09 17:00:00,59.0,40.0,49.04,50.0,10.0,30.16,10.0,59.0
2021-11-09 18:00:00,60.0,40.0,47.15,10.0,9.0,30.16,10.0,60.1
2021-11-09 19:00:00,59.0,40.0,49.04,20.0,8.0,30.16,10.0,59.0
2021-11-09 20:00:00,57.0,41.0,54.99,40.0,6.0,30.15,10.0,57.0
2021-11-09 21:00:00,54.0,40.0,58.76,30.0,5.0,30.15,10.0,54.0
2021-11-09 22:00:00,51.0,40.0,65.38,30.0,7.0,30.17,10.0,51.1
2021-11-09 23:00:00,48.0,40.0,73.38,20.0,3.0,30.19,10.0,46.98
2021-11-10 00:00:00,44.0,39.0,82.12,0.0,0.0,30.19,10.0,44.1
2021-11-10 01:00:00,41.0,38.0,88.62,0.0,0.0,30.18,10.0,41.0
2021-11-10 02:00:00,38.0,35.0,89.53,0.0,0.0,30.19,10.0,37.9
2021-11-10 03:00:00,41.0,38.0,88.62,320.0,3.0,30.2,10.0,38.98
2021-11-10 04:00:00,37.0,33.0,85.64,350.0,3.0,30.18,10.0,34.4
2021-11-10 05:00:00,34.0,32.0,92.29,280.0,4.0,30.2,0.25,29.76
2021-11-10 06:00:00,34.0,32.0,92.29,0.0,0.0,30.18,0.25,34.0
2021-11-10 07:00:00,34.0,33.0,96.46,360.0,4.0,30.16,0.25,29.76
2021-11-10 08:00:00,34.0,32.0,92.29,0.0,0.0,30.17,4.0,34.0
2021-11-10 09:00:00,32.0,30.0,92.22,250.0,3.0,30.19,6.0,28.69
2021-11-10 10:00:00,33.0,32.0,95.67,0.0,0.0,30.18,7.0,33.1
2021-11-10 11:00:00,34.0,33.0,96.46,0.0,0.0,30.16,5.0,34.0
2021-11-10 12:00:00,35.0,33.0,92.32,0.0,0.0,30.18,10.0,35.1
2021-11-10 13:00:00,36.0,34.0,92.35,0.0,0.0,30.19,10.0,36.0
2021-11-10 14:00:00,51.0,43.0,73.69,100.0,6.0,30.18,10.0,51.1
2021-11-10 15:00:00,54.0,39.0,56.74,120.0,11.0,30.18,10.0,54.0
2021-11-10 16:00:00,55.0,40.0,56.66,120.0,10.0,30.16,10.0,55.0
2021-11-10 17:00:00,55.0,38.0,52.4,110.0,12.0,30.12,10.0,55.0
2021-11-10 18:00:00,56.0,40.0,54.83,110.0,13.0,30.1,10.0,55.9
2021-11-10 19:00:00,55.0,40.0,56.66,110.0,13.0,30.07,10.0,55.0
2021-11-10 20:00:00,54.0,40.0,58.76,110.0,12.0,30.05,10.0,54.0
2021-11-10 21:00:00,53.0,43.0,68.46,100.0,9.0,30.04,10.0,53.1
2021-11-10 22:00:00,55.0,41.0,59.13,110.0,12.0,30.0,10.0,55.0
2021-11-10 23:00:00,56.0,40.0,54.83,120.0,11.0,30.0,10.0,55.9
2021-11-11 00:00:00,56.0,42.0,59.71,120.0,12.0,29.97,10.0,55.9
2021-11-11 01:00:00,54.0,43.0,66.24,130.0,11.0,29.93,10.0,54.0
2021-11-11 02:00:00,54.0,45.0,71.5,120.0,12.0,29.9,10.0,54.0
2021-11-11 03:00:00,55.0,47.0,74.08,140.0,12.0,29.88,10.0,55.0
2021-11-11 04:00:00,56.0,49.0,77.28,140.0,12.0,29.84,7.0,55.9
2021-11-11 05:00:00,55.0,49.0,79.85,140.0,12.0,29.81,6.0,55.0
2021-11-11 06:00:00,55.0,49.0,79.85,150.0,14.0,29.78,5.0,55.0
2021-11-11 07:00:00,54.0,49.0,82.82,150.0,11.0,29.75,5.0,54.0
2021-11-11 08:00:00,54.0,49.0,82.82,150.0,13.0,29.7,6.0,54.0
2021-11-11 09:00:00,54.0,48.0,80.07,150.0,12.0,29.67,7.0,54.0
2021-11-11 10:00:00,54.0,48.0,80.07,140.0,14.0,29.62,9.0,54.0
2021-11-11 11:00:00,55.0,47.0,74.08,150.0,13.0,29.57,10.0,55.0
2021-11-11 12:00:00,55.0,48.0,77.21,150.0,13.0,29.52,10.0,55.0
2021-11-11 13:00:00,55.0,49.0,79.85,160.0,13.0,29.49,7.0,55.0
2021-11-11 14:00:00,54.0,51.0,89.88,180.0,13.0,29.46,3.0,54.0
2021-11-11 15:00:00,55.0,52.0,89.59,180.0,12.0,29.44,2.5,55.0
2021-11-11 16:00:00,53.0,48.0,82.76,240.0,19.0,29.45,10.0,53.1
2021-11-11 17:00:00,49.0,44.0,83.42,250.0,25.0,29.47,10.0,40.69
2021-11-11 18:00:00,49.0,42.0,77.26,250.0,19.0,29.51,10.0,41.79
2021-11-11 19:00:00,50.0,41.0,71.07,260.0,21.0,29.54,10.0,50.0
2021-11-11 20:00:00,50.0,41.0,71.07,250.0,20.0,29.57,10.0,50.0
2021-11-11 21:00:00,49.0,39.0,68.51,250.0,9.0,29.61,10.0,44.53
2021-11-11 22:00:00,48.0,35.0,60.76,250.0,14.0,29.63,10.0,41.79
2021-11-11 23:00:00,46.0,34.0,62.71,270.0,15.0,29.68,10.0,38.93
2021-11-12 00:00:00,44.0,32.0,62.21,250.0,11.0,29.68,10.0,37.76
2021-11-12 01:00:00,42.0,32.0,67.17,220.0,6.0,29.67,10.0,37.69
2021-11-12 02:00:00,41.0,32.0,70.08,200.0,9.0,29.67,10.0,34.7
2021-11-12 03:00:00,42.0,33.0,70.2,200.0,10.0,29.66,10.0,35.63
2021-11-12 04:00:00,42.0,34.0,72.78,220.0,8.0,29.67,10.0,36.55
2021-11-12 05:00:00,41.0,33.0,73.25,210.0,10.0,29.65,10.0,34.25
2021-11-12 06:00:00,41.0,33.0,73.25,210.0,10.0,29.64,10.0,34.25
2021-11-12 07:00:00,41.0,32.0,70.08,220.0,11.0,29.64,10.0,33.84
2021-11-12 08:00:00,42.0,32.0,67.17,220.0,11.0,29.63,10.0,35.23
2021-11-12 09:00:00,41.0,33.0,73.25,210.0,7.0,29.62,10.0,35.75
2021-11-12 10:00:00,37.0,32.0,81.93,230.0,9.0,29.64,10.0,29.73
2021-11-12 11:00:00,36.0,30.9,81.53,210.0,9.0,29.63,10.0,28.49
2021-11-12 12:00:00,37.0,30.9,78.37,230.0,13.0,29.63,10.0,27.97
2021-11-12 13:00:00,38.0,30.9,75.64,230.0,16.0,29.63,10.0,28.11
2021-11-12 14:00:00,39.0,30.9,72.45,240.0,15.0,29.63,10.0,29.85
2021-11-12 15:00:00,39.0,32.0,75.75,240.0,15.0,29.65,10.0,29.85
2021-11-12 16:00:00,40.0,32.0,73.14,250.0,16.0,29.65,10.0,30.72
2021-11-12 17:00:00,39.0,33.0,79.17,250.0,14.0,29.65,10.0,30.19
2021-11-12 18:00:00,39.0,34.0,82.08,230.0,13.0,29.65,10.0,30.54
2021-11-12 19:00:00,37.0,33.0,85.64,220.0,8.0,29.66,4.0,30.27
2021-11-12 20:00:00,35.0,30.9,84.49,240.0,14.0,29.68,10.0,25.16
2021-11-12 21:00:00,36.0,32.0,85.23,230.0,12.0,29.7,9.0,27.09
2021-11-12 22:00:00,35.0,30.9,84.49,250.0,13.0,29.72,10.0,25.54
2021-11-12 23:00:00,35.0,32.0,88.33,240.0,10.0,29.73,10.0,26.86
2021-11-13 00:00:00,36.0,32.0,85.23,250.0,11.0,29.74,10.0,27.52
2021-11-13 01:00:00,37.0,33.0,85.64,250.0,10.0,29.74,10.0,29.24
2021-11-13 02:00:00,37.0,33.0,85.64,260.0,9.0,29.77,10.0,29.73
2021-11-13 03:00:00,37.0,33.0,85.64,270.0,9.0,29.77,10.0,29.73
2021-11-13 04:00:00,38.0,34.0,85.69,270.0,10.0,29.78,10.0,30.37
2021-11-13 05:00:00,37.0,33.0,85.64,270.0,9.0,29.78,10.0,29.73
2021-11-13 06:00:00,37.0,33.0,85.64,280.0,7.0,29.79,10.0,30.87
2021-11-13 07:00:00,38.0,34.0,85.69,280.0,9.0,29.8,10.0,30.85
2021-11-13 08:00:00,39.0,34.0,82.08,280.0,9.0,29.8,10.0,32.22
2021-11-13 09:00:00,39.0,33.0,79.17,290.0,8.0,29.81,10.0,32.74
2021-11-13 10:00:00,39.0,32.0,75.75,300.0,8.0,29.84,10.0,32.74
2021-11-13 11:00:00,38.0,32.0,79.08,290.0,10.0,29.85,10.0,30.37
2021-11-13 12:00:00,38.0,32.0,79.08,290.0,8.0,29.87,10.0,31.38
2021-11-13 13:00:00,37.0,30.9,78.37,300.0,10.0,29.9,10.0,29.24
2021-11-13 14:00:00,38.0,28.0,67.2,300.0,13.0,29.92,10.0,29.13
2021-11-13 15:00:00,39.0,27.0,61.78,300.0,11.0,29.93,10.0,31.31
2021-11-13 16:00:00,40.0,27.0,59.65,300.0,10.0,29.94,10.0,32.87
2021-11-13 17:00:00,40.0,27.0,59.65,290.0,12.0,29.94,10.0,32.06
2021-11-13 18:00:00,40.0,26.1,57.47,280.0,10.0,29.92,10.0,32.87
2021-11-13 19:00:00,39.0,26.1,59.52,260.0,10.0,29.91,10.0,31.75
2021-11-13 20:00:00,38.0,26.1,62.14,280.0,11.0,29.92,10.0,29.92
2021-11-13 21:00:00,38.0,26.1,62.14,270.0,11.0,29.94,10.0,29.92
2021-11-13 22:00:00,37.0,27.0,66.82,250.0,7.0,29.92,10.0,30.87
2021-11-13 23:00:00,37.0,26.1,64.38,270.0,8.0,29.93,10.0,30.27
2021-11-14 00:00:00,36.0,27.0,69.51,250.0,6.0,29.91,10.0,30.35
2021-11-14 01:00:00,37.0,27.0,66.82,250.0,12.0,29.91,10.0,28.37
2021-11-14 02:00:00,36.0,27.0,69.51,260.0,9.0,29.92,10.0,28.49
2021-11-14 03:00:00,35.0,28.9,77.88,240.0,10.0,29.9,3.0,26.86
2021-11-14 04:00:00,34.0,28.9,81.37,220.0,10.0,29.86,10.0,25.48
2021-11-14 05:00:00,35.0,30.0,81.46,230.0,11.0,29.84,10.0,26.38
2021-11-14 06:00:00,35.0,30.0,81.46,220.0,13.0,29.81,7.0,25.54
2021-11-14 07:00:00,35.0,30.9,84.49,210.0,12.0,29.77,10.0,25.95
2021-11-14 08:00:00,36.0,30.9,81.53,210.0,12.0,29.73,10.0,27.09
2021-11-14 09:00:00,36.0,30.9,81.53,200.0,9.0,29.67,10.0,28.49
2021-11-14 10:00:00,37.0,30.9,78.37,210.0,11.0,29.65,10.0,28.79
2021-11-14 11:00:00,37.0,32.0,81.93,230.0,11.0,29.63,9.0,28.79
2021-11-14 12:00:00,37.0,34.0,88.78,250.0,11.0,29.62,7.0,28.79
2021-11-14 13:00:00,38.0,34.0,85.69,260.0,10.0,29.63,4.0,30.37
2021-11-14 14:00:00,38.0,34.0,85.69,270.0,16.0,29.63,3.0,28.11
2021-11-14 15:00:00,37.0,33.0,85.64,270.0,13.0,29.65,8.0,27.97
2021-11-14 16:00:00,37.0,34.0,88.78,280.0,11.0,29.64,2.5,28.79
2021-11-14 17:00:00,37.0,34.0,88.78,310.0,9.0,29.65,2.5,29.73
2021-11-14 18:00:00,37.0,30.0,75.56,330.0,15.0,29.68,10.0,27.26
2021-11-14 19:00:00,36.0,28.9,75.15,310.0,13.0,29.73,10.0,26.69
2021-11-14 20:00:00,37.0,28.0,69.63,320.0,15.0,29.77,10.0,27.26
2021-11-14 21:00:00,37.0,28.0,69.63,320.0,14.0,29.82,10.0,27.61
2021-11-14 22:00:00,36.0,28.0,72.43,310.0,15.0,29.85,10.0,25.97
2021-11-14 23:00:00,36.0,28.0,72.43,310.0,12.0,29.88,10.0,27.09
2021-11-15 00:00:00,35.0,26.1,69.41,310.0,13.0,29.91,10.0,25.54
2021-11-15 01:00:00,34.0,24.1,66.72,310.0,11.0,29.94,10.0,24.99
2021-11-15 02:00:00,33.0,21.9,63.06,300.0,9.0,29.96,10.0,24.88
2021-11-15 03:00:00,32.0,21.0,63.45,290.0,7.0,29.98,10.0,24.78
2021-11-15 04:00:00,32.0,21.0,63.45,290.0,11.0,29.99,10.0,22.47
2021-11-15 05:00:00,33.0,19.9,57.93,310.0,12.0,30.0,10.0,23.4
2021-11-15 06:00:00,33.0,19.9,57.93,300.0,6.0,30.01,10.0,26.86
2021-11-15 07:00:00,30.0,19.0,63.18,290.0,7.0,30.02,10.0,22.34
2021-11-15 08:00:00,28.0,19.0,68.57,300.0,4.0,30.02,10.0,22.75
2021-11-15 09:00:00,27.0,19.0,71.45,290.0,4.0,30.02,10.0,21.58
2021-11-15 10:00:00,27.0,19.0,71.45,280.0,4.0,30.05,10.0,21.58
2021-11-15 11:00:00,24.1,17.1,74.27,270.0,4.0,30.06,10.0,18.19
2021-11-15 12:00:00,26.1,18.0,71.04,270.0,5.0,30.07,10.0,19.39
2021-11-15 13:00:00,28.9,19.9,68.67,280.0,4.0,30.09,10.0,23.8
2021-11-15 14:00:00,33.0,21.0,60.71,280.0,7.0,30.1,10.0,26.12
2021-11-15 15:00:00,33.0,19.9,57.93,280.0,6.0,30.11,10.0,26.86
2021-11-15 16:00:00,34.0,21.0,58.56,270.0,6.0,30.1,10.0,27.94
2021-11-15 17:00:00,34.0,21.9,60.83,220.0,4.0,30.08,10.0,29.76
2021-11-15 18:00:00,35.0,21.9,58.22,270.0,5.0,30.07,10.0,30.08
2021-11-15 19:00:00,35.0,21.9,58.22,260.0,5.0,30.06,10.0,30.08
2021-11-15 20:00:00,34.0,21.9,60.83,0.0,0.0,30.06,10.0,34.0
2021-11-15 21:00:00,34.0,23.0,63.72,260.0,3.0,30.07,10.0,30.97
2021-11-15 22:00:00,33.0,24.1,69.17,0.0,0.0,30.07,10.0,33.1
2021-11-15 23:00:00,33.0,24.1,69.17,250.0,4.0,30.09,10.0,28.7
2021-11-16 00:00:00,30.9,24.1,75.59,240.0,4.0,30.1,10.0,26.14
2021-11-16 01:00:00,28.9,21.9,74.76,0.0,0.0,30.09,10.0,28.9
2021-11-16 02:00:00,28.0,23.0,81.25,0.0,0.0,30.11,10.0,28.0
2021-11-16 03:00:00,27.0,21.9,80.83,0.0,0.0,30.1,10.0,27.0
2021-11-16 04:00:00,26.1,21.9,83.89,0.0,0.0,30.1,10.0,26.1
2021-11-16 05:00:00,27.0,21.9,80.83,0.0,0.0,30.1,10.0,27.0
2021-11-16 06:00:00,24.1,19.9,83.75,0.0,0.0,30.08,10.0,24.1
2021-11-16 07:00:00,25.0,19.9,80.66,0.0,0.0,30.08,10.0,25.0
2021-11-16 08:00:00,28.0,21.9,77.57,360.0,4.0,30.08,10.0,22.75
2021-11-16 09:00:00,27.0,21.0,77.8,360.0,3.0,30.08,10.0,22.97
2021-11-16 10:00:00,27.0,19.9,74.25,360.0,4.0,30.08,10.0,21.58
2021-11-16 11:00:00,24.1,19.9,83.75,0.0,0.0,30.07,10.0,24.1
2021-11-16 12:00:00,26.1,21.0,80.75,0.0,0.0,30.08,10.0,26.1
2021-11-16 13:00:00,30.9,26.1,82.15,0.0,0.0,30.07,10.0,30.9
2021-11-16 14:00:00,37.0,32.0,81.93,0.0,0.0,30.07,10.0,37.0
2021-11-16 15:00:00,42.0,36.0,78.8,170.0,5.0,30.06,8.0,38.39
2021-11-16 16:00:00,45.0,36.0,70.53,140.0,13.0,30.06,10.0,38.22
2021-11-16 17:00:00,45.0,36.0,70.53,140.0,16.0,30.02,10.0,37.36
2021-11-16 18:00:00,46.0,36.0,67.9,140.0,13.0,29.99,10.0,39.5
2021-11-16 19:00:00,46.0,37.0,70.64,140.0,14.0,29.94,10.0,39.21
2021-11-16 20:00:00,46.0,38.0,73.18,140.0,15.0,29.91,10.0,38.93
2021-11-16 21:00:00,46.0,38.0,73.18,140.0,11.0,29.92,10.0,40.16
2021-11-16 22:00:00,46.0,38.0,73.18,140.0,12.0,29.86,10.0,39.82
2021-11-16 23:00:00,48.0,40.0,73.38,140.0,13.0,29.84,10.0,42.07
2021-11-17 00:00:00,49.0,40.0,70.95,150.0,16.0,29.82,10.0,42.45
2021-11-17 01:00:00,49.0,40.0,70.95,160.0,14.0,29.78,10.0,42.95
2021-11-17 02:00:00,50.0,41.0,71.07,170.0,10.0,29.78,10.0,50.0
2021-11-17 03:00:00,50.0,40.0,68.1,170.0,8.0,29.76,10.0,50.0
2021-11-17 04:00:00,51.0,41.0,68.23,180.0,12.0,29.72,10.0,51.1
2021-11-17 05:00:00,55.0,49.0,79.85,200.0,14.0,29.72,9.0,55.0
2021-11-17 06:00:00,58.0,53.0,84.0,210.0,13.0,29.69,7.0,57.9
2021-11-17 07:00:00,61.0,55.0,80.61,210.0,13.0,29.69,9.0,61.0
2021-11-17 08:00:00,61.0,55.0,80.61,220.0,11.0,29.68,10.0,61.0
2021-11-17 09:00:00,62.0,55.0,77.53,230.0,13.0,29.68,10.0,62.1
2021-11-17 10:00:00,62.0,55.0,77.53,220.0,12.0,29.7,10.0,62.1
2021-11-17 11:00:00,61.0,55.0,80.61,240.0,11.0,29.7,10.0,61.0
2021-11-17 12:00:00,60.0,55.0,83.23,230.0,7.0,29.71,10.0,60.1
2021-11-17 13:00:00,58.0,55.0,90.04,290.0,8.0,29.74,4.0,57.9
2021-11-17 14:00:00,57.0,53.0,86.77,290.0,6.0,29.76,2.5,57.0
2021-11-17 15:00:00,55.0,49.0,79.85,300.0,7.0,29.79,4.0,55.0
2021-11-17 16:00:00,53.0,46.0,76.75,290.0,10.0,29.8,7.0,53.1
2021-11-17 17:00:00,53.0,42.0,66.13,300.0,7.0,29.79,9.0,53.1
2021-11-17 18:00:00,55.0,39.0,54.7,320.0,5.0,29.79,10.0,55.0
2021-11-17 19:00:00,55.0,34.0,44.9,310.0,9.0,29.8,10.0,55.0
2021-11-17 20:00:00,54.0,32.0,42.98,290.0,7.0,29.82,10.0,54.0
2021-11-17 21:00:00,53.0,30.0,40.96,290.0,8.0,29.86,10.0,53.1
2021-11-17 22:00:00,51.0,30.0,44.09,280.0,8.0,29.89,10.0,51.1
2021-11-17 23:00:00,49.0,28.9,45.75,260.0,8.0,29.92,10.0,44.93
2021-11-18 00:00:00,47.0,26.1,43.95,270.0,15.0,29.94,10.0,40.1
2021-11-18 01:00:00,45.0,27.0,49.02,280.0,15.0,29.96,10.0,37.63
2021-11-18 02:00:00,44.0,28.0,52.86,280.0,16.0,29.98,10.0,36.19
2021-11-18 03:00:00,43.0,25.0,48.7,280.0,16.0,30.01,10.0,34.76
2021-11-18 04:00:00,41.0,24.1,50.67,280.0,11.0,30.01,10.0,33.84
2021-11-18 05:00:00,39.0,23.0,52.3,270.0,10.0,30.03,10.0,31.75
2021-11-18 06:00:00,37.0,21.9,54.01,280.0,10.0,30.02,10.0,29.24
2021-11-18 07:00:00,34.0,21.9,60.83,250.0,12.0,30.03,10.0,24.55
2021-11-18 08:00:00,34.0,21.9,60.83,260.0,13.0,30.03,10.0,24.13
2021-11-18 09:00:00,33.0,21.0,60.71,260.0,14.0,30.03,10.0,22.58
2021-11-18 10:00:00,32.0,21.0,63.45,260.0,15.0,30.04,10.0,20.78
2021-11-18 11:00:00,32.0,19.9,60.55,270.0,15.0,30.05,10.0,20.78
2021-11-18 12:00:00,30.9,19.9,63.31,270.0,13.0,30.06,10.0,20.16
2021-11-18 13:00:00,32.0,19.0,58.27,270.0,15.0,30.08,10.0,20.78
2021-11-18 14:00:00,33.0,18.0,53.4,270.0,16.0,30.09,10.0,21.85
2021-11-18 15:00:00,35.0,18.0,49.31,270.0,16.0,30.1,10.0,24.46
2021-11-18 16:00:00,35.0,18.0,49.31,270.0,17.0,30.11,10.0,24.14
2021-11-18 17:00:00,35.0,18.0,49.31,270.0,19.0,30.11,10.0,23.54
2021-11-18 18:00:00,34.0,17.1,49.55,260.0,19.0,30.12,10.0,22.08
2021-11-18 19:00:00,34.0,19.0,53.77,260.0,18.0,30.13,10.0,22.38
2021-11-18 20:00:00,34.0,19.0,53.77,270.0,13.0,30.16,9.0,24.13
2021-11-18 21:00:00,33.0,19.9,57.93,270.0,17.0,30.18,10.0,21.52
2021-11-18 22:00:00,33.0,19.9,57.93,270.0,15.0,30.21,10.0,22.21
2021-11-18 23:00:00,33.0,19.9,57.93,280.0,12.0,30.24,10.0,23.4
2021-11-19 00:00:00,33.0,19.0,55.75,280.0,14.0,30.27,10.0,22.58
2021-11-19 01:00:00,33.0,17.1,51.37,300.0,10.0,30.29,10.0,24.35
2021-11-19 02:00:00,33.0,18.0,53.4,290.0,10.0,30.31,10.0,24.35
2021-11-19 03:00:00,33.0,17.1,51.37,300.0,10.0,30.33,10.0,24.35
2021-11-19 04:00:00,32.0,16.0,51.2,300.0,8.0,30.34,10.0,24.11
2021-11-19 05:00:00,30.0,17.1,58.23,290.0,6.0,30.36,10.0,23.12
2021-11-19 06:00:00,28.9,17.1,60.9,280.0,7.0,30.37,10.0,21.0
2021-11-19 07:00:00,27.0,17.1,65.84,280.0,7.0,30.39,10.0,18.68
2021-11-19 08:00:00,28.0,18.0,65.69,280.0,7.0,30.41,10.0,19.9
2021-11-19 09:00:00,25.0,17.1,71.53,260.0,6.0,30.42,10.0,17.1
2021-11-19 10:00:00,24.1,16.0,70.81,270.0,5.0,30.44,10.0,17.01
2021-11-19 11:00:00,21.0,15.1,77.59,270.0,5.0,30.46,10.0,13.33
2021-11-19 12:00:00,23.0,16.0,74.15,250.0,5.0,30.48,10.0,15.71
2021-11-19 13:00:00,27.0,18.0,68.45,250.0,6.0,30.48,10.0,19.51
2021-11-19 14:00:00,30.9,19.9,63.31,250.0,5.0,30.49,10.0,25.09
2021-11-19 15:00:00,34.0,19.9,55.88,240.0,4.0,30.49,10.0,29.76
2021-11-19 16:00:00,37.0,19.0,47.74,200.0,9.0,30.48,10.0,29.73
2021-11-19 17:00:00,38.0,19.9,47.89,200.0,6.0,30.45,10.0,32.64
2021-11-19 18:00:00,38.0,18.0,44.14,210.0,9.0,30.43,10.0,30.85
2021-11-19 19:00:00,39.0,19.0,44.14,200.0,10.0,30.4,10.0,31.75
2021-11-19 20:00:00,39.0,19.0,44.14,170.0,7.0,30.36,10.0,33.31
2021-11-19 21:00:00,38.0,19.0,46.08,200.0,8.0,30.36,10.0,31.38
2021-11-19 22:00:00,34.0,19.0,53.77,180.0,5.0,30.34,10.0,28.77
2021-11-19 23:00:00,36.0,19.9,51.61,180.0,5.0,30.33,10.0,31.15
2021-11-20 00:00:00,35.0,21.0,56.05,170.0,8.0,30.31,10.0,27.93
2021-11-20 01:00:00,36.0,21.9,56.18,170.0,7.0,30.3,10.0,29.65
2021-11-20 02:00:00,36.0,21.9,56.18,170.0,7.0,30.29,10.0,29.65
2021-11-20 03:00:00,36.0,23.0,58.85,180.0,6.0,30.28,10.0,30.35
2021-11-20 04:00:00,37.0,23.0,56.57,190.0,11.0,30.27,10.0,28.79
2021-11-20 05:00:00,37.0,23.0,56.57,200.0,11.0,30.25,10.0,28.79
2021-11-20 06:00:00,38.0,23.0,54.6,190.0,14.0,30.22,10.0,28.77
2021-11-20 07:00:00,38.0,24.1,57.18,200.0,12.0,30.2,10.0,29.51
2021-11-20 08:00:00,38.0,24.1,57.18,200.0,9.0,30.17,10.0,30.85
2021-11-20 09:00:00,38.0,24.1,57.18,190.0,9.0,30.15,10.0,30.85
2021-11-20 10:00:00,39.0,25.0,56.86,210.0,9.0,30.15,10.0,32.22
2021-11-20 11:00:00,39.0,25.0,56.86,210.0,9.0,30.14,10.0,32.22
2021-11-20 12:00:00,39.0,25.0,56.86,210.0,10.0,30.12,10.0,31.75
2021-11-20 13:00:00,39.0,26.1,59.52,220.0,9.0,30.13,10.0,32.22
2021-11-20 14:00:00,40.0,27.0,59.65,210.0,12.0,30.12,10.0,32.06
2021-11-20 15:00:00,41.0,27.0,57.15,220.0,10.0,30.12,10.0,34.25
2021-11-20 16:00:00,44.0,28.0,52.86,230.0,13.0,30.11,10.0,37.07
2021-11-20 17:00:00,46.0,28.9,51.03,230.0,8.0,30.1,10.0,41.36
2021-11-20 18:00:00,47.0,28.9,49.32,230.0,8.0,30.08,10.0,42.47
2021-11-20 19:00:00,49.0,30.0,47.85,250.0,11.0,30.06,10.0,43.82
2021-11-20 20:00:00,50.0,30.0,45.93,240.0,8.0,30.07,10.0,50.0
2021-11-20 21:00:00,49.0,30.0,47.85,240.0,6.0,30.09,10.0,45.88
2021-11-20 22:00:00,44.0,28.9,54.85,250.0,4.0,30.12,10.0,41.55
2021-11-20 23:00:00,42.0,28.9,59.22,250.0,4.0,30.14,10.0,39.21
2021-11-21 00:00:00,44.0,30.0,57.37,300.0,3.0,30.15,10.0,42.52
2021-11-21 01:00:00,41.0,30.0,64.63,0.0,0.0,30.15,10.0,41.0
2021-11-21 02:00:00,39.0,28.9,66.79,210.0,3.0,30.15,10.0,36.69
2021-11-21 03:00:00,40.0,30.9,69.96,0.0,0.0,30.15,10.0,39.9
2021-11-21 04:00:00,36.0,28.9,75.15,260.0,3.0,30.15,10.0,33.26
2021-11-21 05:00:00,35.0,28.0,75.06,0.0,0.0,30.14,9.0,35.1
2021-11-21 06:00:00,33.0,27.0,78.03,0.0,0.0,30.12,8.0,33.1
2021-11-21 07:00:00,36.0,28.9,75.15,330.0,5.0,30.12,9.0,31.15
2021-11-21 08:00:00,39.0,28.9,66.79,350.0,4.0,30.1,10.0,35.59
2021-11-21 09:00:00,37.0,30.9,78.37,0.0,0.0,30.08,10.0,37.0
2021-11-21 10:00:00,38.0,30.9,75.64,210.0,3.0,30.07,9.0,35.43
2021-11-21 11:00:00,38.0,30.9,75.64,0.0,0.0,30.05,10.0,37.9
2021-11-21 12:00:00,38.0,33.0,82.66,270.0,3.0,30.04,9.0,35.43
2021-11-21 13:00:00,40.0,32.0,73.14,200.0,5.0,30.02,9.0,35.78
2021-11-21 14:00:00,42.0,33.0,70.2,250.0,4.0,30.02,9.0,39.21
2021-11-21 15:00:00,46.0,33.0,60.49,250.0,8.0,30.01,10.0,41.36
2021-11-21 16:00:00,51.0,34.0,51.81,230.0,12.0,29.96,10.0,51.1
2021-11-21 17:00:00,53.0,30.9,42.48,250.0,15.0,29.92,10.0,53.1
2021-11-21 18:00:00,54.0,32.0,42.98,270.0,19.0,29.88,10.0,54.0
2021-11-21 19:00:00,54.0,30.9,41.11,260.0,21.0,29.85,10.0,54.0
2021-11-21 20:00:00,53.0,30.0,40.96,270.0,22.0,29.85,10.0,53.1
2021-11-21 21:00:00,51.0,27.0,38.99,280.0,21.0,29.87,10.0,51.1
2021-11-21 22:00:00,44.0,21.0,39.47,310.0,20.0,29.95,10.0,35.21
2021-11-21 23:00:00,41.0,16.0,35.88,320.0,15.0,30.0,10.0,32.45
2021-11-22 00:00:00,36.0,10.0,33.5,320.0,10.0,30.04,10.0,27.98
2021-11-22 01:00:00,35.0,9.0,33.2,310.0,17.0,30.05,10.0,24.14
2021-11-22 02:00:00,33.0,9.0,35.96,310.0,17.0,30.08,10.0,21.52
2021-11-22 03:00:00,30.9,7.0,35.9,310.0,12.0,30.1,10.0,20.6
2021-11-22 04:00:00,30.0,9.0,40.75,300.0,14.0,30.11,10.0,18.58
2021-11-22 05:00:00,28.9,8.1,40.93,300.0,13.0,30.11,10.0,17.6
2021-11-22 06:00:00,28.0,9.0,44.23,300.0,17.0,30.12,10.0,14.83
2021-11-22 07:00:00,27.0,10.0,48.2,300.0,13.0,30.13,10.0,15.16
2021-11-22 08:00:00,26.1,10.0,50.02,300.0,11.0,30.14,10.0,15.01
2021-11-22 09:00:00,25.0,10.0,52.36,310.0,10.0,30.14,10.0,14.19
2021-11-22 10:00:00,24.1,10.0,54.36,300.0,7.0,30.14,10.0,15.15
2021-11-22 11:00:00,23.0,10.0,56.93,290.0,6.0,30.17,10.0,14.69
2021-11-22 12:00:00,21.0,10.0,61.95,290.0,6.0,30.18,10.0,12.28
2021-11-22 13:00:00,24.1,10.0,54.36,280.0,8.0,30.18,10.0,14.38
2021-11-22 14:00:00,28.0,10.0,46.25,310.0,12.0,30.19,10.0,16.91
2021-11-22 15:00:00,30.0,8.1,39.14,280.0,11.0,30.19,10.0,19.94
2021-11-22 16:00:00,33.0,7.0,32.85,270.0,14.0,30.17,10.0,22.58
2021-11-22 17:00:00,34.0,9.0,34.69,290.0,13.0,30.16,10.0,24.13
2021-11-22 18:00:00,35.0,8.1,31.88,290.0,14.0,30.15,10.0,25.16
2021-11-22 19:00:00,35.0,6.0,29.12,270.0,13.0,30.15,9.0,25.54
2021-11-22 20:00:00,35.0,6.0,29.12,280.0,10.0,30.14,10.0,26.86
2021-11-22 21:00:00,33.0,4.0,28.52,280.0,11.0,30.15,10.0,23.86
2021-11-22 22:00:00,28.0,6.0,38.79,300.0,4.0,30.16,10.0,22.75
2021-11-22 23:00:00,27.0,6.0,40.42,270.0,4.0,30.16,10.0,21.58
2021-11-23 00:00:00,25.0,7.0,45.75,280.0,5.0,30.17,10.0,18.08
2021-11-23 01:00:00,27.0,9.0,46.08,270.0,6.0,30.18,10.0,19.51
2021-11-23 02:00:00,25.0,9.0,50.07,280.0,5.0,30.18,10.0,18.08
2021-11-23 03:00:00,25.0,9.0,50.07,290.0,4.0,30.19,10.0,19.25
2021-11-23 04:00:00,25.0,10.0,52.36,280.0,4.0,30.19,10.0,19.25
2021-11-23 05:00:00,21.9,9.0,57.02,260.0,3.0,30.18,10.0,17.14
2021-11-23 06:00:00,21.9,10.0,59.63,280.0,5.0,30.19,10.0,14.4
2021-11-23 07:00:00,24.1,12.0,59.42,280.0,4.0,30.2,10.0,18.19
2021-11-23 08:00:00,23.0,10.9,59.26,270.0,3.0,30.2,10.0,18.4
2021-11-23 09:00:00,23.0,10.9,59.26,240.0,4.0,30.19,10.0,16.91
2021-11-23 10:00:00,21.0,12.0,67.71,170.0,3.0,30.2,10.0,16.11
2021-11-23 11:00:00,19.9,12.0,70.95,240.0,3.0,30.2,10.0,14.86
2021-11-23 12:00:00,19.9,12.9,73.83,200.0,5.0,30.2,10.0,12.03
2021-11-23 13:00:00,26.1,16.0,65.16,240.0,3.0,30.21,10.0,21.94
2021-11-23 14:00:00,30.9,16.0,53.53,200.0,4.0,30.21,10.0,26.14
2021-11-23 15:00:00,37.0,14.0,38.44,200.0,10.0,30.21,10.0,29.24
2021-11-23 16:00:00,39.0,10.0,29.77,210.0,9.0,30.18,10.0,32.22
2021-11-23 17:00:00,42.0,9.0,25.24,220.0,10.0,30.15,10.0,35.63
2021-11-23 18:00:00,43.0,9.0,24.39,220.0,11.0,30.12,10.0,36.37
2021-11-23 19:00:00,44.0,10.9,25.45,200.0,10.0,30.09,10.0,38.14
2021-11-23 20:00:00,44.0,12.0,26.73,190.0,9.0,30.08,10.0,38.56
2021-11-23 21:00:00,42.0,12.9,30.03,190.0,9.0,30.05,10.0,36.07
2021-11-23 22:00:00,39.0,12.9,33.86,180.0,7.0,30.05,10.0,33.31
2021-11-23 23:00:00,39.0,15.1,37.29,180.0,8.0,30.03,10.0,32.74
2021-11-24 00:00:00,39.0,17.1,40.67,190.0,10.0,30.02,10.0,31.75
2021-11-24 01:00:00,39.0,19.0,44.14,190.0,14.0,29.99,10.0,30.19
2021-11-24 02:00:00,38.0,19.9,47.89,200.0,14.0,29.99,10.0,28.77
2021-11-24 03:00:00,38.0,19.9,47.89,210.0,15.0,29.98,10.0,28.43
2021-11-24 04:00:00,38.0,21.0,50.18,200.0,12.0,29.98,10.0,29.51
2021-11-24 05:00:00,39.0,21.0,48.06,200.0,17.0,29.97,10.0,29.25
2021-11-24 06:00:00,39.0,21.9,49.93,200.0,14.0,29.95,10.0,30.19
2021-11-24 07:00:00,39.0,23.0,52.3,210.0,17.0,29.94,10.0,29.25
2021-11-24 08:00:00,39.0,24.1,54.77,210.0,12.0,29.94,10.0,30.91
2021-11-24 09:00:00,39.0,24.1,54.77,200.0,11.0,29.93,10.0,31.31
2021-11-24 10:00:00,40.0,25.0,54.9,200.0,17.0,29.92,10.0,30.42
2021-11-24 11:00:00,41.0,25.0,52.61,200.0,13.0,29.91,10.0,33.1
2021-11-24 12:00:00,40.0,25.0,54.9,200.0,14.0,29.9,10.0,31.35
2021-11-24 13:00:00,42.0,26.1,52.78,190.0,15.0,29.89,10.0,33.87
2021-11-24 14:00:00,44.0,28.0,52.86,210.0,16.0,29.9,10.0,36.19
2021-11-24 15:00:00,46.0,28.9,51.03,210.0,18.0,29.9,10.0,38.18
2021-11-24 16:00:00,48.0,28.9,47.32,200.0,16.0,29.88,10.0,41.27
2021-11-24 17:00:00,49.0,30.0,47.85,210.0,16.0,29.85,10.0,42.45
2021-11-24 18:00:00,50.0,30.9,47.64,210.0,12.0,29.84,10.0,50.0
2021-11-24 19:00:00,50.0,32.0,49.81,210.0,15.0,29.85,10.0,50.0
2021-11-24 20:00:00,51.0,33.0,49.98,210.0,12.0,29.85,10.0,51.1
2021-11-24 21:00:00,51.0,34.0,51.81,210.0,7.0,29.88,10.0,51.1
2021-11-24 22:00:00,52.0,36.0,54.26,210.0,8.0,29.89,10.0,52.0
2021-11-24 23:00:00,50.0,36.0,58.44,190.0,4.0,29.91,10.0,50.0
2021-11-25 00:00:00,51.0,37.0,58.36,210.0,6.0,29.91,10.0,51.1
2021-11-25 01:00:00,50.0,37.0,60.79,210.0,7.0,29.92,10.0,50.0
2021-11-25 02:00:00,50.0,38.0,62.98,220.0,6.0,29.93,10.0,50.0
2021-11-25 03:00:00,50.0,39.0,65.75,210.0,6.0,29.93,10.0,50.0
2021-11-25 04:00:00,49.0,39.0,68.51,230.0,4.0,29.93,10.0,47.16
2021-11-25 05:00:00,49.0,39.0,68.51,230.0,4.0,29.93,10.0,47.16
2021-11-25 06:00:00,48.0,40.0,73.38,250.0,5.0,29.93,10.0,45.4
2021-11-25 07:00:00,47.0,40.0,76.48,230.0,4.0,29.94,10.0,44.82
2021-11-25 08:00:00,47.0,39.0,73.85,290.0,3.0,29.94,10.0,45.72
2021-11-25 09:00:00,47.0,38.0,70.73,340.0,7.0,29.96,10.0,42.94
2021-11-25 10:00:00,45.0,35.0,68.05,10.0,15.0,29.99,10.0,37.63
2021-11-25 11:00:00,44.0,34.0,67.41,10.0,11.0,30.0,10.0,37.76
2021-11-25 12:00:00,44.0,33.0,65.02,350.0,10.0,30.03,10.0,38.14
2021-11-25 13:00:00,43.0,32.0,64.88,330.0,10.0,30.06,10.0,36.76
2021-11-25 14:00:00,40.0,33.0,76.44,330.0,11.0,30.06,10.0,32.45
2021-11-25 15:00:00,40.0,32.0,73.14,330.0,9.0,30.07,10.0,33.34
2021-11-25 16:00:00,39.0,32.0,75.75,330.0,12.0,30.08,10.0,30.91
2021-11-25 17:00:00,37.0,30.9,78.37,310.0,14.0,30.08,7.0,27.61
2021-11-25 18:00:00,35.0,30.0,81.46,310.0,10.0,30.08,2.5,26.86
2021-11-25 19:00:00,35.0,28.0,75.06,320.0,12.0,30.09,10.0,25.95
2021-11-25 20:00:00,33.0,27.0,78.03,300.0,13.0,30.11,10.0,22.98
2021-11-25 21:00:00,32.0,26.1,78.58,310.0,13.0,30.14,6.0,21.57
2021-11-25 22:00:00,30.9,23.0,72.18,310.0,12.0,30.16,10.0,20.6
2021-11-25 23:00:00,30.0,21.0,68.81,310.0,12.0,30.18,10.0,19.46
2021-11-26 00:00:00,28.9,17.1,60.9,310.0,15.0,30.19,10.0,16.76
2021-11-26 01:00:00,27.0,17.1,65.84,310.0,13.0,30.2,10.0,15.16
2021-11-26 02:00:00,26.1,14.0,59.71,310.0,13.0,30.21,10.0,14.01
2021-11-26 03:00:00,26.1,12.0,54.68,320.0,14.0,30.21,10.0,13.56
2021-11-26 04:00:00,24.1,10.0,54.36,330.0,8.0,30.22,10.0,14.38
2021-11-26 05:00:00,21.9,9.0,57.02,330.0,9.0,30.22,10.0,10.96
2021-11-26 06:00:00,21.0,8.1,56.88,320.0,8.0,30.22,10.0,10.56
2021-11-26 07:00:00,19.9,8.1,59.6,300.0,9.0,30.23,10.0,8.47
2021-11-26 08:00:00,17.1,9.0,69.99,290.0,6.0,30.22,10.0,7.59
2021-11-26 09:00:00,17.1,8.1,67.22,290.0,7.0,30.21,10.0,6.62
2021-11-26 10:00:00,17.1,8.1,67.22,290.0,7.0,30.22,10.0,6.62
2021-11-26 11:00:00,16.0,7.0,67.07,270.0,7.0,30.23,10.0,5.28
2021-11-26 12:00:00,16.0,7.0,67.07,280.0,6.0,30.22,10.0,6.26
2021-11-26 13:00:00,19.0,8.1,61.94,300.0,9.0,30.24,10.0,7.35
2021-11-26 14:00:00,21.0,9.0,59.23,290.0,8.0,30.24,10.0,10.56
2021-11-26 15:00:00,23.0,9.0,54.44,290.0,7.0,30.23,10.0,13.81
2021-11-26 16:00:00,25.0,10.0,52.36,300.0,6.0,30.2,10.0,17.1
2021-11-26 17:00:00,27.0,9.0,46.08,290.0,5.0,30.19,10.0,20.46
2021-11-26 18:00:00,28.0,9.0,44.23,270.0,6.0,30.15,10.0,20.71
2021-11-26 19:00:00,28.9,9.0,42.63,240.0,5.0,30.13,10.0,22.71
2021-11-26 20:00:00,28.9,6.0,37.39,230.0,3.0,30.09,10.0,25.14
2021-11-26 21:00:00,28.9,9.0,42.63,180.0,3.0,30.1,10.0,25.14
2021-11-26 22:00:00,28.9,8.1,40.93,180.0,5.0,30.09,10.0,22.71
2021-11-26 23:00:00,28.0,8.1,42.47,140.0,4.0,30.07,10.0,22.75
2021-11-27 00:00:00,27.0,8.1,44.26,190.0,5.0,30.05,10.0,20.46
2021-11-27 01:00:00,27.0,9.0,46.08,210.0,5.0,30.06,10.0,20.46
2021-11-27 02:00:00,26.1,9.0,47.83,180.0,3.0,30.05,10.0,21.94
2021-11-27 03:00:00,28.0,10.0,46.25,200.0,5.0,30.03,10.0,21.64
2021-11-27 04:00:00,28.0,10.9,48.15,190.0,4.0,30.02,10.0,22.75
2021-11-27 05:00:00,28.9,12.0,48.72,160.0,5.0,30.01,10.0,22.71
2021-11-27 06:00:00,28.9,14.0,53.21,150.0,6.0,29.97,10.0,21.8
2021-11-27 07:00:00,30.0,15.1,53.38,190.0,5.0,29.97,10.0,24.02
2021-11-27 08:00:00,30.0,16.0,55.52,180.0,6.0,29.94,10.0,23.12
2021-11-27 09:00:00,30.9,17.1,56.14,180.0,5.0,29.91,10.0,25.09
2021-11-27 10:00:00,30.9,18.0,58.36,180.0,5.0,29.89,10.0,25.09
2021-11-27 11:00:00,30.9,19.0,60.92,190.0,4.0,29.88,10.0,26.14
2021-11-27 12:00:00,32.0,19.0,58.27,150.0,6.0,29.87,10.0,25.53
2021-11-27 13:00:00,32.0,19.9,60.55,160.0,5.0,29.87,10.0,26.4
2021-11-27 14:00:00,34.0,21.9,60.83,190.0,7.0,29.85,10.0,27.22
2021-11-27 15:00:00,36.0,23.0,58.85,200.0,10.0,29.83,10.0,27.98
2021-11-27 16:00:00,38.0,24.1,57.18,210.0,3.0,29.8,10.0,35.43
2021-11-27 17:00:00,40.0,25.0,54.9,250.0,4.0,29.77,10.0,36.65
2021-11-27 18:00:00,40.0,26.1,57.47,140.0,4.0,29.73,10.0,36.65
2021-11-27 19:00:00,41.0,28.0,59.55,260.0,5.0,29.72,10.0,37.08
2021-11-27 20:00:00,41.0,30.0,64.63,310.0,5.0,29.74,10.0,37.08
2021-11-27 21:00:00,40.0,30.9,69.96,310.0,6.0,29.76,10.0,35.04
2021-11-27 22:00:00,38.0,30.9,75.64,280.0,7.0,29.79,10.0,31.97
2021-11-27 23:00:00,38.0,28.9,69.73,300.0,8.0,29.81,9.0,31.38
2021-11-28 00:00:00,35.0,27.0,72.04,300.0,10.0,29.84,10.0,26.86
2021-11-28 01:00:00,34.0,25.0,69.28,300.0,11.0,29.85,10.0,24.99
2021-11-28 02:00:00,32.0,23.0,69.04,310.0,11.0,29.88,10.0,22.47
2021-11-28 03:00:00,32.0,23.0,69.04,310.0,10.0,29.89,10.0,22.97
2021-11-28 04:00:00,30.9,21.9,68.91,300.0,11.0,29.9,10.0,21.08
2021-11-28 05:00:00,30.0,21.9,71.48,300.0,7.0,29.91,10.0,22.34
2021-11-28 06:00:00,28.9,21.0,71.96,300.0,5.0,29.92,10.0,22.71
2021-11-28 07:00:00,27.0,19.0,71.45,250.0,5.0,29.93,10.0,20.46
2021-11-28 08:00:00,28.0,19.9,71.25,260.0,8.0,29.92,10.0,19.19
2021-11-28 09:00:00,28.0,19.9,71.25,270.0,7.0,29.93,10.0,19.9
2021-11-28 10:00:00,28.9,21.0,71.96,280.0,9.0,29.94,10.0,19.66
2021-11-28 11:00:00,26.1,19.9,77.06,260.0,8.0,29.96,10.0,16.85
2021-11-28 12:00:00,28.9,21.0,71.96,280.0,7.0,29.97,10.0,21.0
2021-11-28 13:00:00,32.0,19.9,60.55,320.0,14.0,29.97,10.0,21.16
2021-11-28 14:00:00,33.0,19.0,55.75,310.0,16.0,29.97,10.0,21.85
2021-11-28 15:00:00,36.0,18.0,47.58,300.0,16.0,29.99,10.0,25.63
2021-11-28 16:00:00,38.0,18.0,44.14,320.0,11.0,29.99,10.0,29.92
2021-11-28 17:00:00,39.0,17.1,40.67,320.0,13.0,29.99,10.0,30.54
2021-11-28 18:00:00,40.0,15.1,36.01,310.0,11.0,29.99,10.0,32.45
2021-11-28 19:00:00,40.0,12.9,32.7,320.0,11.0,30.01,10.0,32.45
2021-11-28 20:00:00,40.0,12.9,32.7,310.0,10.0,30.02,10.0,32.87
2021-11-28 21:00:00,38.0,12.9,35.35,300.0,11.0,30.04,10.0,29.92
2021-11-28 22:00:00,33.0,12.0,41.1,290.0,5.0,30.05,10.0,27.7
2021-11-28 23:00:00,32.0,12.0,42.96,300.0,5.0,30.08,10.0,26.4
2021-11-29 00:00:00,30.9,12.0,44.92,310.0,3.0,30.09,10.0,27.43
2021-11-29 01:00:00,26.1,10.9,52.07,240.0,4.0,30.1,10.0,20.53
2021-11-29 02:00:00,21.9,10.9,62.07,0.0,0.0,30.09,10.0,21.9
2021-11-29 03:00:00,27.0,12.0,52.68,240.0,3.0,30.09,10.0,22.97
2021-11-29 04:00:00,23.0,10.9,59.26,250.0,4.0,30.1,10.0,16.91
2021-11-29 05:00:00,19.0,10.0,67.46,250.0,4.0,30.1,10.0,12.24
2021-11-29 06:00:00,25.0,12.9,59.55,230.0,4.0,30.09,10.0,19.25
2021-11-29 07:00:00,21.0,12.0,67.71,230.0,3.0,30.09,10.0,16.11
2021-11-29 08:00:00,24.1,12.9,61.83,240.0,3.0,30.09,10.0,19.66
2021-11-29 09:00:00,25.0,14.0,62.5,240.0,4.0,30.08,10.0,19.25
2021-11-29 10:00:00,27.0,14.0,57.53,0.0,0.0,30.07,10.0,27.0
2021-11-29 11:00:00,26.1,16.0,65.16,210.0,4.0,30.07,10.0,20.53
2021-11-29 12:00:00,27.0,17.1,65.84,0.0,0.0,30.07,10.0,27.0
2021-11-29 13:00:00,28.9,18.0,63.31,200.0,4.0,30.06,10.0,23.8
2021-11-29 14:00:00,32.0,18.0,55.82,200.0,4.0,30.04,10.0,27.42
2021-11-29 15:00:00,36.0,17.1,45.77,220.0,7.0,30.03,10.0,29.65
2021-11-29 16:00:00,40.0,12.9,32.7,210.0,10.0,30.0,10.0,32.87
2021-11-29 17:00:00,41.0,12.9,31.33,210.0,7.0,29.96,10.0,35.75
2021-11-29 18:00:00,41.0,14.0,32.88,190.0,11.0,29.92,10.0,33.84
2021-11-29 19:00:00,38.0,24.1,57.18,160.0,12.0,29.87,4.0,29.51
2021-11-29 20:00:00,40.0,21.9,48.21,160.0,13.0,29.81,10.0,31.69
2021-11-29 21:00:00,41.0,21.0,44.47,160.0,9.0,29.8,10.0,34.7
2021-11-29 22:00:00,40.0,21.0,46.41,200.0,5.0,29.82,10.0,35.78
2021-11-29 23:00:00,39.0,25.0,56.86,180.0,8.0,29.79,10.0,32.74
2021-11-30 00:00:00,38.0,24.1,57.18,160.0,7.0,29.78,10.0,31.97
2021-11-30 01:00:00,39.0,25.0,56.86,180.0,6.0,29.78,10.0,33.96
2021-11-30 02:00:00,39.0,26.1,59.52,200.0,7.0,29.76,10.0,33.31
2021-11-30 03:00:00,37.0,25.0,61.5,210.0,4.0,29.75,10.0,33.26
2021-11-30 04:00:00,33.0,24.1,69.17,240.0,6.0,29.76,10.0,26.86
2021-11-30 05:00:00,36.0,26.1,66.97,280.0,8.0,29.77,10.0,29.04
2021-11-30 06:00:00,38.0,27.0,64.49,310.0,10.0,29.8,10.0,30.37
2021-11-30 07:00:00,37.0,25.0,61.5,300.0,10.0,29.83,10.0,29.24
2021-11-30 08:00:00,36.0,24.1,61.62,300.0,9.0,29.87,10.0,28.49
2021-11-30 09:00:00,35.0,23.0,60.99,310.0,8.0,29.88,10.0,27.93
2021-11-30 10:00:00,33.0,23.0,66.06,310.0,9.0,29.92,10.0,24.88
2021-11-30 11:00:00,30.0,21.9,71.48,290.0,7.0,29.94,10.0,22.34
2021-11-30 12:00:00,30.9,21.9,68.91,300.0,7.0,29.96,10.0,23.44
2021-11-30 13:00:00,33.0,23.0,66.06,280.0,5.0,29.97,10.0,27.7
2021-11-30 14:00:00,37.0,25.0,61.5,290.0,9.0,29.98,10.0,29.73
2021-11-30 15:00:00,41.0,27.0,57.15,300.0,11.0,29.99,10.0,33.84
2021-11-30 16:00:00,47.0,28.9,49.32,280.0,13.0,29.99,10.0,40.66
2021-11-30 17:00:00,50.0,30.9,47.64,290.0,13.0,30.0,10.0,50.0
2021-11-30 18:00:00,51.0,28.0,40.63,310.0,14.0,30.0,10.0,51.1
2021-11-30 19:00:00,51.0,25.0,35.89,310.0,10.0,30.0,10.0,51.1
2021-11-30 20:00:00,50.0,24.1,36.01,320.0,11.0,30.02,10.0,50.0
2021-11-30 21:00:00,48.0,21.9,35.38,330.0,8.0,30.04,10.0,43.82
2021-11-30 22:00:00,42.0,21.9,44.27,290.0,4.0,30.06,10.0,39.21
2021-11-30 23:00:00,38.0,19.9,47.89,300.0,5.0,30.08,10.0,33.4
2021-12-01 00:00:00,36.0,19.0,49.66,300.0,4.0,30.08,10.0,32.09
2021-12-01 01:00:00,36.0,19.0,49.66,350.0,6.0,30.07,10.0,30.35
2021-12-01 02:00:00,30.9,17.1,56.14,320.0,3.0,30.06,10.0,27.43
2021-12-01 03:00:00,30.0,18.0,60.53,250.0,4.0,30.06,10.0,25.08
2021-12-01 04:00:00,30.9,19.0,60.92,0.0,0.0,30.06,10.0,30.9
2021-12-01 05:00:00,30.0,19.9,65.66,200.0,5.0,30.06,10.0,24.02
2021-12-01 06:00:00,32.0,19.9,60.55,0.0,0.0,30.06,10.0,32.0
2021-12-01 07:00:00,33.0,21.9,63.06,0.0,0.0,30.05,10.0,33.1
2021-12-01 08:00:00,33.0,23.0,66.06,0.0,0.0,30.04,10.0,33.1
2021-12-01 09:00:00,34.0,24.1,66.72,140.0,3.0,30.03,10.0,30.97
2021-12-01 10:00:00,33.0,23.0,66.06,160.0,4.0,30.0,10.0,28.7
2021-12-01 11:00:00,36.0,23.0,58.85,140.0,3.0,29.99,10.0,33.26
2021-12-01 12:00:00,39.0,28.9,66.79,190.0,5.0,29.98,7.0,34.71
2021-12-01 13:00:00,40.0,33.0,76.44,150.0,6.0,29.96,10.0,35.04
2021-12-01 14:00:00,43.0,35.0,73.45,150.0,9.0,29.92,10.0,37.19
2021-12-01 15:00:00,45.0,35.0,68.05,180.0,8.0,29.89,10.0,40.13
2021-12-01 16:00:00,47.0,35.0,63.33,200.0,11.0,29.87,10.0,41.3
2021-12-01 17:00:00,48.0,38.0,67.87,210.0,14.0,29.82,10.0,41.79
2021-12-01 18:00:00,49.0,40.0,70.95,210.0,12.0,29.81,10.0,43.51
2021-12-01 19:00:00,49.0,40.0,70.95,210.0,16.0,29.75,10.0,42.45
2021-12-01 20:00:00,49.0,40.0,70.95,220.0,10.0,29.77,10.0,44.16
2021-12-01 21:00:00,48.0,40.0,73.38,210.0,10.0,29.76,10.0,43.03
2021-12-01 22:00:00,47.0,40.0,76.48,220.0,9.0,29.77,10.0,42.04
2021-12-01 23:00:00,47.0,40.0,76.48,210.0,10.0,29.76,9.0,41.65
2021-12-02 00:00:00,46.0,41.0,82.58,210.0,9.0,29.75,8.0,40.92
2021-12-02 01:00:00,46.0,41.0,82.58,210.0,11.0,29.71,8.0,40.16
2021-12-02 02:00:00,47.0,40.0,76.48,230.0,11.0,29.69,10.0,41.3
2021-12-02 03:00:00,48.0,39.0,70.85,230.0,10.0,29.67,10.0,43.03
2021-12-02 04:00:00,49.0,38.0,65.62,230.0,14.0,29.63,10.0,42.95
2021-12-02 05:00:00,50.0,37.0,60.79,240.0,16.0,29.62,10.0,50.0
2021-12-02 06:00:00,50.0,37.0,60.79,240.0,19.0,29.58,10.0,50.0
2021-12-02 07:00:00,50.0,36.0,58.44,260.0,18.0,29.59,10.0,50.0
2021-12-02 08:00:00,51.0,36.0,56.1,250.0,18.0,29.58,10.0,51.1
2021-12-02 09:00:00,50.0,36.0,58.44,270.0,13.0,29.61,10.0,50.0
2021-12-02 10:00:00,51.0,37.0,58.36,280.0,11.0,29.62,10.0,51.1
2021-12-02 11:00:00,51.0,37.0,58.36,280.0,9.0,29.63,10.0,51.1
2021-12-02 12:00:00,50.0,36.0,58.44,260.0,11.0,29.65,10.0,50.0
2021-12-02 13:00:00,49.0,36.0,60.88,240.0,10.0,29.68,10.0,44.16
2021-12-02 14:00:00,53.0,33.0,46.42,290.0,16.0,29.71,10.0,53.1
2021-12-02 15:00:00,54.0,30.9,41.11,300.0,13.0,29.76,10.0,54.0
2021-12-02 16:00:00,54.0,27.0,35.05,310.0,19.0,29.78,10.0,54.0
2021-12-02 17:00:00,54.0,27.0,35.05,300.0,14.0,29.8,10.0,54.0
2021-12-02 18:00:00,54.0,25.0,32.26,310.0,19.0,29.82,10.0,54.0
2021-12-02 19:00:00,53.0,23.0,30.67,320.0,13.0,29.84,10.0,53.1
2021-12-02 20:00:00,53.0,23.0,30.67,330.0,11.0,29.87,10.0,53.1
2021-12-02 21:00:00,50.0,23.0,34.39,320.0,7.0,29.9,10.0,50.0
2021-12-02 22:00:00,47.0,24.1,40.44,310.0,5.0,29.94,10.0,44.09
2021-12-02 23:00:00,45.0,24.1,43.46,340.0,3.0,29.97,10.0,43.55
2021-12-03 00:00:00,44.0,25.0,46.7,350.0,4.0,29.99,10.0,41.55
2021-12-03 01:00:00,43.0,25.0,48.7,0.0,0.0,30.0,10.0,43.0
2021-12-03 02:00:00,40.0,26.1,57.47,0.0,0.0,30.0,10.0,39.9
2021-12-03 03:00:00,41.0,27.0,57.15,0.0,0.0,30.01,10.0,41.0
2021-12-03 04:00:00,42.0,26.1,52.78,320.0,3.0,30.02,10.0,40.23
2021-12-03 05:00:00,40.0,28.0,62.15,30.0,3.0,30.04,10.0,37.72
2021-12-03 06:00:00,42.0,28.0,57.08,0.0,0.0,30.03,10.0,42.1
2021-12-03 07:00:00,41.0,30.9,67.03,0.0,0.0,30.05,10.0,41.0
2021-12-03 08:00:00,40.0,32.0,73.14,20.0,3.0,30.07,7.0,37.72
2021-12-03 09:00:00,40.0,35.0,82.8,40.0,3.0,30.06,7.0,37.72
2021-12-03 10:00:00,39.0,35.0,85.76,50.0,3.0,30.04,10.0,36.69
2021-12-03 11:00:00,39.0,35.0,85.76,30.0,5.0,30.06,9.0,34.71
2021-12-03 12:00:00,38.0,35.0,89.53,50.0,4.0,30.07,8.0,34.31
2021-12-03 13:00:00,39.0,36.0,88.87,40.0,5.0,30.06,8.0,34.71
2021-12-03 14:00:00,39.0,36.0,88.87,50.0,4.0,30.06,10.0,35.59
2021-12-03 15:00:00,41.0,37.0,85.54,60.0,5.0,30.06,10.0,37.08
2021-12-03 16:00:00,42.0,37.0,81.98,120.0,5.0,30.06,10.0,38.39
2021-12-03 17:00:00,43.0,38.0,82.04,130.0,6.0,30.02,10.0,38.78
2021-12-03 18:00:00,44.0,39.0,82.12,130.0,3.0,30.01,10.0,42.52
2021-12-03 19:00:00,45.0,39.0,79.36,60.0,3.0,30.01,10.0,43.55
2021-12-03 20:00:00,46.0,40.0,79.13,30.0,5.0,30.03,10.0,43.02
2021-12-03 21:00:00,44.0,38.0,78.66,0.0,0.0,30.04,10.0,44.1
2021-12-03 22:00:00,38.0,35.0,89.53,0.0,0.0,30.04,10.0,37.9
2021-12-03 23:00:00,39.0,36.0,88.87,10.0,4.0,30.05,9.0,35.59
2021-12-04 00:00:00,39.0,36.0,88.87,0.0,0.0,30.09,6.0,39.0
2021-12-04 01:00:00,35.0,33.0,92.32,0.0,0.0,30.11,6.0,35.1
2021-12-04 02:00:00,36.0,33.0,89.09,320.0,3.0,30.11,4.0,33.26
2021-12-04 03:00:00,33.0,30.9,91.51,300.0,4.0,30.13,1.5,28.7
2021-12-04 04:00:00,34.0,32.0,92.29,300.0,6.0,30.15,0.25,27.94
2021-12-04 05:00:00,35.0,33.0,92.32,310.0,9.0,30.15,5.0,27.37
2021-12-04 06:00:00,35.0,32.0,88.33,290.0,5.0,30.16,8.0,30.08
2021-12-04 07:00:00,33.0,30.0,88.23,270.0,5.0,30.16,6.0,27.7
2021-12-04 08:00:00,30.0,28.0,92.15,250.0,5.0,30.17,5.0,24.02
2021-12-04 09:00:00,33.0,30.0,88.23,280.0,9.0,30.18,3.0,24.88
2021-12-04 10:00:00,32.0,28.9,88.17,280.0,7.0,30.19,6.0,24.78
2021-12-04 11:00:00,32.0,28.0,84.98,280.0,8.0,30.21,6.0,24.11
2021-12-04 12:00:00,30.9,28.0,88.84,270.0,7.0,30.23,8.0,23.44
2021-12-04 13:00:00,32.0,27.0,81.55,290.0,7.0,30.25,10.0,24.78
2021-12-04 14:00:00,33.0,24.1,69.17,290.0,7.0,30.26,10.0,26.12
2021-12-04 15:00:00,35.0,21.9,58.22,290.0,8.0,30.29,10.0,27.93
2021-12-04 16:00:00,36.0,19.9,51.61,300.0,10.0,30.29,10.0,27.98
2021-12-04 17:00:00,37.0,19.0,47.74,290.0,9.0,30.28,10.0,29.73
2021-12-04 18:00:00,37.0,16.0,41.95,310.0,9.0,30.28,10.0,29.73
2021-12-04 19:00:00,38.0,15.1,38.93,300.0,10.0,30.28,10.0,30.37
2021-12-04 20:00:00,38.0,18.0,44.14,300.0,7.0,30.29,10.0,31.97
2021-12-04 21:00:00,37.0,16.0,41.95,280.0,5.0,30.29,10.0,32.33
2021-12-04 22:00:00,36.0,17.1,45.77,260.0,5.0,30.29,10.0,31.15
2021-12-04 23:00:00,36.0,18.0,47.58,290.0,6.0,30.29,10.0,30.35
2021-12-05 00:00:00,36.0,18.0,47.58,290.0,7.0,30.3,10.0,29.65
2021-12-05 01:00:00,35.0,19.0,51.47,0.0,0.0,30.29,10.0,35.1
2021-12-05 02:00:00,35.0,19.9,53.49,290.0,4.0,30.28,10.0,31.04
2021-12-05 03:00:00,35.0,19.0,51.47,0.0,0.0,30.28,10.0,35.1
2021-12-05 04:00:00,35.0,19.0,51.47,210.0,3.0,30.27,10.0,32.23
2021-12-05 05:00:00,34.0,21.0,58.56,0.0,0.0,30.25,10.0,34.0
2021-12-05 06:00:00,35.0,16.0,45.22,120.0,4.0,30.21,10.0,31.04
2021-12-05 07:00:00,33.0,21.9,63.06,50.0,5.0,30.19,10.0,27.7
2021-12-05 08:00:00,37.0,23.0,56.57,90.0,8.0,30.2,10.0,30.27
2021-12-05 09:00:00,38.0,24.1,57.18,110.0,8.0,30.17,10.0,31.38
2021-12-05 10:00:00,39.0,25.0,56.86,120.0,10.0,30.12,10.0,31.75
2021-12-05 11:00:00,40.0,26.1,57.47,130.0,12.0,30.09,10.0,32.06
2021-12-05 12:00:00,40.0,25.0,54.9,130.0,13.0,30.04,10.0,31.69
2021-12-05 13:00:00,40.0,25.0,54.9,130.0,14.0,30.01,10.0,31.35
2021-12-05 14:00:00,41.0,24.1,50.67,130.0,17.0,29.99,10.0,31.87
2021-12-05 15:00:00,39.0,26.1,59.52,130.0,18.0,29.93,8.0,28.96
2021-12-05 16:00:00,37.0,28.0,69.63,140.0,15.0,29.88,8.0,27.26
2021-12-05 17:00:00,36.0,30.9,81.53,140.0,9.0,29.8,4.0,28.49
2021-12-05 18:00:00,37.0,32.0,81.93,150.0,12.0,29.74,8.0,28.37
2021-12-05 19:00:00,37.0,33.0,85.64,150.0,10.0,29.69,10.0,29.24
2021-12-05 20:00:00,37.0,34.0,88.78,170.0,8.0,29.66,3.0,30.27
2021-12-05 21:00:00,37.0,35.0,92.76,190.0,5.0,29.64,1.75,32.33
2021-12-05 22:00:00,37.0,34.0,88.78,190.0,3.0,29.62,4.0,34.4
2021-12-05 23:00:00,37.0,34.0,88.78,200.0,4.0,29.6,3.0,33.26
2021-12-06 00:00:00,37.0,34.0,88.78,250.0,6.0,29.61,3.0,31.55
2021-12-06 01:00:00,38.0,35.0,89.53,270.0,8.0,29.62,4.0,31.38
2021-12-06 02:00:00,38.0,34.0,85.69,290.0,12.0,29.62,8.0,29.51
2021-12-06 03:00:00,37.0,33.0,85.64,280.0,8.0,29.63,9.0,30.27
2021-12-06 04:00:00,35.0,32.0,88.33,270.0,12.0,29.65,8.0,25.95
2021-12-06 05:00:00,35.0,30.9,84.49,270.0,10.0,29.62,8.0,26.86
2021-12-06 06:00:00,35.0,30.9,84.49,270.0,8.0,29.6,8.0,27.93
2021-12-06 07:00:00,36.0,30.0,78.6,270.0,11.0,29.63,10.0,27.52
2021-12-06 08:00:00,34.0,23.0,63.72,280.0,12.0,29.65,10.0,24.55
2021-12-06 09:00:00,34.0,21.9,60.83,270.0,17.0,29.69,10.0,22.7
2021-12-06 10:00:00,33.0,21.0,60.71,270.0,18.0,29.7,10.0,21.2
2021-12-06 11:00:00,33.0,21.9,63.06,270.0,18.0,29.72,10.0,21.2
2021-12-06 12:00:00,33.0,21.9,63.06,270.0,19.0,29.74,10.0,20.89
2021-12-06 13:00:00,32.0,21.9,65.92,290.0,16.0,29.77,5.0,20.42
2021-12-06 14:00:00,33.0,19.0,55.75,290.0,19.0,29.8,10.0,20.89
2021-12-06 15:00:00,33.0,19.9,57.93,270.0,22.0,29.83,10.0,20.05
2021-12-06 16:00:00,33.0,18.0,53.4,300.0,19.0,29.86,10.0,20.89
2021-12-06 17:00:00,35.0,18.0,49.31,280.0,22.0,29.87,10.0,22.73
2021-12-06 18:00:00,35.0,18.0,49.31,280.0,23.0,29.9,10.0,22.48
2021-12-06 19:00:00,30.0,17.1,58.23,280.0,22.0,29.94,10.0,15.9
2021-12-06 20:00:00,28.0,12.9,52.61,300.0,19.0,29.99,10.0,14.15
2021-12-06 21:00:00,27.0,6.0,40.42,280.0,21.0,30.03,10.0,12.18
2021-12-06 22:00:00,25.0,5.0,41.76,280.0,16.0,30.07,10.0,11.29
2021-12-06 23:00:00,21.9,3.0,43.38,290.0,13.0,30.09,10.0,8.63
2021-12-07 00:00:00,19.9,3.0,47.22,280.0,14.0,30.15,10.0,5.57
2021-12-07 01:00:00,19.0,0.0,42.67,300.0,10.0,30.18,10.0,6.67
2021-12-07 02:00:00,17.1,-0.9,44.39,300.0,10.0,30.2,10.0,4.28
2021-12-07 03:00:00,16.0,-0.9,46.56,310.0,12.0,30.21,10.0,1.64
2021-12-07 04:00:00,14.0,-0.9,50.8,300.0,8.0,30.23,10.0,1.94
2021-12-07 05:00:00,12.9,-2.0,50.62,300.0,6.0,30.25,10.0,2.53
2021-12-07 06:00:00,10.9,-3.0,52.99,330.0,8.0,30.26,10.0,-1.88
2021-12-07 07:00:00,10.0,-4.0,52.34,290.0,6.0,30.29,10.0,-0.97
2021-12-07 08:00:00,9.0,-4.0,54.74,300.0,5.0,30.28,10.0,-0.92
2021-12-07 09:00:00,9.0,-4.0,54.74,330.0,5.0,30.26,10.0,-0.92
2021-12-07 10:00:00,9.0,-4.0,54.74,270.0,3.0,30.26,10.0,2.4
2021-12-07 11:00:00,10.0,-3.0,55.16,280.0,4.0,30.26,10.0,1.73
2021-12-07 12:00:00,10.0,-3.0,55.16,0.0,0.0,30.24,10.0,10.0
2021-12-07 13:00:00,10.9,-0.9,58.26,270.0,6.0,30.26,10.0,0.12
2021-12-07 14:00:00,12.9,-0.9,53.32,270.0,5.0,30.26,10.0,3.71
2021-12-07 15:00:00,15.1,0.0,50.51,230.0,3.0,30.25,10.0,9.37
2021-12-07 16:00:00,17.1,0.0,46.31,210.0,4.0,30.25,10.0,10.02
2021-12-07 17:00:00,19.0,0.0,42.67,150.0,3.0,30.21,10.0,13.83
2021-12-07 18:00:00,19.9,-0.9,39.36,210.0,5.0,30.18,10.0,12.03
2021-12-07 19:00:00,19.9,4.0,49.22,210.0,7.0,30.16,10.0,10.03
2021-12-07 20:00:00,21.0,7.0,54.12,220.0,7.0,30.16,10.0,11.37
2021-12-07 21:00:00,21.0,8.1,56.88,180.0,8.0,30.13,9.0,10.56
2021-12-07 22:00:00,19.9,9.0,62.07,170.0,6.0,30.1,10.0,10.96
2021-12-07 23:00:00,21.0,8.1,56.88,170.0,8.0,30.07,10.0,10.56
2021-12-08 00:00:00,21.9,8.1,54.75,180.0,7.0,30.04,10.0,12.47
2021-12-08 01:00:00,23.0,5.0,45.41,200.0,10.0,30.02,10.0,11.68
2021-12-08 02:00:00,24.1,4.0,41.23,220.0,7.0,30.02,10.0,15.15
2021-12-08 03:00:00,24.1,6.0,45.59,250.0,5.0,30.01,10.0,17.01
2021-12-08 04:00:00,24.1,6.0,45.59,220.0,4.0,29.99,10.0,18.19
2021-12-08 05:00:00,25.0,5.0,41.76,220.0,7.0,29.97,10.0,16.25
2021-12-08 06:00:00,25.0,6.0,43.91,220.0,7.0,29.95,10.0,16.25
2021-12-08 07:00:00,26.1,9.0,47.83,230.0,7.0,29.93,10.0,17.59
2021-12-08 08:00:00,26.1,10.9,52.07,230.0,7.0,29.91,10.0,17.59
2021-12-08 09:00:00,26.1,12.9,56.89,230.0,7.0,29.89,10.0,17.59
2021-12-08 10:00:00,26.1,14.0,59.71,230.0,6.0,29.89,10.0,18.42
2021-12-08 11:00:00,26.1,15.1,62.65,250.0,7.0,29.89,10.0,17.59
2021-12-08 12:00:00,26.1,16.0,65.16,280.0,4.0,29.9,10.0,20.53
2021-12-08 13:00:00,25.0,16.0,68.2,320.0,4.0,29.91,9.0,19.25
2021-12-08 14:00:00,27.0,17.1,65.84,330.0,7.0,29.92,9.0,18.68
2021-12-08 15:00:00,30.0,17.1,58.23,350.0,8.0,29.95,10.0,21.65
2021-12-08 16:00:00,30.9,17.1,56.14,360.0,9.0,29.96,10.0,22.15
2021-12-08 17:00:00,28.9,17.1,60.9,320.0,7.0,29.97,10.0,21.0
2021-12-08 18:00:00,28.9,16.0,58.06,310.0,9.0,29.99,10.0,19.66
2021-12-08 19:00:00,30.9,17.1,56.14,310.0,3.0,29.97,10.0,27.43
2021-12-08 20:00:00,30.9,17.1,56.14,300.0,3.0,29.99,10.0,27.43
2021-12-08 21:00:00,30.0,17.1,58.23,310.0,6.0,30.04,10.0,23.12
2021-12-08 22:00:00,27.0,16.0,62.78,340.0,5.0,30.05,10.0,20.46
2021-12-08 23:00:00,26.1,16.0,65.16,320.0,3.0,30.05,10.0,21.94
2021-12-09 00:00:00,25.0,16.0,68.2,60.0,3.0,30.02,10.0,20.69
2021-12-09 01:00:00,26.1,17.1,68.34,0.0,0.0,30.04,10.0,26.1
2021-12-09 02:00:00,26.1,18.0,71.04,0.0,0.0,30.04,10.0,26.1
2021-12-09 03:00:00,27.0,18.0,68.45,0.0,0.0,30.03,10.0,27.0
2021-12-09 04:00:00,27.0,19.0,71.45,0.0,0.0,30.04,10.0,27.0
2021-12-09 05:00:00,27.0,18.0,68.45,0.0,0.0,30.04,10.0,27.0
2021-12-09 06:00:00,25.0,17.1,71.53,0.0,0.0,30.0,10.0,25.0
2021-12-09 07:00:00,28.0,19.9,71.25,160.0,7.0,29.97,10.0,19.9
2021-12-09 08:00:00,30.0,21.0,68.81,160.0,8.0,29.95,9.0,21.65
2021-12-09 09:00:00,30.0,21.9,71.48,180.0,4.0,29.94,9.0,25.08
2021-12-09 10:00:00,30.0,21.9,71.48,150.0,6.0,29.92,9.0,23.12
2021-12-09 11:00:00,33.0,24.1,69.17,150.0,8.0,29.9,9.0,25.47
2021-12-09 12:00:00,35.0,25.0,66.31,140.0,9.0,29.85,10.0,27.37
2021-12-09 13:00:00,38.0,27.0,64.49,150.0,15.0,29.83,10.0,28.43
2021-12-09 14:00:00,39.0,28.9,66.79,140.0,12.0,29.78,10.0,30.91
2021-12-09 15:00:00,40.0,28.9,64.49,140.0,10.0,29.75,10.0,32.87
2021-12-09 16:00:00,41.0,26.1,55.07,150.0,14.0,29.71,10.0,32.76
2021-12-09 17:00:00,40.0,27.0,59.65,150.0,15.0,29.66,10.0,31.02
2021-12-09 18:00:00,41.0,27.0,57.15,160.0,9.0,29.63,10.0,34.7
2021-12-09 19:00:00,42.0,26.1,52.78,180.0,8.0,29.62,10.0,36.55
2021-12-09 20:00:00,43.0,26.1,50.98,200.0,7.0,29.64,10.0,38.19
2021-12-09 21:00:00,42.0,27.0,54.78,190.0,4.0,29.66,10.0,39.21
2021-12-09 22:00:00,42.0,28.0,57.08,200.0,5.0,29.67,10.0,38.39
2021-12-09 23:00:00,42.0,28.9,59.22,180.0,4.0,29.68,10.0,39.21
2021-12-10 00:00:00,41.0,30.0,64.63,230.0,4.0,29.72,10.0,37.93
2021-12-10 01:00:00,40.0,28.9,64.49,230.0,5.0,29.74,10.0,35.78
2021-12-10 02:00:00,37.0,28.9,72.24,240.0,4.0,29.75,10.0,33.26
2021-12-10 03:00:00,38.0,28.9,69.73,270.0,5.0,29.76,10.0,33.4
2021-12-10 04:00:00,35.0,28.0,75.06,260.0,5.0,29.79,10.0,30.08
2021-12-10 05:00:00,37.0,28.9,72.24,240.0,5.0,29.84,10.0,32.33
2021-12-10 06:00:00,37.0,28.9,72.24,280.0,3.0,29.83,10.0,34.4
2021-12-10 07:00:00,36.0,28.9,75.15,290.0,4.0,29.85,10.0,32.09
2021-12-10 08:00:00,39.0,28.9,66.79,330.0,8.0,29.85,10.0,32.74
2021-12-10 09:00:00,37.0,28.9,72.24,320.0,5.0,29.87,10.0,32.33
2021-12-10 10:00:00,36.0,28.0,72.43,10.0,4.0,29.88,10.0,32.09
2021-12-10 11:00:00,34.0,27.0,75.26,140.0,5.0,29.91,10.0,28.77
2021-12-10 12:00:00,34.0,27.0,75.26,0.0,0.0,29.93,10.0,34.0
2021-12-10 13:00:00,35.0,28.0,75.06,30.0,6.0,29.93,8.0,29.26
2021-12-10 14:00:00,38.0,30.0,72.93,30.0,6.0,29.93,7.0,32.64
2021-12-10 15:00:00,41.0,33.0,73.25,80.0,10.0,29.94,7.0,34.25
2021-12-10 16:00:00,43.0,33.0,67.82,100.0,8.0,29.92,7.0,37.66
2021-12-10 17:00:00,43.0,34.0,70.3,80.0,14.0,29.84,7.0,35.34
2021-12-10 18:00:00,44.0,34.0,67.41,90.0,15.0,29.82,8.0,36.47
2021-12-10 19:00:00,41.0,33.0,73.25,80.0,14.0,29.79,6.0,32.76
2021-12-10 20:00:00,41.0,34.0,75.94,80.0,13.0,29.73,4.0,33.1
2021-12-10 21:00:00,41.0,36.0,82.22,60.0,17.0,29.67,4.0,31.87
2021-12-10 22:00:00,42.0,38.0,84.93,80.0,15.0,29.63,2.0,33.87
2021-12-10 23:00:00,43.0,40.0,88.71,80.0,15.0,29.59,2.0,35.04
2021-12-11 00:00:00,43.0,41.0,92.58,60.0,8.0,29.54,1.75,37.66
2021-12-11 01:00:00,44.0,41.0,88.77,80.0,7.0,29.45,0.25,39.53
2021-12-11 02:00:00,46.0,44.0,93.03,100.0,4.0,29.38,1.25,43.77
2021-12-11 03:00:00,46.0,44.0,93.03,330.0,7.0,29.35,1.75,41.84
2021-12-11 04:00:00,46.0,44.0,93.03,0.0,0.0,29.28,2.0,46.0
2021-12-11 05:00:00,45.0,43.0,92.65,0.0,0.0,29.23,5.0,45.0
2021-12-11 06:00:00,46.0,43.0,89.2,0.0,0.0,29.23,2.5,46.0
2021-12-11 07:00:00,45.0,42.0,89.49,330.0,3.0,29.22,0.75,43.55
2021-12-11 08:00:00,45.0,43.0,92.65,130.0,3.0,29.18,0.75,43.55
2021-12-11 09:00:00,51.0,49.0,92.14,180.0,9.0,29.11,6.0,51.1
2021-12-11 10:00:00,56.0,51.0,83.88,230.0,19.0,29.1,10.0,55.9
2021-12-11 11:00:00,43.0,38.0,82.04,240.0,34.0,29.17,8.0,31.21
2021-12-11 12:00:00,39.0,34.0,82.08,250.0,23.0,29.22,7.0,27.72
2021-12-11 13:00:00,37.0,33.0,85.64,260.0,18.0,29.29,9.0,26.33
2021-12-11 14:00:00,35.0,30.0,81.46,280.0,18.0,29.38,3.0,23.83
2021-12-11 15:00:00,35.0,28.9,77.88,290.0,18.0,29.47,1.25,23.83
2021-12-11 16:00:00,35.0,30.0,81.46,290.0,19.0,29.55,2.0,23.54
2021-12-11 17:00:00,37.0,28.9,72.24,300.0,21.0,29.61,10.0,25.52
2021-12-11 18:00:00,38.0,27.0,64.49,280.0,21.0,29.67,10.0,26.72
2021-12-11 19:00:00,39.0,26.1,59.52,280.0,16.0,29.72,10.0,29.54
2021-12-11 20:00:00,40.0,24.1,52.88,280.0,19.0,29.77,10.0,29.88
2021-12-11 21:00:00,38.0,23.0,54.6,270.0,16.0,29.82,10.0,28.11
2021-12-11 22:00:00,36.0,21.9,56.18,260.0,13.0,29.88,10.0,26.69
2021-12-11 23:00:00,36.0,23.0,58.85,260.0,13.0,29.91,10.0,26.69
2021-12-12 00:00:00,35.0,23.0,60.99,250.0,15.0,29.93,10.0,24.8
2021-12-12 01:00:00,34.0,24.1,66.72,250.0,10.0,29.96,10.0,25.48
2021-12-12 02:00:00,33.0,24.1,69.17,240.0,14.0,29.98,10.0,22.58
2021-12-12 03:00:00,32.0,24.1,72.3,250.0,11.0,29.99,10.0,22.47
2021-12-12 04:00:00,30.9,23.0,72.18,240.0,9.0,30.0,10.0,22.15
2021-12-12 05:00:00,32.0,23.0,69.04,230.0,8.0,30.0,10.0,24.11
2021-12-12 06:00:00,32.0,23.0,69.04,230.0,9.0,30.0,10.0,23.51
2021-12-12 07:00:00,33.0,23.0,66.06,240.0,9.0,30.02,10.0,24.88
2021-12-12 08:00:00,32.0,21.9,65.92,230.0,10.0,30.02,10.0,22.97
2021-12-12 09:00:00,32.0,21.9,65.92,230.0,10.0,30.02,10.0,22.97
2021-12-12 10:00:00,33.0,21.9,63.06,220.0,8.0,30.01,10.0,25.47
2021-12-12 11:00:00,34.0,21.9,60.83,230.0,11.0,30.03,10.0,24.99
2021-12-12 12:00:00,34.0,21.9,60.83,230.0,10.0,30.03,10.0,25.48
2021-12-12 13:00:00,35.0,21.9,58.22,230.0,11.0,30.03,10.0,26.38
2021-12-12 14:00:00,38.0,21.9,52.13,220.0,14.0,30.04,10.0,28.77
2021-12-12 15:00:00,43.0,21.0,41.17,240.0,18.0,30.05,10.0,34.23
2021-12-12 16:00:00,46.0,21.9,38.15,230.0,16.0,30.04,10.0,38.67
2021-12-12 17:00:00,47.0,23.0,38.62,230.0,19.0,30.01,10.0,39.14
2021-12-12 18:00:00,49.0,24.1,37.52,230.0,14.0,30.0,10.0,42.95
2021-12-12 19:00:00,49.0,24.1,37.52,230.0,17.0,29.99,10.0,42.22
2021-12-12 20:00:00,48.0,24.1,38.8,220.0,17.0,29.98,10.0,41.04
2021-12-12 21:00:00,46.0,25.0,43.44,220.0,11.0,30.0,10.0,40.16
2021-12-12 22:00:00,45.0,24.1,43.46,210.0,11.0,30.01,10.0,38.89
2021-12-12 23:00:00,44.0,26.1,48.88,210.0,11.0,30.02,10.0,37.76
2021-12-13 00:00:00,44.0,28.0,52.86,220.0,14.0,30.03,10.0,36.76
2021-12-13 01:00:00,44.0,28.0,52.86,220.0,13.0,30.04,10.0,37.07
2021-12-13 02:00:00,44.0,27.0,50.73,220.0,13.0,30.04,10.0,37.07
2021-12-13 03:00:00,44.0,27.0,50.73,210.0,11.0,30.04,10.0,37.76
2021-12-13 04:00:00,43.0,26.1,50.98,220.0,11.0,30.06,10.0,36.37
2021-12-13 05:00:00,42.0,26.1,52.78,220.0,12.0,30.06,10.0,34.86
2021-12-13 06:00:00,41.0,26.1,55.07,220.0,11.0,30.05,10.0,33.84
2021-12-13 07:00:00,42.0,26.1,52.78,230.0,13.0,30.06,10.0,34.51
2021-12-13 08:00:00,41.0,25.0,52.61,230.0,14.0,30.05,10.0,32.76
2021-12-13 09:00:00,41.0,25.0,52.61,230.0,14.0,30.04,10.0,32.76
2021-12-13 10:00:00,40.0,26.1,57.47,240.0,13.0,30.05,10.0,31.69
2021-12-13 11:00:00,40.0,25.0,54.9,230.0,12.0,30.05,10.0,32.06
2021-12-13 12:00:00,38.0,26.1,62.14,230.0,11.0,30.08,10.0,29.92
2021-12-13 13:00:00,39.0,26.1,59.52,240.0,12.0,30.1,10.0,30.91
2021-12-13 14:00:00,41.0,27.0,57.15,250.0,11.0,30.12,10.0,33.84
2021-12-13 15:00:00,45.0,27.0,49.02,260.0,12.0,30.13,10.0,38.55
2021-12-13 16:00:00,47.0,28.0,47.54,250.0,13.0,30.13,10.0,40.66
2021-12-13 17:00:00,49.0,28.0,44.1,280.0,12.0,30.13,10.0,43.51
2021-12-13 18:00:00,50.0,28.9,43.92,280.0,8.0,30.14,10.0,50.0
2021-12-13 19:00:00,50.0,28.9,43.92,240.0,8.0,30.15,10.0,50.0
2021-12-13 20:00:00,49.0,30.0,47.85,250.0,8.0,30.17,10.0,44.93
2021-12-13 21:00:00,45.0,30.0,55.43,250.0,5.0,30.2,10.0,41.83
2021-12-13 22:00:00,42.0,28.9,59.22,300.0,4.0,30.23,10.0,39.21
2021-12-13 23:00:00,38.0,28.0,67.2,230.0,3.0,30.26,10.0,35.43
2021-12-14 00:00:00,38.0,28.0,67.2,180.0,3.0,30.28,10.0,35.43
2021-12-14 01:00:00,36.0,28.9,75.15,0.0,0.0,30.3,10.0,36.0
2021-12-14 02:00:00,32.0,27.0,81.55,0.0,0.0,30.3,10.0,32.0
2021-12-14 03:00:00,34.0,28.9,81.37,0.0,0.0,30.31,10.0,34.0
2021-12-14 04:00:00,34.0,28.0,78.43,0.0,0.0,30.32,10.0,34.0
2021-12-14 05:00:00,30.9,26.1,82.15,290.0,3.0,30.33,10.0,27.43
2021-12-14 06:00:00,32.0,27.0,81.55,0.0,0.0,30.33,10.0,32.0
2021-12-14 07:00:00,28.9,26.1,89.12,0.0,0.0,30.34,8.0,28.9
2021-12-14 08:00:00,30.9,27.0,85.26,0.0,0.0,30.35,8.0,30.9
2021-12-14 09:00:00,30.0,26.1,85.21,30.0,3.0,30.35,9.0,26.4
2021-12-14 10:00:00,30.0,27.0,88.44,60.0,3.0,30.36,9.0,26.4
2021-12-14 11:00:00,30.0,27.0,88.44,80.0,5.0,30.35,5.0,24.02
2021-12-14 12:00:00,34.0,32.0,92.29,100.0,4.0,30.34,0.25,29.76
2021-12-14 13:00:00,37.0,34.0,88.78,110.0,5.0,30.34,7.0,32.33
2021-12-14 14:00:00,44.0,39.0,82.12,120.0,10.0,30.35,10.0,38.14
2021-12-14 15:00:00,46.0,38.0,73.18,120.0,9.0,30.34,10.0,40.92
2021-12-14 16:00:00,47.0,37.0,68.27,130.0,10.0,30.33,10.0,41.65
2021-12-14 17:00:00,47.0,36.0,65.63,120.0,11.0,30.3,10.0,41.3
2021-12-14 18:00:00,47.0,36.0,65.63,130.0,12.0,30.27,10.0,40.97
2021-12-14 19:00:00,48.0,36.0,62.97,130.0,9.0,30.24,10.0,43.41
2021-12-14 20:00:00,48.0,37.0,65.51,130.0,9.0,30.22,10.0,43.41
2021-12-14 21:00:00,49.0,37.0,63.34,130.0,9.0,30.2,10.0,44.53
2021-12-14 22:00:00,48.0,38.0,67.87,140.0,7.0,30.2,10.0,44.28
2021-12-14 23:00:00,49.0,37.0,63.34,140.0,10.0,30.18,10.0,44.16
2021-12-15 00:00:00,49.0,38.0,65.62,140.0,9.0,30.18,10.0,44.53
2021-12-15 01:00:00,50.0,39.0,65.75,150.0,12.0,30.15,10.0,50.0
2021-12-15 02:00:00,50.0,39.0,65.75,150.0,8.0,30.13,10.0,50.0
2021-12-15 03:00:00,49.0,41.0,74.05,190.0,6.0,30.11,10.0,45.88
2021-12-15 04:00:00,50.0,47.0,89.04,190.0,9.0,30.09,5.0,50.0
2021-12-15 05:00:00,50.0,47.0,89.04,190.0,10.0,30.07,5.0,50.0
2021-12-15 06:00:00,51.0,47.0,85.48,190.0,8.0,30.04,4.0,51.1
2021-12-15 07:00:00,52.0,49.0,89.13,200.0,11.0,30.03,6.0,52.0
2021-12-15 08:00:00,53.0,48.0,82.76,200.0,10.0,30.02,8.0,53.1
2021-12-15 09:00:00,54.0,49.0,82.82,200.0,10.0,29.99,9.0,54.0
2021-12-15 10:00:00,55.0,50.0,83.2,190.0,11.0,29.96,8.0,55.0
2021-12-15 11:00:00,55.0,51.0,86.66,190.0,11.0,29.94,7.0,55.0
2021-12-15 12:00:00,56.0,52.0,86.71,190.0,11.0,29.92,6.0,55.9
2021-12-15 13:00:00,56.0,53.0,90.29,200.0,13.0,29.91,5.0,55.9
2021-12-15 14:00:00,59.0,54.0,83.46,200.0,13.0,29.89,6.0,59.0
2021-12-15 15:00:00,61.0,55.0,80.61,200.0,20.0,29.87,8.0,61.0
2021-12-15 16:00:00,61.0,55.0,80.61,200.0,17.0,29.83,10.0,61.0
2021-12-15 17:00:00,63.0,56.0,77.61,200.0,17.0,29.79,10.0,63.0
2021-12-15 18:00:00,65.0,57.0,75.56,200.0,16.0,29.76,10.0,64.9
2021-12-15 19:00:00,66.0,58.0,75.12,200.0,16.0,29.73,10.0,66.0
2021-12-15 20:00:00,67.0,59.0,75.74,200.0,19.0,29.72,10.0,66.9
2021-12-15 21:00:00,67.0,59.0,75.74,200.0,17.0,29.71,10.0,66.9
2021-12-15 22:00:00,67.0,59.0,75.74,200.0,20.0,29.7,10.0,66.9
2021-12-15 23:00:00,66.0,59.0,78.14,190.0,20.0,29.68,10.0,66.0
2021-12-16 00:00:00,66.0,58.0,75.12,200.0,23.0,29.64,10.0,66.0
2021-12-16 01:00:00,65.0,57.0,75.56,190.0,18.0,29.6,10.0,64.9
2021-12-16 02:00:00,65.0,56.0,72.61,210.0,24.0,29.6,10.0,64.9
2021-12-16 03:00:00,66.0,56.0,69.88,200.0,28.0,29.54,10.0,66.0
2021-12-16 04:00:00,66.0,56.0,69.88,200.0,30.0,29.51,10.0,66.0
2021-12-16 05:00:00,67.0,57.0,70.49,200.0,26.0,29.47,10.0,66.9
2021-12-16 06:00:00,65.0,58.0,78.05,200.0,28.0,29.41,10.0,64.9
2021-12-16 07:00:00,68.0,51.0,54.7,220.0,28.0,29.44,10.0,68.0
2021-12-16 08:00:00,63.0,41.0,44.41,230.0,29.0,29.48,5.0,63.0
2021-12-16 09:00:00,56.0,40.0,54.83,240.0,23.0,29.52,6.0,55.9
2021-12-16 10:00:00,47.0,35.0,63.33,240.0,28.0,29.55,10.0,37.49
2021-12-16 11:00:00,43.0,33.0,67.82,250.0,24.0,29.6,10.0,32.9
2021-12-16 12:00:00,41.0,32.0,70.08,250.0,18.0,29.64,10.0,31.6
2021-12-16 13:00:00,39.0,30.0,69.85,240.0,22.0,29.67,10.0,27.95
2021-12-16 14:00:00,38.0,27.0,64.49,250.0,24.0,29.69,10.0,26.02
2021-12-16 15:00:00,38.0,26.1,62.14,240.0,25.0,29.73,10.0,25.8
2021-12-16 16:00:00,37.0,26.1,64.38,250.0,22.0,29.75,10.0,25.27
2021-12-16 17:00:00,37.0,25.0,61.5,250.0,26.0,29.77,10.0,24.37
2021-12-16 18:00:00,39.0,26.1,59.52,250.0,21.0,29.79,10.0,28.19
2021-12-16 19:00:00,39.0,25.0,56.86,260.0,23.0,29.82,10.0,27.72
2021-12-16 20:00:00,39.0,25.0,56.86,250.0,20.0,29.84,10.0,28.44
2021-12-16 21:00:00,38.0,24.1,57.18,250.0,19.0,29.87,10.0,27.24
2021-12-16 22:00:00,37.0,23.0,56.57,250.0,16.0,29.9,10.0,26.94
2021-12-16 23:00:00,36.0,21.9,56.18,250.0,14.0,29.93,10.0,26.32
2021-12-17 00:00:00,35.0,19.9,53.49,260.0,15.0,29.95,10.0,24.8
2021-12-17 01:00:00,33.0,19.0,55.75,260.0,16.0,29.98,10.0,21.85
2021-12-17 02:00:00,33.0,19.0,55.75,260.0,15.0,30.02,10.0,22.21
2021-12-17 03:00:00,32.0,19.0,58.27,270.0,14.0,30.05,10.0,21.16
2021-12-17 04:00:00,30.9,19.0,60.92,260.0,10.0,30.1,10.0,21.59
2021-12-17 05:00:00,28.9,19.0,66.08,260.0,9.0,30.11,10.0,19.66
2021-12-17 06:00:00,28.0,18.0,65.69,260.0,6.0,30.12,10.0,20.71
2021-12-17 07:00:00,27.0,17.1,65.84,270.0,6.0,30.14,10.0,19.51
2021-12-17 08:00:00,26.1,17.1,68.34,280.0,7.0,30.16,10.0,17.59
2021-12-17 09:00:00,25.0,16.0,68.2,280.0,5.0,30.17,10.0,18.08
2021-12-17 10:00:00,25.0,16.0,68.2,240.0,5.0,30.21,10.0,18.08
2021-12-17 11:00:00,23.0,16.0,74.15,260.0,6.0,30.22,10.0,14.69
2021-12-17 12:00:00,21.9,16.0,77.67,280.0,5.0,30.23,10.0,14.4
2021-12-17 13:00:00,25.0,17.1,71.53,300.0,6.0,30.24,10.0,17.1
2021-12-17 14:00:00,28.0,17.1,63.19,350.0,5.0,30.25,10.0,21.64
2021-12-17 15:00:00,30.0,17.1,58.23,360.0,6.0,30.27,10.0,23.12
2021-12-17 16:00:00,32.0,17.1,53.7,340.0,5.0,30.27,10.0,26.4
2021-12-17 17:00:00,35.0,17.1,47.43,70.0,6.0,30.24,10.0,29.26
2021-12-17 18:00:00,35.0,19.0,51.47,90.0,9.0,30.22,10.0,27.37
2021-12-17 19:00:00,34.0,21.9,60.83,80.0,12.0,30.21,10.0,24.55
2021-12-17 20:00:00,33.0,23.0,66.06,60.0,10.0,30.2,10.0,24.35
2021-12-17 21:00:00,32.0,24.1,72.3,60.0,7.0,30.21,10.0,24.78
2021-12-17 22:00:00,32.0,24.1,72.3,40.0,9.0,30.19,10.0,23.51
2021-12-17 23:00:00,33.0,25.0,71.82,50.0,9.0,30.2,10.0,24.88
2021-12-18 00:00:00,33.0,25.0,71.82,50.0,10.0,30.19,10.0,24.35
2021-12-18 01:00:00,34.0,26.1,72.52,60.0,10.0,30.17,10.0,25.48
2021-12-18 02:00:00,34.0,27.0,75.26,40.0,7.0,30.15,10.0,27.22
2021-12-18 03:00:00,36.0,28.0,72.43,50.0,8.0,30.12,10.0,29.04
2021-12-18 04:00:00,36.0,28.0,72.43,10.0,6.0,30.14,10.0,30.35
2021-12-18 05:00:00,37.0,28.0,69.63,40.0,8.0,30.09,10.0,30.27
2021-12-18 06:00:00,38.0,28.0,67.2,60.0,7.0,30.07,10.0,31.97
2021-12-18 07:00:00,39.0,28.9,66.79,60.0,8.0,30.06,10.0,32.74
2021-12-18 08:00:00,38.0,30.0,72.93,50.0,10.0,30.03,10.0,30.37
2021-12-18 09:00:00,38.0,30.0,72.93,70.0,8.0,30.03,10.0,31.38
2021-12-18 10:00:00,38.0,30.0,72.93,50.0,8.0,30.02,10.0,31.38
2021-12-18 11:00:00,37.0,28.9,72.24,30.0,10.0,30.03,10.0,29.24
2021-12-18 12:00:00,37.0,30.0,75.56,30.0,8.0,30.03,10.0,30.27
2021-12-18 13:00:00,37.0,28.9,72.24,20.0,6.0,30.04,10.0,31.55
2021-12-18 14:00:00,37.0,28.9,72.24,360.0,8.0,30.05,10.0,30.27
2021-12-18 15:00:00,37.0,28.0,69.63,340.0,8.0,30.06,10.0,30.27
2021-12-18 16:00:00,36.0,26.1,66.97,350.0,11.0,30.07,10.0,27.52
2021-12-18 17:00:00,36.0,26.1,66.97,350.0,11.0,30.06,10.0,27.52
2021-12-18 18:00:00,36.0,25.0,63.98,330.0,13.0,30.07,10.0,26.69
2021-12-18 19:00:00,36.0,24.1,61.62,350.0,8.0,30.09,10.0,29.04
2021-12-18 20:00:00,36.0,23.0,58.85,330.0,8.0,30.11,10.0,29.04
2021-12-18 21:00:00,34.0,23.0,63.72,330.0,11.0,30.15,10.0,24.99
2021-12-18 22:00:00,33.0,21.9,63.06,330.0,11.0,30.18,10.0,23.86
2021-12-18 23:00:00,32.0,21.0,63.45,340.0,9.0,30.2,10.0,23.51
2021-12-19 00:00:00,30.0,21.0,68.81,340.0,4.0,30.22,10.0,25.08
2021-12-19 01:00:00,28.9,21.0,71.96,350.0,5.0,30.23,10.0,22.71
2021-12-19 02:00:00,30.0,21.0,68.81,340.0,3.0,30.25,10.0,26.4
2021-12-19 03:00:00,30.0,21.0,68.81,340.0,3.0,30.27,10.0,26.4
2021-12-19 04:00:00,30.9,19.9,63.31,320.0,5.0,30.27,10.0,25.09
2021-12-19 05:00:00,30.0,19.9,65.66,310.0,7.0,30.29,10.0,22.34
2021-12-19 06:00:00,30.0,19.0,63.18,320.0,6.0,30.3,10.0,23.12
2021-12-19 07:00:00,30.0,19.0,63.18,300.0,7.0,30.3,10.0,22.34
2021-12-19 08:00:00,28.9,19.0,66.08,280.0,5.0,30.32,10.0,22.71
2021-12-19 09:00:00,28.9,19.0,66.08,300.0,5.0,30.32,10.0,22.71
2021-12-19 10:00:00,28.9,19.0,66.08,300.0,4.0,30.32,10.0,23.8
2021-12-19 11:00:00,28.9,19.0,66.08,290.0,4.0,30.33,10.0,23.8
2021-12-19 12:00:00,28.0,18.0,65.69,260.0,6.0,30.34,10.0,20.71
2021-12-19 13:00:00,28.0,18.0,65.69,250.0,7.0,30.35,10.0,19.9
2021-12-19 14:00:00,28.9,19.0,66.08,270.0,5.0,30.35,10.0,22.71
2021-12-19 15:00:00,30.9,19.0,60.92,270.0,5.0,30.35,10.0,25.09
2021-12-19 16:00:00,33.0,21.0,60.71,230.0,6.0,30.33,10.0,26.86
2021-12-19 17:00:00,35.0,21.0,56.05,220.0,11.0,30.32,10.0,26.38
2021-12-19 18:00:00,36.0,21.9,56.18,210.0,11.0,30.28,10.0,27.52
2021-12-19 19:00:00,36.0,21.9,56.18,220.0,6.0,30.26,10.0,30.35
2021-12-19 20:00:00,37.0,21.9,54.01,210.0,10.0,30.24,10.0,29.24
2021-12-19 21:00:00,36.0,21.9,56.18,210.0,9.0,30.24,10.0,28.49
2021-12-19 22:00:00,33.0,21.9,63.06,210.0,6.0,30.23,10.0,26.86
2021-12-19 23:00:00,30.9,21.9,68.91,200.0,7.0,30.22,10.0,23.44
2021-12-20 00:00:00,32.0,23.0,69.04,190.0,10.0,30.21,10.0,22.97
2021-12-20 01:00:00,32.0,24.1,72.3,200.0,10.0,30.2,10.0,22.97
2021-12-20 02:00:00,32.0,24.1,72.3,210.0,10.0,30.19,10.0,22.97
2021-12-20 03:00:00,32.0,24.1,72.3,210.0,16.0,30.17,10.0,20.42
2021-12-20 04:00:00,32.0,24.1,72.3,210.0,13.0,30.16,10.0,21.57
2021-12-20 05:00:00,33.0,24.1,69.17,210.0,14.0,30.15,10.0,22.58
2021-12-20 06:00:00,33.0,24.1,69.17,220.0,16.0,30.14,10.0,21.85
2021-12-20 07:00:00,32.0,25.0,75.07,220.0,11.0,30.14,10.0,22.47
2021-12-20 08:00:00,32.0,25.0,75.07,210.0,14.0,30.14,10.0,21.16
2021-12-20 09:00:00,32.0,24.1,72.3,220.0,10.0,30.13,10.0,22.97
2021-12-20 10:00:00,33.0,23.0,66.06,220.0,14.0,30.1,10.0,22.58
2021-12-20 11:00:00,33.0,23.0,66.06,210.0,11.0,30.1,10.0,23.86
2021-12-20 12:00:00,32.0,24.1,72.3,220.0,11.0,30.09,10.0,22.47
2021-12-20 13:00:00,32.0,24.1,72.3,230.0,10.0,30.08,9.0,22.97
2021-12-20 14:00:00,34.0,25.0,69.28,230.0,8.0,30.07,10.0,26.58
2021-12-20 15:00:00,36.0,25.0,63.98,250.0,20.0,30.08,10.0,24.45
2021-12-20 16:00:00,38.0,25.0,59.36,240.0,14.0,30.07,10.0,28.77
2021-12-20 17:00:00,38.0,25.0,59.36,240.0,14.0,30.07,10.0,28.77
2021-12-20 18:00:00,41.0,26.1,55.07,260.0,12.0,30.04,10.0,33.46
2021-12-20 19:00:00,40.0,26.1,57.47,250.0,13.0,30.04,10.0,31.69
2021-12-20 20:00:00,40.0,26.1,57.47,280.0,11.0,30.04,10.0,32.45
2021-12-20 21:00:00,38.0,26.1,62.14,290.0,11.0,30.07,10.0,29.92
2021-12-20 22:00:00,36.0,25.0,63.98,280.0,10.0,30.09,10.0,27.98
2021-12-20 23:00:00,35.0,25.0,66.31,270.0,6.0,30.1,10.0,29.26
2021-12-21 00:00:00,33.0,24.1,69.17,280.0,6.0,30.11,10.0,26.86
2021-12-21 01:00:00,30.9,23.0,72.18,280.0,6.0,30.12,10.0,24.21
2021-12-21 02:00:00,30.9,23.0,72.18,290.0,6.0,30.13,10.0,24.21
2021-12-21 03:00:00,30.0,23.0,74.87,270.0,3.0,30.12,7.0,26.4
2021-12-21 04:00:00,30.0,21.9,71.48,340.0,3.0,30.12,10.0,26.4
2021-12-21 05:00:00,28.9,19.9,68.67,360.0,3.0,30.11,10.0,25.14
2021-12-21 06:00:00,27.0,18.0,68.45,360.0,5.0,30.1,10.0,20.46
2021-12-21 07:00:00,24.1,16.0,70.81,330.0,4.0,30.12,10.0,18.19
2021-12-21 08:00:00,25.0,14.0,62.5,320.0,5.0,30.11,10.0,18.08
2021-12-21 09:00:00,21.0,12.9,70.45,320.0,5.0,30.08,10.0,13.33
2021-12-21 10:00:00,23.0,12.9,64.75,330.0,5.0,30.05,10.0,15.71
2021-12-21 11:00:00,21.9,12.9,67.82,10.0,3.0,30.0,10.0,17.14
2021-12-21 12:00:00,21.0,12.0,67.71,0.0,0.0,29.98,10.0,21.0
2021-12-21 13:00:00,19.9,12.9,73.83,0.0,0.0,29.96,10.0,19.9
2021-12-21 14:00:00,27.0,17.1,65.84,0.0,0.0,29.92,10.0,27.0
2021-12-21 15:00:00,32.0,23.0,69.04,200.0,7.0,29.89,10.0,24.78
2021-12-21 16:00:00,40.0,28.9,64.49,190.0,14.0,29.83,9.0,31.35
2021-12-21 17:00:00,39.0,27.0,61.78,220.0,13.0,29.76,8.0,30.54
2021-12-21 18:00:00,40.0,26.1,57.47,230.0,15.0,29.7,10.0,31.02
2021-12-21 19:00:00,39.0,26.1,59.52,230.0,14.0,29.65,9.0,30.19
2021-12-21 20:00:00,39.0,25.0,56.86,260.0,15.0,29.65,10.0,29.85
2021-12-21 21:00:00,36.0,24.1,61.62,260.0,14.0,29.65,10.0,26.32
2021-12-21 22:00:00,35.0,21.0,56.05,270.0,16.0,29.68,10.0,24.46
2021-12-21 23:00:00,33.0,19.0,55.75,280.0,18.0,29.7,10.0,21.2
2021-12-22 00:00:00,32.0,18.0,55.82,290.0,13.0,29.72,10.0,21.57
2021-12-22 01:00:00,30.9,17.1,56.14,290.0,13.0,29.75,10.0,20.16
2021-12-22 02:00:00,30.0,16.0,55.52,290.0,13.0,29.76,10.0,19.01
2021-12-22 03:00:00,28.0,15.1,57.93,290.0,13.0,29.79,10.0,16.44
2021-12-22 04:00:00,26.1,10.0,50.02,300.0,20.0,29.81,10.0,11.3
2021-12-22 05:00:00,23.0,8.1,52.27,300.0,18.0,29.83,10.0,7.9
2021-12-22 06:00:00,19.9,8.1,59.6,310.0,13.0,29.86,10.0,6.07
2021-12-22 07:00:00,19.0,8.1,61.94,300.0,10.0,29.88,10.0,6.67
2021-12-22 08:00:00,19.0,8.1,61.94,300.0,9.0,29.91,10.0,7.35
2021-12-22 09:00:00,19.0,9.0,64.5,300.0,11.0,29.92,10.0,6.04
2021-12-22 10:00:00,18.0,8.1,64.66,310.0,8.0,29.95,10.0,6.87
2021-12-22 11:00:00,16.0,7.0,67.07,290.0,8.0,29.97,10.0,4.4
2021-12-22 12:00:00,15.1,7.0,69.75,270.0,7.0,29.99,10.0,4.18
2021-12-22 13:00:00,16.0,8.1,70.5,280.0,9.0,30.01,10.0,3.62
2021-12-22 14:00:00,19.0,8.1,61.94,290.0,12.0,30.03,10.0,5.46
2021-12-22 15:00:00,21.9,8.1,54.75,290.0,10.0,30.04,10.0,10.3
2021-12-22 16:00:00,25.0,7.0,45.75,300.0,8.0,30.04,10.0,15.49
2021-12-22 17:00:00,27.0,7.0,42.11,270.0,10.0,30.04,10.0,16.7
2021-12-22 18:00:00,27.0,8.1,44.26,280.0,10.0,30.04,10.0,16.7
2021-12-22 19:00:00,28.0,8.1,42.47,270.0,10.0,30.03,10.0,17.95
2021-12-22 20:00:00,28.0,7.0,40.41,270.0,8.0,30.05,10.0,19.19
2021-12-22 21:00:00,28.0,7.0,40.41,250.0,6.0,30.05,10.0,20.71
2021-12-22 22:00:00,26.1,7.0,43.7,230.0,4.0,30.03,10.0,20.53
2021-12-22 23:00:00,23.0,8.1,52.27,0.0,0.0,30.05,10.0,23.0
2021-12-23 00:00:00,21.9,10.0,59.63,0.0,0.0,30.05,10.0,21.9
2021-12-23 01:00:00,26.1,10.0,50.02,150.0,3.0,30.04,10.0,21.94
2021-12-23 02:00:00,25.0,10.0,52.36,0.0,0.0,30.05,10.0,25.0
2021-12-23 03:00:00,25.0,15.1,65.58,90.0,3.0,30.06,10.0,20.69
2021-12-23 04:00:00,27.0,12.0,52.68,130.0,4.0,30.04,10.0,21.58
2021-12-23 05:00:00,28.9,12.9,50.7,150.0,6.0,30.03,10.0,21.8
2021-12-23 06:00:00,28.9,16.0,58.06,160.0,4.0,30.01,10.0,23.8
2021-12-23 07:00:00,28.9,17.1,60.9,170.0,7.0,29.98,10.0,21.0
2021-12-23 08:00:00,30.0,16.0,55.52,170.0,7.0,29.96,10.0,22.34
2021-12-23 09:00:00,30.0,17.1,58.23,200.0,3.0,29.94,10.0,26.4
2021-12-23 10:00:00,30.9,17.1,56.14,180.0,7.0,29.9,10.0,23.44
2021-12-23 11:00:00,30.9,18.0,58.36,200.0,6.0,29.9,10.0,24.21
2021-12-23 12:00:00,30.9,19.0,60.92,180.0,6.0,29.88,10.0,24.21
2021-12-23 13:00:00,30.9,19.9,63.31,160.0,7.0,29.86,10.0,23.44
2021-12-23 14:00:00,34.0,21.9,60.83,170.0,10.0,29.83,10.0,25.48
2021-12-23 15:00:00,37.0,24.1,59.24,190.0,10.0,29.82,10.0,29.24
2021-12-23 16:00:00,39.0,25.0,56.86,180.0,9.0,29.8,10.0,32.22
2021-12-23 17:00:00,40.0,26.1,57.47,200.0,10.0,29.75,10.0,32.87
2021-12-23 18:00:00,40.0,27.0,59.65,190.0,6.0,29.71,10.0,35.04
2021-12-23 19:00:00,42.0,28.9,59.22,220.0,5.0,29.7,10.0,38.39
2021-12-23 20:00:00,43.0,30.9,62.06,190.0,4.0,29.7,10.0,40.27
2021-12-23 21:00:00,44.0,32.0,62.21,210.0,4.0,29.71,10.0,41.55
2021-12-23 22:00:00,40.0,30.0,67.45,190.0,4.0,29.71,10.0,36.65
2021-12-23 23:00:00,39.0,30.0,69.85,190.0,4.0,29.72,10.0,35.59
2021-12-24 00:00:00,33.0,28.9,84.36,200.0,3.0,29.71,10.0,29.95
2021-12-24 01:00:00,33.0,27.0,78.03,0.0,0.0,29.73,10.0,33.1
2021-12-24 02:00:00,28.9,25.0,85.14,210.0,3.0,29.75,7.0,25.14
2021-12-24 03:00:00,28.9,26.1,89.12,0.0,0.0,29.75,6.0,28.9
2021-12-24 04:00:00,26.1,24.1,92.01,200.0,3.0,29.76,4.0,21.94
2021-12-24 05:00:00,27.0,24.1,88.65,0.0,0.0,29.77,4.0,27.0
2021-12-24 06:00:00,27.0,24.1,88.65,0.0,0.0,29.75,2.0,27.0
2021-12-24 07:00:00,30.0,26.1,85.21,190.0,5.0,29.75,3.0,24.02
2021-12-24 08:00:00,28.9,26.1,89.12,180.0,4.0,29.75,3.0,23.8
2021-12-24 09:00:00,32.0,28.9,88.17,150.0,3.0,29.72,3.0,28.69
2021-12-24 10:00:00,35.0,30.9,84.49,150.0,4.0,29.72,4.0,31.04
2021-12-24 11:00:00,36.0,33.0,89.09,150.0,4.0,29.68,3.0,32.09
2021-12-24 12:00:00,38.0,35.0,89.53,150.0,6.0,29.66,2.5,32.64
2021-12-24 13:00:00,41.0,38.0,88.62,180.0,8.0,29.63,0.25,35.2
2021-12-24 14:00:00,43.0,40.0,88.71,190.0,7.0,29.62,2.0,38.19
2021-12-24 15:00:00,45.0,42.0,89.49,180.0,6.0,29.59,3.0,41.19
2021-12-24 16:00:00,48.0,43.0,82.72,180.0,12.0,29.57,6.0,42.37
2021-12-24 17:00:00,49.0,43.0,79.98,170.0,9.0,29.53,8.0,44.53
2021-12-24 18:00:00,49.0,43.0,79.98,160.0,11.0,29.47,10.0,43.82
2021-12-24 19:00:00,51.0,45.0,79.54,180.0,10.0,29.43,10.0,51.1
2021-12-24 20:00:00,50.0,47.0,89.04,190.0,10.0,29.41,4.0,50.0
2021-12-24 21:00:00,50.0,48.0,92.8,180.0,6.0,29.42,1.0,50.0
2021-12-24 22:00:00,50.0,48.0,92.8,170.0,3.0,29.43,2.0,50.0
2021-12-24 23:00:00,50.0,47.0,89.04,120.0,5.0,29.42,0.75,50.0
2021-12-25 00:00:00,47.0,45.0,93.06,360.0,4.0,29.44,0.25,44.82
2021-12-25 01:00:00,49.0,46.0,89.67,160.0,3.0,29.42,1.5,48.01
2021-12-25 02:00:00,50.0,47.0,89.04,0.0,0.0,29.41,2.0,50.0
2021-12-25 03:00:00,50.0,47.0,89.04,340.0,4.0,29.43,1.5,50.0
2021-12-25 04:00:00,51.0,48.0,89.09,0.0,0.0,29.43,0.75,51.1
2021-12-25 05:00:00,50.0,48.0,92.8,300.0,4.0,29.44,1.25,50.0
2021-12-25 06:00:00,50.0,47.0,89.04,330.0,12.0,29.46,4.0,50.0
2021-12-25 07:00:00,49.0,46.0,89.67,350.0,7.0,29.47,3.0,45.38
2021-12-25 08:00:00,48.0,45.0,89.29,350.0,8.0,29.5,3.0,43.82
2021-12-25 09:00:00,47.0,44.0,89.92,350.0,7.0,29.52,4.0,42.94
2021-12-25 10:00:00,45.0,41.0,85.77,350.0,9.0,29.55,6.0,39.68
2021-12-25 11:00:00,43.0,38.0,82.04,350.0,7.0,29.58,8.0,38.19
2021-12-25 12:00:00,42.0,36.0,78.8,340.0,9.0,29.61,9.0,36.07
2021-12-25 13:00:00,41.0,33.0,73.25,350.0,9.0,29.63,10.0,34.7
2021-12-25 14:00:00,41.0,30.9,67.03,350.0,9.0,29.67,10.0,34.7
2021-12-25 15:00:00,42.0,30.0,61.94,340.0,5.0,29.7,10.0,38.39
2021-12-25 16:00:00,43.0,27.0,52.91,10.0,10.0,29.71,10.0,36.76
2021-12-25 17:00:00,45.0,26.1,47.23,10.0,8.0,29.72,10.0,40.13
2021-12-25 18:00:00,47.0,23.0,38.62,20.0,6.0,29.73,10.0,43.48
2021-12-25 19:00:00,47.0,21.9,36.87,10.0,5.0,29.75,10.0,44.09
2021-12-25 20:00:00,46.0,24.1,41.84,50.0,5.0,29.78,10.0,43.02
2021-12-25 21:00:00,40.0,25.0,54.9,60.0,6.0,29.81,10.0,35.04
2021-12-25 22:00:00,36.0,24.1,61.62,50.0,4.0,29.85,10.0,32.09
2021-12-25 23:00:00,33.0,24.1,69.17,80.0,3.0,29.86,10.0,29.95
2021-12-26 00:00:00,30.9,23.0,72.18,0.0,0.0,29.89,10.0,30.9
2021-12-26 01:00:00,30.9,24.1,75.59,0.0,0.0,29.9,10.0,30.9
2021-12-26 02:00:00,32.0,24.1,72.3,10.0,3.0,29.93,10.0,28.69
2021-12-26 03:00:00,30.0,24.1,78.4,0.0,0.0,29.94,10.0,30.0
2021-12-26 04:00:00,27.0,23.0,84.66,320.0,3.0,29.97,10.0,22.97
2021-12-26 05:00:00,26.1,23.0,87.87,0.0,0.0,29.96,10.0,26.1
2021-12-26 06:00:00,25.0,21.0,84.53,0.0,0.0,29.97,10.0,25.0
2021-12-26 07:00:00,24.1,19.0,80.59,310.0,3.0,30.0,10.0,19.66
2021-12-26 08:00:00,26.1,19.0,74.16,350.0,4.0,30.02,10.0,20.53
2021-12-26 09:00:00,26.1,18.0,71.04,0.0,0.0,30.03,10.0,26.1
2021-12-26 10:00:00,21.9,17.1,81.46,350.0,3.0,30.03,10.0,17.14
2021-12-26 11:00:00,21.9,17.1,81.46,0.0,0.0,30.05,10.0,21.9
2021-12-26 12:00:00,25.0,18.0,74.36,0.0,0.0,30.06,10.0,25.0
2021-12-26 13:00:00,27.0,21.0,77.8,0.0,0.0,30.07,10.0,27.0
2021-12-26 14:00:00,33.0,25.0,71.82,0.0,0.0,30.09,10.0,33.1
2021-12-26 15:00:00,38.0,30.0,72.93,90.0,3.0,30.13,10.0,35.43
2021-12-26 16:00:00,40.0,30.0,67.45,90.0,7.0,30.13,10.0,34.41
2021-12-26 17:00:00,41.0,30.0,64.63,70.0,10.0,30.13,10.0,34.25
2021-12-26 18:00:00,39.0,30.0,69.85,70.0,13.0,30.09,10.0,30.54
2021-12-26 19:00:00,39.0,28.9,66.79,60.0,13.0,30.09,10.0,30.54
2021-12-26 20:00:00,37.0,28.0,69.63,80.0,14.0,30.08,10.0,27.61
2021-12-26 21:00:00,36.0,26.1,66.97,70.0,13.0,30.06,10.0,26.69
2021-12-26 22:00:00,35.0,27.0,72.04,70.0,11.0,30.05,10.0,26.38
2021-12-26 23:00:00,37.0,28.0,69.63,80.0,10.0,30.06,10.0,29.24
2021-12-27 00:00:00,38.0,28.0,67.2,90.0,13.0,30.02,10.0,29.13
2021-12-27 01:00:00,39.0,27.0,61.78,100.0,16.0,29.96,10.0,29.54
2021-12-27 02:00:00,39.0,28.0,64.37,110.0,18.0,29.93,10.0,28.96
2021-12-27 03:00:00,39.0,30.0,69.85,90.0,18.0,29.86,10.0,28.96
2021-12-27 04:00:00,38.0,30.0,72.93,110.0,19.0,29.82,8.0,27.24
2021-12-27 05:00:00,38.0,30.9,75.64,90.0,14.0,29.82,7.0,28.77
2021-12-27 06:00:00,36.0,32.0,85.23,80.0,11.0,29.81,5.0,27.52
2021-12-27 07:00:00,36.0,33.0,89.09,90.0,18.0,29.71,4.0,25.01
2021-12-27 08:00:00,36.0,33.0,89.09,100.0,17.0,29.73,2.0,25.32
2021-12-27 09:00:00,37.0,33.0,85.64,110.0,19.0,29.62,10.0,26.05
2021-12-27 10:00:00,38.0,34.0,85.69,130.0,12.0,29.64,10.0,29.51
2021-12-27 11:00:00,39.0,35.0,85.76,130.0,11.0,29.65,3.0,31.31
2021-12-27 12:00:00,39.0,36.0,88.87,110.0,9.0,29.62,2.5,32.22
2021-12-27 13:00:00,40.0,37.0,89.27,120.0,7.0,29.6,2.0,34.41
2021-12-27 14:00:00,40.0,38.0,92.48,130.0,6.0,29.61,2.0,35.04
2021-12-27 15:00:00,42.0,40.0,91.84,210.0,5.0,29.63,0.5,38.39
2021-12-27 16:00:00,42.0,40.0,91.84,250.0,6.0,29.63,0.5,37.69
2021-12-27 17:00:00,43.0,40.0,88.71,270.0,9.0,29.61,4.0,37.19
2021-12-27 18:00:00,43.0,40.0,88.71,250.0,11.0,29.61,5.0,36.37
2021-12-27 19:00:00,44.0,39.0,82.12,270.0,15.0,29.62,8.0,36.47
2021-12-27 20:00:00,42.0,36.0,78.8,270.0,15.0,29.66,10.0,33.87
2021-12-27 21:00:00,40.0,32.0,73.14,270.0,12.0,29.69,10.0,32.06
2021-12-27 22:00:00,38.0,30.9,75.64,260.0,14.0,29.72,10.0,28.77
2021-12-27 23:00:00,36.0,28.9,75.15,260.0,12.0,29.76,10.0,27.09
2021-12-28 00:00:00,35.0,26.1,69.41,260.0,14.0,29.77,10.0,25.16
2021-12-28 01:00:00,34.0,24.1,66.72,270.0,14.0,29.79,10.0,23.74
2021-12-28 02:00:00,32.0,23.0,69.04,260.0,13.0,29.81,10.0,21.57
2021-12-28 03:00:00,32.0,19.9,60.55,270.0,12.0,29.82,10.0,22.0
2021-12-28 04:00:00,30.9,19.9,63.31,280.0,11.0,29.83,10.0,21.08
2021-12-28 05:00:00,30.0,19.0,63.18,270.0,11.0,29.84,10.0,19.94
2021-12-28 06:00:00,28.9,19.0,66.08,250.0,10.0,29.88,10.0,19.08
2021-12-28 07:00:00,28.0,19.9,71.25,260.0,6.0,29.91,10.0,20.71
2021-12-28 08:00:00,28.9,19.9,68.67,290.0,8.0,29.9,10.0,20.29
2021-12-28 09:00:00,28.0,19.0,68.57,300.0,4.0,29.87,10.0,22.75
2021-12-28 10:00:00,28.0,19.0,68.57,330.0,3.0,29.88,10.0,24.12
2021-12-28 11:00:00,28.0,19.0,68.57,40.0,6.0,29.85,10.0,20.71
2021-12-28 12:00:00,28.0,17.1,63.19,110.0,4.0,29.85,10.0,22.75
2021-12-28 13:00:00,28.0,19.9,71.25,0.0,0.0,29.83,10.0,28.0
2021-12-28 14:00:00,30.0,21.9,71.48,0.0,0.0,29.81,10.0,30.0
2021-12-28 15:00:00,33.0,25.0,71.82,80.0,3.0,29.79,10.0,29.95
2021-12-28 16:00:00,36.0,27.0,69.51,140.0,7.0,29.77,10.0,29.65
2021-12-28 17:00:00,35.0,30.9,84.49,150.0,4.0,29.74,1.0,31.04
2021-12-28 18:00:00,34.0,32.0,92.29,140.0,5.0,29.72,0.75,28.77
2021-12-28 19:00:00,34.0,32.0,92.29,100.0,10.0,29.63,0.75,25.48
2021-12-28 20:00:00,36.0,33.0,89.09,100.0,13.0,29.62,4.0,26.69
2021-12-28 21:00:00,36.0,33.0,89.09,110.0,11.0,29.62,2.0,27.52
2021-12-28 22:00:00,37.0,33.0,85.64,100.0,11.0,29.63,4.0,28.79
2021-12-28 23:00:00,37.0,34.0,88.78,100.0,12.0,29.63,4.0,28.37
2021-12-29 00:00:00,37.0,34.0,88.78,110.0,12.0,29.64,3.0,28.37
2021-12-29 01:00:00,37.0,34.0,88.78,110.0,11.0,29.64,3.0,28.79
2021-12-29 02:00:00,37.0,35.0,92.76,130.0,5.0,29.65,3.0,32.33
2021-12-29 03:00:00,37.0,35.0,92.76,140.0,5.0,29.65,3.0,32.33
2021-12-29 04:00:00,37.0,35.0,92.76,150.0,3.0,29.65,5.0,34.4
2021-12-29 05:00:00,37.0,35.0,92.76,0.0,0.0,29.65,0.75,37.0
2021-12-29 06:00:00,37.0,34.0,88.78,220.0,4.0,29.68,0.5,33.26
2021-12-29 07:00:00,36.0,34.0,92.35,250.0,5.0,29.7,5.0,31.15
2021-12-29 08:00:00,36.0,33.0,89.09,250.0,7.0,29.73,7.0,29.65
2021-12-29 09:00:00,36.0,33.0,89.09,260.0,8.0,29.75,6.0,29.04
2021-12-29 10:00:00,36.0,32.0,85.23,280.0,8.0,29.75,7.0,29.04
2021-12-29 11:00:00,35.0,30.0,81.46,310.0,7.0,29.79,10.0,28.56
2021-12-29 12:00:00,34.0,27.0,75.26,300.0,7.0,29.81,10.0,27.22
2021-12-29 13:00:00,32.0,25.0,75.07,280.0,10.0,29.85,10.0,22.97
2021-12-29 14:00:00,32.0,24.1,72.3,270.0,8.0,29.89,10.0,24.11
2021-12-29 15:00:00,30.0,21.9,71.48,290.0,14.0,29.93,10.0,18.58
2021-12-29 16:00:00,30.0,21.0,68.81,300.0,9.0,29.95,10.0,21.03
2021-12-29 17:00:00,30.9,21.0,66.34,300.0,8.0,29.93,10.0,22.76
2021-12-29 18:00:00,30.0,19.9,65.66,300.0,7.0,29.93,10.0,22.34
2021-12-29 19:00:00,30.0,18.0,60.53,330.0,9.0,29.92,10.0,21.03
2021-12-29 20:00:00,30.9,17.1,56.14,330.0,8.0,29.94,10.0,22.76
2021-12-29 21:00:00,30.9,16.0,53.53,330.0,6.0,29.95,10.0,24.21
2021-12-29 22:00:00,30.0,17.1,58.23,320.0,4.0,29.97,10.0,25.08
2021-12-29 23:00:00,30.0,18.0,60.53,310.0,4.0,30.0,10.0,25.08
2021-12-30 00:00:00,30.0,18.0,60.53,340.0,5.0,29.97,10.0,24.02
2021-12-30 01:00:00,30.0,16.0,55.52,340.0,6.0,29.98,10.0,23.12
2021-12-30 02:00:00,28.9,12.9,50.7,340.0,3.0,29.97,8.0,25.14
2021-12-30 03:00:00,27.0,21.0,77.8,190.0,4.0,29.97,4.0,21.58
2021-12-30 04:00:00,27.0,21.9,80.83,280.0,5.0,29.97,7.0,20.46
2021-12-30 05:00:00,27.0,23.0,84.66,0.0,0.0,29.95,10.0,27.0
2021-12-30 06:00:00,28.0,21.9,77.57,340.0,5.0,29.94,10.0,21.64
2021-12-30 07:00:00,26.1,18.0,71.04,330.0,8.0,29.94,10.0,16.85
2021-12-30 08:00:00,26.1,18.0,71.04,330.0,8.0,29.95,10.0,16.85
2021-12-30 09:00:00,26.1,16.0,65.16,330.0,6.0,29.94,10.0,18.42
2021-12-30 10:00:00,26.1,17.1,68.34,320.0,5.0,29.92,10.0,19.39
2021-12-30 11:00:00,26.1,17.1,68.34,330.0,5.0,29.93,10.0,19.39
2021-12-30 12:00:00,27.0,18.0,68.45,10.0,6.0,29.91,10.0,19.51
2021-12-30 13:00:00,27.0,19.0,71.45,20.0,5.0,29.91,10.0,20.46
2021-12-30 14:00:00,28.0,21.0,74.67,330.0,5.0,29.92,10.0,21.64
2021-12-30 15:00:00,28.9,21.0,71.96,290.0,4.0,29.93,10.0,23.8
2021-12-30 16:00:00,30.0,21.9,71.48,360.0,6.0,29.89,10.0,23.12
2021-12-30 17:00:00,32.0,24.1,72.3,0.0,0.0,29.86,10.0,32.0
2021-12-30 18:00:00,34.0,26.1,72.52,50.0,4.0,29.83,10.0,29.76
2021-12-30 19:00:00,36.0,28.0,72.43,40.0,3.0,29.81,10.0,33.26
2021-12-30 20:00:00,37.0,28.0,69.63,100.0,4.0,29.8,10.0,33.26
2021-12-30 21:00:00,37.0,28.9,72.24,140.0,7.0,29.8,10.0,30.87
2021-12-30 22:00:00,37.0,28.9,72.24,140.0,5.0,29.78,10.0,32.33
2021-12-30 23:00:00,37.0,30.9,78.37,190.0,3.0,29.79,9.0,34.4
2021-12-31 00:00:00,36.0,30.9,81.53,190.0,3.0,29.79,6.0,33.26
2021-12-31 01:00:00,36.0,30.9,81.53,220.0,5.0,29.79,4.0,31.15
2021-12-31 02:00:00,35.0,30.9,84.49,230.0,4.0,29.79,5.0,31.04
2021-12-31 03:00:00,35.0,30.9,84.49,220.0,6.0,29.77,4.0,29.26
2021-12-31 04:00:00,35.0,30.9,84.49,260.0,7.0,29.78,3.0,28.56
2021-12-31 05:00:00,35.0,30.9,84.49,260.0,7.0,29.78,5.0,28.56
2021-12-31 06:00:00,35.0,30.0,81.46,250.0,6.0,29.78,5.0,29.26
2021-12-31 07:00:00,34.0,30.0,85.11,250.0,7.0,29.79,6.0,27.22
2021-12-31 08:00:00,34.0,28.0,78.43,260.0,7.0,29.79,9.0,27.22
2021-12-31 09:00:00,34.0,28.0,78.43,270.0,7.0,29.79,9.0,27.22
2021-12-31 10:00:00,34.0,28.0,78.43,280.0,4.0,29.79,9.0,29.76
2021-12-31 11:00:00,34.0,27.0,75.26,300.0,4.0,29.79,9.0,29.76
2021-12-31 12:00:00,33.0,27.0,78.03,320.0,4.0,29.8,10.0,28.7
2021-12-31 13:00:00,33.0,27.0,78.03,140.0,4.0,29.78,8.0,28.7
2021-12-31 14:00:00,34.0,27.0,75.26,170.0,5.0,29.8,7.0,28.77
2021-12-31 15:00:00,35.0,28.0,75.06,120.0,3.0,29.79,7.0,32.23
2021-12-31 16:00:00,37.0,28.9,72.24,140.0,9.0,29.76,10.0,29.73
2021-12-31 17:00:00,37.0,28.9,72.24,170.0,8.0,29.74,9.0,30.27
2021-12-31 18:00:00,38.0,30.0,72.93,100.0,4.0,29.7,9.0,34.31
2021-12-31 19:00:00,39.0,30.9,72.45,100.0,5.0,29.67,8.0,34.71
2021-12-31 20:00:00,38.0,32.0,79.08,60.0,10.0,29.64,5.0,30.37
2021-12-31 21:00:00,37.0,34.0,88.78,60.0,7.0,29.64,1.25,30.87
2021-12-31 22:00:00,37.0,35.0,92.76,40.0,6.0,29.65,1.25,31.55
2021-12-31 23:00:00,38.0,35.0,89.53,30.0,7.0,29.68,1.5,31.97
