,tmpf,dwpf,relh,drct,sknt,alti,vsby,feel
2021-01-01 00:00:00,17.2,14.7,89.71,150.0,6.0,30.26,10.0,7.71
2021-01-01 01:00:00,17.6,15.3,90.51,150.0,7.0,30.25,10.0,7.23
2021-01-01 02:00:00,17.6,15.4,90.91,130.0,5.0,30.23,10.0,9.29
2021-01-01 03:00:00,17.2,15.3,92.09,120.0,5.0,30.21,10.0,8.82
2021-01-01 04:00:00,16.7,14.9,92.47,120.0,8.0,30.22,10.0,5.27
2021-01-01 05:00:00,16.7,14.9,92.47,140.0,8.0,30.23,10.0,5.27
2021-01-01 06:00:00,17.1,15.3,92.49,130.0,6.0,30.2,10.0,7.59
2021-01-01 07:00:00,16.3,14.9,94.09,140.0,7.0,30.23,7.0,5.64
2021-01-01 08:00:00,15.8,14.4,94.08,160.0,8.0,30.22,7.0,4.16
2021-01-01 09:00:00,15.6,14.0,93.25,180.0,7.0,30.24,7.0,4.79
2021-01-01 10:00:00,15.4,14.0,94.07,170.0,6.0,30.24,7.0,5.54
2021-01-01 11:00:00,15.3,13.8,93.65,140.0,5.0,30.21,7.0,6.56
2021-01-01 12:00:00,14.9,13.8,95.3,120.0,3.0,30.2,5.0,9.14
2021-01-01 13:00:00,14.5,13.1,94.04,110.0,5.0,30.17,4.0,5.61
2021-01-01 14:00:00,14.7,13.1,93.22,150.0,6.0,30.16,3.0,4.69
2021-01-01 15:00:00,15.3,13.6,92.83,150.0,5.0,30.16,4.0,6.56
2021-01-01 16:00:00,15.6,14.0,93.25,0.0,0.0,30.12,4.0,15.6
2021-01-01 17:00:00,15.8,14.4,94.08,0.0,0.0,30.07,5.0,15.8
2021-01-01 18:00:00,16.7,14.9,92.47,0.0,0.0,30.07,7.0,16.7
2021-01-01 19:00:00,17.2,15.1,91.29,0.0,0.0,30.04,7.0,17.2
2021-01-01 20:00:00,18.0,15.1,88.2,0.0,0.0,30.04,10.0,18.0
2021-01-01 21:00:00,17.2,14.7,89.71,0.0,0.0,30.05,10.0,17.2
2021-01-01 22:00:00,15.8,14.0,92.44,0.0,0.0,30.06,7.0,15.8
2021-01-01 23:00:00,14.9,13.1,92.41,0.0,0.0,30.04,5.0,14.9
2021-01-02 00:00:00,17.2,15.4,92.49,280.0,3.0,30.04,7.0,11.77
2021-01-02 01:00:00,19.2,16.7,89.8,290.0,3.0,30.03,7.0,14.06
2021-01-02 02:00:00,19.6,16.5,87.52,280.0,3.0,30.02,10.0,14.51
2021-01-02 03:00:00,20.3,17.2,87.56,0.0,0.0,30.04,10.0,20.3
2021-01-02 04:00:00,21.0,18.0,87.97,0.0,0.0,30.04,4.0,21.0
2021-01-02 05:00:00,21.2,18.5,89.12,0.0,0.0,30.03,5.0,21.2
2021-01-02 06:00:00,21.2,19.9,94.62,0.0,0.0,30.01,1.25,21.2
2021-01-02 07:00:00,21.2,20.1,95.43,220.0,3.0,30.01,2.5,16.34
2021-01-02 08:00:00,21.2,20.3,96.25,0.0,0.0,30.02,0.5,21.2
2021-01-02 09:00:00,21.2,20.3,96.25,0.0,0.0,30.02,0.5,21.2
2021-01-02 10:00:00,21.6,20.7,96.26,0.0,0.0,30.03,0.25,21.6
2021-01-02 11:00:00,21.9,21.0,96.26,190.0,4.0,30.04,0.5,15.63
2021-01-02 12:00:00,21.0,19.9,95.43,220.0,5.0,30.06,1.5,13.33
2021-01-02 13:00:00,19.4,18.1,94.58,220.0,4.0,30.08,1.75,12.71
2021-01-02 14:00:00,17.8,16.3,93.72,180.0,3.0,30.09,2.0,12.46
2021-01-02 15:00:00,19.9,18.7,95.0,170.0,3.0,30.08,1.5,14.86
2021-01-02 16:00:00,21.4,20.3,95.44,0.0,0.0,30.06,0.75,21.4
2021-01-02 17:00:00,22.6,21.7,96.27,190.0,3.0,30.03,1.25,17.94
2021-01-02 18:00:00,23.7,23.0,97.11,150.0,3.0,30.01,1.75,19.2
2021-01-02 19:00:00,23.9,23.2,97.11,130.0,3.0,30.0,3.0,19.43
2021-01-02 20:00:00,24.3,23.4,96.3,140.0,6.0,30.0,3.0,16.26
2021-01-02 21:00:00,24.3,23.0,94.7,110.0,6.0,30.0,3.0,16.26
2021-01-02 22:00:00,22.6,20.3,90.72,120.0,4.0,29.99,4.0,16.44
2021-01-02 23:00:00,20.1,19.0,95.41,0.0,0.0,29.98,2.0,20.1
2021-01-03 00:00:00,17.1,15.6,93.7,130.0,3.0,29.97,0.5,11.66
2021-01-03 01:00:00,18.5,17.4,95.38,120.0,4.0,29.96,1.75,11.66
2021-01-03 02:00:00,19.0,17.6,94.16,120.0,5.0,29.95,2.5,10.96
2021-01-03 03:00:00,18.3,16.7,93.33,130.0,5.0,29.94,2.0,10.13
2021-01-03 04:00:00,20.7,19.4,94.61,140.0,6.0,29.94,0.25,11.92
2021-01-03 05:00:00,21.7,20.8,96.26,130.0,3.0,29.92,0.25,16.91
2021-01-03 06:00:00,22.6,21.7,96.27,140.0,3.0,29.92,0.25,17.94
2021-01-03 07:00:00,23.7,23.0,97.11,160.0,3.0,29.92,0.25,19.2
2021-01-03 08:00:00,23.9,23.4,97.93,160.0,3.0,29.92,0.25,19.43
2021-01-03 09:00:00,24.3,23.5,96.71,150.0,4.0,29.88,0.25,18.43
2021-01-03 10:00:00,24.4,23.7,97.12,180.0,3.0,29.88,0.5,20.0
2021-01-03 11:00:00,23.9,23.4,97.93,190.0,4.0,29.88,1.75,17.96
2021-01-03 12:00:00,23.7,23.0,97.11,170.0,5.0,29.87,5.0,16.54
2021-01-03 13:00:00,23.5,22.8,97.1,160.0,5.0,29.87,5.0,16.3
2021-01-03 14:00:00,23.5,22.8,97.1,170.0,5.0,29.87,4.0,16.3
2021-01-03 15:00:00,23.7,23.0,97.11,170.0,4.0,29.89,5.0,17.73
2021-01-03 16:00:00,23.9,23.0,96.3,160.0,6.0,29.87,5.0,15.77
2021-01-03 17:00:00,24.4,23.7,97.12,150.0,5.0,29.85,5.0,17.37
2021-01-03 18:00:00,25.7,25.2,97.94,150.0,4.0,29.85,4.0,20.06
2021-01-03 19:00:00,25.7,25.3,98.35,140.0,4.0,29.84,3.0,20.06
2021-01-03 20:00:00,26.2,25.7,97.95,150.0,6.0,29.84,4.0,18.54
2021-01-03 21:00:00,25.5,24.8,97.13,150.0,5.0,29.84,5.0,18.68
2021-01-03 22:00:00,23.4,22.5,96.29,140.0,4.0,29.85,4.0,17.38
2021-01-03 23:00:00,24.3,23.5,96.71,140.0,5.0,29.84,4.0,17.25
2021-01-04 00:00:00,24.1,23.5,97.52,140.0,7.0,29.85,5.0,15.15
2021-01-04 01:00:00,25.5,24.8,97.13,150.0,7.0,29.86,4.0,16.86
2021-01-04 02:00:00,26.1,25.5,97.54,150.0,7.0,29.86,4.0,17.59
2021-01-04 03:00:00,26.4,26.1,98.77,160.0,6.0,29.86,3.0,18.79
2021-01-04 04:00:00,27.1,26.6,97.96,170.0,6.0,29.85,3.0,19.63
2021-01-04 05:00:00,27.5,26.8,97.16,170.0,6.0,29.84,5.0,20.11
2021-01-04 06:00:00,24.8,23.9,96.31,160.0,9.0,29.83,5.0,14.56
2021-01-04 07:00:00,21.9,21.0,96.26,170.0,3.0,29.83,5.0,17.14
2021-01-04 08:00:00,22.5,21.7,96.68,170.0,5.0,29.84,5.0,15.11
2021-01-04 09:00:00,23.7,22.1,93.49,160.0,7.0,29.83,5.0,14.66
2021-01-04 10:00:00,23.0,22.3,97.1,170.0,9.0,29.82,2.5,12.32
2021-01-04 11:00:00,22.8,22.1,97.09,180.0,10.0,29.81,0.75,11.43
2021-01-04 12:00:00,22.8,22.1,97.09,180.0,10.0,29.82,0.5,11.43
2021-01-04 13:00:00,23.0,22.5,97.92,200.0,6.0,29.82,1.0,14.69
2021-01-04 14:00:00,23.7,23.0,97.11,210.0,4.0,29.83,1.75,17.73
2021-01-04 15:00:00,24.6,23.9,97.12,160.0,5.0,29.83,0.75,17.61
2021-01-04 16:00:00,25.3,24.8,97.94,200.0,3.0,29.84,0.75,21.03
2021-01-04 17:00:00,26.6,26.2,98.36,200.0,4.0,29.81,1.0,21.11
2021-01-04 18:00:00,26.6,26.2,98.36,150.0,3.0,29.79,2.0,22.52
2021-01-04 19:00:00,28.4,28.0,98.37,260.0,5.0,29.81,7.0,22.12
2021-01-04 20:00:00,29.3,27.5,92.89,240.0,4.0,29.82,5.0,24.27
2021-01-04 21:00:00,29.8,28.2,93.67,260.0,3.0,29.84,5.0,26.17
2021-01-04 22:00:00,29.1,27.7,94.42,250.0,4.0,29.86,5.0,24.03
2021-01-04 23:00:00,23.7,23.2,97.93,0.0,0.0,29.87,0.25,23.7
2021-01-05 00:00:00,17.4,16.2,94.94,0.0,0.0,29.88,0.25,17.4
2021-01-05 01:00:00,15.4,13.8,93.24,0.0,0.0,29.88,0.25,15.4
2021-01-05 02:00:00,12.0,10.0,91.49,0.0,0.0,29.88,0.25,12.0
2021-01-05 03:00:00,11.1,9.0,91.04,0.0,0.0,29.89,0.25,11.1
2021-01-05 04:00:00,10.8,8.8,91.44,0.0,0.0,29.92,0.25,10.8
2021-01-05 05:00:00,10.4,8.4,91.43,0.0,0.0,29.94,0.25,10.4
2021-01-05 06:00:00,8.1,5.2,87.66,0.0,0.0,29.95,0.25,8.1
2021-01-05 07:00:00,8.4,6.4,91.35,0.0,0.0,29.96,0.25,8.4
2021-01-05 08:00:00,8.6,6.3,90.12,0.0,0.0,29.97,0.25,8.6
2021-01-05 09:00:00,6.0,3.2,87.55,0.0,0.0,29.99,0.25,6.1
2021-01-05 10:00:00,7.2,4.6,88.82,0.0,0.0,29.99,0.25,7.2
2021-01-05 11:00:00,8.2,6.0,90.1,0.0,0.0,30.02,0.25,8.2
2021-01-05 12:00:00,11.3,9.1,90.64,0.0,0.0,30.04,0.25,11.3
2021-01-05 13:00:00,12.7,10.8,91.92,0.0,0.0,30.04,0.25,12.7
2021-01-05 14:00:00,10.6,8.4,90.61,0.0,0.0,30.07,0.5,10.6
2021-01-05 15:00:00,11.8,9.5,90.26,0.0,0.0,30.09,0.25,11.8
2021-01-05 16:00:00,15.8,14.0,92.44,0.0,0.0,30.09,5.0,15.8
2021-01-05 17:00:00,18.5,16.9,93.34,0.0,0.0,30.09,4.0,18.5
2021-01-05 18:00:00,21.2,20.1,95.43,0.0,0.0,30.09,10.0,21.2
2021-01-05 19:00:00,23.2,22.1,95.48,0.0,0.0,30.09,10.0,23.2
2021-01-05 20:00:00,23.9,23.0,96.3,0.0,0.0,30.1,10.0,23.9
2021-01-05 21:00:00,22.6,21.7,96.27,0.0,0.0,30.12,7.0,22.6
2021-01-05 22:00:00,18.7,17.4,94.56,20.0,4.0,30.14,0.25,11.89
2021-01-05 23:00:00,12.9,10.9,91.52,0.0,0.0,30.17,4.0,12.9
2021-01-06 00:00:00,12.9,10.9,91.52,0.0,0.0,30.19,1.5,12.9
2021-01-06 01:00:00,10.6,8.1,89.4,0.0,0.0,30.21,3.0,10.6
2021-01-06 02:00:00,9.0,6.8,90.55,0.0,0.0,30.21,7.0,9.0
2021-01-06 03:00:00,10.2,8.0,90.19,0.0,0.0,30.22,1.0,10.2
2021-01-06 04:00:00,11.8,9.5,90.26,0.0,0.0,30.23,0.25,11.8
2021-01-06 05:00:00,12.7,10.8,91.92,0.0,0.0,30.23,0.25,12.7
2021-01-06 06:00:00,10.6,8.1,89.4,0.0,0.0,30.24,0.75,10.6
2021-01-06 07:00:00,12.6,10.6,91.51,0.0,0.0,30.26,1.5,12.6
2021-01-06 08:00:00,13.1,11.1,91.53,0.0,0.0,30.27,0.25,13.1
2021-01-06 09:00:00,14.4,12.6,92.39,0.0,0.0,30.26,0.25,14.4
2021-01-06 10:00:00,14.0,12.2,92.38,0.0,0.0,30.27,2.5,14.0
2021-01-06 11:00:00,15.3,13.6,92.83,0.0,0.0,30.29,4.0,15.3
2021-01-06 12:00:00,17.6,16.3,94.53,0.0,0.0,30.31,5.0,17.6
2021-01-06 13:00:00,17.6,16.2,94.13,0.0,0.0,30.32,7.0,17.6
2021-01-06 14:00:00,18.5,17.4,95.38,0.0,0.0,30.33,7.0,18.5
2021-01-06 15:00:00,20.5,19.4,95.42,0.0,0.0,30.34,10.0,20.5
2021-01-06 16:00:00,21.7,20.7,95.85,110.0,3.0,30.34,10.0,16.91
2021-01-06 17:00:00,23.9,23.4,97.93,0.0,0.0,30.33,10.0,23.9
2021-01-06 18:00:00,24.6,23.9,97.12,0.0,0.0,30.32,10.0,24.6
2021-01-06 19:00:00,22.5,21.6,96.27,160.0,3.0,30.32,10.0,17.83
2021-01-06 20:00:00,23.9,23.2,97.11,0.0,0.0,30.34,10.0,23.9
2021-01-06 21:00:00,23.7,22.8,96.29,0.0,0.0,30.35,10.0,23.7
2021-01-06 22:00:00,23.9,23.0,96.3,0.0,0.0,30.36,7.0,23.9
2021-01-06 23:00:00,19.9,18.5,94.19,0.0,0.0,30.37,4.0,19.9
2021-01-07 00:00:00,19.0,17.8,94.98,0.0,0.0,30.37,2.5,19.0
2021-01-07 01:00:00,18.3,17.1,94.96,0.0,0.0,30.38,2.0,18.3
2021-01-07 02:00:00,17.4,16.0,94.12,0.0,0.0,30.39,2.5,17.4
2021-01-07 03:00:00,16.0,14.4,93.26,10.0,4.0,30.39,1.0,8.74
2021-01-07 04:00:00,17.2,15.8,94.11,0.0,0.0,30.4,0.25,17.2
2021-01-07 05:00:00,18.3,16.9,94.14,0.0,0.0,30.41,0.25,18.3
2021-01-07 06:00:00,19.8,18.7,95.4,0.0,0.0,30.41,0.25,19.8
2021-01-07 07:00:00,20.7,19.4,94.61,130.0,5.0,30.41,0.75,12.98
2021-01-07 08:00:00,20.8,19.6,95.02,100.0,4.0,30.41,0.5,14.34
2021-01-07 09:00:00,21.2,20.1,95.43,140.0,3.0,30.41,0.5,16.34
2021-01-07 10:00:00,21.2,20.3,96.25,100.0,4.0,30.41,0.25,14.81
2021-01-07 11:00:00,21.0,19.9,95.43,130.0,4.0,30.42,0.5,14.57
2021-01-07 12:00:00,20.7,19.4,94.61,140.0,3.0,30.44,0.75,15.77
2021-01-07 13:00:00,20.7,19.4,94.61,150.0,3.0,30.46,0.5,15.77
2021-01-07 14:00:00,20.5,19.4,95.42,120.0,3.0,30.47,0.5,15.54
2021-01-07 15:00:00,20.7,19.4,94.61,120.0,3.0,30.47,1.0,15.77
2021-01-07 16:00:00,20.7,19.4,94.61,0.0,0.0,30.47,1.25,20.7
2021-01-07 17:00:00,21.4,20.3,95.44,140.0,3.0,30.46,2.0,16.57
2021-01-07 18:00:00,22.1,21.2,96.27,0.0,0.0,30.44,2.5,22.1
2021-01-07 19:00:00,22.6,21.7,96.27,0.0,0.0,30.44,3.0,22.6
2021-01-07 20:00:00,22.8,21.9,96.28,0.0,0.0,30.43,4.0,22.8
2021-01-07 21:00:00,22.8,21.9,96.28,0.0,0.0,30.43,4.0,22.8
2021-01-07 22:00:00,23.0,22.1,96.28,0.0,0.0,30.44,4.0,23.0
2021-01-07 23:00:00,23.0,22.1,96.28,180.0,3.0,30.44,5.0,18.4
2021-01-08 00:00:00,22.6,21.7,96.27,0.0,0.0,30.44,4.0,22.6
2021-01-08 01:00:00,22.8,21.9,96.28,0.0,0.0,30.45,4.0,22.8
2021-01-08 02:00:00,22.6,21.7,96.27,0.0,0.0,30.45,4.0,22.6
2021-01-08 03:00:00,22.6,21.7,96.27,90.0,3.0,30.43,5.0,17.94
2021-01-08 04:00:00,22.1,21.2,96.27,0.0,0.0,30.44,5.0,22.1
2021-01-08 05:00:00,21.7,20.7,95.85,0.0,0.0,30.43,4.0,21.7
2021-01-08 06:00:00,21.2,20.1,95.43,0.0,0.0,30.43,0.75,21.2
2021-01-08 07:00:00,21.2,20.1,95.43,0.0,0.0,30.43,1.25,21.2
2021-01-08 08:00:00,21.0,19.9,95.43,270.0,3.0,30.44,1.0,16.11
2021-01-08 09:00:00,21.2,20.1,95.43,0.0,0.0,30.43,1.25,21.2
2021-01-08 10:00:00,21.2,20.1,95.43,0.0,0.0,30.42,4.0,21.2
2021-01-08 11:00:00,21.0,19.9,95.43,0.0,0.0,30.41,4.0,21.0
2021-01-08 12:00:00,21.0,19.9,95.43,0.0,0.0,30.41,4.0,21.0
2021-01-08 13:00:00,21.2,20.3,96.25,0.0,0.0,30.42,10.0,21.2
2021-01-08 14:00:00,22.1,21.2,96.27,0.0,0.0,30.42,5.0,22.1
2021-01-08 15:00:00,22.8,21.9,96.28,360.0,4.0,30.42,4.0,16.68
2021-01-08 16:00:00,23.4,22.6,96.69,360.0,4.0,30.42,5.0,17.38
2021-01-08 17:00:00,23.7,23.0,97.11,0.0,0.0,30.4,7.0,23.7
2021-01-08 18:00:00,23.7,23.0,97.11,10.0,3.0,30.38,10.0,19.2
2021-01-08 19:00:00,23.9,23.4,97.93,310.0,4.0,30.36,10.0,17.96
2021-01-08 20:00:00,23.9,23.0,96.3,320.0,3.0,30.36,10.0,19.43
2021-01-08 21:00:00,23.9,22.8,95.49,310.0,3.0,30.35,10.0,19.43
2021-01-08 22:00:00,23.9,22.1,92.71,330.0,5.0,30.34,10.0,16.78
2021-01-08 23:00:00,22.8,21.6,95.06,320.0,4.0,30.35,10.0,16.68
2021-01-09 00:00:00,21.7,20.3,94.23,330.0,5.0,30.35,10.0,14.16
2021-01-09 01:00:00,21.0,19.9,95.43,330.0,4.0,30.36,10.0,14.57
2021-01-09 02:00:00,19.9,18.9,95.82,320.0,4.0,30.35,7.0,13.29
2021-01-09 03:00:00,18.7,17.6,95.38,340.0,5.0,30.35,7.0,10.6
2021-01-09 04:00:00,17.1,15.8,94.52,340.0,5.0,30.34,7.0,8.7
2021-01-09 05:00:00,16.2,14.9,94.5,0.0,0.0,30.34,4.0,16.2
2021-01-09 06:00:00,16.3,14.9,94.09,0.0,0.0,30.34,4.0,16.3
2021-01-09 07:00:00,15.6,14.0,93.25,290.0,3.0,30.35,5.0,9.94
2021-01-09 08:00:00,14.9,13.5,94.05,280.0,3.0,30.35,4.0,9.14
2021-01-09 09:00:00,14.7,13.1,93.22,0.0,0.0,30.36,2.5,14.7
2021-01-09 10:00:00,13.6,11.8,92.37,270.0,3.0,30.36,0.75,7.65
2021-01-09 11:00:00,13.1,11.3,92.35,270.0,3.0,30.37,1.0,7.08
2021-01-09 12:00:00,12.7,10.8,91.92,0.0,0.0,30.38,1.5,12.7
2021-01-09 13:00:00,12.6,10.4,90.7,0.0,0.0,30.38,1.75,12.6
2021-01-09 14:00:00,12.6,10.4,90.7,0.0,0.0,30.39,0.75,12.6
2021-01-09 15:00:00,12.2,10.2,91.5,0.0,0.0,30.4,4.0,12.2
2021-01-09 16:00:00,13.8,12.0,92.37,0.0,0.0,30.4,5.0,13.8
2021-01-09 17:00:00,15.8,14.0,92.44,0.0,0.0,30.38,5.0,15.8
2021-01-09 18:00:00,17.1,15.4,92.89,0.0,0.0,30.36,4.0,17.1
2021-01-09 19:00:00,18.1,16.7,94.14,0.0,0.0,30.34,7.0,18.1
2021-01-09 20:00:00,18.9,17.6,94.57,0.0,0.0,30.34,5.0,18.9
2021-01-09 21:00:00,19.9,18.5,94.19,0.0,0.0,30.34,7.0,19.9
2021-01-09 22:00:00,20.3,19.2,95.42,0.0,0.0,30.34,5.0,20.3
2021-01-09 23:00:00,20.7,19.4,94.61,260.0,3.0,30.34,3.0,15.77
2021-01-10 00:00:00,20.7,19.4,94.61,250.0,3.0,30.34,5.0,15.77
2021-01-10 01:00:00,22.1,21.2,96.27,280.0,5.0,30.34,5.0,14.64
2021-01-10 02:00:00,22.1,21.2,96.27,290.0,5.0,30.34,4.0,14.64
2021-01-10 03:00:00,21.6,20.3,94.63,280.0,4.0,30.33,1.75,15.28
2021-01-10 04:00:00,21.6,20.3,94.63,270.0,3.0,30.32,1.5,16.8
2021-01-10 05:00:00,20.3,19.4,96.23,260.0,5.0,30.32,1.25,12.5
2021-01-10 06:00:00,20.1,19.0,95.41,260.0,4.0,30.31,2.0,13.52
2021-01-10 07:00:00,21.2,20.3,96.25,310.0,3.0,30.32,5.0,16.34
2021-01-10 08:00:00,21.2,20.3,96.25,310.0,3.0,30.32,5.0,16.34
2021-01-10 09:00:00,21.2,20.1,95.43,0.0,0.0,30.31,4.0,21.2
2021-01-10 10:00:00,21.2,20.3,96.25,0.0,0.0,30.31,7.0,21.2
2021-01-10 11:00:00,21.0,19.9,95.43,300.0,3.0,30.31,5.0,16.11
2021-01-10 12:00:00,20.1,19.0,95.41,290.0,4.0,30.32,7.0,13.52
2021-01-10 13:00:00,19.8,18.5,94.59,0.0,0.0,30.33,7.0,19.8
2021-01-10 14:00:00,19.8,18.5,94.59,280.0,3.0,30.34,5.0,14.74
2021-01-10 15:00:00,20.1,19.0,95.41,0.0,0.0,30.34,5.0,20.1
2021-01-10 16:00:00,20.1,18.9,95.0,280.0,4.0,30.34,5.0,13.52
2021-01-10 17:00:00,20.3,19.4,96.23,240.0,4.0,30.31,5.0,13.76
2021-01-10 18:00:00,21.2,20.1,95.43,250.0,3.0,30.29,5.0,16.34
2021-01-10 19:00:00,21.2,20.3,96.25,260.0,4.0,30.28,5.0,14.81
2021-01-10 20:00:00,21.7,20.7,95.85,270.0,3.0,30.28,7.0,16.91
2021-01-10 21:00:00,21.7,20.8,96.26,200.0,5.0,30.28,5.0,14.16
2021-01-10 22:00:00,21.6,20.3,94.63,250.0,3.0,30.28,5.0,16.8
2021-01-10 23:00:00,21.7,20.7,95.85,220.0,5.0,30.27,7.0,14.16
2021-01-11 00:00:00,21.6,20.3,94.63,250.0,5.0,30.27,5.0,14.04
2021-01-11 01:00:00,21.9,21.0,96.26,210.0,5.0,30.26,4.0,14.4
2021-01-11 02:00:00,22.1,21.2,96.27,180.0,4.0,30.23,3.0,15.86
2021-01-11 03:00:00,22.5,21.6,96.27,170.0,6.0,30.22,2.5,14.09
2021-01-11 04:00:00,23.0,22.5,97.92,170.0,4.0,30.2,3.0,16.91
2021-01-11 05:00:00,23.9,23.0,96.3,200.0,5.0,30.18,3.0,16.78
2021-01-11 06:00:00,24.6,23.9,97.12,200.0,6.0,30.15,5.0,16.62
2021-01-11 07:00:00,26.2,25.7,97.95,210.0,9.0,30.14,7.0,16.3
2021-01-11 08:00:00,26.6,26.2,98.36,230.0,8.0,30.12,10.0,17.46
2021-01-11 09:00:00,27.1,26.6,97.96,240.0,9.0,30.11,10.0,17.42
2021-01-11 10:00:00,27.5,26.6,96.36,230.0,5.0,30.1,10.0,21.05
2021-01-11 11:00:00,27.5,26.4,95.56,200.0,4.0,30.08,10.0,22.17
2021-01-11 12:00:00,28.0,26.2,92.85,190.0,5.0,30.06,10.0,21.64
2021-01-11 13:00:00,28.0,25.3,89.44,180.0,6.0,30.04,10.0,20.71
2021-01-11 14:00:00,28.2,25.2,88.34,200.0,4.0,30.03,10.0,22.98
2021-01-11 15:00:00,28.4,25.2,87.62,190.0,5.0,30.02,10.0,22.12
2021-01-11 16:00:00,28.9,25.3,86.21,190.0,7.0,30.0,10.0,21.0
2021-01-11 17:00:00,29.8,25.5,83.79,190.0,7.0,29.97,10.0,22.1
2021-01-11 18:00:00,31.1,25.9,80.81,200.0,6.0,29.94,10.0,24.45
2021-01-11 19:00:00,31.8,26.1,79.21,180.0,6.0,29.93,10.0,25.29
2021-01-11 20:00:00,32.0,26.8,80.88,200.0,5.0,29.94,10.0,26.4
2021-01-11 21:00:00,32.0,26.1,78.58,240.0,6.0,29.94,10.0,25.53
2021-01-11 22:00:00,30.9,25.9,81.47,200.0,4.0,29.94,10.0,26.14
2021-01-11 23:00:00,28.9,25.5,86.92,0.0,0.0,29.95,10.0,28.9
2021-01-12 00:00:00,22.1,21.6,97.91,0.0,0.0,29.94,7.0,22.1
2021-01-12 01:00:00,20.5,19.4,95.42,0.0,0.0,29.96,5.0,20.5
2021-01-12 02:00:00,16.0,14.2,92.45,0.0,0.0,29.96,7.0,16.0
2021-01-12 03:00:00,15.4,14.0,94.07,0.0,0.0,29.97,0.25,15.4
2021-01-12 04:00:00,12.9,11.1,92.34,0.0,0.0,29.96,0.25,12.9
2021-01-12 05:00:00,13.1,11.3,92.35,0.0,0.0,29.96,0.25,13.1
2021-01-12 06:00:00,12.2,10.4,92.32,0.0,0.0,29.97,0.25,12.2
2021-01-12 07:00:00,13.6,11.8,92.37,0.0,0.0,29.97,0.25,13.6
2021-01-12 08:00:00,15.1,13.5,93.23,0.0,0.0,29.96,0.5,15.1
2021-01-12 09:00:00,14.0,12.2,92.38,0.0,0.0,29.96,0.5,14.0
2021-01-12 10:00:00,14.5,12.7,92.4,0.0,0.0,29.97,2.5,14.5
2021-01-12 11:00:00,14.9,13.1,92.41,0.0,0.0,29.99,0.25,14.9
2021-01-12 12:00:00,15.1,13.5,93.23,0.0,0.0,29.99,0.25,15.1
2021-01-12 13:00:00,16.9,15.3,93.29,0.0,0.0,29.99,1.0,16.9
2021-01-12 14:00:00,18.1,16.7,94.14,0.0,0.0,29.98,0.75,18.1
2021-01-12 15:00:00,20.3,19.4,96.23,0.0,0.0,29.98,0.75,20.3
2021-01-12 16:00:00,22.1,21.2,96.27,230.0,3.0,29.99,0.25,17.37
2021-01-12 17:00:00,21.7,20.8,96.26,0.0,0.0,29.96,1.5,21.7
2021-01-12 18:00:00,23.5,22.8,97.1,180.0,4.0,29.94,2.5,17.49
2021-01-12 19:00:00,25.2,24.6,97.53,210.0,6.0,29.92,3.0,17.34
2021-01-12 20:00:00,25.2,24.6,97.53,190.0,3.0,29.92,5.0,20.91
2021-01-12 21:00:00,25.7,25.2,97.94,160.0,5.0,29.9,4.0,18.91
2021-01-12 22:00:00,25.3,24.8,97.94,150.0,5.0,29.89,4.0,18.44
2021-01-12 23:00:00,25.2,24.6,97.53,130.0,5.0,29.89,4.0,18.32
2021-01-13 00:00:00,23.4,22.5,96.29,130.0,3.0,29.87,3.0,18.86
2021-01-13 01:00:00,21.6,20.3,94.63,120.0,5.0,29.85,2.0,14.04
2021-01-13 02:00:00,21.0,19.9,95.43,0.0,0.0,29.84,0.5,21.0
2021-01-13 03:00:00,20.1,19.0,95.41,0.0,0.0,29.83,0.25,20.1
2021-01-13 04:00:00,18.5,17.2,94.56,0.0,0.0,29.83,0.25,18.5
2021-01-13 05:00:00,15.8,14.2,93.26,0.0,0.0,29.81,3.0,15.8
2021-01-13 06:00:00,15.4,13.8,93.24,0.0,0.0,29.81,4.0,15.4
2021-01-13 07:00:00,15.4,13.6,92.43,0.0,0.0,29.79,3.0,15.4
2021-01-13 08:00:00,13.5,11.5,91.55,0.0,0.0,29.78,4.0,13.5
2021-01-13 09:00:00,11.3,9.1,90.64,0.0,0.0,29.78,4.0,11.3
2021-01-13 10:00:00,12.6,10.4,90.7,0.0,0.0,29.77,0.25,12.6
2021-01-13 11:00:00,13.1,11.1,91.53,0.0,0.0,29.76,0.25,13.1
2021-01-13 12:00:00,13.1,11.1,91.53,0.0,0.0,29.76,0.25,13.1
2021-01-13 13:00:00,14.4,12.6,92.39,0.0,0.0,29.77,0.25,14.4
2021-01-13 14:00:00,15.8,14.2,93.26,0.0,0.0,29.75,0.25,15.8
2021-01-13 15:00:00,17.6,15.8,92.5,0.0,0.0,29.74,0.25,17.6
2021-01-13 16:00:00,21.6,20.5,95.44,0.0,0.0,29.74,2.0,21.6
2021-01-13 17:00:00,24.4,23.7,97.12,0.0,0.0,29.71,5.0,24.4
2021-01-13 18:00:00,27.1,26.6,97.96,0.0,0.0,29.67,5.0,27.1
2021-01-13 19:00:00,28.8,28.6,99.18,0.0,0.0,29.65,5.0,28.8
2021-01-13 20:00:00,30.6,30.6,100.0,0.0,0.0,29.64,7.0,30.6
2021-01-13 21:00:00,31.3,31.3,100.0,0.0,0.0,29.63,5.0,31.3
2021-01-13 22:00:00,30.7,30.7,100.0,0.0,0.0,29.64,7.0,30.7
2021-01-13 23:00:00,29.5,29.3,99.19,0.0,0.0,29.64,5.0,29.5
2021-01-14 00:00:00,31.1,30.7,98.39,120.0,3.0,29.62,10.0,27.66
2021-01-14 01:00:00,31.1,30.4,97.2,60.0,4.0,29.61,10.0,26.37
2021-01-14 02:00:00,31.8,30.2,93.73,0.0,0.0,29.6,10.0,31.8
2021-01-14 03:00:00,31.6,29.7,92.58,120.0,4.0,29.59,10.0,26.95
2021-01-14 04:00:00,30.2,29.1,95.62,100.0,4.0,29.56,7.0,25.32
2021-01-14 05:00:00,29.8,28.4,94.44,90.0,3.0,29.54,10.0,26.17
2021-01-14 06:00:00,27.9,27.0,96.36,0.0,0.0,29.53,7.0,27.9
2021-01-14 07:00:00,28.0,27.3,97.16,100.0,3.0,29.52,7.0,24.12
2021-01-14 08:00:00,28.9,27.9,95.98,110.0,3.0,29.52,10.0,25.14
2021-01-14 09:00:00,29.5,28.4,95.6,130.0,4.0,29.5,10.0,24.5
2021-01-14 10:00:00,27.5,26.8,97.16,110.0,4.0,29.5,7.0,22.17
2021-01-14 11:00:00,30.6,28.9,93.31,100.0,9.0,29.47,10.0,21.77
2021-01-14 12:00:00,31.5,29.3,91.45,150.0,8.0,29.48,10.0,23.5
2021-01-14 13:00:00,30.6,28.8,92.93,120.0,6.0,29.47,10.0,23.84
2021-01-14 14:00:00,31.1,28.9,91.44,110.0,5.0,29.47,7.0,25.33
2021-01-14 15:00:00,32.0,29.1,88.9,110.0,8.0,29.46,10.0,24.11
2021-01-14 16:00:00,33.0,29.3,85.75,130.0,8.0,29.45,10.0,25.47
2021-01-14 17:00:00,34.7,30.2,83.44,130.0,10.0,29.43,10.0,26.35
2021-01-14 18:00:00,35.0,30.7,83.81,130.0,9.0,29.4,10.0,27.37
2021-01-14 19:00:00,35.0,30.9,84.49,130.0,5.0,29.39,7.0,30.08
2021-01-14 20:00:00,34.0,32.0,92.29,120.0,7.0,29.4,2.0,27.22
2021-01-14 21:00:00,33.0,32.5,97.62,80.0,5.0,29.4,1.25,27.7
2021-01-14 22:00:00,33.0,32.2,97.22,80.0,5.0,29.4,1.5,27.46
2021-01-14 23:00:00,33.0,32.2,96.45,80.0,6.0,29.4,0.75,26.86
2021-01-15 00:00:00,33.0,32.4,97.23,90.0,5.0,29.41,1.75,27.7
2021-01-15 01:00:00,33.0,32.5,97.62,70.0,3.0,29.41,1.75,29.95
2021-01-15 02:00:00,33.0,32.4,98.01,50.0,5.0,29.41,1.75,27.46
2021-01-15 03:00:00,33.0,32.5,98.41,40.0,7.0,29.4,3.0,25.88
2021-01-15 04:00:00,32.5,32.4,99.6,20.0,8.0,29.4,1.75,24.73
2021-01-15 05:00:00,33.0,32.4,98.01,30.0,9.0,29.39,3.0,24.63
2021-01-15 06:00:00,33.0,32.4,98.01,30.0,10.0,29.39,3.0,24.1
2021-01-15 07:00:00,33.0,32.4,98.01,30.0,13.0,29.4,5.0,22.72
2021-01-15 08:00:00,33.0,32.4,98.01,20.0,13.0,29.4,7.0,22.72
2021-01-15 09:00:00,33.0,32.4,97.23,20.0,11.0,29.42,5.0,23.86
2021-01-15 10:00:00,32.5,32.2,98.8,10.0,12.0,29.43,3.0,22.64
2021-01-15 11:00:00,32.5,32.2,98.8,20.0,12.0,29.45,3.0,22.64
2021-01-15 12:00:00,32.5,32.2,98.8,10.0,13.0,29.48,2.5,22.21
2021-01-15 13:00:00,32.5,32.2,98.8,20.0,12.0,29.5,5.0,22.64
2021-01-15 14:00:00,33.0,32.2,96.45,20.0,11.0,29.53,10.0,23.86
2021-01-15 15:00:00,33.3,32.0,94.91,20.0,15.0,29.56,7.0,22.47
2021-01-15 16:00:00,33.6,32.0,93.78,20.0,11.0,29.59,10.0,24.49
2021-01-15 17:00:00,33.6,32.2,94.53,10.0,9.0,29.59,10.0,25.5
2021-01-15 18:00:00,34.2,32.0,91.55,10.0,7.0,29.59,10.0,27.46
2021-01-15 19:00:00,34.7,32.2,90.47,360.0,7.0,29.61,10.0,28.07
2021-01-15 20:00:00,34.7,32.2,90.47,360.0,8.0,29.64,10.0,27.44
2021-01-15 21:00:00,34.7,32.2,90.47,350.0,6.0,29.66,10.0,28.78
2021-01-15 22:00:00,33.8,32.5,94.92,340.0,6.0,29.68,10.0,27.7
2021-01-15 23:00:00,34.0,32.5,94.16,350.0,7.0,29.7,7.0,27.22
2021-01-16 00:00:00,33.8,33.0,96.46,330.0,6.0,29.7,7.0,27.7
2021-01-16 01:00:00,33.8,32.2,93.78,340.0,8.0,29.7,10.0,26.33
2021-01-16 02:00:00,33.8,32.0,93.03,340.0,7.0,29.7,10.0,26.97
2021-01-16 03:00:00,34.0,31.8,91.55,340.0,9.0,29.7,10.0,26.0
2021-01-16 04:00:00,33.3,32.0,94.91,340.0,9.0,29.71,10.0,25.13
2021-01-16 05:00:00,33.3,32.0,94.91,340.0,7.0,29.71,10.0,26.36
2021-01-16 06:00:00,33.0,31.8,94.9,340.0,7.0,29.71,10.0,26.12
2021-01-16 07:00:00,33.0,31.8,94.9,350.0,6.0,29.7,10.0,26.86
2021-01-16 08:00:00,33.0,31.6,94.9,330.0,6.0,29.72,10.0,26.61
2021-01-16 09:00:00,32.2,32.0,99.2,350.0,3.0,29.72,2.0,28.92
2021-01-16 10:00:00,32.0,31.5,98.0,330.0,4.0,29.72,10.0,27.42
2021-01-16 11:00:00,32.0,30.0,92.22,340.0,7.0,29.72,10.0,24.78
2021-01-16 12:00:00,31.5,29.1,90.71,340.0,5.0,29.73,10.0,25.8
2021-01-16 13:00:00,30.7,27.9,89.2,340.0,4.0,29.73,10.0,25.9
2021-01-16 14:00:00,30.6,27.3,87.38,350.0,4.0,29.73,10.0,25.79
2021-01-16 15:00:00,30.2,26.6,86.28,10.0,4.0,29.75,5.0,25.32
2021-01-16 16:00:00,30.6,25.0,79.44,340.0,5.0,29.76,10.0,24.73
2021-01-16 17:00:00,30.9,23.5,73.71,340.0,4.0,29.74,10.0,26.14
2021-01-16 18:00:00,31.1,23.5,73.12,350.0,6.0,29.72,10.0,24.45
2021-01-16 19:00:00,32.0,22.8,68.46,340.0,6.0,29.72,10.0,25.53
2021-01-16 20:00:00,30.0,26.4,86.27,310.0,5.0,29.73,7.0,24.02
2021-01-16 21:00:00,30.2,25.2,81.42,0.0,0.0,29.72,10.0,30.2
2021-01-16 22:00:00,29.7,24.1,79.36,340.0,5.0,29.74,10.0,23.66
2021-01-16 23:00:00,28.9,23.5,79.96,330.0,5.0,29.75,10.0,22.71
2021-01-17 00:00:00,28.2,21.9,76.93,340.0,3.0,29.75,10.0,24.34
2021-01-17 01:00:00,28.2,21.9,76.93,340.0,3.0,29.74,10.0,24.34
2021-01-17 02:00:00,27.3,23.7,86.11,350.0,4.0,29.74,10.0,21.93
2021-01-17 03:00:00,27.0,24.4,89.77,0.0,0.0,29.73,10.0,27.0
2021-01-17 04:00:00,27.1,24.8,90.91,280.0,5.0,29.72,10.0,20.58
2021-01-17 05:00:00,26.2,23.9,90.87,310.0,5.0,29.74,10.0,19.51
2021-01-17 06:00:00,25.7,23.7,92.0,300.0,4.0,29.73,10.0,20.06
2021-01-17 07:00:00,25.3,23.0,90.83,290.0,4.0,29.73,10.0,19.6
2021-01-17 08:00:00,25.2,23.0,91.21,300.0,3.0,29.73,10.0,20.91
2021-01-17 09:00:00,24.8,23.0,92.74,290.0,4.0,29.73,10.0,19.01
2021-01-17 10:00:00,24.8,22.5,90.81,300.0,4.0,29.74,10.0,19.01
2021-01-17 11:00:00,24.6,21.9,89.29,0.0,0.0,29.75,10.0,24.6
2021-01-17 12:00:00,24.4,22.1,90.8,310.0,3.0,29.76,10.0,20.0
2021-01-17 13:00:00,24.3,21.9,90.41,330.0,3.0,29.76,10.0,19.89
2021-01-17 14:00:00,24.4,21.7,89.28,360.0,3.0,29.76,10.0,20.0
2021-01-17 15:00:00,25.2,21.9,87.08,320.0,4.0,29.78,10.0,19.48
2021-01-17 16:00:00,25.7,21.7,84.57,300.0,4.0,29.77,10.0,20.06
2021-01-17 17:00:00,26.1,21.7,83.18,0.0,0.0,29.77,10.0,26.1
2021-01-17 18:00:00,26.6,21.7,81.48,290.0,4.0,29.75,10.0,21.11
2021-01-17 19:00:00,27.0,21.6,79.81,310.0,3.0,29.73,10.0,22.97
2021-01-17 20:00:00,26.6,20.5,77.44,290.0,6.0,29.75,10.0,19.03
2021-01-17 21:00:00,26.2,19.0,73.85,290.0,6.0,29.76,10.0,18.54
2021-01-17 22:00:00,25.5,19.6,78.0,320.0,3.0,29.76,10.0,21.26
2021-01-17 23:00:00,24.8,18.7,77.27,330.0,4.0,29.77,10.0,19.01
2021-01-18 00:00:00,24.3,18.5,78.23,340.0,5.0,29.77,10.0,17.25
2021-01-18 01:00:00,23.4,18.0,79.5,310.0,4.0,29.77,10.0,17.38
2021-01-18 02:00:00,23.0,18.3,81.9,0.0,0.0,29.77,10.0,23.0
2021-01-18 03:00:00,23.0,18.1,81.2,0.0,0.0,29.76,10.0,23.0
2021-01-18 04:00:00,22.5,18.5,84.36,260.0,5.0,29.77,10.0,15.11
2021-01-18 05:00:00,21.7,19.2,89.91,260.0,5.0,29.78,10.0,14.16
2021-01-18 06:00:00,21.0,18.9,91.44,260.0,5.0,29.78,10.0,13.33
2021-01-18 07:00:00,20.8,18.5,90.65,270.0,4.0,29.78,10.0,14.34
2021-01-18 08:00:00,20.7,18.3,90.26,270.0,4.0,29.79,10.0,14.22
2021-01-18 09:00:00,19.9,16.9,87.91,290.0,5.0,29.79,10.0,12.03
2021-01-18 10:00:00,19.0,15.6,86.35,290.0,6.0,29.8,10.0,9.87
2021-01-18 11:00:00,19.4,16.2,87.13,0.0,0.0,29.81,7.0,19.4
2021-01-18 12:00:00,19.4,16.5,88.27,300.0,3.0,29.83,5.0,14.28
2021-01-18 13:00:00,19.2,16.5,89.03,270.0,3.0,29.84,5.0,14.06
2021-01-18 14:00:00,19.8,15.8,84.18,290.0,5.0,29.86,10.0,11.91
2021-01-18 15:00:00,19.2,13.5,78.1,290.0,9.0,29.88,10.0,7.6
2021-01-18 16:00:00,18.1,11.8,75.96,290.0,9.0,29.89,10.0,6.23
2021-01-18 17:00:00,18.1,10.9,72.98,250.0,6.0,29.89,10.0,8.79
2021-01-18 18:00:00,20.8,9.3,60.55,300.0,5.0,29.89,10.0,13.09
2021-01-18 19:00:00,21.0,9.7,61.12,280.0,7.0,29.9,10.0,11.37
2021-01-18 20:00:00,21.2,10.2,61.97,290.0,5.0,29.91,10.0,13.57
2021-01-18 21:00:00,20.8,10.4,63.6,270.0,5.0,29.93,10.0,13.09
2021-01-18 22:00:00,18.3,10.2,70.14,260.0,6.0,29.96,10.0,9.03
2021-01-18 23:00:00,17.2,10.0,72.89,270.0,3.0,29.98,10.0,11.77
2021-01-19 00:00:00,16.2,9.9,75.77,270.0,3.0,29.99,10.0,10.63
2021-01-19 01:00:00,14.9,9.3,78.05,280.0,4.0,30.0,10.0,7.45
2021-01-19 02:00:00,14.9,9.5,78.76,0.0,0.0,30.01,10.0,14.9
2021-01-19 03:00:00,15.6,10.2,78.82,280.0,5.0,30.02,10.0,6.92
2021-01-19 04:00:00,15.4,10.2,79.51,280.0,3.0,30.03,10.0,9.71
2021-01-19 05:00:00,13.6,9.5,83.37,0.0,0.0,30.04,10.0,13.6
2021-01-19 06:00:00,13.1,8.4,81.12,280.0,4.0,30.04,10.0,5.35
2021-01-19 07:00:00,13.6,8.6,80.07,300.0,4.0,30.07,10.0,5.93
2021-01-19 08:00:00,13.6,8.6,80.07,300.0,5.0,30.07,10.0,4.54
2021-01-19 09:00:00,11.8,7.5,82.49,310.0,3.0,30.08,10.0,5.6
2021-01-19 10:00:00,9.5,5.5,83.45,330.0,4.0,30.09,10.0,1.15
2021-01-19 11:00:00,6.4,3.2,86.36,0.0,0.0,30.08,10.0,6.4
2021-01-19 12:00:00,4.8,2.7,90.78,0.0,0.0,30.09,10.0,4.8
2021-01-19 13:00:00,4.0,1.4,88.25,310.0,3.0,30.1,10.0,-3.21
2021-01-19 14:00:00,6.3,3.2,86.75,0.0,0.0,30.11,10.0,6.3
2021-01-19 15:00:00,7.3,3.7,84.84,340.0,3.0,30.12,10.0,0.45
2021-01-19 16:00:00,8.4,3.7,80.73,340.0,5.0,30.13,10.0,-1.63
2021-01-19 17:00:00,10.2,4.6,77.61,330.0,4.0,30.12,4.0,1.96
2021-01-19 18:00:00,10.9,4.6,75.23,310.0,3.0,30.11,3.0,4.57
2021-01-19 19:00:00,11.8,6.0,76.71,300.0,4.0,30.11,3.0,3.83
2021-01-19 20:00:00,11.8,5.5,75.32,300.0,5.0,30.14,4.0,2.41
2021-01-19 21:00:00,11.7,4.8,73.27,310.0,6.0,30.16,10.0,1.08
2021-01-19 22:00:00,10.8,4.0,73.85,290.0,6.0,30.19,10.0,-0.0
2021-01-19 23:00:00,8.6,1.4,71.92,300.0,7.0,30.21,10.0,-3.74
2021-01-20 00:00:00,6.3,0.5,76.52,0.0,0.0,30.21,10.0,6.3
2021-01-20 01:00:00,2.5,-0.6,86.52,260.0,4.0,30.22,10.0,-7.03
2021-01-20 02:00:00,3.4,-0.4,83.78,250.0,3.0,30.22,10.0,-4.01
2021-01-20 03:00:00,2.3,-1.3,84.49,260.0,4.0,30.22,10.0,-7.26
2021-01-20 04:00:00,1.6,-2.0,84.45,0.0,0.0,30.21,10.0,1.6
2021-01-20 05:00:00,0.3,-2.2,88.88,0.0,0.0,30.2,10.0,0.3
2021-01-20 06:00:00,-0.4,-3.6,85.93,0.0,0.0,30.18,10.0,-0.4
2021-01-20 07:00:00,0.1,-3.5,84.34,0.0,0.0,30.15,10.0,0.1
2021-01-20 08:00:00,1.4,-2.4,83.63,180.0,4.0,30.13,10.0,-8.31
2021-01-20 09:00:00,0.1,-3.5,84.34,140.0,4.0,30.08,10.0,-9.83
2021-01-20 10:00:00,0.7,-2.6,85.59,150.0,4.0,30.06,10.0,-9.13
2021-01-20 11:00:00,2.0,-1.7,83.69,160.0,8.0,30.02,10.0,-12.72
2021-01-20 12:00:00,3.2,-1.3,81.05,160.0,7.0,29.98,10.0,-10.33
2021-01-20 13:00:00,5.4,0.7,80.47,140.0,9.0,29.93,10.0,-9.56
2021-01-20 14:00:00,6.8,2.0,80.59,140.0,11.0,29.87,10.0,-9.38
2021-01-20 15:00:00,10.4,5.2,79.07,140.0,12.0,29.8,10.0,-5.49
2021-01-20 16:00:00,13.6,8.0,77.58,150.0,12.0,29.72,10.0,-1.42
2021-01-20 17:00:00,19.2,12.2,73.75,180.0,13.0,29.67,10.0,5.17
2021-01-20 18:00:00,21.9,14.9,74.04,170.0,12.0,29.6,10.0,9.15
2021-01-20 19:00:00,24.6,17.1,72.73,180.0,11.0,29.55,10.0,13.11
2021-01-20 20:00:00,27.0,19.4,72.68,180.0,8.0,29.53,10.0,17.95
2021-01-20 21:00:00,31.1,22.5,70.11,200.0,8.0,29.51,10.0,23.0
2021-01-20 22:00:00,30.7,23.0,72.77,210.0,6.0,29.51,10.0,23.96
2021-01-20 23:00:00,31.5,23.7,72.55,220.0,8.0,29.5,10.0,23.5
2021-01-21 00:00:00,32.4,24.4,72.04,240.0,10.0,29.5,10.0,23.47
2021-01-21 01:00:00,33.8,23.5,65.59,260.0,11.0,29.52,10.0,24.74
2021-01-21 02:00:00,35.6,24.8,64.46,250.0,14.0,29.52,10.0,25.8
2021-01-21 03:00:00,34.2,24.4,67.03,260.0,16.0,29.53,10.0,23.29
2021-01-21 04:00:00,34.0,24.8,68.7,250.0,11.0,29.53,10.0,24.99
2021-01-21 05:00:00,32.5,24.6,72.35,260.0,10.0,29.55,10.0,23.6
2021-01-21 06:00:00,32.0,24.3,72.91,250.0,10.0,29.56,10.0,22.97
2021-01-21 07:00:00,30.7,22.8,72.16,250.0,9.0,29.57,10.0,21.9
2021-01-21 08:00:00,29.5,22.1,73.57,250.0,9.0,29.58,10.0,20.41
2021-01-21 09:00:00,28.9,21.6,73.82,250.0,7.0,29.58,10.0,21.0
2021-01-21 10:00:00,28.0,21.0,74.67,240.0,8.0,29.57,10.0,19.19
2021-01-21 11:00:00,27.9,20.3,72.78,250.0,8.0,29.57,10.0,19.06
2021-01-21 12:00:00,26.8,19.6,73.91,240.0,8.0,29.57,10.0,17.71
2021-01-21 13:00:00,27.7,20.1,72.76,260.0,11.0,29.59,10.0,17.03
2021-01-21 14:00:00,29.3,21.2,71.4,270.0,10.0,29.6,10.0,19.58
2021-01-21 15:00:00,30.7,22.6,71.56,260.0,13.0,29.62,10.0,19.9
2021-01-21 16:00:00,31.6,23.4,71.35,270.0,11.0,29.63,10.0,21.96
2021-01-21 17:00:00,32.0,23.4,70.21,260.0,14.0,29.62,10.0,21.16
2021-01-21 18:00:00,32.0,16.9,53.23,290.0,19.0,29.63,10.0,19.44
2021-01-21 19:00:00,31.1,14.5,49.73,290.0,21.0,29.66,10.0,17.65
2021-01-21 20:00:00,27.5,9.9,47.0,300.0,12.0,29.7,10.0,16.27
2021-01-21 21:00:00,22.8,5.7,47.28,310.0,8.0,29.75,10.0,12.78
2021-01-21 22:00:00,17.6,3.2,52.6,320.0,9.0,29.81,10.0,5.61
2021-01-21 23:00:00,13.8,0.5,54.73,320.0,7.0,29.84,10.0,2.59
2021-01-22 00:00:00,11.8,-0.8,56.24,300.0,9.0,29.9,10.0,-1.6
2021-01-22 01:00:00,10.2,-1.3,58.98,310.0,8.0,29.94,10.0,-2.74
2021-01-22 02:00:00,8.6,-1.8,61.88,310.0,11.0,29.96,10.0,-7.1
2021-01-22 03:00:00,7.2,-2.2,64.68,310.0,6.0,29.98,10.0,-4.34
2021-01-22 04:00:00,6.0,-2.6,66.72,310.0,8.0,30.0,10.0,-7.79
2021-01-22 05:00:00,5.0,-3.0,68.5,310.0,8.0,30.03,10.0,-9.15
2021-01-22 06:00:00,3.7,-4.0,69.66,300.0,5.0,30.04,10.0,-7.21
2021-01-22 07:00:00,3.2,-4.0,71.29,300.0,5.0,30.06,10.0,-7.81
2021-01-22 08:00:00,1.8,-4.0,76.06,290.0,7.0,30.08,10.0,-12.03
2021-01-22 09:00:00,1.0,-5.0,75.62,320.0,5.0,30.09,10.0,-10.42
2021-01-22 10:00:00,0.1,-5.0,78.11,300.0,5.0,30.1,10.0,-11.49
2021-01-22 11:00:00,-1.3,-5.8,80.67,290.0,6.0,30.11,10.0,-14.58
2021-01-22 12:00:00,-2.2,-6.7,80.59,290.0,3.0,30.14,10.0,-10.41
2021-01-22 13:00:00,-3.3,-7.6,81.28,0.0,0.0,30.15,10.0,-3.3
2021-01-22 14:00:00,-2.6,-7.8,77.85,280.0,5.0,30.18,10.0,-14.7
2021-01-22 15:00:00,-0.4,-7.8,70.17,310.0,4.0,30.21,10.0,-10.42
2021-01-22 16:00:00,2.3,-7.6,62.46,270.0,3.0,30.23,10.0,-5.26
2021-01-22 17:00:00,4.3,-6.5,60.08,250.0,4.0,30.21,10.0,-4.93
2021-01-22 18:00:00,6.8,-6.0,54.91,250.0,7.0,30.21,10.0,-5.94
2021-01-22 19:00:00,8.8,-6.0,50.17,250.0,5.0,30.2,10.0,-1.16
2021-01-22 20:00:00,10.2,-5.8,47.57,270.0,3.0,30.2,10.0,3.77
2021-01-22 21:00:00,10.9,-5.8,46.11,270.0,4.0,30.2,10.0,2.78
2021-01-22 22:00:00,11.3,-6.7,43.37,240.0,6.0,30.21,10.0,0.6
2021-01-22 23:00:00,10.4,-4.7,49.72,260.0,3.0,30.22,10.0,4.0
2021-01-23 00:00:00,9.5,-5.0,50.77,0.0,0.0,30.23,10.0,9.5
2021-01-23 01:00:00,7.3,-5.0,56.6,180.0,3.0,30.23,10.0,0.45
2021-01-23 02:00:00,6.4,-4.5,60.1,210.0,3.0,30.23,10.0,-0.58
2021-01-23 03:00:00,5.7,-4.0,63.56,0.0,0.0,30.25,10.0,5.7
2021-01-23 04:00:00,6.6,-2.4,65.84,0.0,0.0,30.24,10.0,6.6
2021-01-23 05:00:00,7.3,-1.3,67.19,0.0,0.0,30.25,10.0,7.3
2021-01-23 06:00:00,8.6,1.4,71.92,0.0,0.0,30.26,10.0,8.6
2021-01-23 07:00:00,9.5,2.0,71.36,0.0,0.0,30.26,10.0,9.5
2021-01-23 08:00:00,10.2,3.6,74.13,0.0,0.0,30.26,10.0,10.2
2021-01-23 09:00:00,10.8,4.0,73.85,0.0,0.0,30.26,10.0,10.8
2021-01-23 10:00:00,10.4,4.5,76.57,140.0,3.0,30.25,10.0,4.0
2021-01-23 11:00:00,10.4,4.8,77.63,100.0,3.0,30.26,10.0,4.0
2021-01-23 12:00:00,10.8,5.0,76.96,110.0,5.0,30.25,10.0,1.22
2021-01-23 13:00:00,11.3,6.0,78.43,150.0,6.0,30.26,10.0,0.6
2021-01-23 14:00:00,11.8,6.0,76.71,140.0,5.0,30.25,10.0,2.41
2021-01-23 15:00:00,12.7,6.0,73.72,170.0,8.0,30.27,10.0,0.34
2021-01-23 16:00:00,14.0,6.4,71.22,160.0,7.0,30.28,10.0,2.84
2021-01-23 17:00:00,15.6,7.7,70.45,150.0,6.0,30.26,10.0,5.78
2021-01-23 18:00:00,17.6,9.3,69.43,190.0,6.0,30.23,10.0,8.19
2021-01-23 19:00:00,18.9,10.4,68.97,170.0,6.0,30.21,10.0,9.75
2021-01-23 20:00:00,19.8,11.3,69.08,150.0,10.0,30.18,10.0,7.67
2021-01-23 21:00:00,20.3,11.8,69.14,160.0,8.0,30.16,10.0,9.7
2021-01-23 22:00:00,19.0,8.2,62.22,160.0,8.0,30.16,10.0,8.1
2021-01-23 23:00:00,17.6,12.0,78.3,140.0,10.0,30.16,4.0,4.91
2021-01-24 00:00:00,16.7,12.9,84.71,130.0,6.0,30.14,2.0,7.1
2021-01-24 01:00:00,16.5,13.1,86.2,150.0,9.0,30.14,1.5,4.24
2021-01-24 02:00:00,16.5,14.0,89.68,140.0,8.0,30.13,1.0,5.02
2021-01-24 03:00:00,16.5,13.8,88.89,130.0,8.0,30.1,1.0,5.02
2021-01-24 04:00:00,16.7,14.0,88.9,140.0,11.0,30.08,1.25,3.13
2021-01-24 05:00:00,16.7,14.4,90.47,140.0,9.0,30.07,1.25,4.49
2021-01-24 06:00:00,17.1,14.7,90.1,140.0,4.0,30.05,1.25,10.02
2021-01-24 07:00:00,17.1,14.9,90.89,140.0,5.0,30.04,4.0,8.7
2021-01-24 08:00:00,17.2,14.9,90.5,160.0,3.0,30.06,1.0,11.77
2021-01-24 09:00:00,17.2,15.3,92.09,0.0,0.0,30.04,1.25,17.2
2021-01-24 10:00:00,17.1,14.9,90.89,0.0,0.0,30.03,4.0,17.1
2021-01-24 11:00:00,16.3,14.5,92.46,0.0,0.0,30.04,7.0,16.3
2021-01-24 12:00:00,16.5,14.9,93.28,0.0,0.0,30.06,10.0,16.5
2021-01-24 13:00:00,16.5,14.4,91.26,0.0,0.0,30.06,10.0,16.5
2021-01-24 14:00:00,17.2,14.5,88.93,0.0,0.0,30.07,10.0,17.2
2021-01-24 15:00:00,18.5,15.1,86.32,290.0,4.0,30.09,10.0,11.66
2021-01-24 16:00:00,18.5,14.9,85.57,310.0,4.0,30.11,10.0,11.66
2021-01-24 17:00:00,19.4,14.5,80.91,300.0,3.0,30.1,10.0,14.28
2021-01-24 18:00:00,20.3,14.0,76.18,260.0,5.0,30.1,10.0,12.5
2021-01-24 19:00:00,21.4,13.8,72.07,230.0,4.0,30.09,10.0,15.04
2021-01-24 20:00:00,22.3,13.1,67.27,230.0,3.0,30.08,10.0,17.6
2021-01-24 21:00:00,22.6,12.2,63.84,220.0,4.0,30.09,10.0,16.44
2021-01-24 22:00:00,22.1,12.0,64.63,0.0,0.0,30.1,10.0,22.1
2021-01-24 23:00:00,14.0,11.5,89.56,0.0,0.0,30.11,10.0,14.0
2021-01-25 00:00:00,10.2,8.0,90.19,0.0,0.0,30.13,10.0,10.2
2021-01-25 01:00:00,7.2,4.6,88.82,300.0,3.0,30.14,2.0,0.34
2021-01-25 02:00:00,6.3,3.7,88.78,350.0,3.0,30.15,10.0,-0.69
2021-01-25 03:00:00,10.0,1.2,66.91,330.0,4.0,30.16,10.0,1.73
2021-01-25 04:00:00,8.1,-2.2,62.1,320.0,3.0,30.17,10.0,1.37
2021-01-25 05:00:00,5.0,-2.2,71.5,0.0,0.0,30.18,10.0,5.0
2021-01-25 06:00:00,5.7,-3.0,66.35,10.0,4.0,30.17,10.0,-3.29
2021-01-25 07:00:00,1.8,-1.3,86.48,0.0,0.0,30.19,10.0,1.8
2021-01-25 08:00:00,-0.4,-4.4,82.7,340.0,4.0,30.2,10.0,-10.42
2021-01-25 09:00:00,1.2,-5.4,73.13,20.0,8.0,30.14,10.0,-13.83
2021-01-25 10:00:00,1.9,-5.4,70.79,0.0,0.0,30.17,10.0,1.9
2021-01-25 11:00:00,0.3,-5.0,77.39,360.0,6.0,30.17,10.0,-12.65
2021-01-25 12:00:00,1.0,-4.5,77.08,0.0,0.0,30.18,10.0,1.0
2021-01-25 13:00:00,3.6,-2.2,76.25,0.0,0.0,30.19,10.0,3.6
2021-01-25 14:00:00,5.5,-0.6,75.37,10.0,5.0,30.21,10.0,-5.08
2021-01-25 15:00:00,8.2,0.5,70.21,10.0,5.0,30.2,10.0,-1.87
2021-01-25 16:00:00,9.3,1.2,69.04,20.0,4.0,30.2,10.0,0.91
2021-01-25 17:00:00,12.7,2.8,63.94,10.0,7.0,30.15,10.0,1.25
2021-01-25 18:00:00,15.1,3.7,59.99,360.0,6.0,30.12,10.0,5.18
2021-01-25 19:00:00,17.6,3.2,52.6,10.0,8.0,30.1,10.0,6.37
2021-01-25 20:00:00,18.7,5.0,54.5,10.0,10.0,30.09,10.0,6.29
2021-01-25 21:00:00,19.2,4.3,51.66,10.0,9.0,30.08,10.0,7.6
2021-01-25 22:00:00,15.8,3.6,57.92,10.0,9.0,30.06,10.0,3.37
2021-01-25 23:00:00,14.5,0.5,53.08,20.0,7.0,30.07,10.0,3.45
2021-01-26 00:00:00,14.7,2.3,57.22,20.0,9.0,30.06,10.0,2.0
2021-01-26 01:00:00,11.7,2.5,65.9,10.0,7.0,30.09,10.0,0.03
2021-01-26 02:00:00,14.0,6.6,71.87,10.0,11.0,30.09,10.0,-0.28
2021-01-26 03:00:00,14.0,6.6,71.87,10.0,11.0,30.09,10.0,-0.28
2021-01-26 04:00:00,13.1,7.7,78.59,10.0,9.0,30.09,10.0,0.01
2021-01-26 05:00:00,12.6,7.0,77.84,10.0,9.0,30.1,10.0,-0.61
2021-01-26 06:00:00,12.0,5.5,74.66,20.0,6.0,30.08,10.0,1.44
2021-01-26 07:00:00,10.9,5.2,77.33,30.0,3.0,30.08,10.0,4.57
2021-01-26 08:00:00,10.2,4.8,78.33,360.0,4.0,30.08,10.0,1.96
2021-01-26 09:00:00,10.4,5.7,80.89,350.0,6.0,30.08,10.0,-0.48
2021-01-26 10:00:00,10.6,5.7,80.18,360.0,5.0,30.08,10.0,0.98
2021-01-26 11:00:00,12.2,7.5,81.04,20.0,8.0,30.09,10.0,-0.28
2021-01-26 12:00:00,12.7,8.4,82.56,10.0,7.0,30.1,10.0,1.25
2021-01-26 13:00:00,13.8,9.3,81.9,20.0,5.0,30.11,10.0,4.78
2021-01-26 14:00:00,14.5,10.4,83.44,10.0,6.0,30.12,10.0,4.45
2021-01-26 15:00:00,15.8,11.1,81.33,10.0,7.0,30.14,10.0,5.03
2021-01-26 16:00:00,17.6,11.3,75.91,10.0,8.0,30.16,10.0,6.37
2021-01-26 17:00:00,18.1,9.3,67.95,360.0,8.0,30.16,10.0,6.99
2021-01-26 18:00:00,19.2,8.2,61.69,330.0,5.0,30.16,10.0,11.19
2021-01-26 19:00:00,19.8,9.0,62.33,320.0,4.0,30.16,10.0,13.17
2021-01-26 20:00:00,19.4,8.0,60.34,310.0,4.0,30.17,10.0,12.71
2021-01-26 21:00:00,19.2,7.7,60.31,310.0,4.0,30.19,10.0,12.47
2021-01-26 22:00:00,17.4,6.8,62.56,320.0,3.0,30.22,10.0,12.0
2021-01-26 23:00:00,13.8,4.8,66.79,0.0,0.0,30.23,10.0,13.8
2021-01-27 00:00:00,12.6,3.6,66.63,330.0,3.0,30.25,10.0,6.51
2021-01-27 01:00:00,10.9,1.2,64.28,330.0,3.0,30.26,10.0,4.57
2021-01-27 02:00:00,9.0,-0.4,64.93,330.0,3.0,30.28,10.0,2.4
2021-01-27 03:00:00,5.2,-0.8,75.69,0.0,0.0,30.29,10.0,5.2
2021-01-27 04:00:00,7.5,-1.7,65.34,330.0,4.0,30.3,10.0,-1.19
2021-01-27 05:00:00,7.3,-4.2,58.54,0.0,0.0,30.32,10.0,7.3
2021-01-27 06:00:00,4.0,-6.0,62.69,310.0,3.0,30.34,10.0,-3.43
2021-01-27 07:00:00,2.7,-7.0,63.44,0.0,0.0,30.37,10.0,2.7
2021-01-27 08:00:00,-0.9,-5.3,81.09,0.0,0.0,30.4,10.0,-0.9
2021-01-27 09:00:00,-3.5,-6.3,87.41,0.0,0.0,30.41,10.0,-3.5
2021-01-27 10:00:00,-5.8,-9.4,83.91,0.0,0.0,30.41,10.0,-5.8
2021-01-27 11:00:00,-7.0,-10.8,83.4,320.0,3.0,30.4,10.0,-16.01
2021-01-27 12:00:00,-5.0,-9.2,81.93,320.0,3.0,30.41,10.0,-13.72
2021-01-27 13:00:00,-7.6,-11.2,83.78,0.0,0.0,30.44,10.0,-7.6
2021-01-27 14:00:00,-2.4,-6.3,82.95,0.0,0.0,30.47,10.0,-2.4
2021-01-27 15:00:00,1.6,-4.0,76.77,10.0,4.0,30.48,10.0,-8.08
2021-01-27 16:00:00,5.0,-2.4,70.82,30.0,3.0,30.5,10.0,-2.18
2021-01-27 17:00:00,8.4,-0.8,65.46,340.0,4.0,30.49,10.0,-0.14
2021-01-27 18:00:00,10.8,-1.3,57.42,0.0,0.0,30.48,10.0,10.8
2021-01-27 19:00:00,12.6,-1.8,51.78,310.0,3.0,30.47,10.0,6.51
2021-01-27 20:00:00,13.3,-5.8,41.47,0.0,0.0,30.47,10.0,13.3
2021-01-27 21:00:00,13.1,-7.8,37.97,290.0,5.0,30.49,10.0,3.95
2021-01-27 22:00:00,11.7,-7.0,42.2,0.0,0.0,30.5,10.0,11.7
2021-01-27 23:00:00,9.0,-7.0,47.6,0.0,0.0,30.52,10.0,9.0
2021-01-28 00:00:00,0.1,-6.3,73.72,0.0,0.0,30.53,10.0,0.1
2021-01-28 01:00:00,-1.8,-8.1,73.87,0.0,0.0,30.54,10.0,-1.8
2021-01-28 02:00:00,0.3,-2.6,87.21,0.0,0.0,30.54,10.0,0.3
2021-01-28 03:00:00,-0.8,-8.5,69.09,0.0,0.0,30.56,10.0,-0.8
2021-01-28 04:00:00,0.3,-7.0,70.94,0.0,0.0,30.58,10.0,0.3
2021-01-28 05:00:00,4.0,-5.3,64.85,0.0,0.0,30.58,10.0,3.9
2021-01-28 06:00:00,4.3,-4.2,67.12,0.0,0.0,30.59,10.0,4.3
2021-01-28 07:00:00,5.4,-3.3,66.62,0.0,0.0,30.61,10.0,5.4
2021-01-28 08:00:00,5.5,-3.0,66.96,0.0,0.0,30.59,10.0,5.5
2021-01-28 09:00:00,5.7,-5.0,60.87,0.0,0.0,30.59,10.0,5.7
2021-01-28 10:00:00,6.0,-3.8,63.58,0.0,0.0,30.59,10.0,5.9
2021-01-28 11:00:00,6.3,-3.0,65.18,0.0,0.0,30.62,10.0,6.3
2021-01-28 12:00:00,6.8,-2.2,65.87,0.0,0.0,30.6,10.0,6.8
2021-01-28 13:00:00,5.2,-2.0,71.52,0.0,0.0,30.62,10.0,5.2
2021-01-28 14:00:00,7.2,-2.6,63.47,120.0,5.0,30.62,10.0,-3.06
2021-01-28 15:00:00,8.6,-1.8,61.88,140.0,6.0,30.63,10.0,-2.65
2021-01-28 16:00:00,10.6,0.3,62.46,130.0,5.0,30.64,10.0,0.98
2021-01-28 17:00:00,13.6,1.4,57.58,130.0,5.0,30.6,10.0,4.54
2021-01-28 18:00:00,15.8,1.4,52.31,150.0,6.0,30.57,10.0,6.02
2021-01-28 19:00:00,17.2,2.7,52.29,120.0,5.0,30.55,10.0,8.82
2021-01-28 20:00:00,17.6,3.0,52.12,110.0,8.0,30.53,10.0,6.37
2021-01-28 21:00:00,16.9,2.8,53.22,130.0,7.0,30.5,10.0,6.37
2021-01-28 22:00:00,16.9,4.0,55.99,140.0,7.0,30.49,10.0,6.37
2021-01-28 23:00:00,15.8,3.7,58.19,110.0,3.0,30.48,10.0,10.17
2021-01-29 00:00:00,14.0,3.4,62.08,110.0,3.0,30.47,10.0,8.11
2021-01-29 01:00:00,15.3,4.0,60.57,110.0,5.0,30.45,10.0,6.56
2021-01-29 02:00:00,15.6,5.2,62.88,130.0,7.0,30.44,10.0,4.79
2021-01-29 03:00:00,14.5,4.6,64.18,110.0,4.0,30.44,10.0,6.98
2021-01-29 04:00:00,13.1,4.0,66.7,100.0,4.0,30.43,10.0,5.35
2021-01-29 05:00:00,12.2,4.0,69.4,130.0,4.0,30.42,10.0,4.3
2021-01-29 06:00:00,12.2,4.0,69.4,130.0,4.0,30.42,10.0,4.3
2021-01-29 07:00:00,14.9,5.4,65.42,110.0,6.0,30.39,10.0,4.94
2021-01-29 08:00:00,14.0,4.8,66.21,100.0,6.0,30.37,10.0,3.85
2021-01-29 09:00:00,11.7,3.7,69.66,100.0,5.0,30.35,10.0,2.29
2021-01-29 10:00:00,10.9,3.2,70.54,100.0,5.0,30.35,10.0,1.34
2021-01-29 11:00:00,9.5,2.7,73.37,100.0,4.0,30.35,10.0,1.15
2021-01-29 12:00:00,9.3,2.8,74.37,100.0,4.0,30.34,10.0,0.91
2021-01-29 13:00:00,11.8,4.5,71.95,100.0,6.0,30.34,10.0,1.2
2021-01-29 14:00:00,13.1,6.0,73.09,100.0,6.0,30.33,10.0,2.77
2021-01-29 15:00:00,14.7,7.7,73.27,110.0,4.0,30.31,10.0,7.22
2021-01-29 16:00:00,16.7,9.5,72.83,120.0,9.0,30.31,10.0,4.49
2021-01-29 17:00:00,18.5,10.4,70.16,100.0,8.0,30.28,10.0,7.48
2021-01-29 18:00:00,20.5,12.7,71.33,90.0,9.0,30.26,10.0,9.21
2021-01-29 19:00:00,22.5,13.3,67.3,100.0,7.0,30.23,10.0,13.2
2021-01-29 20:00:00,23.5,13.1,63.96,110.0,10.0,30.22,10.0,12.31
2021-01-29 21:00:00,24.3,10.9,56.12,100.0,8.0,30.2,10.0,14.63
2021-01-29 22:00:00,23.9,10.0,54.82,100.0,10.0,30.19,10.0,12.81
2021-01-29 23:00:00,23.7,9.3,53.58,100.0,9.0,30.18,10.0,13.19
2021-01-30 00:00:00,23.7,7.2,48.74,100.0,9.0,30.17,10.0,13.19
2021-01-30 01:00:00,23.5,8.0,50.73,110.0,7.0,30.16,10.0,14.42
2021-01-30 02:00:00,22.5,8.2,53.63,110.0,8.0,30.15,10.0,12.41
2021-01-30 03:00:00,22.5,7.5,51.96,120.0,11.0,30.16,10.0,10.46
2021-01-30 04:00:00,22.5,10.4,59.19,120.0,11.0,30.13,10.0,10.46
2021-01-30 05:00:00,23.0,13.1,65.32,110.0,11.0,30.12,10.0,11.09
2021-01-30 06:00:00,23.7,15.3,69.85,120.0,8.0,30.11,10.0,13.89
2021-01-30 07:00:00,23.9,16.5,72.97,100.0,10.0,30.09,10.0,12.81
2021-01-30 08:00:00,24.8,17.6,73.7,110.0,12.0,30.06,10.0,12.84
2021-01-30 09:00:00,24.8,18.9,77.94,130.0,12.0,30.03,10.0,12.84
2021-01-30 10:00:00,25.7,20.1,79.02,120.0,13.0,30.02,10.0,13.5
2021-01-30 11:00:00,26.1,21.0,80.75,120.0,13.0,30.01,10.0,14.01
2021-01-30 12:00:00,26.6,21.2,79.77,110.0,11.0,30.0,10.0,15.64
2021-01-30 13:00:00,27.1,21.2,78.14,110.0,12.0,29.99,10.0,15.77
2021-01-30 14:00:00,28.0,21.2,75.3,110.0,10.0,30.0,10.0,17.95
2021-01-30 15:00:00,28.8,21.7,74.43,110.0,10.0,29.99,10.0,18.96
2021-01-30 16:00:00,30.2,22.6,73.02,90.0,9.0,29.99,10.0,21.28
2021-01-30 17:00:00,31.3,23.4,72.23,100.0,13.0,29.98,10.0,20.67
2021-01-30 18:00:00,32.4,23.9,70.55,100.0,13.0,29.96,10.0,22.08
2021-01-30 19:00:00,33.0,24.1,69.73,100.0,13.0,29.94,10.0,22.72
2021-01-30 20:00:00,33.0,23.5,67.46,100.0,10.0,29.94,10.0,24.35
2021-01-30 21:00:00,32.5,23.4,68.81,100.0,12.0,29.94,10.0,22.64
2021-01-30 22:00:00,32.0,23.0,69.04,90.0,10.0,29.96,10.0,22.97
2021-01-30 23:00:00,32.0,22.8,68.46,90.0,10.0,29.97,10.0,22.97
2021-01-31 00:00:00,31.6,22.6,69.0,90.0,6.0,29.99,10.0,25.05
2021-01-31 01:00:00,30.9,21.9,68.91,80.0,10.0,29.99,10.0,21.59
2021-01-31 02:00:00,30.2,22.6,73.02,80.0,10.0,30.0,10.0,20.71
2021-01-31 03:00:00,30.2,22.8,73.64,80.0,9.0,30.0,10.0,21.28
2021-01-31 04:00:00,29.8,22.6,74.22,70.0,8.0,30.01,10.0,21.4
2021-01-31 05:00:00,29.7,22.8,75.15,60.0,8.0,30.02,10.0,21.28
2021-01-31 06:00:00,29.1,23.0,77.67,50.0,7.0,30.03,10.0,21.24
2021-01-31 07:00:00,28.4,23.9,83.0,60.0,8.0,30.05,10.0,19.68
2021-01-31 08:00:00,27.1,25.7,94.37,20.0,7.0,30.06,2.0,18.81
2021-01-31 09:00:00,27.0,25.5,93.98,360.0,7.0,30.07,7.0,18.68
2021-01-31 10:00:00,26.6,24.8,92.8,10.0,7.0,30.09,5.0,18.2
2021-01-31 11:00:00,26.2,24.1,91.63,20.0,7.0,30.11,5.0,17.71
2021-01-31 12:00:00,26.1,23.9,91.25,20.0,6.0,30.13,5.0,18.42
2021-01-31 13:00:00,25.7,23.9,92.77,30.0,5.0,30.15,7.0,18.91
2021-01-31 14:00:00,26.2,23.5,89.36,10.0,6.0,30.16,10.0,18.54
2021-01-31 15:00:00,27.0,23.0,84.66,30.0,6.0,30.17,10.0,19.51
2021-01-31 16:00:00,27.9,23.0,81.58,360.0,5.0,30.19,10.0,21.53
2021-01-31 17:00:00,29.1,23.0,77.67,360.0,5.0,30.18,10.0,22.95
2021-01-31 18:00:00,30.0,23.0,74.87,10.0,3.0,30.18,10.0,26.4
2021-01-31 19:00:00,31.8,23.5,71.08,10.0,4.0,30.18,10.0,27.19
2021-01-31 20:00:00,32.0,23.7,71.1,10.0,3.0,30.18,10.0,28.69
2021-01-31 21:00:00,32.5,24.6,72.35,330.0,5.0,30.19,10.0,26.99
2021-01-31 22:00:00,32.0,25.3,76.01,330.0,3.0,30.2,10.0,28.69
2021-01-31 23:00:00,30.2,26.4,85.57,330.0,3.0,30.22,5.0,26.63
2021-02-01 00:00:00,30.4,26.6,85.58,0.0,0.0,30.23,10.0,30.4
2021-02-01 01:00:00,31.1,26.4,82.5,340.0,5.0,30.23,10.0,25.33
2021-02-01 02:00:00,30.4,24.8,79.42,330.0,4.0,30.24,10.0,25.55
2021-02-01 03:00:00,30.0,25.3,82.42,0.0,0.0,30.25,10.0,30.0
2021-02-01 04:00:00,30.2,26.1,84.52,300.0,4.0,30.25,10.0,25.32
2021-02-01 05:00:00,29.8,25.7,84.49,0.0,0.0,30.26,10.0,29.8
2021-02-01 06:00:00,29.3,26.6,89.5,330.0,4.0,30.26,10.0,24.27
2021-02-01 07:00:00,28.8,25.9,88.74,340.0,4.0,30.26,10.0,23.68
2021-02-01 08:00:00,28.2,25.9,90.95,330.0,5.0,30.27,10.0,21.88
2021-02-01 09:00:00,27.7,26.1,93.61,320.0,4.0,30.29,10.0,22.4
2021-02-01 10:00:00,27.5,25.3,91.3,320.0,3.0,30.28,10.0,23.54
2021-02-01 11:00:00,27.1,24.4,89.4,300.0,4.0,30.3,10.0,21.7
2021-02-01 12:00:00,26.6,23.4,87.53,320.0,4.0,30.31,10.0,21.11
2021-02-01 13:00:00,26.2,23.0,87.5,320.0,5.0,30.33,10.0,19.51
2021-02-01 14:00:00,25.7,21.9,85.29,310.0,7.0,30.33,10.0,17.1
2021-02-01 15:00:00,24.6,20.3,83.43,310.0,7.0,30.34,10.0,15.76
2021-02-01 16:00:00,25.2,19.8,79.66,340.0,7.0,30.35,10.0,16.49
2021-02-01 17:00:00,25.5,19.9,79.0,330.0,6.0,30.34,10.0,17.7
2021-02-01 18:00:00,25.7,19.8,78.02,300.0,6.0,30.32,10.0,17.94
2021-02-01 19:00:00,25.7,19.4,76.7,290.0,6.0,30.31,10.0,17.94
2021-02-01 20:00:00,25.7,19.4,76.7,290.0,6.0,30.3,10.0,17.94
2021-02-01 21:00:00,25.7,19.0,75.4,300.0,6.0,30.32,10.0,17.94
2021-02-01 22:00:00,24.8,18.5,76.61,350.0,5.0,30.32,10.0,17.84
2021-02-01 23:00:00,23.7,18.1,78.85,330.0,5.0,30.34,10.0,16.54
2021-02-02 00:00:00,23.0,18.0,80.85,340.0,5.0,30.32,10.0,15.71
2021-02-02 01:00:00,21.9,17.4,82.52,320.0,6.0,30.33,10.0,13.37
2021-02-02 02:00:00,22.1,17.6,82.54,290.0,3.0,30.34,10.0,17.37
2021-02-02 03:00:00,21.7,17.2,82.51,310.0,3.0,30.34,10.0,16.91
2021-02-02 04:00:00,21.7,17.6,83.94,10.0,7.0,30.34,10.0,12.22
2021-02-02 05:00:00,21.7,17.8,84.67,20.0,4.0,30.33,10.0,15.39
2021-02-02 06:00:00,21.2,17.6,85.74,0.0,0.0,30.33,10.0,21.2
2021-02-02 07:00:00,21.4,17.6,85.02,40.0,4.0,30.33,10.0,15.04
2021-02-02 08:00:00,21.2,17.4,85.0,80.0,3.0,30.33,10.0,16.34
2021-02-02 09:00:00,21.0,17.4,85.73,0.0,0.0,30.33,10.0,21.0
2021-02-02 10:00:00,20.7,16.7,84.24,0.0,0.0,30.33,10.0,20.7
2021-02-02 11:00:00,20.5,16.9,85.7,0.0,0.0,30.33,10.0,20.5
2021-02-02 12:00:00,20.7,16.7,84.24,70.0,6.0,30.33,10.0,11.92
2021-02-02 13:00:00,20.3,16.7,85.68,60.0,3.0,30.33,10.0,15.31
2021-02-02 14:00:00,20.8,16.7,83.88,90.0,4.0,30.34,10.0,14.34
2021-02-02 15:00:00,21.7,16.7,80.74,110.0,3.0,30.34,10.0,16.91
2021-02-02 16:00:00,22.5,16.9,78.74,100.0,4.0,30.34,10.0,16.33
2021-02-02 17:00:00,23.5,17.1,76.16,130.0,4.0,30.32,10.0,17.49
2021-02-02 18:00:00,25.2,17.4,71.86,160.0,5.0,30.3,10.0,18.32
2021-02-02 19:00:00,25.2,16.9,70.33,140.0,3.0,30.29,10.0,20.91
2021-02-02 20:00:00,25.5,16.7,68.86,0.0,0.0,30.28,10.0,25.5
2021-02-02 21:00:00,27.1,16.7,64.45,120.0,3.0,30.25,10.0,23.09
2021-02-02 22:00:00,25.5,15.8,66.22,100.0,3.0,30.25,10.0,21.26
2021-02-02 23:00:00,19.9,17.4,89.83,0.0,0.0,30.25,10.0,19.9
2021-02-03 00:00:00,16.5,14.7,92.47,0.0,0.0,30.23,10.0,16.5
2021-02-03 01:00:00,13.1,11.5,93.17,0.0,0.0,30.23,7.0,13.1
2021-02-03 02:00:00,10.6,8.4,90.61,0.0,0.0,30.21,10.0,10.6
2021-02-03 03:00:00,8.2,6.0,90.1,0.0,0.0,30.2,10.0,8.2
2021-02-03 04:00:00,9.1,6.8,90.14,0.0,0.0,30.19,10.0,9.1
2021-02-03 05:00:00,8.1,5.5,88.87,0.0,0.0,30.18,10.0,8.1
2021-02-03 06:00:00,6.4,3.6,87.97,0.0,0.0,30.17,10.0,6.4
2021-02-03 07:00:00,10.4,8.1,90.2,0.0,0.0,30.16,10.0,10.4
2021-02-03 08:00:00,14.7,12.9,92.4,120.0,4.0,30.14,10.0,7.22
2021-02-03 09:00:00,15.8,14.0,92.44,100.0,4.0,30.12,10.0,8.5
2021-02-03 10:00:00,16.7,14.9,92.47,120.0,5.0,30.11,10.0,8.22
2021-02-03 11:00:00,17.2,15.4,92.49,100.0,5.0,30.08,10.0,8.82
2021-02-03 12:00:00,17.6,15.8,92.5,120.0,7.0,30.07,10.0,7.23
2021-02-03 13:00:00,17.6,15.8,92.5,120.0,6.0,30.06,10.0,8.19
2021-02-03 14:00:00,19.2,16.5,89.03,120.0,10.0,30.01,10.0,6.92
2021-02-03 15:00:00,22.6,17.4,80.12,130.0,8.0,30.0,10.0,12.53
2021-02-03 16:00:00,26.1,17.6,69.83,120.0,10.0,29.98,10.0,15.57
2021-02-03 17:00:00,28.4,18.5,66.02,120.0,10.0,29.95,10.0,18.45
2021-02-03 18:00:00,30.0,19.4,64.27,130.0,9.0,29.9,10.0,21.03
2021-02-03 19:00:00,32.0,20.1,61.07,130.0,12.0,29.86,10.0,22.0
2021-02-03 20:00:00,33.3,19.9,57.47,130.0,11.0,29.82,10.0,24.11
2021-02-03 21:00:00,33.3,20.3,58.46,130.0,11.0,29.8,10.0,24.11
2021-02-03 22:00:00,33.0,19.9,58.4,130.0,14.0,29.76,10.0,22.32
2021-02-03 23:00:00,33.0,19.2,56.68,140.0,11.0,29.73,10.0,23.6
2021-02-04 00:00:00,32.0,18.5,57.03,130.0,13.0,29.69,10.0,21.57
2021-02-04 01:00:00,32.5,18.1,54.94,150.0,12.0,29.68,10.0,22.64
2021-02-04 02:00:00,32.2,19.6,59.3,150.0,10.0,29.7,10.0,23.22
2021-02-04 03:00:00,32.0,21.4,64.54,150.0,8.0,29.69,10.0,24.11
2021-02-04 04:00:00,30.9,24.4,76.54,150.0,8.0,29.68,10.0,22.76
2021-02-04 05:00:00,30.9,24.4,76.54,150.0,8.0,29.68,10.0,22.76
2021-02-04 06:00:00,31.5,24.8,75.96,160.0,8.0,29.65,10.0,23.5
2021-02-04 07:00:00,30.7,25.2,79.78,150.0,7.0,29.64,10.0,23.19
2021-02-04 08:00:00,30.2,25.7,83.13,150.0,9.0,29.62,5.0,21.28
2021-02-04 09:00:00,29.7,26.2,86.61,150.0,8.0,29.59,7.0,21.28
2021-02-04 10:00:00,29.3,27.1,91.37,160.0,5.0,29.57,1.75,23.19
2021-02-04 11:00:00,29.1,28.0,95.59,150.0,6.0,29.55,1.75,22.04
2021-02-04 12:00:00,29.1,28.4,97.18,150.0,4.0,29.52,0.5,24.03
2021-02-04 13:00:00,29.1,28.4,97.18,170.0,3.0,29.51,0.5,25.37
2021-02-04 14:00:00,28.8,27.1,93.26,280.0,8.0,29.51,1.25,20.17
2021-02-04 15:00:00,27.9,26.4,94.0,280.0,8.0,29.51,0.5,19.06
2021-02-04 16:00:00,28.2,26.4,92.85,280.0,8.0,29.5,0.75,19.43
2021-02-04 17:00:00,28.2,24.8,86.89,320.0,7.0,29.46,2.0,20.15
2021-02-04 18:00:00,27.0,22.5,82.9,300.0,8.0,29.45,4.0,17.95
2021-02-04 19:00:00,25.7,20.5,80.38,300.0,10.0,29.44,4.0,15.07
2021-02-04 20:00:00,24.6,19.8,81.67,300.0,12.0,29.44,10.0,12.58
2021-02-04 21:00:00,23.5,15.6,71.36,290.0,12.0,29.43,10.0,11.18
2021-02-04 22:00:00,22.1,13.1,67.84,300.0,11.0,29.44,10.0,9.96
2021-02-04 23:00:00,21.0,11.8,67.11,290.0,12.0,29.45,10.0,8.0
2021-02-05 00:00:00,19.8,10.2,65.77,300.0,10.0,29.46,10.0,7.67
2021-02-05 01:00:00,18.5,6.6,59.13,300.0,13.0,29.46,10.0,4.27
2021-02-05 02:00:00,15.8,9.0,74.05,280.0,14.0,29.46,7.0,0.28
2021-02-05 03:00:00,12.7,6.0,74.39,270.0,13.0,29.47,5.0,-3.16
2021-02-05 04:00:00,11.1,3.2,69.91,280.0,15.0,29.47,10.0,-6.31
2021-02-05 05:00:00,9.1,1.4,70.32,280.0,13.0,29.47,10.0,-7.77
2021-02-05 06:00:00,6.6,-0.9,70.68,280.0,11.0,29.47,10.0,-9.63
2021-02-05 07:00:00,6.0,-0.4,74.71,260.0,10.0,29.47,10.0,-9.76
2021-02-05 08:00:00,5.5,-0.4,76.08,270.0,10.0,29.49,5.0,-10.26
2021-02-05 09:00:00,4.8,-0.4,78.56,280.0,8.0,29.49,5.0,-9.39
2021-02-05 10:00:00,4.0,-0.9,79.24,280.0,8.0,29.49,5.0,-10.25
2021-02-05 11:00:00,4.8,-1.8,73.54,280.0,17.0,29.5,5.0,-15.56
2021-02-05 12:00:00,3.2,-3.6,72.66,280.0,13.0,29.51,10.0,-15.33
2021-02-05 13:00:00,1.8,-5.8,69.76,290.0,12.0,29.52,10.0,-16.43
2021-02-05 14:00:00,4.0,-4.2,68.36,290.0,11.0,29.53,10.0,-13.04
2021-02-05 15:00:00,4.0,-6.5,61.19,290.0,13.0,29.55,10.0,-14.43
2021-02-05 16:00:00,6.0,-4.4,61.78,280.0,11.0,29.55,10.0,-10.52
2021-02-05 17:00:00,6.8,-3.0,63.71,270.0,11.0,29.57,10.0,-9.38
2021-02-05 18:00:00,8.2,-2.2,61.82,270.0,11.0,29.56,7.0,-7.61
2021-02-05 19:00:00,8.6,-2.7,59.3,270.0,14.0,29.57,10.0,-9.0
2021-02-05 20:00:00,9.3,-3.5,55.31,270.0,10.0,29.58,10.0,-5.5
2021-02-05 21:00:00,9.9,-2.2,57.28,270.0,11.0,29.6,10.0,-5.46
2021-02-05 22:00:00,8.6,-2.7,59.3,260.0,7.0,29.61,10.0,-3.74
2021-02-05 23:00:00,6.8,-3.0,63.11,260.0,8.0,29.64,10.0,-6.93
2021-02-06 00:00:00,5.7,-4.0,63.56,260.0,8.0,29.67,10.0,-8.28
2021-02-06 01:00:00,5.0,-4.5,64.07,270.0,9.0,29.68,10.0,-10.06
2021-02-06 02:00:00,4.0,-5.0,64.87,270.0,7.0,29.71,10.0,-9.23
2021-02-06 03:00:00,3.2,-6.2,64.12,270.0,8.0,29.74,10.0,-11.36
2021-02-06 04:00:00,2.0,-7.0,65.23,280.0,9.0,29.76,10.0,-13.66
2021-02-06 05:00:00,0.7,-7.8,66.64,270.0,6.0,29.78,10.0,-12.17
2021-02-06 06:00:00,-1.3,-8.5,70.74,270.0,6.0,29.8,10.0,-14.58
2021-02-06 07:00:00,-1.8,-9.4,69.31,280.0,8.0,29.83,10.0,-17.52
2021-02-06 08:00:00,-2.7,-10.5,68.51,280.0,8.0,29.85,10.0,-18.63
2021-02-06 09:00:00,-4.0,-11.2,70.41,290.0,8.0,29.87,10.0,-20.23
2021-02-06 10:00:00,-5.0,-12.3,70.27,290.0,6.0,29.89,10.0,-19.15
2021-02-06 11:00:00,-6.3,-13.2,71.19,290.0,6.0,29.9,10.0,-20.6
2021-02-06 12:00:00,-7.6,-14.1,72.47,260.0,6.0,29.95,10.0,-22.16
2021-02-06 13:00:00,-8.5,-14.8,73.1,260.0,8.0,29.99,10.0,-25.78
2021-02-06 14:00:00,-5.8,-13.7,67.77,270.0,9.0,30.01,10.0,-23.49
2021-02-06 15:00:00,-5.0,-14.8,61.98,280.0,9.0,30.02,10.0,-22.62
2021-02-06 16:00:00,-3.5,-14.1,59.47,270.0,8.0,30.03,10.0,-19.62
2021-02-06 17:00:00,-2.2,-13.9,56.47,260.0,13.0,30.04,10.0,-22.25
2021-02-06 18:00:00,-1.3,-13.5,55.21,260.0,12.0,30.04,10.0,-20.38
2021-02-06 19:00:00,-0.8,-14.3,51.8,270.0,11.0,30.02,10.0,-18.98
2021-02-06 20:00:00,-1.1,-15.0,50.71,260.0,13.0,30.02,10.0,-20.84
2021-02-06 21:00:00,-3.0,-15.9,52.77,260.0,13.0,30.03,10.0,-23.14
2021-02-06 22:00:00,-4.5,-17.3,53.03,270.0,10.0,30.03,10.0,-22.8
2021-02-06 23:00:00,-6.7,-17.5,58.37,260.0,8.0,30.05,10.0,-23.56
2021-02-07 00:00:00,-8.5,-18.4,60.84,260.0,7.0,30.06,10.0,-24.59
2021-02-07 01:00:00,-9.4,-19.3,60.7,270.0,9.0,30.07,10.0,-27.96
2021-02-07 02:00:00,-10.3,-19.7,62.16,270.0,6.0,30.08,10.0,-25.41
2021-02-07 03:00:00,-11.7,-20.7,63.25,280.0,6.0,30.09,10.0,-27.1
2021-02-07 04:00:00,-12.8,-21.6,63.75,270.0,5.0,30.1,10.0,-26.81
2021-02-07 05:00:00,-14.1,-22.4,65.25,270.0,4.0,30.11,10.0,-26.41
2021-02-07 06:00:00,-14.8,-23.1,65.15,270.0,6.0,30.12,10.0,-30.83
2021-02-07 07:00:00,-16.1,-24.3,65.31,290.0,5.0,30.13,10.0,-30.73
2021-02-07 08:00:00,-17.1,-25.6,64.13,260.0,3.0,30.14,10.0,-27.44
2021-02-07 09:00:00,-18.8,-26.0,68.5,270.0,3.0,30.14,10.0,-29.39
2021-02-07 10:00:00,-19.7,-26.1,71.38,260.0,3.0,30.15,10.0,-30.41
2021-02-07 11:00:00,-20.2,-26.5,71.7,0.0,0.0,30.17,10.0,-20.2
2021-02-07 12:00:00,-21.3,-26.9,74.31,0.0,0.0,30.18,10.0,-21.3
2021-02-07 13:00:00,-22.0,-27.4,75.04,0.0,0.0,30.2,10.0,-22.0
2021-02-07 14:00:00,-19.3,-25.8,71.04,270.0,4.0,30.23,10.0,-32.49
2021-02-07 15:00:00,-16.6,-25.6,62.51,290.0,6.0,30.24,10.0,-33.0
2021-02-07 16:00:00,-14.1,-24.3,59.02,250.0,7.0,30.24,10.0,-31.41
2021-02-07 17:00:00,-11.9,-23.4,55.45,250.0,8.0,30.23,10.0,-29.96
2021-02-07 18:00:00,-9.2,-22.5,50.87,240.0,7.0,30.23,10.0,-25.44
2021-02-07 19:00:00,-7.0,-21.3,48.42,240.0,6.0,30.23,10.0,-21.32
2021-02-07 20:00:00,-6.5,-21.3,47.49,250.0,6.0,30.23,10.0,-20.84
2021-02-07 21:00:00,-6.7,-22.0,46.23,270.0,5.0,30.23,10.0,-19.57
2021-02-07 22:00:00,-6.7,-21.3,47.95,260.0,5.0,30.21,10.0,-19.57
2021-02-07 23:00:00,-6.3,-20.0,50.33,240.0,4.0,30.22,10.0,-17.3
2021-02-08 00:00:00,-6.7,-20.4,50.25,250.0,4.0,30.23,10.0,-17.77
2021-02-08 01:00:00,-7.8,-20.4,53.02,270.0,3.0,30.25,10.0,-16.81
2021-02-08 02:00:00,-7.2,-20.2,52.03,270.0,4.0,30.26,10.0,-18.36
2021-02-08 03:00:00,-6.7,-19.7,52.11,250.0,4.0,30.27,10.0,-17.77
2021-02-08 04:00:00,-7.0,-19.7,53.14,290.0,3.0,30.26,10.0,-16.01
2021-02-08 05:00:00,-7.8,-16.1,66.14,0.0,0.0,30.27,7.0,-7.8
2021-02-08 06:00:00,-8.5,-14.8,73.1,250.0,4.0,30.28,7.0,-19.87
2021-02-08 07:00:00,-9.4,-15.0,75.63,0.0,0.0,30.28,7.0,-9.4
2021-02-08 08:00:00,-9.8,-14.8,77.92,0.0,0.0,30.27,10.0,-9.8
2021-02-08 09:00:00,-13.2,-16.6,84.21,0.0,0.0,30.27,10.0,-13.2
2021-02-08 10:00:00,-18.9,-23.1,80.32,0.0,0.0,30.28,10.0,-18.9
2021-02-08 11:00:00,-19.3,-24.2,77.37,0.0,0.0,30.29,10.0,-19.3
2021-02-08 12:00:00,-22.4,-27.6,75.8,0.0,0.0,30.28,10.0,-22.4
2021-02-08 13:00:00,-21.1,-26.1,76.77,0.0,0.0,30.29,10.0,-21.1
2021-02-08 14:00:00,-17.0,-21.8,78.01,0.0,0.0,30.31,10.0,-17.0
2021-02-08 15:00:00,-11.2,-16.6,76.21,0.0,0.0,30.31,10.0,-11.2
2021-02-08 16:00:00,-9.0,-17.7,64.63,0.0,0.0,30.31,10.0,-9.0
2021-02-08 17:00:00,-7.4,-17.5,60.39,260.0,5.0,30.31,10.0,-20.4
2021-02-08 18:00:00,-5.4,-16.4,57.98,230.0,5.0,30.3,10.0,-18.02
2021-02-08 19:00:00,-3.8,-16.2,54.25,240.0,5.0,30.28,10.0,-16.12
2021-02-08 20:00:00,-2.4,-15.9,51.53,230.0,7.0,30.28,10.0,-17.15
2021-02-08 21:00:00,-2.4,-16.1,51.01,250.0,7.0,30.28,10.0,-17.15
2021-02-08 22:00:00,-3.0,-16.1,52.73,250.0,5.0,30.28,10.0,-15.29
2021-02-08 23:00:00,-5.3,-16.8,56.54,0.0,0.0,30.28,10.0,-5.3
2021-02-09 00:00:00,-11.0,-16.8,74.7,0.0,0.0,30.28,10.0,-11.0
2021-02-09 01:00:00,-13.2,-17.7,79.6,0.0,0.0,30.28,10.0,-13.2
2021-02-09 02:00:00,-15.7,-19.8,81.03,0.0,0.0,30.28,10.0,-15.7
2021-02-09 03:00:00,-16.2,-20.0,82.26,0.0,0.0,30.28,10.0,-16.2
2021-02-09 04:00:00,-17.9,-21.8,81.69,250.0,3.0,30.29,10.0,-28.36
2021-02-09 05:00:00,-16.4,-20.6,80.55,0.0,0.0,30.31,10.0,-16.4
2021-02-09 06:00:00,-17.7,-22.5,77.94,0.0,0.0,30.31,10.0,-17.7
2021-02-09 07:00:00,-16.4,-20.4,81.39,0.0,0.0,30.31,10.0,-16.4
2021-02-09 08:00:00,-17.5,-22.2,78.37,0.0,0.0,30.32,10.0,-17.5
2021-02-09 09:00:00,-17.5,-22.2,78.37,0.0,0.0,30.32,10.0,-17.5
2021-02-09 10:00:00,-7.8,-13.0,77.34,0.0,0.0,30.3,10.0,-7.8
2021-02-09 11:00:00,-6.7,-12.3,75.92,220.0,4.0,30.29,10.0,-17.77
2021-02-09 12:00:00,-7.8,-13.0,77.34,210.0,3.0,30.3,10.0,-16.81
2021-02-09 13:00:00,-8.5,-13.0,80.03,0.0,0.0,30.3,10.0,-8.5
2021-02-09 14:00:00,-5.8,-11.0,77.54,200.0,3.0,30.31,10.0,-14.52
2021-02-09 15:00:00,-1.7,-8.9,70.69,230.0,6.0,30.31,10.0,-15.06
2021-02-09 16:00:00,0.5,-10.5,58.91,260.0,11.0,30.3,10.0,-17.34
2021-02-09 17:00:00,2.3,-10.1,55.25,250.0,8.0,30.29,10.0,-12.47
2021-02-09 18:00:00,4.0,-7.4,58.04,230.0,10.0,30.27,10.0,-12.02
2021-02-09 19:00:00,5.7,-6.7,55.8,230.0,8.0,30.26,10.0,-8.28
2021-02-09 20:00:00,7.3,-6.7,51.89,220.0,10.0,30.25,10.0,-8.01
2021-02-09 21:00:00,7.7,-8.5,46.68,240.0,9.0,30.25,10.0,-6.7
2021-02-09 22:00:00,7.0,-10.5,43.67,250.0,9.0,30.25,10.0,-7.57
2021-02-09 23:00:00,4.0,-11.2,48.15,250.0,4.0,30.26,10.0,-5.16
2021-02-10 00:00:00,2.3,-12.1,50.04,240.0,5.0,30.27,10.0,-8.88
2021-02-10 01:00:00,0.5,-13.2,51.5,250.0,5.0,30.3,10.0,-11.01
2021-02-10 02:00:00,-0.8,-13.0,55.3,260.0,6.0,30.31,10.0,-13.97
2021-02-10 03:00:00,-2.2,-13.0,59.08,270.0,5.0,30.32,10.0,-14.22
2021-02-10 04:00:00,-4.4,-13.5,63.99,260.0,3.0,30.34,10.0,-12.92
2021-02-10 05:00:00,-6.5,-13.5,70.81,280.0,3.0,30.34,10.0,-15.32
2021-02-10 06:00:00,-9.6,-13.5,82.38,0.0,0.0,30.34,10.0,-9.6
2021-02-10 07:00:00,-13.0,-17.0,81.68,0.0,0.0,30.36,10.0,-13.0
2021-02-10 08:00:00,-12.3,-16.2,82.16,0.0,0.0,30.37,10.0,-12.3
2021-02-10 09:00:00,-14.6,-18.8,80.71,0.0,0.0,30.38,10.0,-14.6
2021-02-10 10:00:00,-13.5,-17.9,79.98,0.0,0.0,30.38,10.0,-13.5
2021-02-10 11:00:00,-12.1,-16.2,81.34,0.0,0.0,30.38,10.0,-12.1
2021-02-10 12:00:00,-9.4,-13.9,79.95,0.0,0.0,30.39,10.0,-9.4
2021-02-10 13:00:00,-8.5,-13.0,80.03,0.0,0.0,30.4,7.0,-8.5
2021-02-10 14:00:00,-5.3,-10.7,76.83,260.0,4.0,30.4,10.0,-16.14
2021-02-10 15:00:00,-2.4,-10.5,67.54,260.0,5.0,30.4,10.0,-14.46
2021-02-10 16:00:00,-0.4,-12.1,56.76,270.0,8.0,30.4,10.0,-15.8
2021-02-10 17:00:00,1.8,-12.3,50.7,280.0,9.0,30.41,10.0,-14.04
2021-02-10 18:00:00,2.7,-11.2,51.37,250.0,9.0,30.39,10.0,-12.92
2021-02-10 19:00:00,4.0,-11.0,48.63,270.0,9.0,30.37,10.0,-11.18
2021-02-10 20:00:00,4.8,-10.3,48.76,270.0,10.0,30.37,10.0,-11.14
2021-02-10 21:00:00,5.4,-10.5,46.97,260.0,7.0,30.37,10.0,-7.64
2021-02-10 22:00:00,4.5,-10.5,48.94,270.0,4.0,30.38,10.0,-4.69
2021-02-10 23:00:00,2.5,-10.3,54.21,0.0,0.0,30.38,10.0,2.5
2021-02-11 00:00:00,0.0,-11.7,56.83,270.0,3.0,30.4,10.0,-7.89
2021-02-11 01:00:00,-2.2,-13.2,58.49,280.0,4.0,30.41,10.0,-12.52
2021-02-11 02:00:00,-5.4,-13.2,68.16,0.0,0.0,30.42,10.0,-5.4
2021-02-11 03:00:00,-7.0,-15.7,65.24,280.0,3.0,30.44,10.0,-16.01
2021-02-11 04:00:00,-7.6,-16.1,65.5,0.0,0.0,30.46,10.0,-7.6
2021-02-11 05:00:00,-10.3,-17.9,68.2,0.0,0.0,30.46,10.0,-10.3
2021-02-11 06:00:00,-11.6,-18.4,70.89,0.0,0.0,30.47,10.0,-11.6
2021-02-11 07:00:00,-14.6,-20.9,72.38,0.0,0.0,30.49,10.0,-14.6
2021-02-11 08:00:00,-16.2,-21.8,74.89,0.0,0.0,30.51,10.0,-16.2
2021-02-11 09:00:00,-17.7,-22.0,80.01,0.0,0.0,30.51,10.0,-17.7
2021-02-11 10:00:00,-17.9,-22.4,79.16,0.0,0.0,30.51,10.0,-17.9
2021-02-11 11:00:00,-20.2,-24.9,78.1,0.0,0.0,30.53,10.0,-20.2
2021-02-11 12:00:00,-20.0,-24.7,78.12,0.0,0.0,30.55,10.0,-20.0
2021-02-11 13:00:00,-20.0,-24.9,77.29,0.0,0.0,30.55,10.0,-20.0
2021-02-11 14:00:00,-15.7,-21.8,73.01,0.0,0.0,30.57,10.0,-15.7
2021-02-11 15:00:00,-9.9,-19.3,62.22,310.0,3.0,30.57,10.0,-19.21
2021-02-11 16:00:00,-7.4,-19.7,53.92,330.0,3.0,30.58,10.0,-16.35
2021-02-11 17:00:00,-6.0,-19.3,51.43,320.0,3.0,30.58,10.0,-14.75
2021-02-11 18:00:00,-4.4,-19.3,47.62,310.0,3.0,30.56,10.0,-12.92
2021-02-11 19:00:00,-3.5,-19.3,45.61,0.0,0.0,30.53,10.0,-3.5
2021-02-11 20:00:00,-3.3,-19.3,45.18,270.0,3.0,30.51,10.0,-11.67
2021-02-11 21:00:00,-2.2,-18.8,44.0,310.0,5.0,30.51,10.0,-14.22
2021-02-11 22:00:00,-2.2,-16.2,50.27,0.0,0.0,30.51,10.0,-2.2
2021-02-11 23:00:00,-2.2,-14.8,53.97,350.0,5.0,30.51,10.0,-14.22
2021-02-12 00:00:00,-3.0,-10.3,70.52,330.0,5.0,30.5,4.0,-15.29
2021-02-12 01:00:00,-3.6,-9.8,74.03,310.0,3.0,30.51,3.0,-12.01
2021-02-12 02:00:00,-4.2,-9.4,77.7,290.0,4.0,30.52,2.0,-14.85
2021-02-12 03:00:00,-4.2,-9.8,76.18,290.0,4.0,30.52,3.0,-14.85
2021-02-12 04:00:00,-4.5,-10.3,75.4,310.0,4.0,30.51,2.0,-15.2
2021-02-12 05:00:00,-5.0,-10.3,76.87,290.0,4.0,30.5,2.5,-15.67
2021-02-12 06:00:00,-5.6,-11.7,74.17,300.0,5.0,30.5,5.0,-18.26
2021-02-12 07:00:00,-5.8,-11.4,76.02,310.0,5.0,30.5,3.0,-18.5
2021-02-12 08:00:00,-6.0,-11.7,75.62,300.0,5.0,30.5,3.0,-18.73
2021-02-12 09:00:00,-6.7,-12.3,75.92,310.0,4.0,30.49,2.5,-17.77
2021-02-12 10:00:00,-7.8,-13.4,75.81,0.0,0.0,30.5,3.0,-7.8
2021-02-12 11:00:00,-10.3,-16.1,74.77,0.0,0.0,30.5,10.0,-10.3
2021-02-12 12:00:00,-12.5,-17.5,77.65,300.0,4.0,30.5,10.0,-24.54
2021-02-12 13:00:00,-14.4,-19.1,78.67,280.0,3.0,30.52,10.0,-24.36
2021-02-12 14:00:00,-12.1,-18.8,71.2,0.0,0.0,30.54,10.0,-12.1
2021-02-12 15:00:00,-9.6,-17.9,65.89,290.0,4.0,30.55,10.0,-21.16
2021-02-12 16:00:00,-8.1,-18.9,58.15,300.0,7.0,30.54,10.0,-24.1
2021-02-12 17:00:00,-7.0,-19.7,53.14,290.0,8.0,30.51,10.0,-24.05
2021-02-12 18:00:00,-5.4,-19.5,49.45,280.0,8.0,30.5,10.0,-21.96
2021-02-12 19:00:00,-5.0,-19.8,47.99,290.0,7.0,30.49,10.0,-20.44
2021-02-12 20:00:00,-5.0,-19.8,47.53,280.0,5.0,30.48,10.0,-17.43
2021-02-12 21:00:00,-5.0,-21.3,43.96,280.0,6.0,30.49,10.0,-18.91
2021-02-12 22:00:00,-6.0,-22.7,43.07,270.0,5.0,30.49,10.0,-18.73
2021-02-12 23:00:00,-8.5,-23.8,45.9,260.0,4.0,30.5,10.0,-19.87
2021-02-13 00:00:00,-10.8,-23.8,51.4,260.0,3.0,30.51,10.0,-20.24
2021-02-13 01:00:00,-14.1,-24.5,58.4,280.0,3.0,30.51,10.0,-24.01
2021-02-13 02:00:00,-14.1,-26.1,53.62,300.0,3.0,30.5,10.0,-24.01
2021-02-13 03:00:00,-15.3,-26.7,55.16,290.0,3.0,30.5,10.0,-25.38
2021-02-13 04:00:00,-14.3,-25.2,56.83,0.0,0.0,30.51,10.0,-14.3
2021-02-13 05:00:00,-13.9,-24.7,57.2,0.0,0.0,30.51,10.0,-13.9
2021-02-13 06:00:00,-13.2,-24.7,55.23,0.0,0.0,30.51,10.0,-13.2
2021-02-13 07:00:00,-13.9,-24.7,57.2,0.0,0.0,30.5,10.0,-13.9
2021-02-13 08:00:00,-16.1,-25.4,61.59,0.0,0.0,30.5,10.0,-16.1
2021-02-13 09:00:00,-14.1,-24.0,59.97,0.0,0.0,30.49,10.0,-14.1
2021-02-13 10:00:00,-12.6,-22.2,61.16,0.0,0.0,30.48,10.0,-12.6
2021-02-13 11:00:00,-11.7,-21.1,61.94,0.0,0.0,30.48,10.0,-11.7
2021-02-13 12:00:00,-12.3,-21.1,63.82,0.0,0.0,30.48,10.0,-12.3
2021-02-13 13:00:00,-11.6,-21.3,61.0,0.0,0.0,30.47,10.0,-11.6
2021-02-13 14:00:00,-11.2,-22.0,57.64,0.0,0.0,30.46,10.0,-11.2
2021-02-13 15:00:00,-9.0,-22.0,51.72,310.0,3.0,30.45,10.0,-18.18
2021-02-13 16:00:00,-7.0,-21.5,48.38,330.0,4.0,30.45,10.0,-18.24
2021-02-13 17:00:00,-5.8,-19.3,50.94,270.0,5.0,30.44,10.0,-18.5
2021-02-13 18:00:00,-6.0,-19.7,50.38,270.0,7.0,30.42,10.0,-21.54
2021-02-13 19:00:00,-5.0,-20.9,44.89,290.0,6.0,30.4,10.0,-18.91
2021-02-13 20:00:00,-5.0,-21.3,43.96,260.0,7.0,30.4,10.0,-20.2
2021-02-13 21:00:00,-5.0,-22.2,41.94,260.0,7.0,30.4,10.0,-20.2
2021-02-13 22:00:00,-5.6,-22.0,43.83,270.0,7.0,30.4,10.0,-21.05
2021-02-13 23:00:00,-7.6,-22.9,46.06,270.0,5.0,30.41,10.0,-20.63
2021-02-14 00:00:00,-9.9,-23.8,49.16,290.0,6.0,30.41,10.0,-24.93
2021-02-14 01:00:00,-11.7,-23.8,53.75,290.0,5.0,30.41,10.0,-25.5
2021-02-14 02:00:00,-12.6,-24.7,53.59,0.0,0.0,30.42,10.0,-12.6
2021-02-14 03:00:00,-15.9,-25.6,60.32,280.0,3.0,30.45,10.0,-26.07
2021-02-14 04:00:00,-16.2,-25.2,62.57,300.0,3.0,30.45,10.0,-26.41
2021-02-14 05:00:00,-17.1,-25.6,64.13,280.0,3.0,30.47,10.0,-27.44
2021-02-14 06:00:00,-18.4,-25.8,67.82,0.0,0.0,30.51,10.0,-18.4
2021-02-14 07:00:00,-17.7,-25.6,66.13,310.0,3.0,30.51,10.0,-28.13
2021-02-14 08:00:00,-18.4,-26.3,66.03,290.0,5.0,30.53,10.0,-33.46
2021-02-14 09:00:00,-19.3,-27.4,65.19,310.0,7.0,30.51,10.0,-37.75
2021-02-14 10:00:00,-20.2,-28.3,65.06,300.0,5.0,30.53,10.0,-35.6
2021-02-14 11:00:00,-20.7,-28.3,66.78,290.0,4.0,30.54,10.0,-34.12
2021-02-14 12:00:00,-21.6,-28.3,69.99,290.0,5.0,30.56,10.0,-37.26
2021-02-14 13:00:00,-22.0,-28.3,71.47,290.0,6.0,30.58,10.0,-39.51
2021-02-14 14:00:00,-19.7,-27.4,66.56,300.0,4.0,30.61,10.0,-32.95
2021-02-14 15:00:00,-17.1,-25.8,63.45,290.0,6.0,30.61,10.0,-33.6
2021-02-14 16:00:00,-14.1,-23.4,61.9,280.0,6.0,30.61,10.0,-29.99
2021-02-14 17:00:00,-9.4,-20.6,56.74,310.0,5.0,30.61,10.0,-22.77
2021-02-14 18:00:00,-7.0,-23.8,42.87,350.0,7.0,30.59,10.0,-22.88
2021-02-14 19:00:00,-6.2,-23.3,42.14,320.0,8.0,30.58,10.0,-22.94
2021-02-14 20:00:00,-5.0,-23.1,40.38,310.0,8.0,30.57,10.0,-21.59
2021-02-14 21:00:00,-5.0,-22.9,40.42,300.0,4.0,30.56,10.0,-15.67
2021-02-14 22:00:00,-5.3,-23.1,40.77,300.0,5.0,30.54,10.0,-17.9
2021-02-14 23:00:00,-7.6,-24.7,41.88,0.0,0.0,30.55,10.0,-7.6
2021-02-15 00:00:00,-9.9,-24.3,47.88,0.0,0.0,30.58,10.0,-9.9
2021-02-15 01:00:00,-15.7,-24.0,65.02,0.0,0.0,30.59,10.0,-15.7
2021-02-15 02:00:00,-13.5,-24.2,57.57,290.0,3.0,30.59,10.0,-23.33
2021-02-15 03:00:00,-14.1,-24.9,57.17,300.0,3.0,30.6,10.0,-24.01
2021-02-15 04:00:00,-18.6,-26.3,66.71,0.0,0.0,30.58,10.0,-18.6
2021-02-15 05:00:00,-23.1,-28.5,74.91,0.0,0.0,30.58,10.0,-23.1
2021-02-15 06:00:00,-22.9,-27.8,76.99,0.0,0.0,30.59,10.0,-22.9
2021-02-15 07:00:00,-24.5,-29.0,78.51,0.0,0.0,30.59,10.0,-24.5
2021-02-15 08:00:00,-26.5,-31.4,76.6,0.0,0.0,30.58,10.0,-26.5
2021-02-15 09:00:00,-28.7,-34.2,73.85,0.0,0.0,30.56,10.0,-28.7
2021-02-15 10:00:00,-30.1,-35.5,74.1,0.0,0.0,30.56,10.0,-30.1
2021-02-15 11:00:00,-30.6,-36.4,72.38,0.0,0.0,30.55,10.0,-30.6
2021-02-15 12:00:00,-30.8,-36.4,73.18,0.0,0.0,30.56,10.0,-30.8
2021-02-15 13:00:00,-29.2,-35.0,72.56,0.0,0.0,30.57,10.0,-29.2
2021-02-15 14:00:00,-23.1,-28.8,73.7,0.0,0.0,30.56,10.0,-23.1
2021-02-15 15:00:00,-16.8,-25.8,62.48,10.0,6.0,30.53,10.0,-33.24
2021-02-15 16:00:00,-11.4,-23.1,54.95,10.0,4.0,30.51,10.0,-23.26
2021-02-15 17:00:00,-8.0,-23.3,45.99,0.0,0.0,30.52,10.0,-8.0
2021-02-15 18:00:00,-5.4,-24.7,37.64,280.0,5.0,30.5,10.0,-18.02
2021-02-15 19:00:00,-3.6,-23.3,37.19,290.0,3.0,30.45,10.0,-12.01
2021-02-15 20:00:00,-1.3,-21.6,36.46,310.0,4.0,30.42,10.0,-11.47
2021-02-15 21:00:00,-1.3,-21.1,37.42,360.0,7.0,30.37,10.0,-15.81
2021-02-15 22:00:00,-0.6,-20.9,36.59,340.0,5.0,30.34,10.0,-12.32
2021-02-15 23:00:00,-2.7,-21.5,39.16,330.0,4.0,30.33,10.0,-13.1
2021-02-16 00:00:00,-5.3,-22.2,42.75,330.0,5.0,30.31,10.0,-17.9
2021-02-16 01:00:00,-6.3,-22.9,43.24,0.0,0.0,30.3,10.0,-6.3
2021-02-16 02:00:00,-12.5,-21.3,63.79,340.0,3.0,30.29,10.0,-22.18
2021-02-16 03:00:00,-13.5,-21.8,65.34,0.0,0.0,30.28,10.0,-13.5
2021-02-16 04:00:00,-16.6,-22.9,72.14,0.0,0.0,30.27,10.0,-16.6
2021-02-16 05:00:00,-19.7,-25.1,75.29,350.0,4.0,30.26,10.0,-32.95
2021-02-16 06:00:00,-19.7,-25.1,75.29,350.0,4.0,30.26,10.0,-32.95
2021-02-16 07:00:00,-13.0,-22.0,63.05,360.0,5.0,30.24,10.0,-27.05
2021-02-16 08:00:00,-13.7,-20.6,70.26,10.0,5.0,30.22,10.0,-27.88
2021-02-16 09:00:00,-16.4,-21.8,75.66,20.0,6.0,30.19,10.0,-32.76
2021-02-16 10:00:00,-15.5,-19.5,81.47,10.0,7.0,30.19,10.0,-33.12
2021-02-16 11:00:00,-15.0,-18.9,81.93,10.0,5.0,30.19,10.0,-29.42
2021-02-16 12:00:00,-18.0,-22.2,80.4,0.0,0.0,30.18,10.0,-18.0
2021-02-16 13:00:00,-18.2,-22.9,78.3,0.0,0.0,30.19,10.0,-18.2
2021-02-16 14:00:00,-13.9,-18.8,77.91,10.0,3.0,30.2,10.0,-23.78
2021-02-16 15:00:00,-4.4,-9.6,77.68,360.0,4.0,30.19,10.0,-15.09
2021-02-16 16:00:00,1.8,-7.0,66.14,0.0,0.0,30.19,10.0,1.8
2021-02-16 17:00:00,5.4,-5.0,61.71,0.0,0.0,30.2,10.0,5.4
2021-02-16 18:00:00,8.2,-3.3,58.67,0.0,0.0,30.18,10.0,8.2
2021-02-16 19:00:00,9.5,-2.7,56.95,260.0,3.0,30.17,10.0,2.97
2021-02-16 20:00:00,11.3,-1.5,55.63,260.0,4.0,30.17,10.0,3.25
2021-02-16 21:00:00,11.7,-1.5,54.65,0.0,0.0,30.17,10.0,11.7
2021-02-16 22:00:00,10.9,-2.2,54.78,0.0,0.0,30.18,10.0,10.9
2021-02-16 23:00:00,8.0,-2.2,62.67,0.0,0.0,30.18,10.0,7.9
2021-02-17 00:00:00,1.4,-3.8,78.24,0.0,0.0,30.19,10.0,1.4
2021-02-17 01:00:00,-5.0,-7.8,87.74,0.0,0.0,30.2,10.0,-5.1
2021-02-17 02:00:00,-9.8,-13.5,83.19,0.0,0.0,30.21,10.0,-9.8
2021-02-17 03:00:00,-9.4,-13.4,81.98,0.0,0.0,30.21,10.0,-9.4
2021-02-17 04:00:00,-9.6,-13.9,80.74,0.0,0.0,30.22,10.0,-9.6
2021-02-17 05:00:00,-11.7,-15.7,81.79,0.0,0.0,30.23,10.0,-11.7
2021-02-17 06:00:00,-13.0,-17.0,81.68,0.0,0.0,30.25,10.0,-13.0
2021-02-17 07:00:00,-15.3,-19.8,79.4,0.0,0.0,30.26,10.0,-15.3
2021-02-17 08:00:00,-15.5,-20.2,78.57,0.0,0.0,30.27,10.0,-15.5
2021-02-17 09:00:00,-17.0,-21.6,78.83,0.0,0.0,30.26,10.0,-17.0
2021-02-17 10:00:00,-17.0,-21.8,78.01,0.0,0.0,30.27,10.0,-17.0
2021-02-17 11:00:00,-16.4,-21.3,77.66,0.0,0.0,30.27,10.0,-16.4
2021-02-17 12:00:00,-14.8,-20.0,76.62,0.0,0.0,30.27,10.0,-14.8
2021-02-17 13:00:00,-13.0,-17.9,78.0,0.0,0.0,30.29,10.0,-13.0
2021-02-17 14:00:00,-8.5,-13.0,80.03,0.0,0.0,30.31,10.0,-8.5
2021-02-17 15:00:00,-0.9,-5.0,81.87,0.0,0.0,30.32,10.0,-0.9
2021-02-17 16:00:00,5.4,-2.6,68.88,140.0,4.0,30.32,10.0,-3.64
2021-02-17 17:00:00,10.9,-0.4,59.64,0.0,0.0,30.32,10.0,10.9
2021-02-17 18:00:00,13.1,1.2,58.32,140.0,10.0,30.31,10.0,-0.73
2021-02-17 19:00:00,13.1,4.0,66.7,140.0,11.0,30.3,4.0,-1.42
2021-02-17 20:00:00,13.1,6.8,75.46,170.0,7.0,30.29,4.0,1.74
2021-02-17 21:00:00,14.0,7.7,75.55,140.0,5.0,30.3,3.0,5.02
2021-02-17 22:00:00,13.1,8.6,81.85,180.0,5.0,30.3,3.0,3.95
2021-02-17 23:00:00,12.2,9.1,87.1,0.0,0.0,30.31,0.5,12.2
2021-02-18 00:00:00,11.7,8.6,87.07,0.0,0.0,30.32,2.0,11.7
2021-02-18 01:00:00,10.6,8.0,88.59,0.0,0.0,30.33,1.5,10.6
2021-02-18 02:00:00,10.8,8.1,88.61,0.0,0.0,30.33,4.0,10.8
2021-02-18 03:00:00,9.9,7.3,88.96,0.0,0.0,30.34,3.0,9.9
2021-02-18 04:00:00,9.5,6.8,88.54,0.0,0.0,30.34,3.0,9.5
2021-02-18 05:00:00,9.5,6.4,86.94,0.0,0.0,30.35,3.0,9.5
2021-02-18 06:00:00,9.3,5.0,82.3,200.0,3.0,30.37,4.0,2.74
2021-02-18 07:00:00,8.6,4.0,81.49,220.0,4.0,30.38,3.0,0.09
2021-02-18 08:00:00,7.7,3.7,83.32,0.0,0.0,30.36,10.0,7.7
2021-02-18 09:00:00,4.8,2.0,88.29,0.0,0.0,30.36,5.0,4.8
2021-02-18 10:00:00,5.4,2.7,88.32,0.0,0.0,30.36,5.0,5.4
2021-02-18 11:00:00,6.8,3.7,86.78,0.0,0.0,30.36,10.0,6.8
2021-02-18 12:00:00,6.8,3.7,86.78,0.0,0.0,30.35,7.0,6.8
2021-02-18 13:00:00,6.8,3.6,86.38,0.0,0.0,30.36,10.0,6.8
2021-02-18 14:00:00,8.2,3.6,81.08,0.0,0.0,30.38,10.0,8.2
2021-02-18 15:00:00,9.0,3.7,78.58,0.0,0.0,30.38,10.0,9.0
2021-02-18 16:00:00,10.4,4.0,75.18,170.0,4.0,30.37,10.0,2.2
2021-02-18 17:00:00,11.7,4.0,70.96,150.0,5.0,30.36,10.0,2.29
2021-02-18 18:00:00,12.6,4.5,69.45,220.0,4.0,30.34,10.0,4.77
2021-02-18 19:00:00,13.1,5.0,69.51,190.0,4.0,30.33,10.0,5.35
2021-02-18 20:00:00,13.8,5.5,68.96,190.0,6.0,30.32,10.0,3.61
2021-02-18 21:00:00,14.0,6.3,70.9,190.0,3.0,30.31,10.0,8.11
2021-02-18 22:00:00,13.8,7.5,75.53,210.0,3.0,30.31,5.0,7.88
2021-02-18 23:00:00,13.1,9.5,85.22,0.0,0.0,30.31,0.75,13.1
2021-02-19 00:00:00,12.2,7.5,81.04,0.0,0.0,30.31,10.0,12.2
2021-02-19 01:00:00,11.3,7.7,85.11,0.0,0.0,30.3,7.0,11.3
2021-02-19 02:00:00,11.3,8.0,85.88,0.0,0.0,30.29,7.0,11.3
2021-02-19 03:00:00,10.9,8.4,89.41,0.0,0.0,30.28,5.0,10.9
2021-02-19 04:00:00,10.4,8.0,89.39,0.0,0.0,30.27,3.0,10.4
2021-02-19 05:00:00,11.1,7.7,85.87,0.0,0.0,30.26,3.0,11.1
2021-02-19 06:00:00,10.8,7.5,86.24,240.0,3.0,30.26,2.0,4.45
2021-02-19 07:00:00,10.0,7.2,88.16,0.0,0.0,30.24,1.5,10.0
2021-02-19 08:00:00,9.1,6.6,89.33,0.0,0.0,30.23,2.0,9.1
2021-02-19 09:00:00,7.3,5.0,90.06,0.0,0.0,30.22,3.0,7.3
2021-02-19 10:00:00,4.3,2.0,90.34,0.0,0.0,30.22,3.0,4.3
2021-02-19 11:00:00,-0.4,-3.6,85.93,0.0,0.0,30.22,0.25,-0.4
2021-02-19 12:00:00,-4.7,-8.3,83.99,0.0,0.0,30.22,3.0,-4.7
2021-02-19 13:00:00,-8.7,-13.0,80.82,0.0,0.0,30.23,5.0,-8.7
2021-02-19 14:00:00,-5.0,-8.5,83.98,0.0,0.0,30.24,10.0,-4.9
2021-02-19 15:00:00,3.7,0.5,86.19,0.0,0.0,30.24,5.0,3.7
2021-02-19 16:00:00,8.6,6.0,88.49,250.0,4.0,30.24,7.0,0.09
2021-02-19 17:00:00,11.3,8.2,87.05,250.0,4.0,30.24,10.0,3.25
2021-02-19 18:00:00,13.8,5.0,67.41,250.0,5.0,30.22,10.0,4.78
2021-02-19 19:00:00,15.8,4.5,60.37,250.0,4.0,30.21,10.0,8.5
2021-02-19 20:00:00,16.3,4.8,59.89,240.0,4.0,30.2,10.0,9.09
2021-02-19 21:00:00,16.5,5.4,61.03,250.0,5.0,30.22,10.0,7.99
2021-02-19 22:00:00,15.8,5.4,62.91,250.0,4.0,30.22,10.0,8.5
2021-02-19 23:00:00,15.4,5.2,63.43,0.0,0.0,30.23,10.0,15.4
2021-02-20 00:00:00,14.7,4.3,62.75,0.0,0.0,30.23,10.0,14.7
2021-02-20 01:00:00,8.8,1.8,72.61,0.0,0.0,30.25,10.0,8.8
2021-02-20 02:00:00,1.6,-1.7,85.65,220.0,3.0,30.25,10.0,-6.06
2021-02-20 03:00:00,-0.2,-3.3,86.36,0.0,0.0,30.25,10.0,-0.2
2021-02-20 04:00:00,-5.0,-8.5,84.79,0.0,0.0,30.26,7.0,-5.1
2021-02-20 05:00:00,-6.7,-10.7,82.2,0.0,0.0,30.25,10.0,-6.7
2021-02-20 06:00:00,-8.1,-12.1,82.09,0.0,0.0,30.26,10.0,-8.1
2021-02-20 07:00:00,-9.6,-13.5,82.38,0.0,0.0,30.26,10.0,-9.6
2021-02-20 08:00:00,-12.1,-16.2,81.34,0.0,0.0,30.26,10.0,-12.1
2021-02-20 09:00:00,-13.2,-17.7,79.6,0.0,0.0,30.25,10.0,-13.2
2021-02-20 10:00:00,-14.6,-19.1,79.47,0.0,0.0,30.25,10.0,-14.6
2021-02-20 11:00:00,-15.2,-19.7,79.41,0.0,0.0,30.25,10.0,-15.2
2021-02-20 12:00:00,-16.6,-21.6,77.24,0.0,0.0,30.24,10.0,-16.6
2021-02-20 13:00:00,-15.9,-20.6,78.53,0.0,0.0,30.24,10.0,-15.9
2021-02-20 14:00:00,-7.4,-11.2,82.97,0.0,0.0,30.23,7.0,-7.4
2021-02-20 15:00:00,2.3,-1.5,83.7,0.0,0.0,30.24,7.0,2.3
2021-02-20 16:00:00,11.1,4.0,72.87,160.0,6.0,30.24,10.0,0.36
2021-02-20 17:00:00,14.9,5.5,65.72,160.0,6.0,30.23,10.0,4.94
2021-02-20 18:00:00,17.6,6.4,60.91,160.0,8.0,30.22,10.0,6.37
2021-02-20 19:00:00,19.9,5.7,53.46,170.0,8.0,30.2,10.0,9.21
2021-02-20 20:00:00,20.8,6.0,52.39,130.0,8.0,30.18,10.0,10.32
2021-02-20 21:00:00,21.4,6.0,51.08,160.0,9.0,30.18,10.0,10.33
2021-02-20 22:00:00,19.6,5.0,52.44,150.0,8.0,30.17,10.0,8.84
2021-02-20 23:00:00,19.0,6.8,58.4,140.0,5.0,30.16,10.0,10.96
2021-02-21 00:00:00,18.5,7.5,61.59,140.0,5.0,30.17,10.0,10.36
2021-02-21 01:00:00,16.5,5.7,61.87,120.0,6.0,30.16,10.0,6.86
2021-02-21 02:00:00,15.3,6.3,66.99,130.0,5.0,30.16,10.0,6.56
2021-02-21 03:00:00,14.7,6.0,67.52,120.0,3.0,30.16,10.0,8.91
2021-02-21 04:00:00,13.3,5.4,70.18,140.0,6.0,30.18,10.0,3.01
2021-02-21 05:00:00,15.1,7.0,69.75,110.0,5.0,30.16,10.0,6.32
2021-02-21 06:00:00,15.3,7.7,71.37,130.0,4.0,30.16,10.0,7.92
2021-02-21 07:00:00,15.8,8.6,72.73,110.0,4.0,30.15,10.0,8.5
2021-02-21 08:00:00,15.6,9.3,75.71,110.0,4.0,30.13,10.0,8.27
2021-02-21 09:00:00,16.7,10.4,75.82,130.0,5.0,30.12,10.0,8.22
2021-02-21 10:00:00,17.2,11.3,77.23,120.0,7.0,30.11,10.0,6.74
2021-02-21 11:00:00,16.7,11.3,78.92,130.0,4.0,30.12,10.0,9.55
2021-02-21 12:00:00,16.7,11.3,78.92,120.0,7.0,30.1,10.0,6.13
2021-02-21 13:00:00,17.2,12.0,79.67,110.0,5.0,30.1,10.0,8.82
2021-02-21 14:00:00,19.0,13.1,77.4,150.0,6.0,30.08,10.0,9.87
2021-02-21 15:00:00,20.7,14.2,75.55,120.0,6.0,30.07,10.0,11.92
2021-02-21 16:00:00,22.8,15.6,73.49,110.0,3.0,30.03,10.0,18.17
2021-02-21 17:00:00,23.0,18.7,83.32,120.0,4.0,30.01,1.25,16.91
2021-02-21 18:00:00,25.0,20.7,83.46,80.0,6.0,29.96,7.0,17.1
2021-02-21 19:00:00,27.5,22.1,79.85,100.0,5.0,29.92,7.0,21.05
2021-02-21 20:00:00,27.5,23.0,82.93,130.0,7.0,29.89,4.0,19.29
2021-02-21 21:00:00,27.5,23.9,86.12,110.0,5.0,29.87,2.0,21.05
2021-02-21 22:00:00,27.5,25.3,91.3,0.0,0.0,29.84,1.25,27.5
2021-02-21 23:00:00,27.0,25.7,94.76,0.0,0.0,29.83,1.0,27.0
2021-02-22 00:00:00,26.2,25.7,97.95,0.0,0.0,29.82,1.25,26.2
2021-02-22 01:00:00,25.7,23.7,92.0,100.0,7.0,29.8,1.75,17.1
2021-02-22 02:00:00,25.2,23.0,91.21,110.0,3.0,29.79,7.0,20.91
2021-02-22 03:00:00,23.0,21.6,94.27,0.0,0.0,29.77,4.0,23.0
2021-02-22 04:00:00,23.2,22.1,95.48,0.0,0.0,29.76,4.0,23.2
2021-02-22 05:00:00,22.3,21.4,96.27,0.0,0.0,29.73,3.0,22.3
2021-02-22 06:00:00,23.0,22.1,96.28,0.0,0.0,29.72,4.0,23.0
2021-02-22 07:00:00,24.3,22.6,93.12,230.0,3.0,29.71,5.0,19.89
2021-02-22 08:00:00,24.6,22.6,91.96,0.0,0.0,29.7,5.0,24.6
2021-02-22 09:00:00,24.8,23.7,95.51,0.0,0.0,29.67,1.75,24.8
2021-02-22 10:00:00,24.8,24.4,98.35,200.0,4.0,29.65,0.75,19.01
2021-02-22 11:00:00,25.3,24.8,97.94,170.0,5.0,29.63,0.75,18.44
2021-02-22 12:00:00,24.8,24.6,99.17,160.0,6.0,29.61,0.25,16.86
2021-02-22 13:00:00,25.5,24.8,97.13,180.0,7.0,29.6,1.0,16.86
2021-02-22 14:00:00,26.6,25.3,94.75,200.0,8.0,29.6,3.0,17.46
2021-02-22 15:00:00,27.5,24.4,87.94,200.0,8.0,29.59,7.0,18.57
2021-02-22 16:00:00,30.0,24.8,80.73,190.0,11.0,29.56,10.0,19.94
2021-02-22 17:00:00,33.0,24.6,71.2,190.0,10.0,29.53,10.0,24.1
2021-02-22 18:00:00,35.0,24.6,65.21,200.0,9.0,29.51,10.0,27.37
2021-02-22 19:00:00,36.0,25.3,64.53,190.0,9.0,29.48,10.0,28.61
2021-02-22 20:00:00,37.8,25.5,60.85,210.0,9.0,29.46,10.0,30.73
2021-02-22 21:00:00,37.4,26.4,64.16,210.0,10.0,29.46,10.0,29.74
2021-02-22 22:00:00,36.5,27.0,68.15,220.0,7.0,29.46,10.0,30.26
2021-02-22 23:00:00,35.6,27.5,72.09,200.0,8.0,29.44,10.0,28.55
2021-02-23 00:00:00,33.0,32.0,95.67,240.0,7.0,29.47,0.5,26.12
2021-02-23 01:00:00,33.4,32.2,95.29,240.0,5.0,29.47,7.0,28.06
2021-02-23 02:00:00,33.8,32.0,93.03,230.0,3.0,29.46,10.0,30.75
2021-02-23 03:00:00,35.0,31.1,85.18,260.0,6.0,29.48,10.0,29.26
2021-02-23 04:00:00,35.8,31.6,84.53,260.0,8.0,29.49,10.0,28.79
2021-02-23 05:00:00,37.4,32.4,81.96,270.0,10.0,29.5,10.0,29.74
2021-02-23 06:00:00,38.0,32.5,80.69,270.0,9.0,29.53,10.0,30.85
2021-02-23 07:00:00,37.6,33.0,82.97,260.0,8.0,29.56,10.0,31.01
2021-02-23 08:00:00,35.6,32.0,86.59,260.0,7.0,29.57,10.0,29.17
2021-02-23 09:00:00,33.8,31.1,89.71,250.0,7.0,29.57,10.0,26.97
2021-02-23 10:00:00,33.8,31.1,89.71,250.0,7.0,29.57,10.0,26.97
2021-02-23 11:00:00,32.4,29.8,90.01,260.0,8.0,29.64,10.0,24.61
2021-02-23 12:00:00,31.6,28.9,89.61,260.0,6.0,29.66,10.0,25.05
2021-02-23 13:00:00,30.9,28.2,89.58,250.0,3.0,29.68,10.0,27.43
2021-02-23 14:00:00,32.4,28.8,86.41,260.0,5.0,29.7,10.0,26.87
2021-02-23 15:00:00,34.2,29.7,83.4,270.0,5.0,29.72,10.0,29.01
2021-02-23 16:00:00,36.5,30.0,77.06,240.0,5.0,29.74,10.0,31.74
2021-02-23 17:00:00,38.0,30.2,73.52,240.0,7.0,29.73,10.0,31.97
2021-02-23 18:00:00,40.6,30.2,66.17,230.0,7.0,29.72,10.0,35.26
2021-02-23 19:00:00,39.6,29.7,67.41,240.0,7.0,29.72,10.0,34.04
2021-02-23 20:00:00,39.2,30.2,69.88,230.0,6.0,29.71,10.0,34.2
2021-02-23 21:00:00,38.8,30.0,70.4,0.0,0.0,29.7,10.0,38.8
2021-02-23 22:00:00,38.0,32.0,78.46,0.0,0.0,29.7,10.0,38.1
2021-02-23 23:00:00,35.2,32.7,90.49,0.0,0.0,29.7,10.0,35.2
2021-02-24 00:00:00,35.0,33.0,92.32,100.0,3.0,29.7,10.0,32.23
2021-02-24 01:00:00,34.3,32.7,93.79,100.0,4.0,29.69,10.0,30.11
2021-02-24 02:00:00,34.0,32.7,94.92,60.0,4.0,29.69,10.0,29.76
2021-02-24 03:00:00,33.4,33.0,98.01,0.0,0.0,29.71,5.0,33.4
2021-02-24 04:00:00,32.2,32.0,99.2,0.0,0.0,29.7,2.0,32.2
2021-02-24 05:00:00,32.4,32.2,99.2,20.0,4.0,29.68,4.0,27.89
2021-02-24 06:00:00,32.4,32.2,99.2,20.0,7.0,29.67,5.0,25.27
2021-02-24 07:00:00,32.5,32.4,99.6,20.0,8.0,29.67,10.0,24.73
2021-02-24 08:00:00,33.0,32.4,98.01,350.0,6.0,29.68,10.0,26.61
2021-02-24 09:00:00,33.0,32.2,97.22,340.0,6.0,29.7,5.0,26.61
2021-02-24 10:00:00,32.4,32.0,98.4,330.0,5.0,29.74,0.75,26.87
2021-02-24 11:00:00,32.5,32.0,98.01,340.0,7.0,29.79,1.25,25.39
2021-02-24 12:00:00,32.0,30.4,93.73,340.0,7.0,29.83,4.0,24.78
2021-02-24 13:00:00,31.1,29.1,92.19,340.0,7.0,29.87,10.0,23.68
2021-02-24 14:00:00,31.6,28.8,89.24,340.0,5.0,29.92,10.0,25.92
2021-02-24 15:00:00,32.4,27.5,81.92,330.0,8.0,29.96,10.0,24.61
2021-02-24 16:00:00,32.2,26.6,79.57,330.0,9.0,29.99,10.0,23.76
2021-02-24 17:00:00,33.3,24.6,70.07,340.0,8.0,30.02,10.0,25.71
2021-02-24 18:00:00,33.0,23.9,68.6,350.0,7.0,30.03,10.0,26.12
2021-02-24 19:00:00,34.5,23.9,64.86,290.0,7.0,30.04,10.0,27.83
2021-02-24 20:00:00,35.0,22.6,59.97,310.0,6.0,30.06,10.0,29.26
2021-02-24 21:00:00,35.2,22.1,58.48,300.0,7.0,30.09,10.0,28.68
2021-02-24 22:00:00,34.2,22.5,61.9,270.0,6.0,30.11,10.0,28.18
2021-02-24 23:00:00,32.0,20.5,62.12,260.0,3.0,30.12,10.0,28.69
2021-02-25 00:00:00,30.0,20.1,66.22,250.0,4.0,30.15,10.0,25.08
2021-02-25 01:00:00,27.0,18.7,70.53,0.0,0.0,30.17,10.0,27.0
2021-02-25 02:00:00,25.2,18.7,75.99,0.0,0.0,30.19,10.0,25.2
2021-02-25 03:00:00,21.6,17.1,82.5,260.0,3.0,30.2,10.0,16.8
2021-02-25 04:00:00,23.9,17.4,75.87,230.0,4.0,30.2,10.0,17.96
2021-02-25 05:00:00,25.9,17.6,70.41,240.0,6.0,30.2,10.0,18.18
2021-02-25 06:00:00,25.5,18.5,74.41,240.0,5.0,30.21,10.0,18.68
2021-02-25 07:00:00,27.0,20.1,74.88,260.0,6.0,30.22,10.0,19.51
2021-02-25 08:00:00,27.5,21.6,78.18,260.0,4.0,30.21,10.0,22.17
2021-02-25 09:00:00,26.6,21.4,80.45,270.0,6.0,30.21,10.0,19.03
2021-02-25 10:00:00,26.2,21.0,80.42,270.0,4.0,30.23,10.0,20.65
2021-02-25 11:00:00,24.1,20.1,84.47,260.0,4.0,30.23,10.0,18.19
2021-02-25 12:00:00,23.0,19.4,85.85,260.0,3.0,30.24,10.0,18.4
2021-02-25 13:00:00,23.5,19.8,85.52,250.0,5.0,30.26,10.0,16.3
2021-02-25 14:00:00,26.1,20.8,80.07,250.0,5.0,30.28,10.0,19.39
2021-02-25 15:00:00,28.2,21.6,75.96,260.0,6.0,30.28,10.0,20.95
2021-02-25 16:00:00,29.8,21.6,71.15,240.0,7.0,30.28,10.0,22.1
2021-02-25 17:00:00,31.8,21.2,64.51,260.0,8.0,30.27,10.0,23.87
2021-02-25 18:00:00,33.0,18.9,55.96,230.0,9.0,30.24,10.0,24.63
2021-02-25 19:00:00,34.7,17.8,49.67,230.0,10.0,30.22,10.0,26.35
2021-02-25 20:00:00,35.0,17.2,47.63,230.0,10.0,30.21,10.0,26.86
2021-02-25 21:00:00,35.0,20.1,54.37,220.0,11.0,30.2,10.0,26.13
2021-02-25 22:00:00,34.2,19.9,55.44,210.0,7.0,30.18,10.0,27.46
2021-02-25 23:00:00,32.0,19.4,59.27,200.0,6.0,30.16,10.0,25.53
2021-02-26 00:00:00,29.3,20.3,68.72,210.0,8.0,30.18,10.0,20.79
2021-02-26 01:00:00,27.0,19.4,72.68,190.0,5.0,30.16,10.0,20.46
2021-02-26 02:00:00,25.5,20.3,80.36,180.0,7.0,30.16,10.0,16.86
2021-02-26 03:00:00,23.4,20.3,87.72,180.0,5.0,30.15,10.0,16.18
2021-02-26 04:00:00,22.1,20.1,91.87,160.0,5.0,30.15,10.0,14.64
2021-02-26 05:00:00,21.4,19.8,93.43,150.0,5.0,30.13,10.0,13.81
2021-02-26 06:00:00,21.6,20.3,94.63,150.0,5.0,30.11,7.0,14.04
2021-02-26 07:00:00,21.6,20.3,94.63,150.0,6.0,30.11,7.0,13.0
2021-02-26 08:00:00,20.8,19.9,96.24,140.0,6.0,30.08,4.0,12.04
2021-02-26 09:00:00,21.4,20.1,94.63,150.0,7.0,30.03,7.0,11.86
2021-02-26 10:00:00,20.8,19.4,94.21,140.0,7.0,30.01,7.0,11.13
2021-02-26 11:00:00,20.8,19.6,95.02,140.0,6.0,29.98,7.0,12.04
2021-02-26 12:00:00,21.7,20.3,94.23,120.0,5.0,29.96,10.0,14.16
2021-02-26 13:00:00,22.1,20.3,92.66,120.0,5.0,29.96,10.0,14.64
2021-02-26 14:00:00,29.1,24.8,83.74,170.0,13.0,29.95,10.0,17.85
2021-02-26 15:00:00,32.0,25.7,77.28,180.0,16.0,29.93,10.0,20.42
2021-02-26 16:00:00,35.6,25.9,67.48,180.0,19.0,29.91,10.0,24.2
2021-02-26 17:00:00,38.3,25.7,60.17,200.0,16.0,29.88,10.0,28.63
2021-02-26 18:00:00,38.7,24.1,55.41,180.0,20.0,29.84,10.0,28.04
2021-02-26 19:00:00,38.3,21.4,50.24,180.0,19.0,29.8,10.0,27.77
2021-02-26 20:00:00,38.5,22.1,51.35,190.0,15.0,29.77,10.0,29.21
2021-02-26 21:00:00,38.3,22.6,52.85,180.0,16.0,29.75,10.0,28.63
2021-02-26 22:00:00,37.8,22.8,54.36,160.0,18.0,29.73,10.0,27.38
2021-02-26 23:00:00,35.6,23.5,61.05,160.0,11.0,29.73,10.0,27.02
2021-02-27 00:00:00,34.7,23.7,63.81,170.0,9.0,29.73,10.0,26.87
2021-02-27 01:00:00,34.2,24.8,68.16,180.0,8.0,29.73,10.0,26.82
2021-02-27 02:00:00,33.3,25.7,73.35,170.0,7.0,29.74,10.0,26.36
2021-02-27 03:00:00,32.0,25.5,76.64,170.0,9.0,29.73,10.0,23.51
2021-02-27 04:00:00,30.6,25.3,80.44,170.0,4.0,29.73,10.0,25.79
2021-02-27 05:00:00,31.5,26.6,81.85,160.0,7.0,29.72,10.0,24.17
2021-02-27 06:00:00,28.9,25.2,85.85,160.0,4.0,29.72,10.0,23.8
2021-02-27 07:00:00,28.2,25.2,88.34,150.0,4.0,29.72,10.0,22.98
2021-02-27 08:00:00,27.5,25.3,91.3,140.0,3.0,29.72,10.0,23.54
2021-02-27 09:00:00,27.7,25.7,92.07,140.0,4.0,29.72,10.0,22.4
2021-02-27 10:00:00,24.3,22.6,93.12,140.0,3.0,29.74,7.0,19.89
2021-02-27 11:00:00,21.7,20.8,96.26,0.0,0.0,29.75,2.0,21.7
2021-02-27 12:00:00,19.6,18.7,96.22,0.0,0.0,29.78,0.25,19.6
2021-02-27 13:00:00,18.3,17.1,94.96,0.0,0.0,29.81,0.75,18.3
2021-02-27 14:00:00,22.8,22.1,97.09,0.0,0.0,29.84,7.0,22.8
2021-02-27 15:00:00,31.6,28.0,86.36,0.0,0.0,29.86,10.0,31.6
2021-02-27 16:00:00,35.0,28.4,76.3,0.0,0.0,29.9,10.0,35.1
2021-02-27 17:00:00,37.0,29.3,73.43,0.0,0.0,29.93,10.0,37.0
2021-02-27 18:00:00,39.2,29.8,68.75,0.0,0.0,29.94,10.0,39.2
2021-02-27 19:00:00,40.8,29.7,64.34,0.0,0.0,29.94,10.0,40.8
2021-02-27 20:00:00,42.3,29.3,59.74,0.0,0.0,29.95,10.0,42.3
2021-02-27 21:00:00,41.4,29.3,61.85,0.0,0.0,29.96,10.0,41.4
2021-02-27 22:00:00,40.5,29.3,64.04,0.0,0.0,29.96,10.0,40.5
2021-02-27 23:00:00,37.8,29.3,71.16,0.0,0.0,29.96,10.0,37.8
2021-02-28 00:00:00,34.3,29.5,82.4,0.0,0.0,29.96,10.0,34.3
2021-02-28 01:00:00,33.8,28.8,81.69,0.0,0.0,29.97,10.0,33.8
2021-02-28 02:00:00,32.5,29.3,87.84,20.0,3.0,29.98,10.0,29.26
2021-02-28 03:00:00,33.6,29.8,85.78,360.0,5.0,29.98,10.0,28.3
2021-02-28 04:00:00,34.2,29.7,83.4,10.0,3.0,29.97,10.0,31.2
2021-02-28 05:00:00,33.6,29.7,85.43,0.0,0.0,29.98,10.0,33.6
2021-02-28 06:00:00,33.4,29.3,84.72,20.0,3.0,29.94,10.0,30.29
2021-02-28 07:00:00,34.2,28.8,80.4,360.0,7.0,29.9,10.0,27.46
2021-02-28 08:00:00,33.3,28.9,83.68,20.0,5.0,29.86,10.0,27.94
2021-02-28 09:00:00,32.2,28.4,85.69,0.0,0.0,29.82,10.0,32.2
2021-02-28 10:00:00,33.0,28.9,85.04,10.0,8.0,29.77,10.0,25.22
2021-02-28 11:00:00,33.4,28.8,83.01,10.0,5.0,29.76,10.0,28.06
2021-02-28 12:00:00,36.0,28.4,73.63,60.0,6.0,29.72,10.0,30.35
2021-02-28 13:00:00,32.0,31.6,98.4,10.0,11.0,29.69,1.0,22.47
2021-02-28 14:00:00,32.0,31.5,98.0,350.0,7.0,29.7,0.5,24.78
2021-02-28 15:00:00,30.7,29.8,96.41,360.0,11.0,29.69,0.25,20.82
2021-02-28 16:00:00,31.1,29.1,92.19,340.0,8.0,29.7,1.0,23.0
2021-02-28 17:00:00,30.2,27.3,88.81,330.0,7.0,29.72,2.5,22.59
2021-02-28 18:00:00,31.1,27.5,86.33,310.0,9.0,29.76,3.0,22.39
2021-02-28 19:00:00,31.5,25.0,76.6,320.0,8.0,29.79,10.0,23.5
2021-02-28 20:00:00,30.9,23.4,73.4,310.0,8.0,29.81,10.0,22.76
2021-02-28 21:00:00,32.0,21.2,63.99,280.0,10.0,29.83,10.0,22.97
2021-02-28 22:00:00,31.6,17.1,54.57,280.0,8.0,29.84,10.0,23.62
2021-02-28 23:00:00,27.5,15.8,60.97,270.0,10.0,29.88,10.0,17.33
2021-03-01 00:00:00,25.7,10.6,52.24,290.0,9.0,29.91,10.0,15.68
2021-03-01 01:00:00,24.6,9.5,52.06,290.0,9.0,29.94,10.0,14.31
2021-03-01 02:00:00,20.3,11.7,68.83,270.0,7.0,29.96,10.0,10.52
2021-03-01 03:00:00,18.3,9.7,68.59,270.0,5.0,29.99,10.0,10.13
2021-03-01 04:00:00,19.2,10.4,68.09,270.0,6.0,30.01,10.0,10.11
2021-03-01 05:00:00,20.1,7.0,56.23,300.0,7.0,30.03,10.0,10.27
2021-03-01 06:00:00,19.0,6.4,57.35,320.0,7.0,30.04,10.0,8.93
2021-03-01 07:00:00,18.1,6.8,60.7,320.0,6.0,30.07,10.0,8.79
2021-03-01 08:00:00,17.2,7.0,63.68,320.0,5.0,30.09,10.0,8.82
2021-03-01 09:00:00,15.8,5.4,62.91,290.0,9.0,30.13,10.0,3.37
2021-03-01 10:00:00,14.0,4.0,64.11,330.0,7.0,30.16,10.0,2.84
2021-03-01 11:00:00,10.6,2.0,67.93,330.0,4.0,30.2,10.0,2.43
2021-03-01 12:00:00,8.1,0.5,70.53,330.0,4.0,30.25,10.0,-0.49
2021-03-01 13:00:00,8.4,-0.9,65.15,330.0,4.0,30.3,10.0,-0.14
2021-03-01 14:00:00,10.0,-0.8,60.93,350.0,6.0,30.32,10.0,-0.97
2021-03-01 15:00:00,11.1,-4.4,48.89,350.0,9.0,30.34,10.0,-2.47
2021-03-01 16:00:00,13.1,-6.3,40.84,340.0,7.0,30.36,10.0,1.74
2021-03-01 17:00:00,14.7,-7.8,35.39,360.0,5.0,30.37,10.0,5.85
2021-03-01 18:00:00,16.3,-7.2,33.99,360.0,7.0,30.37,10.0,5.64
2021-03-01 19:00:00,18.0,-6.0,33.48,280.0,5.0,30.36,10.0,9.77
2021-03-01 20:00:00,19.0,-7.0,30.7,250.0,4.0,30.35,10.0,12.24
2021-03-01 21:00:00,19.2,-5.8,32.1,250.0,5.0,30.35,10.0,11.19
2021-03-01 22:00:00,19.2,-6.7,30.74,250.0,4.0,30.36,10.0,12.47
2021-03-01 23:00:00,17.2,-5.0,36.19,240.0,3.0,30.35,10.0,11.77
2021-03-02 00:00:00,13.6,-4.2,44.2,230.0,3.0,30.36,10.0,7.65
2021-03-02 01:00:00,8.1,-3.8,57.55,200.0,3.0,30.35,10.0,1.37
2021-03-02 02:00:00,8.4,-3.0,59.27,0.0,0.0,30.33,10.0,8.4
2021-03-02 03:00:00,13.5,1.0,56.77,150.0,5.0,30.3,10.0,4.42
2021-03-02 04:00:00,15.4,2.0,54.99,190.0,6.0,30.29,10.0,5.54
2021-03-02 05:00:00,16.7,4.0,56.48,190.0,6.0,30.27,10.0,7.1
2021-03-02 06:00:00,16.7,5.5,60.78,170.0,8.0,30.23,10.0,5.27
2021-03-02 07:00:00,15.1,5.5,65.15,170.0,8.0,30.2,10.0,3.3
2021-03-02 08:00:00,15.6,5.2,62.88,150.0,8.0,30.14,10.0,3.91
2021-03-02 09:00:00,14.5,3.6,61.3,160.0,6.0,30.11,10.0,4.45
2021-03-02 10:00:00,16.2,6.6,65.3,170.0,8.0,30.08,10.0,4.65
2021-03-02 11:00:00,15.3,6.4,67.29,160.0,7.0,30.05,10.0,4.42
2021-03-02 12:00:00,16.3,8.0,68.96,160.0,9.0,30.01,10.0,3.99
2021-03-02 13:00:00,18.7,11.1,71.76,160.0,10.0,29.96,10.0,6.29
2021-03-02 14:00:00,23.2,14.4,68.58,170.0,13.0,29.94,10.0,10.29
2021-03-02 15:00:00,27.5,18.0,67.05,170.0,10.0,29.91,10.0,17.33
2021-03-02 16:00:00,32.0,21.4,64.54,190.0,11.0,29.88,10.0,22.47
2021-03-02 17:00:00,36.5,23.7,59.41,190.0,15.0,29.87,10.0,26.61
2021-03-02 18:00:00,38.7,24.8,57.05,210.0,17.0,29.83,10.0,28.85
2021-03-02 19:00:00,40.3,26.2,56.82,190.0,12.0,29.77,10.0,32.57
2021-03-02 20:00:00,42.0,26.8,54.33,210.0,10.0,29.76,10.0,35.63
2021-03-02 21:00:00,42.3,27.9,56.41,210.0,11.0,29.76,10.0,35.48
2021-03-02 22:00:00,41.0,29.3,62.81,220.0,11.0,29.77,10.0,33.84
2021-03-02 23:00:00,39.4,29.8,68.21,190.0,6.0,29.76,10.0,34.44
2021-03-03 00:00:00,37.6,30.2,74.4,190.0,3.0,29.78,10.0,35.09
2021-03-03 01:00:00,35.8,30.2,79.87,0.0,0.0,29.79,10.0,35.8
2021-03-03 02:00:00,30.6,28.4,91.42,0.0,0.0,29.8,10.0,30.6
2021-03-03 03:00:00,27.5,26.8,97.16,0.0,0.0,29.81,4.0,27.5
2021-03-03 04:00:00,24.4,24.3,99.58,0.0,0.0,29.82,0.25,24.4
2021-03-03 05:00:00,22.6,21.7,96.27,0.0,0.0,29.84,0.75,22.6
2021-03-03 06:00:00,21.4,20.8,97.49,0.0,0.0,29.85,2.5,21.4
2021-03-03 07:00:00,21.7,20.8,96.26,0.0,0.0,29.86,0.25,21.7
2021-03-03 08:00:00,20.7,19.6,95.42,0.0,0.0,29.88,0.25,20.7
2021-03-03 09:00:00,18.5,17.4,95.38,0.0,0.0,29.9,4.0,18.5
2021-03-03 10:00:00,16.5,15.1,94.1,0.0,0.0,29.93,7.0,16.5
2021-03-03 11:00:00,22.1,21.6,97.91,0.0,0.0,29.94,2.0,22.1
2021-03-03 12:00:00,23.0,22.5,97.92,300.0,4.0,29.96,5.0,16.91
2021-03-03 13:00:00,16.0,14.2,92.45,0.0,0.0,29.99,10.0,16.0
2021-03-03 14:00:00,26.2,25.7,97.95,0.0,0.0,30.01,10.0,26.2
2021-03-03 15:00:00,30.6,30.2,98.39,10.0,6.0,30.03,10.0,23.84
2021-03-03 16:00:00,34.7,28.2,76.9,10.0,4.0,30.06,10.0,30.57
2021-03-03 17:00:00,37.2,27.5,67.67,360.0,4.0,30.08,10.0,33.49
2021-03-03 18:00:00,39.6,27.3,61.1,300.0,4.0,30.07,10.0,36.3
2021-03-03 19:00:00,41.0,26.1,55.07,320.0,3.0,30.06,10.0,38.98
2021-03-03 20:00:00,41.0,23.9,50.25,330.0,4.0,30.08,10.0,37.93
2021-03-03 21:00:00,41.5,23.7,48.87,280.0,3.0,30.09,10.0,39.55
2021-03-03 22:00:00,42.0,24.4,49.17,0.0,0.0,30.11,10.0,42.1
2021-03-03 23:00:00,39.0,25.7,58.54,0.0,0.0,30.12,10.0,39.0
2021-03-04 00:00:00,37.0,25.9,64.1,0.0,0.0,30.14,10.0,36.9
2021-03-04 01:00:00,34.0,27.3,76.2,0.0,0.0,30.16,10.0,34.0
2021-03-04 02:00:00,32.7,27.7,81.61,0.0,0.0,30.17,10.0,32.7
2021-03-04 03:00:00,33.0,27.3,79.0,20.0,4.0,30.19,10.0,28.7
2021-03-04 04:00:00,34.3,23.9,65.38,0.0,0.0,30.2,10.0,34.3
2021-03-04 05:00:00,29.1,24.8,83.74,0.0,0.0,30.2,10.0,29.1
2021-03-04 06:00:00,26.6,23.4,87.53,0.0,0.0,30.23,10.0,26.6
2021-03-04 07:00:00,25.9,23.7,91.24,0.0,0.0,30.26,10.0,25.9
2021-03-04 08:00:00,24.1,21.0,87.76,20.0,3.0,30.26,10.0,19.66
2021-03-04 09:00:00,27.0,22.8,83.95,10.0,5.0,30.27,10.0,20.46
2021-03-04 10:00:00,25.3,21.7,85.99,20.0,5.0,30.3,10.0,18.44
2021-03-04 11:00:00,26.8,21.9,81.49,70.0,5.0,30.33,10.0,20.22
2021-03-04 12:00:00,26.8,21.9,81.49,70.0,5.0,30.33,10.0,20.22
2021-03-04 13:00:00,24.3,18.7,78.9,90.0,5.0,30.38,10.0,17.25
2021-03-04 14:00:00,26.6,18.9,72.33,100.0,6.0,30.38,10.0,19.03
2021-03-04 15:00:00,29.3,18.5,63.63,90.0,5.0,30.38,10.0,23.19
2021-03-04 16:00:00,32.0,18.5,57.03,80.0,6.0,30.38,10.0,25.53
2021-03-04 17:00:00,34.3,18.3,51.56,80.0,7.0,30.37,10.0,27.58
2021-03-04 18:00:00,36.3,18.5,48.04,0.0,0.0,30.35,10.0,36.3
2021-03-04 19:00:00,37.4,19.6,48.21,0.0,0.0,30.35,10.0,37.4
2021-03-04 20:00:00,38.5,19.4,45.78,230.0,5.0,30.34,10.0,34.11
2021-03-04 21:00:00,39.0,20.1,46.26,0.0,0.0,30.34,10.0,39.0
2021-03-04 22:00:00,40.8,18.0,39.42,0.0,0.0,30.34,10.0,40.8
2021-03-04 23:00:00,39.0,18.7,43.57,120.0,3.0,30.34,10.0,36.69
2021-03-05 00:00:00,32.0,20.3,61.59,0.0,0.0,30.35,10.0,32.0
2021-03-05 01:00:00,27.9,20.3,72.78,0.0,0.0,30.35,10.0,27.9
2021-03-05 02:00:00,25.5,22.8,89.33,0.0,0.0,30.36,10.0,25.5
2021-03-05 03:00:00,23.7,20.8,88.49,0.0,0.0,30.36,10.0,23.7
2021-03-05 04:00:00,22.3,20.1,91.1,0.0,0.0,30.36,10.0,22.3
2021-03-05 05:00:00,20.8,18.7,91.43,10.0,3.0,30.37,10.0,15.88
2021-03-05 06:00:00,20.8,17.1,85.35,360.0,4.0,30.37,10.0,14.34
2021-03-05 07:00:00,19.4,17.4,91.77,0.0,0.0,30.37,10.0,19.4
2021-03-05 08:00:00,20.7,18.5,91.03,0.0,0.0,30.38,10.0,20.7
2021-03-05 09:00:00,20.3,18.5,92.6,0.0,0.0,30.38,10.0,20.3
2021-03-05 10:00:00,21.2,18.5,89.12,0.0,0.0,30.38,10.0,21.2
2021-03-05 11:00:00,22.1,19.2,88.41,0.0,0.0,30.39,10.0,22.1
2021-03-05 12:00:00,21.9,19.2,89.16,0.0,0.0,30.39,10.0,21.9
2021-03-05 13:00:00,21.6,19.4,91.07,0.0,0.0,30.39,7.0,21.6
2021-03-05 14:00:00,26.6,19.6,74.52,0.0,0.0,30.4,10.0,26.6
2021-03-05 15:00:00,31.3,18.9,59.68,0.0,0.0,30.4,10.0,31.3
2021-03-05 16:00:00,35.8,21.2,54.98,0.0,0.0,30.41,10.0,35.8
2021-03-05 17:00:00,39.0,21.9,49.93,0.0,0.0,30.39,10.0,39.0
2021-03-05 18:00:00,41.0,21.7,45.81,0.0,0.0,30.37,10.0,41.0
2021-03-05 19:00:00,42.0,21.2,42.98,0.0,0.0,30.35,10.0,42.1
2021-03-05 20:00:00,42.8,21.6,42.55,10.0,3.0,30.34,10.0,41.03
2021-03-05 21:00:00,44.6,19.8,36.8,0.0,0.0,30.34,10.0,44.6
2021-03-05 22:00:00,43.7,19.9,38.25,230.0,3.0,30.34,10.0,42.06
2021-03-05 23:00:00,42.0,19.4,39.81,0.0,0.0,30.33,10.0,42.1
2021-03-06 00:00:00,35.0,22.3,59.69,10.0,4.0,30.34,10.0,30.81
2021-03-06 01:00:00,34.0,21.0,58.56,0.0,0.0,30.34,10.0,34.0
2021-03-06 02:00:00,28.2,22.8,79.91,0.0,0.0,30.35,10.0,28.2
2021-03-06 03:00:00,27.7,20.5,74.0,0.0,0.0,30.35,10.0,27.7
2021-03-06 04:00:00,25.7,18.1,72.54,0.0,0.0,30.35,10.0,25.7
2021-03-06 05:00:00,22.3,18.0,83.27,0.0,0.0,30.35,10.0,22.3
2021-03-06 06:00:00,20.1,18.7,94.19,0.0,0.0,30.36,10.0,20.1
2021-03-06 07:00:00,17.1,15.6,93.7,0.0,0.0,30.37,10.0,17.1
2021-03-06 08:00:00,17.2,15.8,94.11,0.0,0.0,30.36,10.0,17.2
2021-03-06 09:00:00,15.8,14.4,94.08,0.0,0.0,30.37,10.0,15.8
2021-03-06 10:00:00,15.1,13.8,94.47,0.0,0.0,30.37,10.0,15.1
2021-03-06 11:00:00,14.0,11.8,90.76,0.0,0.0,30.38,10.0,14.0
2021-03-06 12:00:00,14.0,12.2,92.38,0.0,0.0,30.38,10.0,14.0
2021-03-06 13:00:00,17.4,15.6,92.5,0.0,0.0,30.38,10.0,17.4
2021-03-06 14:00:00,22.1,16.9,80.08,0.0,0.0,30.38,10.0,22.1
2021-03-06 15:00:00,28.0,17.4,64.01,0.0,0.0,30.39,10.0,28.0
2021-03-06 16:00:00,34.5,16.7,47.74,0.0,0.0,30.38,10.0,34.5
2021-03-06 17:00:00,37.4,16.9,42.93,0.0,0.0,30.37,10.0,37.4
2021-03-06 18:00:00,39.2,12.9,33.6,280.0,3.0,30.35,10.0,36.92
2021-03-06 19:00:00,40.0,14.4,34.65,290.0,3.0,30.34,10.0,37.95
2021-03-06 20:00:00,41.0,14.7,33.9,0.0,0.0,30.32,10.0,41.0
2021-03-06 21:00:00,42.3,12.4,29.15,0.0,0.0,30.32,10.0,42.3
2021-03-06 22:00:00,42.0,12.7,29.99,0.0,0.0,30.3,10.0,41.9
2021-03-06 23:00:00,39.0,11.7,32.11,0.0,0.0,30.3,10.0,39.0
2021-03-07 00:00:00,32.5,15.8,49.74,0.0,0.0,30.29,10.0,32.5
2021-03-07 01:00:00,28.4,18.3,65.46,0.0,0.0,30.28,10.0,28.4
2021-03-07 02:00:00,27.3,16.9,64.47,0.0,0.0,30.28,10.0,27.3
2021-03-07 03:00:00,22.8,18.1,81.88,0.0,0.0,30.28,10.0,22.8
2021-03-07 04:00:00,23.5,16.7,74.85,0.0,0.0,30.28,10.0,23.5
2021-03-07 05:00:00,21.0,18.0,87.97,0.0,0.0,30.28,10.0,21.0
2021-03-07 06:00:00,23.2,15.3,71.33,130.0,3.0,30.28,10.0,18.63
2021-03-07 07:00:00,24.8,12.6,59.26,120.0,4.0,30.27,10.0,19.01
2021-03-07 08:00:00,26.6,12.0,53.56,110.0,4.0,30.26,10.0,21.11
2021-03-07 09:00:00,25.2,13.5,60.64,130.0,7.0,30.25,10.0,16.49
2021-03-07 10:00:00,27.7,14.7,57.64,130.0,8.0,30.23,10.0,18.82
2021-03-07 11:00:00,28.4,16.3,60.04,120.0,10.0,30.21,10.0,18.45
2021-03-07 12:00:00,29.3,16.7,58.88,120.0,13.0,30.19,10.0,18.11
2021-03-07 13:00:00,30.0,17.6,59.5,130.0,13.0,30.2,10.0,19.01
2021-03-07 14:00:00,32.0,19.6,59.78,130.0,13.0,30.19,10.0,21.57
2021-03-07 15:00:00,34.3,21.9,60.11,140.0,15.0,30.18,10.0,23.76
2021-03-07 16:00:00,37.4,24.1,58.31,130.0,12.0,30.16,10.0,28.87
2021-03-07 17:00:00,39.6,26.2,58.38,140.0,14.0,30.12,10.0,30.96
2021-03-07 18:00:00,41.7,27.7,57.25,130.0,16.0,30.11,10.0,33.06
2021-03-07 19:00:00,45.5,29.3,52.86,130.0,14.0,30.06,10.0,38.56
2021-03-07 20:00:00,47.8,32.0,54.07,140.0,16.0,30.03,10.0,41.01
2021-03-07 21:00:00,47.3,32.0,55.1,140.0,15.0,30.0,10.0,40.61
2021-03-07 22:00:00,46.8,33.0,58.22,140.0,8.0,30.02,10.0,42.34
2021-03-07 23:00:00,46.8,34.3,61.57,160.0,9.0,30.03,10.0,41.92
2021-03-08 00:00:00,47.0,36.5,66.94,170.0,8.0,30.04,10.0,42.47
2021-03-08 01:00:00,43.7,36.5,75.59,160.0,8.0,30.04,10.0,38.53
2021-03-08 02:00:00,43.2,36.5,77.05,160.0,7.0,30.05,10.0,38.43
2021-03-08 03:00:00,42.0,36.5,81.0,160.0,4.0,30.06,10.0,38.98
2021-03-08 04:00:00,39.7,35.6,85.12,0.0,0.0,30.06,10.0,39.7
2021-03-08 05:00:00,36.7,35.2,94.23,0.0,0.0,30.08,10.0,36.7
2021-03-08 06:00:00,33.0,32.5,98.41,0.0,0.0,30.08,4.0,32.9
2021-03-08 07:00:00,30.4,29.8,97.59,0.0,0.0,30.1,1.25,30.4
2021-03-08 08:00:00,29.5,29.5,100.0,0.0,0.0,30.11,0.25,29.5
2021-03-08 09:00:00,28.9,28.9,100.0,0.0,0.0,30.12,4.0,28.9
2021-03-08 10:00:00,30.2,30.2,100.0,0.0,0.0,30.14,1.25,30.2
2021-03-08 11:00:00,29.7,29.7,100.0,240.0,3.0,30.17,0.75,26.06
2021-03-08 12:00:00,30.6,30.6,100.0,270.0,3.0,30.19,3.0,27.09
2021-03-08 13:00:00,30.9,30.9,100.0,260.0,3.0,30.21,4.0,27.43
2021-03-08 14:00:00,37.0,33.8,88.07,270.0,3.0,30.23,10.0,34.4
2021-03-08 15:00:00,40.5,33.0,74.68,290.0,4.0,30.24,10.0,37.35
2021-03-08 16:00:00,44.0,32.0,62.21,280.0,3.0,30.25,10.0,42.52
2021-03-08 17:00:00,47.3,26.2,43.48,340.0,4.0,30.24,10.0,45.29
2021-03-08 18:00:00,49.0,25.2,38.99,280.0,3.0,30.24,10.0,48.24
2021-03-08 19:00:00,49.6,25.7,39.07,250.0,4.0,30.23,10.0,47.97
2021-03-08 20:00:00,49.8,26.2,39.59,240.0,5.0,30.23,10.0,47.53
2021-03-08 21:00:00,50.7,26.2,38.29,210.0,4.0,30.23,10.0,50.7
2021-03-08 22:00:00,51.0,25.5,36.92,0.0,0.0,30.22,10.0,50.9
2021-03-08 23:00:00,46.6,26.2,44.64,0.0,0.0,30.22,10.0,46.6
2021-03-09 00:00:00,38.7,28.2,65.67,0.0,0.0,30.24,10.0,38.7
2021-03-09 01:00:00,34.3,28.4,78.77,0.0,0.0,30.24,10.0,34.3
2021-03-09 02:00:00,32.5,28.9,86.42,0.0,0.0,30.23,10.0,32.5
2021-03-09 03:00:00,32.0,26.6,80.22,20.0,3.0,30.22,10.0,28.69
2021-03-09 04:00:00,29.7,27.9,92.9,0.0,0.0,30.22,10.0,29.7
2021-03-09 05:00:00,29.3,26.8,90.25,0.0,0.0,30.23,10.0,29.3
2021-03-09 06:00:00,33.0,25.9,74.56,0.0,0.0,30.2,10.0,33.1
2021-03-09 07:00:00,32.5,26.2,77.33,0.0,0.0,30.18,10.0,32.5
2021-03-09 08:00:00,36.7,26.2,65.41,120.0,6.0,30.17,10.0,31.19
2021-03-09 09:00:00,39.7,27.5,61.36,120.0,11.0,30.14,10.0,32.2
2021-03-09 10:00:00,40.3,27.9,60.94,120.0,9.0,30.12,10.0,33.83
2021-03-09 11:00:00,41.0,28.2,60.05,130.0,13.0,30.1,10.0,33.1
2021-03-09 12:00:00,40.3,28.9,63.49,120.0,10.0,30.09,10.0,33.38
2021-03-09 13:00:00,40.8,30.2,65.66,120.0,10.0,30.08,10.0,34.0
2021-03-09 14:00:00,42.8,32.0,65.38,130.0,12.0,30.06,10.0,35.75
2021-03-09 15:00:00,46.4,34.0,61.77,130.0,12.0,30.03,10.0,40.33
2021-03-09 16:00:00,50.0,35.6,57.52,130.0,13.0,30.01,10.0,50.0
2021-03-09 17:00:00,53.2,36.7,53.38,130.0,12.0,29.97,10.0,53.2
2021-03-09 18:00:00,56.8,36.5,46.45,160.0,16.0,29.93,10.0,56.8
2021-03-09 19:00:00,58.3,36.3,43.67,150.0,16.0,29.88,10.0,58.3
2021-03-09 20:00:00,58.3,36.0,43.15,160.0,13.0,29.85,10.0,58.3
2021-03-09 21:00:00,57.0,36.5,46.12,150.0,11.0,29.83,10.0,57.0
2021-03-09 22:00:00,56.0,37.4,49.73,150.0,9.0,29.83,10.0,55.9
2021-03-09 23:00:00,53.4,37.6,54.9,160.0,9.0,29.84,10.0,53.4
2021-03-10 00:00:00,53.0,40.8,63.35,160.0,9.0,29.85,10.0,52.9
2021-03-10 01:00:00,51.0,40.0,66.38,140.0,6.0,29.84,10.0,50.9
2021-03-10 02:00:00,49.6,39.4,67.79,130.0,7.0,29.82,10.0,46.23
2021-03-10 03:00:00,48.2,39.2,70.88,120.0,6.0,29.8,10.0,45.04
2021-03-10 04:00:00,47.3,38.7,71.89,130.0,5.0,29.79,10.0,44.57
2021-03-10 05:00:00,43.7,37.6,78.94,140.0,3.0,29.77,10.0,42.06
2021-03-10 06:00:00,44.6,38.3,78.4,0.0,0.0,29.78,10.0,44.6
2021-03-10 07:00:00,43.2,38.5,83.36,0.0,0.0,29.76,10.0,43.2
2021-03-10 08:00:00,38.7,36.0,89.92,0.0,0.0,29.75,10.0,38.7
2021-03-10 09:00:00,35.2,33.3,92.7,0.0,0.0,29.74,10.0,35.2
2021-03-10 10:00:00,36.7,34.7,92.38,0.0,0.0,29.74,10.0,36.7
2021-03-10 11:00:00,35.8,33.8,92.35,360.0,3.0,29.74,10.0,33.03
2021-03-10 12:00:00,37.6,36.7,96.52,30.0,4.0,29.73,7.0,33.96
2021-03-10 13:00:00,37.4,36.5,96.51,360.0,5.0,29.73,5.0,32.81
2021-03-10 14:00:00,41.0,40.6,98.46,20.0,8.0,29.72,3.0,35.2
2021-03-10 15:00:00,41.0,41.0,100.0,30.0,3.0,29.7,1.75,38.98
2021-03-10 16:00:00,40.3,40.3,100.0,10.0,6.0,29.68,1.0,35.53
2021-03-10 17:00:00,41.4,41.4,100.0,10.0,11.0,29.64,1.5,34.35
2021-03-10 18:00:00,41.7,41.7,100.0,20.0,8.0,29.62,1.5,36.06
2021-03-10 19:00:00,42.0,42.0,100.0,20.0,4.0,29.59,1.5,38.98
2021-03-10 20:00:00,42.0,42.0,100.0,20.0,7.0,29.56,1.25,36.85
2021-03-10 21:00:00,41.0,41.0,100.0,20.0,7.0,29.54,2.0,35.75
2021-03-10 22:00:00,39.6,39.6,100.0,20.0,11.0,29.52,10.0,32.07
2021-03-10 23:00:00,39.6,39.6,100.0,20.0,11.0,29.48,7.0,32.07
2021-03-11 00:00:00,39.4,39.4,100.0,30.0,9.0,29.46,5.0,32.72
2021-03-11 01:00:00,43.2,42.0,95.13,10.0,4.0,29.47,10.0,40.5
2021-03-11 02:00:00,38.3,37.0,95.02,20.0,12.0,29.46,10.0,30.02
2021-03-11 03:00:00,37.0,36.0,96.51,360.0,6.0,29.44,10.0,31.43
2021-03-11 04:00:00,34.2,34.0,99.2,0.0,0.0,29.43,10.0,34.2
2021-03-11 05:00:00,42.6,38.7,85.97,200.0,20.0,29.44,10.0,33.22
2021-03-11 06:00:00,38.0,35.4,89.89,210.0,17.0,29.46,10.0,28.07
2021-03-11 07:00:00,35.0,33.0,93.06,210.0,19.0,29.49,2.5,23.27
2021-03-11 08:00:00,34.0,33.0,95.69,210.0,15.0,29.5,2.5,23.37
2021-03-11 09:00:00,34.2,33.0,94.93,250.0,14.0,29.53,5.0,24.0
2021-03-11 10:00:00,32.5,31.8,97.22,260.0,13.0,29.6,1.75,22.21
2021-03-11 11:00:00,32.0,30.4,93.73,270.0,10.0,29.67,7.0,22.97
2021-03-11 12:00:00,32.0,29.7,91.1,260.0,11.0,29.73,5.0,22.47
2021-03-11 13:00:00,31.8,28.0,85.67,270.0,10.0,29.79,7.0,22.72
2021-03-11 14:00:00,31.8,30.0,92.97,260.0,11.0,29.84,3.0,22.21
2021-03-11 15:00:00,34.0,29.8,84.42,270.0,12.0,29.88,10.0,24.55
2021-03-11 16:00:00,36.0,30.4,79.89,270.0,12.0,29.93,10.0,27.09
2021-03-11 17:00:00,37.6,30.6,75.61,260.0,13.0,29.96,10.0,28.74
2021-03-11 18:00:00,40.0,30.6,68.57,260.0,12.0,29.99,10.0,32.31
2021-03-11 19:00:00,41.7,29.3,61.13,260.0,13.0,30.01,10.0,34.0
2021-03-11 20:00:00,43.2,27.0,52.51,280.0,12.0,30.04,10.0,36.26
2021-03-11 21:00:00,42.8,27.1,53.54,270.0,12.0,30.07,10.0,35.75
2021-03-11 22:00:00,42.8,24.3,47.67,260.0,10.0,30.08,10.0,36.51
2021-03-11 23:00:00,41.0,24.3,51.09,260.0,5.0,30.09,10.0,37.08
2021-03-12 00:00:00,38.0,23.7,55.79,260.0,4.0,30.12,10.0,34.54
2021-03-12 01:00:00,36.0,25.3,64.78,260.0,4.0,30.15,10.0,32.09
2021-03-12 02:00:00,35.2,27.1,72.05,270.0,7.0,30.17,10.0,28.68
2021-03-12 03:00:00,34.0,27.3,76.2,260.0,5.0,30.2,10.0,28.77
2021-03-12 04:00:00,33.0,27.1,78.35,250.0,6.0,30.23,10.0,26.86
2021-03-12 05:00:00,33.8,28.2,79.71,260.0,7.0,30.24,10.0,26.97
2021-03-12 06:00:00,34.5,27.5,75.31,290.0,10.0,30.26,10.0,26.1
2021-03-12 07:00:00,32.0,21.9,65.92,290.0,10.0,30.31,10.0,22.97
2021-03-12 08:00:00,29.3,20.3,68.72,320.0,8.0,30.33,10.0,20.79
2021-03-12 09:00:00,27.5,17.8,66.48,340.0,7.0,30.35,10.0,19.29
2021-03-12 10:00:00,25.9,14.7,62.08,320.0,6.0,30.38,10.0,18.18
2021-03-12 11:00:00,23.7,10.6,56.78,320.0,8.0,30.41,10.0,13.89
2021-03-12 12:00:00,22.1,9.3,57.3,320.0,6.0,30.43,10.0,13.61
2021-03-12 13:00:00,22.1,9.1,56.79,330.0,5.0,30.47,10.0,14.64
2021-03-12 14:00:00,23.0,8.0,51.81,310.0,7.0,30.5,10.0,13.81
2021-03-12 15:00:00,24.6,8.1,48.89,320.0,6.0,30.51,10.0,16.62
2021-03-12 16:00:00,26.4,11.3,52.35,300.0,6.0,30.51,10.0,18.79
2021-03-12 17:00:00,27.7,10.2,47.25,330.0,4.0,30.5,10.0,22.4
2021-03-12 18:00:00,30.2,11.5,45.2,240.0,3.0,30.5,10.0,26.63
2021-03-12 19:00:00,31.6,10.6,41.03,0.0,0.0,30.48,10.0,31.6
2021-03-12 20:00:00,33.3,11.8,40.42,280.0,4.0,30.46,10.0,28.94
2021-03-12 21:00:00,34.0,10.0,36.27,0.0,0.0,30.45,10.0,34.0
2021-03-12 22:00:00,35.0,11.5,37.41,260.0,4.0,30.44,10.0,30.81
2021-03-12 23:00:00,34.7,14.4,42.85,230.0,5.0,30.45,10.0,29.6
2021-03-13 00:00:00,32.0,16.2,51.64,0.0,0.0,30.46,10.0,32.0
2021-03-13 01:00:00,29.1,17.1,60.4,0.0,0.0,30.46,10.0,29.1
2021-03-13 02:00:00,29.1,17.1,60.4,0.0,0.0,30.46,10.0,29.1
2021-03-13 03:00:00,25.7,20.1,79.02,0.0,0.0,30.45,10.0,25.7
2021-03-13 04:00:00,25.0,19.9,80.66,0.0,0.0,30.44,10.0,25.0
2021-03-13 05:00:00,24.6,19.8,81.67,0.0,0.0,30.43,10.0,24.6
2021-03-13 06:00:00,24.6,19.9,82.02,0.0,0.0,30.42,10.0,24.6
2021-03-13 07:00:00,23.9,19.8,84.09,0.0,0.0,30.42,10.0,23.9
2021-03-13 08:00:00,23.9,19.4,82.67,0.0,0.0,30.41,10.0,23.9
2021-03-13 09:00:00,23.9,20.3,85.91,0.0,0.0,30.39,10.0,23.9
2021-03-13 10:00:00,24.3,20.3,84.48,140.0,4.0,30.38,10.0,18.43
2021-03-13 11:00:00,24.1,20.3,85.19,0.0,0.0,30.37,10.0,24.1
2021-03-13 12:00:00,24.3,21.4,88.52,0.0,0.0,30.37,10.0,24.3
2021-03-13 13:00:00,30.2,26.4,85.57,0.0,0.0,30.37,10.0,30.2
2021-03-13 14:00:00,40.0,31.6,71.41,240.0,4.0,30.38,10.0,36.88
2021-03-13 15:00:00,44.4,31.6,60.51,250.0,6.0,30.37,10.0,40.46
2021-03-13 16:00:00,46.2,31.8,56.97,250.0,10.0,30.37,10.0,40.77
2021-03-13 17:00:00,50.2,32.5,50.44,250.0,10.0,30.35,10.0,50.2
2021-03-13 18:00:00,53.4,32.7,45.19,240.0,10.0,30.34,10.0,53.4
2021-03-13 19:00:00,55.0,31.6,40.77,230.0,13.0,30.31,10.0,55.0
2021-03-13 20:00:00,56.3,31.8,39.21,220.0,13.0,30.29,10.0,56.3
2021-03-13 21:00:00,55.8,29.3,36.07,250.0,9.0,30.28,10.0,55.8
2021-03-13 22:00:00,55.2,31.3,39.99,250.0,10.0,30.28,10.0,55.2
2021-03-13 23:00:00,52.0,31.3,44.96,250.0,6.0,30.28,10.0,52.0
2021-03-14 00:00:00,48.4,30.2,49.16,250.0,6.0,30.3,10.0,45.28
2021-03-14 01:00:00,45.5,30.7,55.96,270.0,4.0,30.3,10.0,43.18
2021-03-14 02:00:00,42.8,30.9,62.54,300.0,4.0,30.29,10.0,40.03
2021-03-14 03:00:00,44.0,32.0,62.68,320.0,4.0,30.3,10.0,41.32
2021-03-14 04:00:00,43.7,28.2,54.12,350.0,7.0,30.32,10.0,39.04
2021-03-14 05:00:00,40.5,25.5,54.76,360.0,10.0,30.33,10.0,33.63
2021-03-14 06:00:00,41.0,21.6,45.61,350.0,4.0,30.35,10.0,37.93
2021-03-14 07:00:00,37.4,21.9,53.16,340.0,3.0,30.38,10.0,34.86
2021-03-14 08:00:00,35.8,21.7,56.15,330.0,3.0,30.38,10.0,33.03
2021-03-14 09:00:00,30.9,23.7,74.33,0.0,0.0,30.38,10.0,30.9
2021-03-14 10:00:00,27.9,23.9,84.72,0.0,0.0,30.41,10.0,27.9
2021-03-14 11:00:00,26.2,22.3,84.96,0.0,0.0,30.43,10.0,26.2
2021-03-14 12:00:00,26.6,23.5,87.89,0.0,0.0,30.45,10.0,26.6
2021-03-14 13:00:00,30.7,27.5,87.75,10.0,4.0,30.47,10.0,25.9
2021-03-14 14:00:00,36.0,21.7,55.49,30.0,8.0,30.49,10.0,29.16
2021-03-14 15:00:00,38.7,20.5,47.61,70.0,12.0,30.49,10.0,30.53
2021-03-14 16:00:00,39.4,20.3,45.93,50.0,10.0,30.48,10.0,32.25
2021-03-14 17:00:00,39.4,20.3,45.93,50.0,10.0,30.48,10.0,32.25
2021-03-14 18:00:00,41.7,18.0,38.07,50.0,9.0,30.47,10.0,35.58
2021-03-14 19:00:00,43.2,18.7,37.04,60.0,11.0,30.45,10.0,36.62
2021-03-14 20:00:00,43.2,16.7,33.98,40.0,12.0,30.43,10.0,36.26
2021-03-14 21:00:00,43.3,15.4,31.99,60.0,12.0,30.43,10.0,36.38
2021-03-14 22:00:00,42.0,11.7,28.7,70.0,12.0,30.41,10.0,34.6
2021-03-14 23:00:00,39.6,12.9,33.08,60.0,10.0,30.39,10.0,32.5
2021-03-15 00:00:00,37.6,13.1,36.09,60.0,9.0,30.38,10.0,30.48
2021-03-15 01:00:00,35.8,13.5,39.43,60.0,7.0,30.39,10.0,29.41
2021-03-15 02:00:00,35.0,11.7,37.45,70.0,8.0,30.4,10.0,27.93
2021-03-15 03:00:00,33.6,12.7,41.55,80.0,8.0,30.4,10.0,26.08
2021-03-15 04:00:00,32.0,13.8,46.51,70.0,12.0,30.38,10.0,22.0
2021-03-15 05:00:00,30.7,15.1,51.89,90.0,7.0,30.38,10.0,23.19
2021-03-15 06:00:00,30.0,18.0,60.53,100.0,10.0,30.36,10.0,20.46
2021-03-15 07:00:00,29.7,14.9,53.57,100.0,9.0,30.35,10.0,20.65
2021-03-15 08:00:00,27.7,14.7,57.64,100.0,8.0,30.34,10.0,18.82
2021-03-15 09:00:00,27.1,13.6,56.3,100.0,10.0,30.33,10.0,16.82
2021-03-15 10:00:00,26.6,13.6,57.47,90.0,11.0,30.31,10.0,15.64
2021-03-15 11:00:00,26.1,13.8,59.19,80.0,9.0,30.29,10.0,16.18
2021-03-15 12:00:00,25.7,14.9,63.15,90.0,11.0,30.28,10.0,14.5
2021-03-15 13:00:00,26.6,17.1,66.94,100.0,14.0,30.28,10.0,14.2
2021-03-15 14:00:00,29.1,17.6,61.72,100.0,10.0,30.25,10.0,19.33
2021-03-15 15:00:00,30.7,17.4,57.33,90.0,14.0,30.23,10.0,19.49
2021-03-15 16:00:00,32.4,16.7,51.93,90.0,10.0,30.2,10.0,23.47
2021-03-15 17:00:00,34.7,14.7,43.42,80.0,17.0,30.17,10.0,23.61
2021-03-15 18:00:00,36.3,13.1,37.99,100.0,11.0,30.17,10.0,27.9
2021-03-15 19:00:00,37.6,12.9,35.77,110.0,9.0,30.12,10.0,30.48
2021-03-15 20:00:00,37.8,12.4,34.72,110.0,11.0,30.11,10.0,29.8
2021-03-15 21:00:00,37.0,12.4,35.83,110.0,14.0,30.09,10.0,27.61
2021-03-15 22:00:00,33.3,20.5,58.96,80.0,13.0,30.09,7.0,23.23
2021-03-15 23:00:00,29.3,27.9,94.43,80.0,6.0,30.08,0.5,22.28
2021-03-16 00:00:00,29.3,28.4,96.39,90.0,5.0,30.08,0.5,23.19
2021-03-16 01:00:00,29.3,28.2,95.6,90.0,4.0,30.08,0.75,24.27
2021-03-16 02:00:00,29.1,28.0,95.59,90.0,5.0,30.07,1.25,22.95
2021-03-16 03:00:00,29.1,27.3,92.88,100.0,5.0,30.06,10.0,22.95
2021-03-16 04:00:00,28.6,25.7,88.73,100.0,9.0,30.04,10.0,19.29
2021-03-16 05:00:00,28.8,24.4,83.37,110.0,6.0,30.02,10.0,21.68
2021-03-16 06:00:00,28.4,24.6,85.46,110.0,5.0,30.03,10.0,22.12
2021-03-16 07:00:00,28.2,24.6,86.16,110.0,4.0,30.04,10.0,22.98
2021-03-16 08:00:00,28.0,24.6,86.87,70.0,3.0,30.03,10.0,24.12
2021-03-16 09:00:00,28.0,24.1,85.08,80.0,3.0,30.01,10.0,24.12
2021-03-16 10:00:00,28.0,24.3,85.79,90.0,3.0,30.0,10.0,24.12
2021-03-16 11:00:00,28.2,24.1,84.38,0.0,0.0,30.01,10.0,28.2
2021-03-16 12:00:00,28.2,24.4,85.45,0.0,0.0,30.02,10.0,28.2
2021-03-16 13:00:00,28.4,24.8,86.18,0.0,0.0,30.02,10.0,28.4
2021-03-16 14:00:00,29.7,25.0,82.4,140.0,3.0,30.03,10.0,26.06
2021-03-16 15:00:00,30.9,25.0,78.48,0.0,0.0,30.04,10.0,30.9
2021-03-16 16:00:00,32.0,25.3,76.01,0.0,0.0,30.03,10.0,32.0
2021-03-16 17:00:00,33.0,25.3,73.31,0.0,0.0,30.03,10.0,32.9
2021-03-16 18:00:00,33.3,25.3,72.14,170.0,3.0,30.03,10.0,30.17
2021-03-16 19:00:00,33.8,25.2,70.42,170.0,6.0,30.02,10.0,27.7
2021-03-16 20:00:00,34.0,26.1,72.52,150.0,5.0,30.02,10.0,28.77
2021-03-16 21:00:00,34.0,26.4,73.42,210.0,4.0,30.03,10.0,29.76
2021-03-16 22:00:00,33.8,26.2,73.4,190.0,4.0,30.04,10.0,29.52
2021-03-16 23:00:00,33.4,26.2,74.59,0.0,0.0,30.04,10.0,33.4
2021-03-17 00:00:00,33.0,26.6,76.75,0.0,0.0,30.04,10.0,33.1
2021-03-17 01:00:00,32.5,27.3,80.92,0.0,0.0,30.04,10.0,32.5
2021-03-17 02:00:00,32.0,28.2,85.68,0.0,0.0,30.04,10.0,32.0
2021-03-17 03:00:00,32.0,27.5,83.25,150.0,3.0,30.04,10.0,28.69
2021-03-17 04:00:00,32.0,27.7,83.94,0.0,0.0,30.06,10.0,32.0
2021-03-17 05:00:00,31.8,28.4,87.09,0.0,0.0,30.07,10.0,31.8
2021-03-17 06:00:00,31.6,28.4,87.79,0.0,0.0,30.06,10.0,31.6
2021-03-17 07:00:00,31.5,28.0,86.71,0.0,0.0,30.06,5.0,31.5
2021-03-17 08:00:00,31.1,28.0,88.13,0.0,0.0,30.05,10.0,31.1
2021-03-17 09:00:00,31.3,29.1,91.45,0.0,0.0,30.04,7.0,31.3
2021-03-17 10:00:00,30.6,29.3,94.85,0.0,0.0,30.04,7.0,30.6
2021-03-17 11:00:00,30.7,29.1,93.69,0.0,0.0,30.06,10.0,30.7
2021-03-17 12:00:00,30.0,29.3,97.19,0.0,0.0,30.06,7.0,30.0
2021-03-17 13:00:00,31.5,29.3,91.45,0.0,0.0,30.09,7.0,31.5
2021-03-17 14:00:00,32.4,29.3,88.19,0.0,0.0,30.08,10.0,32.4
2021-03-17 15:00:00,35.0,29.5,80.45,360.0,6.0,30.08,10.0,29.02
2021-03-17 16:00:00,37.2,30.4,76.19,20.0,5.0,30.06,10.0,32.57
2021-03-17 17:00:00,38.0,29.5,71.46,360.0,4.0,30.07,10.0,34.31
2021-03-17 18:00:00,40.6,30.2,66.17,10.0,6.0,30.05,10.0,35.89
2021-03-17 19:00:00,39.7,29.8,67.42,340.0,8.0,30.05,10.0,33.6
2021-03-17 20:00:00,39.4,29.8,68.21,330.0,6.0,30.08,10.0,34.44
2021-03-17 21:00:00,39.6,29.5,66.86,360.0,7.0,30.07,10.0,34.04
2021-03-17 22:00:00,39.2,29.5,67.91,340.0,5.0,30.1,10.0,34.95
2021-03-17 23:00:00,38.5,27.3,63.78,350.0,8.0,30.09,10.0,32.12
2021-03-18 00:00:00,37.0,26.6,65.98,360.0,6.0,30.09,10.0,31.43
2021-03-18 01:00:00,36.3,26.2,66.46,360.0,7.0,30.1,10.0,30.02
2021-03-18 02:00:00,35.6,26.2,68.32,350.0,5.0,30.1,10.0,30.67
2021-03-18 03:00:00,31.3,25.7,79.5,0.0,0.0,30.11,10.0,31.3
2021-03-18 04:00:00,28.9,26.6,90.98,0.0,0.0,30.11,10.0,28.9
2021-03-18 05:00:00,27.5,25.7,92.83,0.0,0.0,30.14,10.0,27.5
2021-03-18 06:00:00,27.1,26.1,95.95,0.0,0.0,30.16,10.0,27.1
2021-03-18 07:00:00,30.6,26.1,83.15,350.0,4.0,30.17,10.0,25.79
2021-03-18 08:00:00,25.7,23.9,92.77,0.0,0.0,30.19,10.0,25.7
2021-03-18 09:00:00,29.1,26.1,88.39,360.0,5.0,30.2,10.0,22.95
2021-03-18 10:00:00,30.2,26.4,85.57,360.0,4.0,30.22,10.0,25.32
2021-03-18 11:00:00,31.1,26.6,83.19,350.0,6.0,30.23,10.0,24.45
2021-03-18 12:00:00,31.1,26.6,83.19,360.0,6.0,30.26,10.0,24.45
2021-03-18 13:00:00,33.6,28.2,80.35,360.0,6.0,30.28,10.0,27.46
2021-03-18 14:00:00,37.4,28.9,71.11,20.0,9.0,30.3,10.0,30.23
2021-03-18 15:00:00,40.0,29.1,64.51,10.0,12.0,30.31,10.0,32.31
2021-03-18 16:00:00,42.4,27.5,55.27,10.0,15.0,30.33,10.0,34.26
2021-03-18 17:00:00,44.8,24.3,44.16,20.0,15.0,30.34,10.0,37.37
2021-03-18 18:00:00,45.3,25.3,45.17,10.0,14.0,30.34,10.0,38.31
2021-03-18 19:00:00,46.2,23.0,39.66,360.0,14.0,30.33,10.0,39.47
2021-03-18 20:00:00,46.4,21.4,36.79,10.0,16.0,30.34,10.0,39.19
2021-03-18 21:00:00,46.2,21.4,37.07,360.0,11.0,30.35,10.0,40.41
2021-03-18 22:00:00,44.8,22.8,41.47,360.0,11.0,30.38,10.0,38.64
2021-03-18 23:00:00,41.7,24.1,49.32,10.0,9.0,30.4,10.0,35.58
2021-03-19 00:00:00,36.5,23.9,59.91,360.0,7.0,30.42,10.0,30.26
2021-03-19 01:00:00,33.0,25.7,73.94,10.0,8.0,30.43,10.0,25.47
2021-03-19 02:00:00,32.2,23.7,70.53,30.0,7.0,30.45,10.0,25.02
2021-03-19 03:00:00,30.4,23.5,75.22,30.0,4.0,30.46,10.0,25.55
2021-03-19 04:00:00,28.6,22.6,77.95,0.0,0.0,30.46,10.0,28.6
2021-03-19 05:00:00,25.5,22.6,88.58,0.0,0.0,30.47,10.0,25.5
2021-03-19 06:00:00,26.1,22.8,87.13,0.0,0.0,30.47,10.0,26.1
2021-03-19 07:00:00,25.2,22.6,89.69,360.0,3.0,30.48,10.0,20.91
2021-03-19 08:00:00,23.5,21.9,93.49,0.0,0.0,30.48,10.0,23.5
2021-03-19 09:00:00,23.0,21.7,94.67,0.0,0.0,30.5,10.0,23.0
2021-03-19 10:00:00,21.2,19.8,94.22,0.0,0.0,30.51,10.0,21.2
2021-03-19 11:00:00,21.4,19.6,92.63,0.0,0.0,30.52,10.0,21.4
2021-03-19 12:00:00,23.2,20.7,89.98,0.0,0.0,30.53,10.0,23.2
2021-03-19 13:00:00,28.4,23.9,83.0,0.0,0.0,30.55,10.0,28.4
2021-03-19 14:00:00,34.7,20.7,56.23,140.0,5.0,30.55,10.0,29.6
2021-03-19 15:00:00,39.2,16.5,39.32,150.0,8.0,30.55,10.0,32.98
2021-03-19 16:00:00,43.0,16.3,33.65,180.0,8.0,30.53,10.0,37.66
2021-03-19 17:00:00,46.0,14.9,28.24,160.0,9.0,30.51,10.0,40.92
2021-03-19 18:00:00,48.0,15.4,26.77,200.0,9.0,30.49,10.0,43.41
2021-03-19 19:00:00,49.6,15.4,25.22,210.0,8.0,30.46,10.0,45.79
2021-03-19 20:00:00,51.0,16.5,25.2,210.0,6.0,30.45,10.0,50.9
2021-03-19 21:00:00,52.0,16.9,24.62,160.0,5.0,30.43,10.0,52.0
2021-03-19 22:00:00,51.3,14.0,22.27,170.0,10.0,30.41,10.0,51.3
2021-03-19 23:00:00,49.3,16.5,26.75,190.0,6.0,30.41,10.0,46.37
2021-03-20 00:00:00,42.3,18.9,38.67,170.0,4.0,30.4,10.0,39.45
2021-03-20 01:00:00,37.6,19.9,48.45,170.0,5.0,30.4,10.0,33.05
2021-03-20 02:00:00,35.2,21.4,56.78,0.0,0.0,30.41,10.0,35.2
2021-03-20 03:00:00,32.7,21.0,61.69,140.0,3.0,30.41,10.0,29.49
2021-03-20 04:00:00,31.8,20.8,63.43,140.0,3.0,30.4,10.0,28.46
2021-03-20 05:00:00,30.2,20.7,67.39,120.0,3.0,30.4,10.0,26.63
2021-03-20 06:00:00,30.2,20.7,67.39,120.0,3.0,30.4,10.0,26.63
2021-03-20 07:00:00,30.2,20.7,67.39,120.0,3.0,30.4,10.0,26.63
2021-03-20 08:00:00,30.7,21.6,68.6,120.0,3.0,30.38,10.0,27.2
2021-03-20 09:00:00,29.1,22.8,77.02,140.0,8.0,30.37,10.0,20.54
2021-03-20 10:00:00,27.3,21.9,79.83,0.0,0.0,30.38,10.0,27.3
2021-03-20 11:00:00,27.7,22.3,79.86,130.0,6.0,30.38,10.0,20.35
2021-03-20 12:00:00,29.3,22.8,76.39,120.0,6.0,30.38,10.0,22.28
2021-03-20 13:00:00,34.3,26.8,73.76,150.0,9.0,30.37,10.0,26.37
2021-03-20 14:00:00,40.6,26.6,57.1,180.0,16.0,30.37,10.0,31.63
2021-03-20 15:00:00,43.5,26.4,50.64,180.0,15.0,30.35,10.0,35.69
2021-03-20 16:00:00,47.0,26.2,44.14,180.0,15.0,30.34,10.0,40.1
2021-03-20 17:00:00,50.0,26.2,39.3,160.0,17.0,30.31,10.0,50.0
2021-03-20 18:00:00,52.7,23.7,32.05,170.0,14.0,30.29,10.0,52.7
2021-03-20 19:00:00,55.0,22.3,27.78,160.0,17.0,30.26,10.0,55.0
2021-03-20 20:00:00,56.3,21.6,25.73,170.0,15.0,30.23,10.0,56.3
2021-03-20 21:00:00,57.0,20.8,24.25,170.0,15.0,30.2,10.0,57.0
2021-03-20 22:00:00,56.0,19.4,23.77,170.0,18.0,30.18,10.0,55.9
2021-03-20 23:00:00,52.5,21.0,28.81,160.0,12.0,30.16,10.0,52.5
2021-03-21 00:00:00,48.7,21.0,33.17,150.0,7.0,30.15,10.0,45.14
2021-03-21 01:00:00,45.0,22.5,40.48,140.0,9.0,30.15,10.0,39.8
2021-03-21 02:00:00,46.0,24.6,42.89,150.0,9.0,30.15,10.0,40.8
2021-03-21 03:00:00,44.6,25.3,46.39,140.0,10.0,30.15,10.0,38.77
2021-03-21 04:00:00,44.0,26.4,49.49,150.0,10.0,30.14,10.0,38.14
2021-03-21 05:00:00,43.5,27.1,52.12,150.0,9.0,30.13,10.0,37.81
2021-03-21 06:00:00,42.3,27.5,55.49,150.0,8.0,30.13,10.0,36.8
2021-03-21 07:00:00,43.2,28.6,56.08,170.0,9.0,30.14,10.0,37.44
2021-03-21 08:00:00,43.7,28.9,55.69,160.0,9.0,30.13,10.0,38.06
2021-03-21 09:00:00,41.7,28.6,59.41,140.0,8.0,30.11,10.0,36.06
2021-03-21 10:00:00,40.0,28.4,62.69,140.0,10.0,30.1,10.0,33.13
2021-03-21 11:00:00,38.8,28.4,65.95,130.0,9.0,30.09,10.0,31.97
2021-03-21 12:00:00,39.2,28.9,66.27,130.0,10.0,30.08,10.0,32.0
2021-03-21 13:00:00,41.0,30.2,65.16,140.0,12.0,30.07,10.0,33.46
2021-03-21 14:00:00,47.3,32.7,56.68,150.0,16.0,30.04,10.0,40.36
2021-03-21 15:00:00,50.7,34.5,53.64,150.0,15.0,30.03,10.0,50.7
2021-03-21 16:00:00,54.5,35.8,49.12,170.0,19.0,29.99,10.0,54.5
2021-03-21 17:00:00,58.0,35.8,43.12,170.0,21.0,29.96,10.0,58.1
2021-03-21 18:00:00,60.4,35.0,38.32,160.0,19.0,29.93,10.0,60.4
2021-03-21 19:00:00,60.6,33.8,36.42,170.0,17.0,29.91,10.0,60.6
2021-03-21 20:00:00,61.3,33.6,35.24,180.0,18.0,29.89,10.0,61.3
2021-03-21 21:00:00,60.8,35.0,37.78,180.0,22.0,29.88,10.0,60.8
2021-03-21 22:00:00,59.2,37.0,43.47,170.0,15.0,29.87,10.0,59.2
2021-03-21 23:00:00,59.0,37.2,44.12,180.0,16.0,29.88,10.0,59.0
2021-03-22 00:00:00,58.0,38.0,47.18,170.0,13.0,29.87,10.0,57.9
2021-03-22 01:00:00,55.4,39.6,55.19,170.0,12.0,29.88,10.0,55.4
2021-03-22 02:00:00,56.5,38.0,50.01,180.0,12.0,29.87,10.0,56.5
2021-03-22 03:00:00,57.2,40.0,52.73,190.0,11.0,29.87,10.0,57.2
2021-03-22 04:00:00,56.0,40.5,56.13,180.0,12.0,29.86,10.0,55.9
2021-03-22 05:00:00,55.8,39.7,54.61,180.0,11.0,29.85,10.0,55.8
2021-03-22 06:00:00,55.0,40.3,57.75,200.0,8.0,29.85,10.0,54.9
2021-03-22 07:00:00,53.6,41.5,63.44,220.0,7.0,29.86,10.0,53.6
2021-03-22 08:00:00,51.0,42.0,71.72,270.0,9.0,29.88,10.0,50.9
2021-03-22 09:00:00,47.8,42.0,80.51,280.0,5.0,29.92,10.0,45.16
2021-03-22 10:00:00,44.6,40.5,85.42,290.0,7.0,29.95,10.0,40.14
2021-03-22 11:00:00,40.6,38.0,90.0,0.0,0.0,29.97,10.0,40.6
2021-03-22 12:00:00,38.0,37.0,95.77,0.0,0.0,29.99,10.0,38.1
2021-03-22 13:00:00,41.7,39.0,90.05,270.0,3.0,30.0,10.0,39.78
2021-03-22 14:00:00,43.7,39.2,84.04,220.0,3.0,30.01,10.0,42.06
2021-03-22 15:00:00,47.7,39.4,72.78,0.0,0.0,30.02,10.0,47.7
2021-03-22 16:00:00,50.7,37.6,60.65,250.0,4.0,30.01,10.0,50.7
2021-03-22 17:00:00,51.4,38.0,59.79,250.0,3.0,30.02,10.0,51.4
2021-03-22 18:00:00,55.6,37.0,49.48,240.0,4.0,29.99,10.0,55.6
2021-03-22 19:00:00,57.0,34.0,41.76,280.0,5.0,29.97,10.0,57.0
2021-03-22 20:00:00,58.6,28.0,30.92,340.0,5.0,29.97,10.0,58.6
2021-03-22 21:00:00,57.7,23.9,26.94,290.0,6.0,29.97,10.0,57.7
2021-03-22 22:00:00,56.3,23.2,27.52,340.0,4.0,29.98,10.0,56.3
2021-03-22 23:00:00,54.0,24.4,31.46,340.0,3.0,29.99,10.0,54.0
2021-03-23 00:00:00,51.0,26.2,37.73,360.0,3.0,29.99,10.0,51.1
2021-03-23 01:00:00,48.7,26.4,41.59,360.0,4.0,30.0,10.0,46.92
2021-03-23 02:00:00,47.3,27.1,45.12,360.0,5.0,30.0,10.0,44.57
2021-03-23 03:00:00,44.6,28.0,51.87,30.0,6.0,29.99,10.0,40.71
2021-03-23 04:00:00,43.7,29.5,57.08,50.0,3.0,29.99,10.0,42.06
2021-03-23 05:00:00,43.7,30.0,58.25,50.0,4.0,29.99,10.0,41.08
2021-03-23 06:00:00,44.0,31.6,61.68,0.0,0.0,30.01,10.0,43.9
2021-03-23 07:00:00,41.5,33.0,71.27,360.0,8.0,29.98,10.0,35.82
2021-03-23 08:00:00,42.4,30.7,62.99,20.0,3.0,29.98,10.0,40.58
2021-03-23 09:00:00,40.6,32.0,71.17,360.0,4.0,29.97,10.0,37.46
2021-03-23 10:00:00,40.0,33.0,75.85,360.0,3.0,29.96,10.0,37.95
2021-03-23 11:00:00,40.0,35.0,82.16,20.0,9.0,29.95,10.0,33.59
2021-03-23 12:00:00,39.2,37.4,93.19,20.0,8.0,29.95,10.0,32.98
2021-03-23 13:00:00,40.8,39.2,93.97,40.0,4.0,29.95,10.0,37.7
2021-03-23 14:00:00,43.7,41.2,90.83,20.0,5.0,29.94,10.0,40.29
2021-03-23 15:00:00,52.3,42.4,68.89,60.0,11.0,29.92,10.0,52.3
2021-03-23 16:00:00,54.0,43.2,66.75,100.0,8.0,29.9,10.0,54.0
2021-03-23 17:00:00,57.2,42.8,58.52,110.0,8.0,29.87,10.0,57.2
2021-03-23 18:00:00,59.4,41.4,51.24,70.0,10.0,29.84,10.0,59.4
2021-03-23 19:00:00,58.6,41.2,52.32,60.0,7.0,29.81,10.0,58.6
2021-03-23 20:00:00,55.8,43.3,62.75,40.0,4.0,29.79,10.0,55.8
2021-03-23 21:00:00,49.5,45.7,86.69,20.0,12.0,29.79,10.0,44.27
2021-03-23 22:00:00,45.5,44.0,94.81,10.0,13.0,29.8,5.0,38.86
2021-03-23 23:00:00,43.2,42.3,96.6,20.0,15.0,29.79,3.0,35.3
2021-03-24 00:00:00,42.8,42.0,97.34,20.0,14.0,29.78,3.0,35.08
2021-03-24 01:00:00,43.2,42.8,98.48,20.0,15.0,29.75,7.0,35.3
2021-03-24 02:00:00,44.4,44.0,98.11,30.0,11.0,29.74,7.0,38.14
2021-03-24 03:00:00,47.3,46.0,95.21,60.0,11.0,29.71,10.0,41.8
2021-03-24 04:00:00,47.3,45.7,94.14,60.0,10.0,29.68,10.0,42.15
2021-03-24 05:00:00,47.8,45.0,90.3,70.0,13.0,29.65,10.0,41.81
2021-03-24 06:00:00,47.3,45.0,91.67,50.0,12.0,29.62,10.0,41.47
2021-03-24 07:00:00,46.6,44.6,92.7,50.0,11.0,29.58,10.0,40.92
2021-03-24 08:00:00,45.5,43.7,93.37,30.0,10.0,29.55,10.0,39.9
2021-03-24 09:00:00,45.0,43.2,93.36,40.0,9.0,29.52,5.0,39.68
2021-03-24 10:00:00,43.7,43.0,97.35,20.0,8.0,29.51,5.0,38.53
2021-03-24 11:00:00,43.0,42.8,99.24,20.0,10.0,29.5,5.0,36.76
2021-03-24 12:00:00,42.3,42.0,98.47,10.0,9.0,29.49,7.0,36.32
2021-03-24 13:00:00,41.2,41.0,99.23,360.0,11.0,29.48,10.0,34.09
2021-03-24 14:00:00,40.0,39.6,98.07,350.0,11.0,29.47,5.0,32.7
2021-03-24 15:00:00,39.4,39.0,98.45,350.0,10.0,29.48,5.0,32.25
2021-03-24 16:00:00,39.6,39.2,98.45,350.0,8.0,29.48,3.0,33.48
2021-03-24 17:00:00,40.0,39.2,96.56,350.0,7.0,29.49,7.0,34.65
2021-03-24 18:00:00,40.0,38.8,95.8,340.0,8.0,29.5,5.0,33.84
2021-03-24 19:00:00,39.7,38.3,94.68,350.0,13.0,29.52,7.0,31.43
2021-03-24 20:00:00,37.6,36.0,93.88,330.0,9.0,29.55,10.0,30.48
2021-03-24 21:00:00,37.2,34.7,90.57,340.0,9.0,29.59,10.0,29.98
2021-03-24 22:00:00,36.5,33.6,89.11,330.0,11.0,29.64,10.0,28.15
2021-03-24 23:00:00,35.6,33.8,93.08,330.0,6.0,29.69,7.0,29.87
2021-03-25 00:00:00,35.2,33.3,92.7,320.0,6.0,29.71,10.0,29.38
2021-03-25 01:00:00,35.0,32.5,90.13,310.0,5.0,29.74,10.0,30.08
2021-03-25 02:00:00,35.2,32.0,87.98,290.0,5.0,29.79,10.0,30.2
2021-03-25 03:00:00,34.2,33.0,95.69,290.0,4.0,29.79,4.0,29.99
2021-03-25 04:00:00,34.2,33.0,94.93,280.0,5.0,29.81,10.0,29.01
2021-03-25 05:00:00,34.5,32.4,91.93,280.0,4.0,29.84,10.0,30.34
2021-03-25 06:00:00,35.0,32.2,89.76,290.0,4.0,29.86,10.0,30.81
2021-03-25 07:00:00,34.7,32.5,91.57,0.0,0.0,29.84,10.0,34.7
2021-03-25 08:00:00,35.0,32.4,90.48,350.0,4.0,29.83,10.0,30.81
2021-03-25 09:00:00,33.8,30.7,88.26,330.0,4.0,29.88,10.0,29.52
2021-03-25 10:00:00,33.0,30.2,89.67,360.0,4.0,29.9,10.0,28.47
2021-03-25 11:00:00,32.0,29.5,90.36,350.0,4.0,29.91,10.0,27.42
2021-03-25 12:00:00,31.5,27.5,84.95,10.0,5.0,29.92,10.0,25.8
2021-03-25 13:00:00,32.0,28.2,85.68,50.0,6.0,29.96,10.0,25.53
2021-03-25 14:00:00,32.4,29.5,88.92,60.0,6.0,29.96,10.0,26.01
2021-03-25 15:00:00,34.2,29.7,83.4,360.0,6.0,29.99,10.0,28.18
2021-03-25 16:00:00,36.3,30.4,78.95,20.0,7.0,29.97,10.0,30.02
2021-03-25 17:00:00,39.2,32.0,75.16,20.0,7.0,29.96,10.0,33.56
2021-03-25 18:00:00,42.0,33.0,69.64,10.0,10.0,29.95,10.0,35.63
2021-03-25 19:00:00,43.7,32.7,64.97,10.0,9.0,29.93,10.0,38.06
2021-03-25 20:00:00,44.0,32.0,62.21,10.0,9.0,29.91,10.0,38.56
2021-03-25 21:00:00,42.3,31.1,64.27,10.0,14.0,29.88,10.0,34.44
2021-03-25 22:00:00,40.0,31.1,70.52,10.0,12.0,29.9,10.0,32.06
2021-03-25 23:00:00,35.4,29.1,77.59,360.0,13.0,29.91,10.0,25.92
2021-03-26 00:00:00,32.0,27.3,82.57,20.0,9.0,29.93,10.0,23.51
2021-03-26 01:00:00,30.4,26.4,84.88,20.0,10.0,29.94,10.0,20.96
2021-03-26 02:00:00,29.3,25.7,86.23,20.0,12.0,29.94,10.0,18.57
2021-03-26 03:00:00,28.9,25.7,87.65,20.0,10.0,29.94,10.0,19.08
2021-03-26 04:00:00,28.4,25.5,88.72,10.0,9.0,29.94,10.0,19.04
2021-03-26 05:00:00,28.0,25.3,89.44,10.0,12.0,29.94,10.0,16.91
2021-03-26 06:00:00,26.6,24.3,90.89,10.0,11.0,29.94,10.0,15.64
2021-03-26 07:00:00,26.1,23.5,89.73,20.0,9.0,29.96,10.0,16.18
2021-03-26 08:00:00,25.3,23.0,90.83,30.0,7.0,29.96,10.0,16.61
2021-03-26 09:00:00,24.6,22.8,92.74,10.0,11.0,29.97,10.0,13.11
2021-03-26 10:00:00,23.9,22.3,93.5,30.0,7.0,29.98,10.0,14.91
2021-03-26 11:00:00,23.5,21.9,93.49,360.0,8.0,29.99,10.0,13.64
2021-03-26 12:00:00,23.4,21.7,93.09,40.0,7.0,30.02,10.0,14.3
2021-03-26 13:00:00,23.9,22.1,92.71,0.0,0.0,30.04,10.0,23.9
2021-03-26 14:00:00,24.6,22.3,90.81,30.0,5.0,30.05,10.0,17.61
2021-03-26 15:00:00,25.9,22.3,86.03,30.0,3.0,30.07,10.0,21.72
2021-03-26 16:00:00,27.5,23.0,82.93,40.0,4.0,30.07,10.0,22.17
2021-03-26 17:00:00,29.8,23.5,77.08,0.0,0.0,30.09,10.0,29.8
2021-03-26 18:00:00,31.3,23.9,73.75,0.0,0.0,30.08,10.0,31.3
2021-03-26 19:00:00,35.4,25.7,67.46,350.0,3.0,30.06,10.0,32.58
2021-03-26 20:00:00,36.5,25.2,63.25,0.0,0.0,30.06,10.0,36.5
2021-03-26 21:00:00,39.0,26.4,60.26,0.0,0.0,30.04,10.0,39.0
2021-03-26 22:00:00,38.0,25.7,61.12,0.0,0.0,30.03,10.0,37.9
2021-03-26 23:00:00,38.0,26.1,61.65,0.0,0.0,30.04,10.0,38.1
2021-03-27 00:00:00,36.5,26.4,66.48,0.0,0.0,30.04,10.0,36.5
2021-03-27 01:00:00,32.5,26.6,78.62,0.0,0.0,30.04,10.0,32.5
2021-03-27 02:00:00,29.7,26.1,86.25,0.0,0.0,30.06,10.0,29.7
2021-03-27 03:00:00,27.9,25.9,92.08,0.0,0.0,30.06,10.0,27.9
2021-03-27 04:00:00,29.7,26.1,86.25,0.0,0.0,30.05,10.0,29.7
2021-03-27 05:00:00,28.2,25.0,87.61,0.0,0.0,30.04,10.0,28.2
2021-03-27 06:00:00,30.7,27.9,89.2,0.0,0.0,30.01,10.0,30.7
2021-03-27 07:00:00,30.9,26.2,82.49,0.0,0.0,30.04,10.0,30.9
2021-03-27 08:00:00,33.0,28.2,81.97,0.0,0.0,30.02,10.0,33.1
2021-03-27 09:00:00,34.0,28.2,79.07,120.0,5.0,29.99,10.0,28.77
2021-03-27 10:00:00,33.8,28.4,80.36,110.0,4.0,29.97,10.0,29.52
2021-03-27 11:00:00,32.2,28.4,85.69,120.0,6.0,29.96,10.0,25.77
2021-03-27 12:00:00,33.0,29.1,85.74,120.0,3.0,29.95,10.0,29.72
2021-03-27 13:00:00,35.6,30.6,81.83,110.0,3.0,29.94,10.0,32.8
2021-03-27 14:00:00,38.3,32.2,78.48,120.0,3.0,29.92,10.0,35.89
2021-03-27 15:00:00,40.8,34.3,77.45,120.0,7.0,29.91,10.0,35.51
2021-03-27 16:00:00,47.8,37.8,68.11,160.0,9.0,29.88,10.0,43.16
2021-03-27 17:00:00,46.0,38.0,73.76,140.0,11.0,29.86,10.0,40.16
2021-03-27 18:00:00,44.0,38.7,81.17,160.0,7.0,29.85,10.0,39.53
2021-03-27 19:00:00,43.7,40.8,89.44,150.0,5.0,29.83,7.0,40.29
2021-03-27 20:00:00,42.8,40.6,91.86,150.0,3.0,29.82,10.0,41.03
2021-03-27 21:00:00,43.0,41.7,95.12,0.0,0.0,29.8,7.0,43.0
2021-03-27 22:00:00,42.4,41.5,96.59,0.0,0.0,29.8,7.0,42.4
2021-03-27 23:00:00,39.6,38.3,95.05,300.0,3.0,29.81,5.0,37.38
2021-03-28 00:00:00,33.3,32.7,97.62,330.0,9.0,29.84,1.75,25.13
2021-03-28 01:00:00,33.0,32.2,97.22,330.0,8.0,29.86,1.5,25.22
2021-03-28 02:00:00,33.0,32.0,96.44,320.0,9.0,29.87,5.0,24.63
2021-03-28 03:00:00,33.0,32.0,95.67,330.0,13.0,29.88,4.0,22.98
2021-03-28 04:00:00,32.2,31.6,97.61,320.0,9.0,29.89,2.5,23.76
2021-03-28 05:00:00,32.4,29.3,88.19,330.0,8.0,29.9,10.0,24.61
2021-03-28 06:00:00,32.0,28.0,84.98,320.0,9.0,29.92,10.0,23.51
2021-03-28 07:00:00,31.5,27.5,84.95,310.0,7.0,29.92,10.0,24.17
2021-03-28 08:00:00,30.6,26.4,84.19,320.0,5.0,29.93,10.0,24.73
2021-03-28 09:00:00,29.7,27.1,89.89,310.0,5.0,29.94,10.0,23.66
2021-03-28 10:00:00,29.1,25.3,85.5,320.0,6.0,29.96,10.0,22.04
2021-03-28 11:00:00,27.7,23.0,82.25,320.0,6.0,29.99,10.0,20.35
2021-03-28 12:00:00,27.3,21.9,79.83,330.0,8.0,30.02,10.0,18.32
2021-03-28 13:00:00,28.2,20.7,73.12,320.0,8.0,30.05,10.0,19.43
2021-03-28 14:00:00,29.7,19.4,65.06,340.0,9.0,30.06,10.0,20.65
2021-03-28 15:00:00,31.5,19.9,61.79,310.0,12.0,30.08,10.0,21.37
2021-03-28 16:00:00,32.4,21.4,63.51,310.0,9.0,30.08,10.0,24.01
2021-03-28 17:00:00,34.2,21.4,59.09,300.0,12.0,30.09,10.0,24.8
2021-03-28 18:00:00,37.6,22.3,53.64,280.0,11.0,30.07,10.0,29.54
2021-03-28 19:00:00,37.8,19.0,46.26,290.0,10.0,30.07,10.0,30.24
2021-03-28 20:00:00,39.0,20.1,46.26,280.0,11.0,30.06,10.0,31.31
2021-03-28 21:00:00,39.6,18.5,42.2,260.0,9.0,30.06,10.0,32.96
2021-03-28 22:00:00,40.3,19.2,42.32,250.0,8.0,30.06,10.0,34.34
2021-03-28 23:00:00,38.3,19.6,46.54,260.0,6.0,30.06,10.0,33.12
2021-03-29 00:00:00,35.6,20.1,52.88,0.0,0.0,30.07,10.0,35.6
2021-03-29 01:00:00,32.2,21.2,63.48,160.0,4.0,30.06,10.0,27.65
2021-03-29 02:00:00,30.0,21.0,68.81,170.0,4.0,30.06,10.0,25.08
2021-03-29 03:00:00,29.8,20.5,67.91,140.0,4.0,30.03,10.0,24.85
2021-03-29 04:00:00,29.1,21.0,71.38,130.0,4.0,30.01,10.0,24.03
2021-03-29 05:00:00,30.0,21.2,69.39,120.0,3.0,29.99,10.0,26.4
2021-03-29 06:00:00,31.6,22.1,67.56,130.0,6.0,29.96,10.0,25.05
2021-03-29 07:00:00,32.0,23.7,71.1,150.0,7.0,29.96,10.0,24.78
2021-03-29 08:00:00,32.7,23.9,69.71,130.0,7.0,29.92,10.0,25.63
2021-03-29 09:00:00,33.3,24.6,70.07,130.0,9.0,29.9,10.0,25.13
2021-03-29 10:00:00,33.8,24.8,69.25,120.0,12.0,29.85,10.0,24.29
2021-03-29 11:00:00,34.0,24.8,68.7,130.0,12.0,29.81,10.0,24.55
2021-03-29 12:00:00,35.0,25.5,68.24,130.0,10.0,29.79,10.0,26.6
2021-03-29 13:00:00,37.6,26.2,63.14,140.0,14.0,29.75,10.0,28.38
2021-03-29 14:00:00,42.0,27.7,56.81,150.0,14.0,29.71,10.0,33.92
2021-03-29 15:00:00,47.0,30.7,52.67,140.0,16.0,29.68,10.0,40.1
2021-03-29 16:00:00,53.0,33.3,47.14,150.0,17.0,29.64,10.0,52.9
2021-03-29 17:00:00,55.4,34.5,45.14,150.0,17.0,29.6,10.0,55.4
2021-03-29 18:00:00,58.8,36.0,42.38,160.0,18.0,29.56,10.0,58.8
2021-03-29 19:00:00,61.2,37.0,40.48,140.0,24.0,29.5,10.0,61.2
2021-03-29 20:00:00,64.0,38.7,39.35,160.0,21.0,29.47,10.0,63.9
2021-03-29 21:00:00,65.3,39.2,38.21,160.0,22.0,29.41,10.0,65.3
2021-03-29 22:00:00,66.4,40.0,37.79,180.0,20.0,29.39,10.0,66.4
2021-03-29 23:00:00,66.0,39.7,38.02,180.0,20.0,29.38,10.0,66.0
2021-03-30 00:00:00,64.6,39.2,39.15,180.0,19.0,29.38,10.0,64.6
2021-03-30 01:00:00,63.7,39.2,40.41,170.0,18.0,29.38,10.0,63.7
2021-03-30 02:00:00,63.5,39.2,40.69,170.0,17.0,29.38,10.0,63.5
2021-03-30 03:00:00,63.7,39.2,40.41,180.0,21.0,29.36,10.0,63.7
2021-03-30 04:00:00,63.5,40.0,42.14,200.0,19.0,29.39,10.0,63.5
2021-03-30 05:00:00,59.5,37.0,43.0,260.0,20.0,29.46,10.0,59.5
2021-03-30 06:00:00,54.5,32.2,42.54,270.0,9.0,29.49,10.0,54.5
2021-03-30 07:00:00,52.5,30.9,43.43,270.0,9.0,29.5,10.0,52.5
2021-03-30 08:00:00,50.7,25.7,37.5,240.0,6.0,29.5,10.0,50.7
2021-03-30 09:00:00,49.0,25.5,39.48,240.0,13.0,29.53,10.0,43.48
2021-03-30 10:00:00,42.0,25.5,51.88,250.0,14.0,29.57,10.0,33.92
2021-03-30 11:00:00,36.0,17.2,45.78,250.0,11.0,29.62,10.0,27.65
2021-03-30 12:00:00,33.8,15.8,47.22,260.0,14.0,29.64,10.0,23.48
2021-03-30 13:00:00,32.2,16.3,51.45,260.0,15.0,29.65,10.0,21.04
2021-03-30 14:00:00,32.4,15.6,49.51,260.0,15.0,29.68,10.0,21.3
2021-03-30 15:00:00,34.2,15.8,46.47,250.0,19.0,29.71,10.0,22.35
2021-03-30 16:00:00,35.6,16.0,44.33,250.0,19.0,29.71,10.0,24.2
2021-03-30 17:00:00,38.0,17.1,42.46,260.0,19.0,29.73,10.0,27.24
2021-03-30 18:00:00,37.0,15.6,41.39,250.0,15.0,29.75,10.0,27.13
2021-03-30 19:00:00,39.2,18.0,41.95,260.0,15.0,29.75,10.0,30.11
2021-03-30 20:00:00,39.4,17.4,40.57,250.0,22.0,29.77,10.0,28.49
2021-03-30 21:00:00,38.3,16.9,41.44,260.0,15.0,29.79,10.0,28.95
2021-03-30 22:00:00,37.0,15.3,40.85,250.0,18.0,29.82,10.0,26.2
2021-03-30 23:00:00,35.6,15.3,43.0,240.0,18.0,29.84,10.0,24.49
2021-03-31 00:00:00,33.3,15.4,47.34,260.0,11.0,29.87,10.0,24.11
2021-03-31 01:00:00,32.0,14.4,47.75,270.0,10.0,29.91,10.0,22.97
2021-03-31 02:00:00,30.7,14.0,49.45,260.0,13.0,29.95,10.0,19.9
2021-03-31 03:00:00,29.3,13.8,51.89,270.0,11.0,29.97,10.0,19.05
2021-03-31 04:00:00,28.4,11.7,49.08,280.0,13.0,29.98,10.0,16.96
2021-03-31 05:00:00,28.2,11.7,49.48,270.0,13.0,30.0,10.0,16.7
2021-03-31 06:00:00,28.0,11.8,50.11,290.0,11.0,30.02,10.0,17.41
2021-03-31 07:00:00,26.6,12.2,54.03,290.0,11.0,30.02,10.0,15.64
2021-03-31 08:00:00,25.7,12.2,56.08,290.0,16.0,30.04,10.0,12.21
2021-03-31 09:00:00,23.9,9.1,52.66,290.0,12.0,30.07,10.0,11.69
2021-03-31 10:00:00,23.9,8.6,51.49,290.0,11.0,30.09,10.0,12.23
2021-03-31 11:00:00,23.7,9.9,55.04,280.0,10.0,30.12,10.0,12.56
2021-03-31 12:00:00,21.6,11.7,65.14,310.0,9.0,30.15,10.0,10.58
2021-03-31 13:00:00,20.5,7.0,55.28,320.0,9.0,30.19,10.0,9.21
2021-03-31 14:00:00,22.1,4.8,46.73,320.0,11.0,30.21,10.0,9.96
2021-03-31 15:00:00,24.1,6.6,46.64,270.0,10.0,30.23,10.0,13.06
2021-03-31 16:00:00,25.9,5.5,41.16,320.0,12.0,30.25,10.0,14.24
2021-03-31 17:00:00,27.5,7.2,41.62,280.0,11.0,30.27,10.0,16.78
2021-03-31 18:00:00,28.9,8.0,40.57,290.0,9.0,30.28,10.0,19.66
2021-03-31 19:00:00,29.1,8.6,41.52,290.0,9.0,30.28,10.0,19.91
2021-03-31 20:00:00,29.7,8.4,40.16,290.0,7.0,30.29,10.0,21.98
2021-03-31 21:00:00,29.1,7.5,39.51,310.0,7.0,30.31,10.0,21.24
2021-03-31 22:00:00,29.1,6.6,37.93,290.0,10.0,30.33,10.0,19.33
2021-03-31 23:00:00,28.4,6.6,39.04,320.0,10.0,30.35,10.0,18.45
2021-04-01 00:00:00,27.5,7.0,41.25,330.0,6.0,30.38,10.0,20.11
2021-04-01 01:00:00,27.1,7.7,43.28,330.0,4.0,30.41,10.0,21.7
2021-04-01 02:00:00,26.6,7.7,44.19,340.0,7.0,30.43,10.0,18.2
2021-04-01 03:00:00,24.6,8.2,49.11,340.0,4.0,30.45,10.0,18.78
2021-04-01 04:00:00,22.3,11.1,61.58,0.0,0.0,30.46,10.0,22.3
2021-04-01 05:00:00,21.9,8.6,56.0,0.0,0.0,30.47,10.0,21.9
2021-04-01 06:00:00,20.3,10.4,64.97,0.0,0.0,30.48,10.0,20.3
2021-04-01 07:00:00,19.2,9.7,65.99,0.0,0.0,30.47,10.0,19.2
2021-04-01 08:00:00,17.1,11.7,78.95,280.0,3.0,30.48,10.0,11.66
2021-04-01 09:00:00,16.2,10.2,76.79,0.0,0.0,30.49,10.0,16.2
2021-04-01 10:00:00,15.3,10.2,79.86,0.0,0.0,30.5,10.0,15.3
2021-04-01 11:00:00,14.7,12.7,91.59,0.0,0.0,30.52,10.0,14.7
2021-04-01 12:00:00,16.9,14.7,90.88,0.0,0.0,30.54,10.0,16.9
2021-04-01 13:00:00,22.5,14.5,70.94,0.0,0.0,30.56,10.0,22.5
2021-04-01 14:00:00,27.5,8.6,44.34,0.0,0.0,30.57,10.0,27.5
2021-04-01 15:00:00,29.7,7.5,38.56,290.0,4.0,30.57,10.0,24.73
2021-04-01 16:00:00,32.0,8.2,36.26,260.0,3.0,30.56,10.0,28.69
2021-04-01 17:00:00,33.6,7.5,32.94,190.0,3.0,30.54,10.0,30.52
2021-04-01 18:00:00,36.3,9.5,32.37,250.0,8.0,30.53,10.0,29.41
2021-04-01 19:00:00,37.4,7.7,28.59,210.0,4.0,30.49,10.0,33.73
2021-04-01 20:00:00,39.0,9.3,28.85,250.0,6.0,30.47,10.0,33.96
2021-04-01 21:00:00,40.0,9.5,28.11,240.0,6.0,30.45,10.0,35.04
2021-04-01 22:00:00,40.3,9.7,27.93,230.0,3.0,30.43,10.0,38.18
2021-04-01 23:00:00,39.2,9.1,28.37,220.0,4.0,30.42,10.0,35.83
2021-04-02 00:00:00,36.5,9.7,32.41,0.0,0.0,30.41,10.0,36.5
2021-04-02 01:00:00,32.7,11.8,41.4,130.0,4.0,30.41,10.0,28.24
2021-04-02 02:00:00,29.7,12.4,48.0,140.0,5.0,30.41,10.0,23.66
2021-04-02 03:00:00,27.0,13.3,55.79,140.0,4.0,30.41,10.0,21.58
2021-04-02 04:00:00,30.0,11.5,45.57,140.0,3.0,30.41,10.0,26.4
2021-04-02 05:00:00,28.4,12.9,51.75,130.0,4.0,30.39,10.0,23.22
2021-04-02 06:00:00,29.3,11.8,47.51,140.0,6.0,30.37,10.0,22.28
2021-04-02 07:00:00,28.8,12.4,49.8,130.0,6.0,30.35,10.0,21.68
2021-04-02 08:00:00,28.9,13.1,51.15,130.0,4.0,30.35,10.0,23.8
2021-04-02 09:00:00,29.3,13.8,51.89,130.0,4.0,30.36,10.0,24.27
2021-04-02 10:00:00,29.3,14.0,52.35,130.0,8.0,30.34,10.0,20.79
2021-04-02 11:00:00,28.4,14.0,54.31,140.0,8.0,30.34,10.0,19.68
2021-04-02 12:00:00,30.0,14.7,52.46,140.0,7.0,30.34,10.0,22.34
2021-04-02 13:00:00,34.2,15.1,45.07,140.0,13.0,30.31,10.0,24.39
2021-04-02 14:00:00,38.5,16.0,39.55,150.0,16.0,30.31,10.0,28.89
2021-04-02 15:00:00,42.0,16.9,35.75,160.0,14.0,30.28,10.0,34.18
2021-04-02 16:00:00,45.5,16.2,30.46,170.0,17.0,30.25,10.0,37.76
2021-04-02 17:00:00,47.7,17.6,29.78,140.0,18.0,30.21,10.0,40.42
2021-04-02 18:00:00,50.2,18.3,27.95,160.0,15.0,30.17,10.0,50.2
2021-04-02 19:00:00,51.8,19.0,27.15,160.0,16.0,30.14,10.0,51.8
2021-04-02 20:00:00,54.3,20.7,26.63,160.0,18.0,30.11,10.0,54.3
2021-04-02 21:00:00,54.5,20.1,25.77,190.0,19.0,30.08,10.0,54.5
2021-04-02 22:00:00,54.5,21.0,26.78,170.0,16.0,30.06,10.0,54.5
2021-04-02 23:00:00,52.7,22.6,30.6,170.0,11.0,30.06,10.0,52.7
2021-04-03 00:00:00,49.0,23.2,35.86,150.0,10.0,30.05,10.0,44.41
2021-04-03 01:00:00,46.6,23.0,39.06,130.0,8.0,30.05,10.0,42.1
2021-04-03 02:00:00,44.6,22.8,41.79,130.0,9.0,30.04,10.0,39.18
2021-04-03 03:00:00,44.0,23.5,44.2,140.0,9.0,30.01,10.0,38.31
2021-04-03 04:00:00,44.0,23.9,44.94,140.0,9.0,29.99,10.0,38.31
2021-04-03 05:00:00,42.0,23.7,48.12,120.0,7.0,29.98,10.0,36.85
2021-04-03 06:00:00,39.6,23.9,53.05,120.0,6.0,29.96,10.0,34.68
2021-04-03 07:00:00,38.0,23.2,54.63,120.0,3.0,29.96,10.0,35.66
2021-04-03 08:00:00,37.8,23.7,56.45,120.0,3.0,29.96,10.0,35.32
2021-04-03 09:00:00,35.2,23.0,60.74,140.0,4.0,29.96,10.0,31.16
2021-04-03 10:00:00,34.2,22.6,62.16,0.0,0.0,29.98,10.0,34.2
2021-04-03 11:00:00,28.6,24.3,83.71,0.0,0.0,29.99,10.0,28.6
2021-04-03 12:00:00,29.8,26.8,88.43,0.0,0.0,30.01,10.0,29.8
2021-04-03 13:00:00,39.0,25.3,57.58,0.0,0.0,30.04,10.0,39.0
2021-04-03 14:00:00,46.2,28.0,48.81,290.0,4.0,30.04,10.0,44.0
2021-04-03 15:00:00,54.0,29.7,39.01,350.0,6.0,30.07,10.0,54.1
2021-04-03 16:00:00,59.4,30.7,33.55,10.0,5.0,30.09,10.0,59.4
2021-04-03 17:00:00,63.3,29.1,27.38,360.0,6.0,30.09,10.0,63.3
2021-04-03 18:00:00,65.7,22.6,19.23,320.0,9.0,30.1,10.0,65.7
2021-04-03 19:00:00,66.6,18.3,15.52,350.0,9.0,30.1,10.0,66.6
2021-04-03 20:00:00,67.5,16.7,14.04,320.0,6.0,30.09,10.0,67.5
2021-04-03 21:00:00,68.2,16.2,13.41,10.0,9.0,30.09,10.0,68.2
2021-04-03 22:00:00,67.0,14.5,12.94,10.0,4.0,30.09,10.0,67.1
2021-04-03 23:00:00,66.0,16.0,14.35,0.0,0.0,30.11,10.0,66.0
2021-04-04 00:00:00,57.2,22.3,25.65,0.0,0.0,30.11,10.0,57.2
2021-04-04 01:00:00,50.0,22.1,33.11,0.0,0.0,30.1,10.0,50.0
2021-04-04 02:00:00,42.4,32.0,66.39,0.0,0.0,30.12,10.0,42.4
2021-04-04 03:00:00,37.8,32.2,80.03,0.0,0.0,30.12,10.0,37.8
2021-04-04 04:00:00,38.5,30.7,73.29,0.0,0.0,30.13,10.0,38.5
2021-04-04 05:00:00,35.6,32.2,87.29,0.0,0.0,30.13,10.0,35.6
2021-04-04 06:00:00,35.6,30.4,81.16,0.0,0.0,30.13,10.0,35.6
2021-04-04 07:00:00,34.2,32.0,91.55,0.0,0.0,30.12,10.0,34.2
2021-04-04 08:00:00,38.3,31.6,76.6,0.0,0.0,30.11,10.0,38.3
2021-04-04 09:00:00,47.0,23.2,38.95,110.0,7.0,30.11,10.0,42.94
2021-04-04 10:00:00,47.0,22.8,38.3,120.0,9.0,30.09,10.0,42.04
2021-04-04 11:00:00,46.8,22.3,37.64,120.0,7.0,30.1,10.0,42.82
2021-04-04 12:00:00,47.7,22.8,37.16,130.0,11.0,30.08,10.0,42.31
2021-04-04 13:00:00,50.5,24.1,35.35,120.0,10.0,30.07,10.0,50.5
2021-04-04 14:00:00,56.7,25.3,29.61,130.0,12.0,30.04,10.0,56.7
2021-04-04 15:00:00,61.7,27.5,27.13,140.0,12.0,30.03,10.0,61.7
2021-04-04 16:00:00,65.8,29.3,25.29,150.0,13.0,30.0,10.0,65.8
2021-04-04 17:00:00,69.8,29.7,22.4,150.0,11.0,29.96,10.0,69.8
2021-04-04 18:00:00,72.0,28.0,19.32,170.0,8.0,29.94,10.0,72.1
2021-04-04 19:00:00,75.0,29.1,18.34,170.0,14.0,29.92,10.0,75.0
2021-04-04 20:00:00,74.0,31.1,20.5,180.0,11.0,29.9,10.0,74.1
2021-04-04 21:00:00,76.6,32.2,19.71,220.0,13.0,29.88,10.0,76.6
2021-04-04 22:00:00,77.0,35.0,21.85,220.0,7.0,29.86,10.0,77.0
2021-04-04 23:00:00,73.6,42.6,32.81,270.0,6.0,29.87,10.0,73.6
2021-04-05 00:00:00,67.5,41.0,37.97,290.0,3.0,29.87,10.0,67.5
2021-04-05 01:00:00,57.2,38.5,49.54,0.0,0.0,29.88,10.0,57.2
2021-04-05 02:00:00,55.2,36.3,48.84,0.0,0.0,29.88,10.0,55.2
2021-04-05 03:00:00,53.6,36.0,51.17,0.0,0.0,29.88,10.0,53.6
2021-04-05 04:00:00,49.6,37.2,62.19,0.0,0.0,29.87,10.0,49.6
2021-04-05 05:00:00,46.0,37.0,70.9,0.0,0.0,29.87,10.0,45.9
2021-04-05 06:00:00,43.3,35.4,73.48,0.0,0.0,29.88,10.0,43.3
2021-04-05 07:00:00,43.2,34.0,69.77,10.0,3.0,29.86,10.0,41.49
2021-04-05 08:00:00,40.3,34.2,78.65,0.0,0.0,29.86,10.0,40.3
2021-04-05 09:00:00,40.0,33.6,77.99,0.0,0.0,29.86,10.0,39.9
2021-04-05 10:00:00,37.8,33.3,83.65,0.0,0.0,29.82,10.0,37.8
2021-04-05 11:00:00,35.6,33.4,91.6,0.0,0.0,29.8,10.0,35.6
2021-04-05 12:00:00,39.6,35.0,83.11,90.0,4.0,29.81,10.0,36.3
2021-04-05 13:00:00,53.0,37.4,55.48,80.0,3.0,29.79,10.0,52.9
2021-04-05 14:00:00,58.3,41.2,52.89,150.0,8.0,29.8,10.0,58.3
2021-04-05 15:00:00,67.0,47.0,48.93,140.0,10.0,29.79,10.0,66.9
2021-04-05 16:00:00,73.0,47.5,40.47,110.0,11.0,29.75,10.0,72.9
2021-04-05 17:00:00,75.4,47.7,37.49,110.0,11.0,29.73,10.0,75.4
2021-04-05 18:00:00,78.3,48.7,35.36,150.0,11.0,29.71,10.0,78.3
2021-04-05 19:00:00,80.0,49.0,33.58,150.0,11.0,29.68,10.0,79.5
2021-04-05 20:00:00,80.6,47.3,31.11,130.0,8.0,29.65,10.0,79.63
2021-04-05 21:00:00,82.4,45.7,27.62,190.0,14.0,29.63,10.0,80.59
2021-04-05 22:00:00,80.4,44.6,28.27,200.0,14.0,29.64,10.0,79.31
2021-04-05 23:00:00,77.7,48.2,35.39,170.0,10.0,29.64,10.0,77.7
2021-04-06 00:00:00,72.7,48.7,42.62,170.0,11.0,29.62,10.0,72.7
2021-04-06 01:00:00,70.5,49.0,46.61,150.0,10.0,29.63,10.0,70.5
2021-04-06 02:00:00,69.4,50.0,50.05,140.0,11.0,29.65,10.0,69.4
2021-04-06 03:00:00,68.7,50.5,52.22,160.0,25.0,29.59,10.0,68.7
2021-04-06 04:00:00,67.5,52.2,57.96,170.0,11.0,29.65,10.0,67.5
2021-04-06 05:00:00,67.6,52.3,57.97,240.0,7.0,29.69,10.0,67.6
2021-04-06 06:00:00,61.7,50.5,66.65,180.0,23.0,29.64,7.0,61.7
2021-04-06 07:00:00,59.2,52.0,77.0,120.0,7.0,29.65,10.0,59.2
2021-04-06 08:00:00,56.0,51.8,86.07,110.0,3.0,29.66,10.0,55.9
2021-04-06 09:00:00,53.8,51.0,89.87,0.0,0.0,29.69,10.0,53.8
2021-04-06 10:00:00,53.0,51.0,93.58,0.0,0.0,29.69,10.0,52.9
2021-04-06 11:00:00,52.2,49.5,90.48,340.0,4.0,29.72,10.0,52.2
2021-04-06 12:00:00,54.0,51.0,89.22,350.0,3.0,29.75,10.0,54.0
2021-04-06 13:00:00,59.2,53.0,79.59,0.0,0.0,29.75,10.0,59.2
2021-04-06 14:00:00,63.7,54.0,70.66,0.0,0.0,29.76,10.0,63.7
2021-04-06 15:00:00,66.4,54.0,64.32,290.0,3.0,29.76,10.0,66.4
2021-04-06 16:00:00,69.0,54.0,59.0,310.0,6.0,29.77,10.0,68.9
2021-04-06 17:00:00,71.0,52.2,51.59,0.0,0.0,29.76,10.0,70.9
2021-04-06 18:00:00,72.7,53.0,49.8,270.0,4.0,29.76,10.0,72.7
2021-04-06 19:00:00,73.2,53.2,49.51,0.0,0.0,29.75,10.0,73.2
2021-04-06 20:00:00,74.0,53.6,48.74,340.0,5.0,29.73,10.0,74.1
2021-04-06 21:00:00,74.0,54.3,50.34,360.0,3.0,29.72,10.0,73.9
2021-04-06 22:00:00,69.6,56.3,62.63,90.0,8.0,29.75,7.0,69.6
2021-04-06 23:00:00,62.6,55.6,77.86,360.0,8.0,29.77,5.0,62.6
2021-04-07 00:00:00,59.2,53.6,81.66,10.0,11.0,29.77,10.0,59.2
2021-04-07 01:00:00,57.2,49.8,76.25,40.0,15.0,29.76,10.0,57.2
2021-04-07 02:00:00,53.0,47.3,81.2,350.0,11.0,29.81,10.0,52.9
2021-04-07 03:00:00,50.5,48.4,92.47,240.0,13.0,29.87,5.0,50.5
2021-04-07 04:00:00,51.8,51.4,98.53,20.0,14.0,29.82,1.5,51.8
2021-04-07 05:00:00,52.3,51.8,98.17,10.0,6.0,29.81,7.0,52.3
2021-04-07 06:00:00,52.0,51.8,99.26,30.0,8.0,29.79,10.0,52.0
2021-04-07 07:00:00,53.6,52.7,96.75,50.0,6.0,29.76,10.0,53.6
2021-04-07 08:00:00,53.6,53.0,97.47,80.0,5.0,29.75,10.0,53.6
2021-04-07 09:00:00,54.0,53.2,96.76,0.0,0.0,29.76,10.0,54.1
2021-04-07 10:00:00,53.0,52.7,98.54,20.0,6.0,29.76,10.0,53.1
2021-04-07 11:00:00,53.0,52.3,97.82,20.0,11.0,29.76,10.0,52.9
2021-04-07 12:00:00,52.3,51.8,98.17,50.0,5.0,29.76,10.0,52.3
2021-04-07 13:00:00,53.8,53.0,96.75,30.0,6.0,29.75,10.0,53.8
2021-04-07 14:00:00,56.3,54.3,92.99,20.0,4.0,29.73,10.0,56.3
2021-04-07 15:00:00,61.7,55.8,80.95,110.0,8.0,29.72,10.0,61.7
2021-04-07 16:00:00,65.3,57.0,74.51,90.0,8.0,29.71,10.0,65.3
2021-04-07 17:00:00,68.7,57.6,67.7,80.0,5.0,29.68,10.0,68.7
2021-04-07 18:00:00,72.0,57.2,59.43,110.0,6.0,29.66,10.0,72.1
2021-04-07 19:00:00,71.8,56.7,58.96,120.0,8.0,29.65,10.0,71.8
2021-04-07 20:00:00,73.4,56.3,55.06,150.0,7.0,29.63,10.0,73.4
2021-04-07 21:00:00,69.4,56.7,63.98,130.0,7.0,29.64,10.0,69.4
2021-04-07 22:00:00,65.5,58.6,78.38,10.0,5.0,29.63,10.0,65.5
2021-04-07 23:00:00,66.6,59.0,76.53,40.0,4.0,29.61,10.0,66.6
2021-04-08 00:00:00,58.0,55.6,91.37,20.0,9.0,29.62,10.0,58.1
2021-04-08 01:00:00,54.0,52.2,93.61,10.0,8.0,29.64,10.0,54.0
2021-04-08 02:00:00,52.2,50.0,92.18,20.0,9.0,29.64,10.0,52.2
2021-04-08 03:00:00,50.2,48.2,92.81,10.0,6.0,29.64,10.0,50.2
2021-04-08 04:00:00,48.2,46.6,94.16,20.0,7.0,29.62,10.0,44.53
2021-04-08 05:00:00,47.8,46.2,94.15,30.0,8.0,29.62,10.0,43.58
2021-04-08 06:00:00,47.0,45.7,95.56,10.0,7.0,29.6,10.0,42.94
2021-04-08 07:00:00,47.3,46.0,95.21,30.0,6.0,29.59,10.0,43.96
2021-04-08 08:00:00,47.0,46.0,96.66,10.0,7.0,29.57,10.0,42.94
2021-04-08 09:00:00,48.0,47.0,96.67,20.0,7.0,29.57,5.0,44.28
2021-04-08 10:00:00,49.0,48.4,97.42,10.0,6.0,29.55,10.0,46.13
2021-04-08 11:00:00,50.0,49.8,99.26,30.0,3.0,29.55,10.0,50.0
2021-04-08 12:00:00,56.3,55.6,97.49,100.0,9.0,29.55,10.0,56.3
2021-04-08 13:00:00,58.0,56.3,93.72,100.0,8.0,29.54,10.0,58.1
2021-04-08 14:00:00,59.0,56.8,92.4,100.0,6.0,29.52,10.0,59.0
2021-04-08 15:00:00,60.4,56.7,87.58,120.0,9.0,29.53,10.0,60.4
2021-04-08 16:00:00,59.7,57.2,91.43,110.0,5.0,29.51,7.0,59.7
2021-04-08 17:00:00,59.2,58.0,96.14,100.0,7.0,29.5,7.0,59.2
2021-04-08 18:00:00,59.0,57.4,94.42,110.0,8.0,29.49,10.0,59.0
2021-04-08 19:00:00,61.7,57.2,85.16,110.0,10.0,29.47,10.0,61.7
2021-04-08 20:00:00,63.7,56.7,77.95,100.0,10.0,29.46,10.0,63.7
2021-04-08 21:00:00,64.2,56.0,74.41,100.0,10.0,29.46,10.0,64.2
2021-04-08 22:00:00,62.2,55.4,78.39,100.0,7.0,29.46,10.0,62.2
2021-04-08 23:00:00,60.8,55.8,83.58,160.0,7.0,29.47,10.0,60.8
2021-04-09 00:00:00,60.4,49.0,66.25,140.0,9.0,29.48,10.0,60.4
2021-04-09 01:00:00,55.6,49.0,78.13,230.0,4.0,29.5,10.0,55.6
2021-04-09 02:00:00,53.8,46.6,76.52,0.0,0.0,29.51,10.0,53.8
2021-04-09 03:00:00,53.0,46.4,78.49,0.0,0.0,29.51,10.0,52.9
2021-04-09 04:00:00,51.8,49.0,89.79,0.0,0.0,29.5,10.0,51.8
2021-04-09 05:00:00,52.0,47.5,84.57,0.0,0.0,29.48,10.0,52.0
2021-04-09 06:00:00,51.8,48.4,88.12,350.0,4.0,29.46,10.0,51.8
2021-04-09 07:00:00,51.4,47.3,85.82,330.0,3.0,29.44,10.0,51.4
2021-04-09 08:00:00,51.0,48.7,92.14,320.0,5.0,29.42,10.0,50.9
2021-04-09 09:00:00,49.5,48.6,96.69,230.0,4.0,29.45,5.0,47.86
2021-04-09 10:00:00,47.8,47.3,98.14,220.0,10.0,29.45,5.0,42.78
2021-04-09 11:00:00,47.3,46.4,96.66,230.0,5.0,29.47,10.0,44.57
2021-04-09 12:00:00,47.3,46.4,96.66,190.0,7.0,29.48,7.0,43.43
2021-04-09 13:00:00,47.0,46.4,98.13,180.0,4.0,29.5,2.0,44.82
2021-04-09 14:00:00,47.7,47.3,98.51,180.0,6.0,29.5,2.5,44.44
2021-04-09 15:00:00,48.7,47.8,96.68,200.0,6.0,29.51,5.0,45.64
2021-04-09 16:00:00,48.7,47.8,96.68,200.0,6.0,29.51,5.0,45.64
2021-04-09 17:00:00,49.3,48.2,95.97,210.0,7.0,29.53,3.0,45.87
2021-04-09 18:00:00,50.0,48.2,93.5,220.0,7.0,29.54,7.0,50.0
2021-04-09 19:00:00,50.0,48.6,94.91,210.0,6.0,29.55,5.0,50.0
2021-04-09 20:00:00,50.5,48.6,93.16,200.0,7.0,29.56,10.0,50.5
2021-04-09 21:00:00,50.5,47.8,90.41,210.0,8.0,29.57,10.0,50.5
2021-04-09 22:00:00,50.0,48.7,95.27,230.0,5.0,29.59,2.0,50.0
2021-04-09 23:00:00,50.4,47.7,90.41,250.0,7.0,29.6,10.0,50.4
2021-04-10 00:00:00,47.0,45.5,94.13,290.0,6.0,29.63,5.0,43.72
2021-04-10 01:00:00,44.6,43.7,96.62,280.0,7.0,29.65,7.0,40.14
2021-04-10 02:00:00,43.7,41.0,90.13,270.0,8.0,29.67,10.0,38.53
2021-04-10 03:00:00,43.2,41.2,92.59,290.0,7.0,29.69,10.0,38.43
2021-04-10 04:00:00,42.4,40.3,92.2,290.0,6.0,29.69,10.0,38.06
2021-04-10 05:00:00,42.0,40.0,92.55,270.0,5.0,29.7,10.0,38.39
2021-04-10 06:00:00,42.0,40.6,95.1,270.0,5.0,29.7,7.0,38.15
2021-04-10 07:00:00,41.4,40.3,95.83,270.0,5.0,29.71,2.5,37.56
2021-04-10 08:00:00,41.2,39.7,94.35,290.0,4.0,29.72,10.0,38.16
2021-04-10 09:00:00,41.0,39.2,93.24,300.0,4.0,29.71,10.0,37.93
2021-04-10 10:00:00,40.5,39.4,95.81,300.0,5.0,29.72,5.0,36.49
2021-04-10 11:00:00,39.6,38.7,96.55,300.0,6.0,29.74,3.0,34.68
2021-04-10 12:00:00,39.7,38.5,95.42,310.0,6.0,29.74,10.0,34.8
2021-04-10 13:00:00,40.5,38.8,93.59,340.0,5.0,29.74,10.0,36.49
2021-04-10 14:00:00,40.6,38.8,93.23,330.0,5.0,29.75,5.0,36.61
2021-04-10 15:00:00,42.4,38.7,86.63,320.0,6.0,29.76,10.0,38.06
2021-04-10 16:00:00,44.2,39.6,83.75,330.0,6.0,29.73,10.0,40.22
2021-04-10 17:00:00,45.3,39.2,79.07,360.0,5.0,29.72,10.0,42.19
2021-04-10 18:00:00,46.4,39.4,76.44,360.0,7.0,29.72,10.0,42.33
2021-04-10 19:00:00,45.7,39.6,79.1,330.0,6.0,29.71,10.0,42.03
2021-04-10 20:00:00,46.4,39.2,75.84,320.0,7.0,29.68,10.0,42.33
2021-04-10 21:00:00,47.5,39.2,72.76,10.0,8.0,29.67,10.0,43.21
2021-04-10 22:00:00,47.5,39.7,74.2,10.0,10.0,29.65,10.0,42.41
2021-04-10 23:00:00,47.3,39.2,73.31,350.0,9.0,29.65,10.0,42.54
2021-04-11 00:00:00,46.6,39.4,75.86,360.0,9.0,29.66,10.0,41.67
2021-04-11 01:00:00,45.7,39.2,77.88,340.0,5.0,29.66,10.0,42.67
2021-04-11 02:00:00,45.0,38.5,77.82,350.0,6.0,29.65,10.0,41.19
2021-04-11 03:00:00,44.6,38.3,78.4,350.0,7.0,29.63,10.0,40.14
2021-04-11 04:00:00,44.6,38.0,77.18,360.0,9.0,29.62,10.0,39.18
2021-04-11 05:00:00,44.2,38.3,79.6,350.0,7.0,29.61,10.0,39.65
2021-04-11 06:00:00,43.7,38.5,81.77,350.0,6.0,29.59,10.0,39.62
2021-04-11 07:00:00,42.8,38.7,85.31,350.0,9.0,29.57,10.0,36.94
2021-04-11 08:00:00,42.0,38.8,88.66,360.0,10.0,29.55,10.0,35.38
2021-04-11 09:00:00,41.5,38.8,90.04,340.0,10.0,29.55,10.0,34.88
2021-04-11 10:00:00,41.4,39.2,91.81,330.0,8.0,29.54,10.0,35.69
2021-04-11 11:00:00,41.4,39.2,91.81,350.0,8.0,29.53,10.0,35.69
2021-04-11 12:00:00,42.0,40.3,94.0,340.0,8.0,29.55,10.0,36.31
2021-04-11 13:00:00,42.0,41.0,95.84,340.0,7.0,29.55,7.0,37.09
2021-04-11 14:00:00,43.0,41.5,94.39,340.0,5.0,29.55,10.0,39.46
2021-04-11 15:00:00,44.0,42.4,94.41,340.0,7.0,29.55,10.0,39.28
2021-04-11 16:00:00,45.5,43.2,91.6,350.0,11.0,29.55,10.0,39.53
2021-04-11 17:00:00,45.7,43.0,90.22,330.0,8.0,29.54,10.0,40.99
2021-04-11 18:00:00,44.8,42.8,92.64,330.0,8.0,29.54,10.0,39.88
2021-04-11 19:00:00,45.3,43.7,94.08,330.0,7.0,29.55,7.0,40.99
2021-04-11 20:00:00,45.3,43.7,94.08,330.0,7.0,29.55,7.0,40.99
2021-04-11 21:00:00,45.5,43.7,93.37,340.0,8.0,29.55,7.0,40.74
2021-04-11 22:00:00,45.5,44.0,94.09,340.0,6.0,29.57,10.0,41.79
2021-04-11 23:00:00,46.0,44.4,94.46,350.0,8.0,29.58,7.0,41.24
2021-04-12 00:00:00,46.0,44.2,93.74,350.0,7.0,29.58,10.0,41.72
2021-04-12 01:00:00,46.0,44.6,94.82,320.0,6.0,29.59,10.0,42.39
2021-04-12 02:00:00,46.0,44.8,95.91,320.0,5.0,29.59,10.0,42.9
2021-04-12 03:00:00,45.5,44.6,96.64,310.0,3.0,29.59,10.0,44.12
2021-04-12 04:00:00,45.0,44.6,98.12,320.0,3.0,29.59,7.0,43.66
2021-04-12 05:00:00,45.0,44.2,97.0,280.0,6.0,29.59,10.0,41.19
2021-04-12 06:00:00,44.6,44.2,98.49,290.0,4.0,29.58,2.0,42.13
2021-04-12 07:00:00,44.4,44.0,98.86,280.0,5.0,29.59,4.0,41.12
2021-04-12 08:00:00,44.0,43.7,98.48,280.0,4.0,29.59,7.0,41.55
2021-04-12 09:00:00,44.0,43.3,97.73,0.0,0.0,29.59,10.0,43.9
2021-04-12 10:00:00,44.0,43.5,98.48,240.0,4.0,29.6,4.0,41.32
2021-04-12 11:00:00,44.0,43.7,99.24,230.0,3.0,29.62,4.0,42.29
2021-04-12 12:00:00,44.0,43.7,98.48,260.0,5.0,29.62,7.0,40.77
2021-04-12 13:00:00,44.6,43.7,96.62,260.0,5.0,29.64,2.5,41.36
2021-04-12 14:00:00,46.0,44.4,94.1,260.0,7.0,29.65,10.0,41.84
2021-04-12 15:00:00,47.3,43.7,87.23,250.0,8.0,29.66,10.0,42.96
2021-04-12 16:00:00,47.7,44.0,86.59,250.0,7.0,29.67,10.0,43.92
2021-04-12 17:00:00,50.2,42.0,73.6,240.0,9.0,29.68,10.0,50.2
2021-04-12 18:00:00,45.0,41.7,88.13,210.0,11.0,29.7,7.0,38.89
2021-04-12 19:00:00,46.2,41.7,84.2,240.0,11.0,29.72,10.0,40.41
2021-04-12 20:00:00,46.0,40.6,81.62,220.0,15.0,29.74,10.0,38.8
2021-04-12 21:00:00,44.6,40.8,86.42,220.0,11.0,29.76,10.0,38.39
2021-04-12 22:00:00,42.6,39.4,88.35,230.0,6.0,29.78,10.0,38.3
2021-04-12 23:00:00,42.6,40.0,90.79,230.0,8.0,29.79,10.0,37.17
2021-04-13 00:00:00,42.0,39.6,91.47,220.0,9.0,29.81,10.0,35.82
2021-04-13 01:00:00,41.2,39.7,94.35,220.0,8.0,29.82,7.0,35.45
2021-04-13 02:00:00,41.4,39.7,93.62,220.0,8.0,29.83,10.0,35.69
2021-04-13 03:00:00,41.2,39.2,92.52,230.0,8.0,29.83,10.0,35.45
2021-04-13 04:00:00,40.0,36.5,86.84,260.0,7.0,29.84,10.0,34.65
2021-04-13 05:00:00,39.6,35.0,83.77,250.0,8.0,29.86,10.0,33.48
2021-04-13 06:00:00,37.2,35.2,92.39,240.0,10.0,29.87,5.0,29.49
2021-04-13 07:00:00,35.0,32.0,89.03,240.0,9.0,29.88,10.0,27.12
2021-04-13 08:00:00,34.7,29.1,79.78,250.0,12.0,29.89,10.0,25.44
2021-04-13 09:00:00,33.0,27.3,79.0,250.0,12.0,29.9,10.0,23.4
2021-04-13 10:00:00,32.0,26.4,79.56,250.0,8.0,29.91,10.0,24.11
2021-04-13 11:00:00,32.0,25.5,76.64,240.0,11.0,29.92,10.0,22.47
2021-04-13 12:00:00,32.4,25.2,74.48,250.0,8.0,29.93,10.0,24.61
2021-04-13 13:00:00,34.0,25.7,71.32,250.0,11.0,29.93,10.0,24.99
2021-04-13 14:00:00,33.3,27.9,80.32,260.0,10.0,29.94,10.0,24.6
2021-04-13 15:00:00,34.2,24.8,68.16,250.0,10.0,29.95,10.0,25.73
2021-04-13 16:00:00,34.2,27.3,75.59,220.0,8.0,29.96,10.0,26.82
2021-04-13 17:00:00,33.3,27.7,79.67,240.0,11.0,29.98,7.0,24.11
2021-04-13 18:00:00,33.3,26.2,74.89,240.0,8.0,29.99,7.0,25.71
2021-04-13 19:00:00,32.4,29.5,88.92,230.0,12.0,30.0,2.0,22.51
2021-04-13 20:00:00,34.0,28.0,78.43,220.0,12.0,30.0,10.0,24.55
2021-04-13 21:00:00,32.5,30.4,91.86,230.0,9.0,30.01,2.5,24.14
2021-04-13 22:00:00,32.7,30.4,91.13,230.0,7.0,30.02,5.0,25.63
2021-04-13 23:00:00,33.3,27.1,77.72,250.0,9.0,30.03,10.0,25.13
2021-04-14 00:00:00,32.4,29.3,88.19,250.0,6.0,30.04,10.0,26.01
2021-04-14 01:00:00,33.0,27.1,78.98,240.0,6.0,30.06,10.0,26.61
2021-04-14 02:00:00,32.2,27.3,81.91,250.0,6.0,30.06,10.0,25.77
2021-04-14 03:00:00,31.1,27.9,87.77,250.0,5.0,30.07,5.0,25.33
2021-04-14 04:00:00,30.7,28.0,89.57,240.0,4.0,30.07,7.0,25.9
2021-04-14 05:00:00,30.7,27.9,89.2,230.0,5.0,30.07,10.0,24.85
2021-04-14 06:00:00,30.6,28.0,89.93,230.0,3.0,30.07,5.0,27.09
2021-04-14 07:00:00,30.0,28.6,94.45,230.0,4.0,30.07,1.75,25.08
2021-04-14 08:00:00,29.8,28.4,94.44,250.0,3.0,30.07,10.0,26.17
2021-04-14 09:00:00,30.2,28.2,92.16,270.0,3.0,30.07,10.0,26.63
2021-04-14 10:00:00,30.0,28.8,95.22,0.0,0.0,30.08,4.0,30.0
2021-04-14 11:00:00,30.2,29.1,95.62,0.0,0.0,30.09,7.0,30.2
2021-04-14 12:00:00,30.7,28.6,91.8,0.0,0.0,30.1,10.0,30.7
2021-04-14 13:00:00,31.3,27.1,84.24,340.0,4.0,30.11,10.0,26.6
2021-04-14 14:00:00,32.0,28.0,84.98,270.0,5.0,30.12,10.0,26.4
2021-04-14 15:00:00,33.6,28.4,81.01,280.0,4.0,30.12,10.0,29.29
2021-04-14 16:00:00,35.2,28.6,76.63,320.0,3.0,30.12,10.0,32.35
2021-04-14 17:00:00,37.6,29.7,72.9,340.0,7.0,30.12,10.0,31.61
2021-04-14 18:00:00,40.6,30.2,66.17,340.0,5.0,30.11,10.0,36.61
2021-04-14 19:00:00,43.5,31.6,62.63,330.0,6.0,30.1,10.0,39.38
2021-04-14 20:00:00,46.0,31.1,55.81,290.0,7.0,30.09,10.0,41.84
2021-04-14 21:00:00,45.0,32.2,60.37,310.0,9.0,30.09,10.0,39.8
2021-04-14 22:00:00,44.0,34.2,67.95,330.0,7.0,30.09,10.0,39.53
2021-04-14 23:00:00,43.2,35.0,72.32,320.0,9.0,30.1,10.0,37.44
2021-04-15 00:00:00,42.3,35.6,76.97,330.0,5.0,30.1,10.0,38.63
2021-04-15 01:00:00,41.0,35.8,81.57,0.0,0.0,30.11,10.0,41.0
2021-04-15 02:00:00,39.2,34.2,82.09,340.0,3.0,30.12,10.0,36.92
2021-04-15 03:00:00,39.6,34.3,81.15,290.0,4.0,30.13,10.0,36.3
2021-04-15 04:00:00,39.4,35.0,84.43,300.0,5.0,30.13,10.0,35.18
2021-04-15 05:00:00,39.4,35.0,84.43,300.0,5.0,30.13,10.0,35.18
2021-04-15 06:00:00,38.3,35.8,90.62,0.0,0.0,30.14,10.0,38.3
2021-04-15 07:00:00,38.0,36.5,93.9,340.0,6.0,30.14,10.0,32.88
2021-04-15 08:00:00,37.0,34.7,91.65,320.0,3.0,30.14,10.0,34.29
2021-04-15 09:00:00,37.0,34.2,89.49,0.0,0.0,30.14,10.0,37.0
2021-04-15 10:00:00,36.7,33.8,89.12,330.0,8.0,30.14,10.0,29.9
2021-04-15 11:00:00,36.0,33.0,88.02,340.0,7.0,30.15,10.0,29.78
2021-04-15 12:00:00,36.5,33.0,86.64,340.0,9.0,30.16,10.0,29.11
2021-04-15 13:00:00,38.5,32.7,79.45,320.0,7.0,30.15,10.0,32.7
2021-04-15 14:00:00,38.7,31.6,75.41,340.0,9.0,30.15,10.0,31.84
2021-04-15 15:00:00,42.8,32.0,65.38,340.0,8.0,30.14,10.0,37.42
2021-04-15 16:00:00,42.6,32.0,65.89,300.0,6.0,30.14,10.0,38.3
2021-04-15 17:00:00,43.7,33.3,66.55,340.0,8.0,30.13,10.0,38.53
2021-04-15 18:00:00,45.7,33.8,62.92,330.0,7.0,30.11,10.0,41.48
2021-04-15 19:00:00,47.5,35.0,61.91,330.0,5.0,30.1,10.0,44.8
2021-04-15 20:00:00,50.0,36.0,58.44,20.0,7.0,30.09,10.0,50.0
2021-04-15 21:00:00,51.0,35.8,56.07,340.0,5.0,30.08,10.0,50.9
2021-04-15 22:00:00,51.0,36.0,56.1,350.0,5.0,30.07,10.0,51.1
2021-04-15 23:00:00,50.7,37.0,59.23,360.0,4.0,30.07,10.0,50.7
2021-04-16 00:00:00,49.8,36.3,59.58,0.0,0.0,30.07,10.0,49.8
2021-04-16 01:00:00,46.4,36.0,67.15,300.0,3.0,30.07,10.0,45.15
2021-04-16 02:00:00,44.0,36.0,72.99,0.0,0.0,30.08,10.0,44.1
2021-04-16 03:00:00,37.8,36.7,95.76,0.0,0.0,30.09,10.0,37.8
2021-04-16 04:00:00,36.7,35.4,94.98,0.0,0.0,30.08,10.0,36.7
2021-04-16 05:00:00,35.6,34.7,96.49,0.0,0.0,30.09,10.0,35.6
2021-04-16 06:00:00,34.3,33.4,96.47,0.0,0.0,30.09,10.0,34.3
2021-04-16 07:00:00,33.4,33.3,99.6,0.0,0.0,30.08,10.0,33.4
2021-04-16 08:00:00,32.2,32.0,99.2,0.0,0.0,30.07,3.0,32.2
2021-04-16 09:00:00,31.5,31.5,100.0,0.0,0.0,30.06,1.5,31.5
2021-04-16 10:00:00,31.3,31.3,100.0,0.0,0.0,30.07,7.0,31.3
2021-04-16 11:00:00,30.2,30.2,100.0,0.0,0.0,30.07,7.0,30.2
2021-04-16 12:00:00,35.8,35.6,99.21,360.0,3.0,30.08,10.0,33.03
2021-04-16 13:00:00,40.5,35.0,80.89,10.0,7.0,30.08,10.0,35.14
2021-04-16 14:00:00,44.0,34.3,68.74,360.0,7.0,30.08,10.0,39.28
2021-04-16 15:00:00,48.2,31.5,52.2,10.0,10.0,30.07,10.0,43.28
2021-04-16 16:00:00,50.5,29.3,43.82,10.0,8.0,30.06,10.0,50.5
2021-04-16 17:00:00,52.3,29.1,40.66,10.0,12.0,30.03,10.0,52.3
2021-04-16 18:00:00,53.6,23.0,30.11,20.0,6.0,30.02,10.0,53.6
2021-04-16 19:00:00,55.2,26.6,33.0,360.0,7.0,30.01,10.0,55.2
2021-04-16 20:00:00,56.0,24.6,29.61,10.0,6.0,30.0,10.0,55.9
2021-04-16 21:00:00,56.5,25.7,30.33,10.0,5.0,30.0,10.0,56.5
2021-04-16 22:00:00,56.3,26.2,31.19,360.0,8.0,30.0,10.0,56.3
2021-04-16 23:00:00,53.8,25.7,33.46,360.0,10.0,30.0,10.0,53.8
2021-04-17 00:00:00,51.6,23.4,32.96,350.0,7.0,30.01,10.0,51.6
2021-04-17 01:00:00,47.0,27.5,46.57,30.0,7.0,30.03,10.0,42.94
2021-04-17 02:00:00,43.0,25.3,49.32,30.0,3.0,30.03,10.0,41.26
2021-04-17 03:00:00,38.8,24.8,56.83,0.0,0.0,30.04,10.0,38.8
2021-04-17 04:00:00,36.0,28.9,74.85,10.0,3.0,30.04,10.0,33.38
2021-04-17 05:00:00,32.0,29.7,91.1,0.0,0.0,30.04,10.0,32.0
2021-04-17 06:00:00,32.0,29.5,90.36,0.0,0.0,30.04,10.0,32.0
2021-04-17 07:00:00,30.2,28.4,92.92,0.0,0.0,30.03,10.0,30.2
2021-04-17 08:00:00,29.3,28.0,94.82,0.0,0.0,30.03,10.0,29.3
2021-04-17 09:00:00,29.1,27.3,92.88,0.0,0.0,30.04,10.0,29.1
2021-04-17 10:00:00,28.6,27.0,93.64,0.0,0.0,30.03,10.0,28.6
2021-04-17 11:00:00,28.2,27.1,95.58,0.0,0.0,30.04,10.0,28.2
2021-04-17 12:00:00,32.4,29.1,87.48,0.0,0.0,30.06,10.0,32.4
2021-04-17 13:00:00,39.4,29.7,67.94,0.0,0.0,30.05,10.0,39.4
2021-04-17 14:00:00,46.4,24.8,42.44,270.0,3.0,30.04,10.0,45.15
2021-04-17 15:00:00,50.7,21.7,31.72,0.0,0.0,30.04,10.0,50.7
2021-04-17 16:00:00,53.4,22.5,29.7,260.0,4.0,30.02,10.0,53.4
2021-04-17 17:00:00,54.5,26.1,33.16,300.0,8.0,30.01,10.0,54.5
2021-04-17 18:00:00,55.6,26.8,32.79,300.0,7.0,30.0,10.0,55.6
2021-04-17 19:00:00,57.4,26.6,30.47,320.0,7.0,29.99,10.0,57.4
2021-04-17 20:00:00,56.7,25.2,29.49,300.0,5.0,29.97,10.0,56.7
2021-04-17 21:00:00,58.5,25.3,27.76,270.0,10.0,29.96,10.0,58.5
2021-04-17 22:00:00,55.0,26.2,32.69,280.0,8.0,29.96,10.0,55.0
2021-04-17 23:00:00,54.5,27.0,34.41,290.0,5.0,29.97,10.0,54.5
2021-04-18 00:00:00,53.0,26.4,35.6,310.0,4.0,29.97,10.0,52.9
2021-04-18 01:00:00,50.0,28.2,42.67,280.0,3.0,29.97,10.0,50.0
2021-04-18 02:00:00,46.0,30.4,54.45,0.0,0.0,29.97,10.0,45.9
2021-04-18 03:00:00,43.5,30.9,60.88,0.0,0.0,29.97,10.0,43.5
2021-04-18 04:00:00,44.2,29.7,56.45,0.0,0.0,29.96,10.0,44.2
2021-04-18 05:00:00,40.0,32.4,73.75,0.0,0.0,29.96,10.0,40.1
2021-04-18 06:00:00,38.0,32.2,79.72,0.0,0.0,29.95,10.0,37.9
2021-04-18 07:00:00,34.5,31.5,88.66,0.0,0.0,29.95,10.0,34.5
2021-04-18 08:00:00,32.7,30.4,91.13,0.0,0.0,29.94,10.0,32.7
2021-04-18 09:00:00,31.3,30.2,95.64,0.0,0.0,29.94,10.0,31.3
2021-04-18 10:00:00,30.7,29.8,96.41,0.0,0.0,29.93,10.0,30.7
2021-04-18 11:00:00,30.2,29.5,97.19,0.0,0.0,29.93,10.0,30.2
2021-04-18 12:00:00,35.0,32.0,89.03,0.0,0.0,29.93,10.0,34.9
2021-04-18 13:00:00,42.4,32.0,66.39,250.0,4.0,29.92,10.0,39.56
2021-04-18 14:00:00,49.6,27.5,42.09,0.0,0.0,29.91,10.0,49.6
2021-04-18 15:00:00,54.7,25.2,31.71,220.0,8.0,29.89,10.0,54.7
2021-04-18 16:00:00,55.8,27.3,33.23,240.0,6.0,29.87,10.0,55.8
2021-04-18 17:00:00,56.3,25.2,29.92,220.0,7.0,29.84,10.0,56.3
2021-04-18 18:00:00,57.2,25.9,29.82,250.0,8.0,29.82,10.0,57.2
2021-04-18 19:00:00,59.5,28.8,30.94,260.0,8.0,29.8,10.0,59.5
2021-04-18 20:00:00,58.3,28.8,32.3,260.0,9.0,29.77,10.0,58.3
2021-04-18 21:00:00,57.7,30.2,34.94,220.0,7.0,29.75,10.0,57.7
2021-04-18 22:00:00,59.0,31.8,35.58,210.0,8.0,29.72,10.0,59.0
2021-04-18 23:00:00,55.6,33.6,43.23,270.0,19.0,29.74,10.0,55.6
2021-04-19 00:00:00,45.7,42.6,88.84,280.0,9.0,29.76,7.0,40.55
2021-04-19 01:00:00,43.3,40.3,89.07,310.0,12.0,29.77,10.0,36.38
2021-04-19 02:00:00,40.6,36.7,85.85,320.0,10.0,29.8,10.0,33.75
2021-04-19 03:00:00,39.6,35.8,86.13,320.0,9.0,29.81,10.0,32.96
2021-04-19 04:00:00,37.4,33.0,84.3,310.0,10.0,29.83,10.0,29.74
2021-04-19 05:00:00,35.8,30.4,80.52,320.0,8.0,29.84,10.0,28.79
2021-04-19 06:00:00,34.0,30.6,87.21,310.0,7.0,29.85,10.0,27.22
2021-04-19 07:00:00,33.4,28.2,80.99,310.0,7.0,29.85,10.0,26.49
2021-04-19 08:00:00,32.2,29.3,88.91,290.0,9.0,29.86,7.0,23.76
2021-04-19 09:00:00,33.0,27.0,78.65,320.0,10.0,29.87,10.0,24.1
2021-04-19 10:00:00,32.5,27.1,80.26,290.0,10.0,29.87,10.0,23.6
2021-04-19 11:00:00,32.0,26.6,80.22,320.0,10.0,29.88,10.0,22.97
2021-04-19 12:00:00,32.0,25.7,77.28,310.0,8.0,29.9,10.0,24.11
2021-04-19 13:00:00,32.2,25.3,75.4,320.0,11.0,29.91,10.0,22.72
2021-04-19 14:00:00,32.0,25.2,75.69,310.0,8.0,29.92,10.0,24.11
2021-04-19 15:00:00,33.0,25.7,73.94,300.0,11.0,29.94,10.0,23.86
2021-04-19 16:00:00,34.0,27.0,75.26,300.0,12.0,29.94,7.0,24.55
2021-04-19 17:00:00,35.4,24.6,64.44,300.0,11.0,29.94,10.0,26.76
2021-04-19 18:00:00,35.8,23.2,59.81,330.0,9.0,29.94,10.0,28.24
2021-04-19 19:00:00,37.0,21.7,53.55,330.0,8.0,29.95,10.0,30.27
2021-04-19 20:00:00,36.5,20.5,51.91,310.0,8.0,29.95,10.0,29.66
2021-04-19 21:00:00,37.2,19.2,47.77,310.0,10.0,29.96,10.0,29.49
2021-04-19 22:00:00,35.4,21.6,56.81,300.0,7.0,29.97,10.0,28.92
2021-04-19 23:00:00,35.8,19.6,51.36,320.0,6.0,29.99,10.0,30.11
2021-04-20 00:00:00,34.2,21.0,58.09,350.0,5.0,30.01,10.0,29.01
2021-04-20 01:00:00,34.2,20.8,57.6,330.0,5.0,30.03,10.0,29.01
2021-04-20 02:00:00,33.0,21.7,63.04,290.0,3.0,30.04,10.0,29.72
2021-04-20 03:00:00,33.0,21.7,63.04,270.0,4.0,30.04,10.0,28.47
2021-04-20 04:00:00,32.5,21.0,62.19,270.0,5.0,30.04,10.0,26.99
2021-04-20 05:00:00,32.0,20.8,62.92,280.0,4.0,30.04,10.0,27.42
2021-04-20 06:00:00,29.7,19.9,66.47,280.0,3.0,30.04,10.0,26.06
2021-04-20 07:00:00,29.1,19.8,67.83,0.0,0.0,30.04,10.0,29.1
2021-04-20 08:00:00,29.1,18.3,63.61,320.0,3.0,30.04,10.0,25.37
2021-04-20 09:00:00,28.0,17.4,64.01,0.0,0.0,30.06,10.0,28.0
2021-04-20 10:00:00,26.8,17.6,67.83,0.0,0.0,30.06,10.0,26.8
2021-04-20 11:00:00,25.0,18.5,75.98,0.0,0.0,30.07,10.0,25.0
2021-04-20 12:00:00,29.7,18.3,62.07,300.0,4.0,30.09,10.0,24.73
2021-04-20 13:00:00,31.8,18.9,58.49,280.0,4.0,30.11,10.0,27.19
2021-04-20 14:00:00,33.6,18.5,53.48,20.0,3.0,30.1,10.0,30.52
2021-04-20 15:00:00,37.6,17.2,43.15,300.0,5.0,30.1,10.0,33.05
2021-04-20 16:00:00,36.7,15.4,41.35,320.0,6.0,30.1,10.0,31.19
2021-04-20 17:00:00,37.8,15.8,40.3,290.0,6.0,30.09,10.0,32.52
2021-04-20 18:00:00,38.3,15.4,38.83,280.0,6.0,30.09,10.0,33.12
2021-04-20 19:00:00,40.0,14.9,35.69,270.0,4.0,30.08,10.0,36.65
2021-04-20 20:00:00,38.7,13.6,35.33,350.0,6.0,30.07,10.0,33.6
2021-04-20 21:00:00,39.2,13.6,34.65,330.0,8.0,30.07,10.0,32.98
2021-04-20 22:00:00,39.4,14.4,35.61,280.0,9.0,30.07,10.0,32.72
2021-04-20 23:00:00,39.2,14.0,35.26,270.0,10.0,30.08,10.0,32.0
2021-04-21 00:00:00,36.0,14.2,40.34,290.0,7.0,30.09,10.0,29.65
2021-04-21 01:00:00,34.7,15.6,45.16,300.0,3.0,30.11,10.0,31.78
2021-04-21 02:00:00,33.8,16.9,49.52,0.0,0.0,30.12,10.0,33.8
2021-04-21 03:00:00,32.2,16.9,52.81,0.0,0.0,30.12,10.0,32.2
2021-04-21 04:00:00,30.6,19.0,61.66,0.0,0.0,30.12,10.0,30.6
2021-04-21 05:00:00,29.1,20.1,68.7,0.0,0.0,30.12,10.0,29.1
2021-04-21 06:00:00,28.2,20.8,73.43,0.0,0.0,30.12,10.0,28.2
2021-04-21 07:00:00,25.5,20.3,80.36,0.0,0.0,30.11,10.0,25.5
2021-04-21 08:00:00,25.5,21.2,83.49,0.0,0.0,30.11,10.0,25.5
2021-04-21 09:00:00,27.0,23.0,84.66,0.0,0.0,30.12,10.0,27.0
2021-04-21 10:00:00,28.0,22.8,80.57,0.0,0.0,30.12,10.0,28.0
2021-04-21 11:00:00,28.0,22.8,80.57,0.0,0.0,30.12,10.0,28.0
2021-04-21 12:00:00,30.2,23.5,75.84,320.0,3.0,30.14,10.0,26.63
2021-04-21 13:00:00,32.0,23.7,71.1,300.0,5.0,30.14,10.0,26.4
2021-04-21 14:00:00,34.3,19.6,54.51,280.0,11.0,30.14,10.0,25.37
2021-04-21 15:00:00,34.0,16.9,49.13,260.0,11.0,30.14,10.0,24.99
2021-04-21 16:00:00,35.6,15.1,42.63,290.0,10.0,30.14,10.0,27.48
2021-04-21 17:00:00,36.0,11.1,35.05,260.0,9.0,30.13,10.0,28.61
2021-04-21 18:00:00,36.7,12.9,37.06,250.0,12.0,30.11,10.0,27.98
2021-04-21 19:00:00,38.0,16.0,40.49,260.0,10.0,30.11,10.0,30.37
2021-04-21 20:00:00,37.8,14.9,38.75,290.0,8.0,30.1,10.0,31.26
2021-04-21 21:00:00,38.0,14.0,37.1,260.0,5.0,30.07,10.0,33.4
2021-04-21 22:00:00,39.2,13.1,33.9,280.0,8.0,30.06,10.0,32.98
2021-04-21 23:00:00,38.5,13.6,35.61,260.0,7.0,30.06,10.0,32.7
2021-04-22 00:00:00,37.0,18.1,46.11,260.0,8.0,30.04,10.0,30.15
2021-04-22 01:00:00,34.3,19.6,54.51,0.0,0.0,30.05,10.0,34.3
2021-04-22 02:00:00,32.2,21.2,63.48,0.0,0.0,30.06,10.0,32.2
2021-04-22 03:00:00,29.7,22.8,75.15,0.0,0.0,30.05,10.0,29.7
2021-04-22 04:00:00,29.1,21.2,71.99,0.0,0.0,30.04,10.0,29.1
2021-04-22 05:00:00,27.5,23.0,82.93,0.0,0.0,30.04,10.0,27.5
2021-04-22 06:00:00,26.1,23.0,87.87,0.0,0.0,30.04,10.0,26.1
2021-04-22 07:00:00,25.5,23.0,90.08,0.0,0.0,30.02,10.0,25.5
2021-04-22 08:00:00,25.2,22.8,90.45,0.0,0.0,30.02,10.0,25.2
2021-04-22 09:00:00,24.6,22.8,92.74,0.0,0.0,30.01,10.0,24.6
2021-04-22 10:00:00,27.5,23.9,86.12,0.0,0.0,29.99,10.0,27.5
2021-04-22 11:00:00,27.5,22.6,81.55,110.0,3.0,29.98,10.0,23.54
2021-04-22 12:00:00,31.8,24.6,74.42,140.0,3.0,29.98,10.0,28.46
2021-04-22 13:00:00,36.7,26.6,66.51,170.0,5.0,29.98,10.0,31.98
2021-04-22 14:00:00,41.7,27.1,55.86,220.0,5.0,29.97,10.0,37.92
2021-04-22 15:00:00,45.7,28.9,51.61,210.0,6.0,29.97,10.0,42.03
2021-04-22 16:00:00,52.0,28.4,39.95,220.0,6.0,29.96,10.0,52.0
2021-04-22 17:00:00,56.3,28.0,33.59,240.0,11.0,29.96,10.0,56.3
2021-04-22 18:00:00,56.3,28.0,33.59,240.0,11.0,29.96,10.0,56.3
2021-04-22 19:00:00,62.0,25.2,24.49,250.0,12.0,29.93,10.0,61.9
2021-04-22 20:00:00,61.5,23.7,23.33,270.0,13.0,29.91,10.0,61.5
2021-04-22 21:00:00,62.0,22.6,21.81,260.0,8.0,29.9,10.0,62.1
2021-04-22 22:00:00,62.0,22.3,21.54,250.0,12.0,29.9,10.0,62.1
2021-04-22 23:00:00,60.8,23.5,23.72,240.0,6.0,29.88,10.0,60.8
2021-04-23 00:00:00,57.4,23.5,26.78,240.0,6.0,29.88,10.0,57.4
2021-04-23 01:00:00,51.4,25.3,35.94,0.0,0.0,29.89,10.0,51.4
2021-04-23 02:00:00,44.4,27.0,50.16,0.0,0.0,29.91,10.0,44.4
2021-04-23 03:00:00,43.7,27.1,51.73,0.0,0.0,29.91,10.0,43.7
2021-04-23 04:00:00,39.7,29.1,65.52,0.0,0.0,29.9,10.0,39.7
2021-04-23 05:00:00,38.5,29.3,69.23,0.0,0.0,29.9,10.0,38.5
2021-04-23 06:00:00,37.2,30.2,75.57,0.0,0.0,29.9,10.0,37.2
2021-04-23 07:00:00,42.8,25.7,50.53,0.0,0.0,29.9,10.0,42.8
2021-04-23 08:00:00,35.4,27.1,71.48,0.0,0.0,29.9,10.0,35.4
2021-04-23 09:00:00,36.0,28.8,74.84,0.0,0.0,29.91,10.0,36.0
2021-04-23 10:00:00,35.8,27.5,71.52,0.0,0.0,29.92,10.0,35.8
2021-04-23 11:00:00,37.2,30.6,76.81,0.0,0.0,29.93,10.0,37.2
2021-04-23 12:00:00,42.0,31.5,65.82,200.0,6.0,29.95,10.0,37.69
2021-04-23 13:00:00,45.7,35.6,67.6,210.0,9.0,29.95,10.0,40.55
2021-04-23 14:00:00,45.5,38.0,74.58,210.0,8.0,29.94,10.0,40.74
2021-04-23 15:00:00,45.3,38.7,77.54,150.0,5.0,29.93,10.0,42.19
2021-04-23 16:00:00,48.0,36.3,63.72,170.0,7.0,29.92,10.0,44.28
2021-04-23 17:00:00,51.0,34.2,52.61,180.0,5.0,29.9,10.0,50.9
2021-04-23 18:00:00,52.0,32.4,47.0,210.0,10.0,29.88,10.0,52.0
2021-04-23 19:00:00,52.7,31.8,44.71,200.0,8.0,29.88,10.0,52.7
2021-04-23 20:00:00,49.3,37.4,63.39,250.0,6.0,29.88,10.0,46.37
2021-04-23 21:00:00,48.2,39.0,70.32,240.0,3.0,29.88,10.0,47.21
2021-04-23 22:00:00,46.0,41.2,83.54,260.0,3.0,29.9,10.0,44.58
2021-04-23 23:00:00,45.0,42.0,88.47,0.0,0.0,29.89,10.0,45.1
2021-04-24 00:00:00,44.6,42.0,90.87,0.0,0.0,29.89,10.0,44.6
2021-04-24 01:00:00,43.7,42.8,96.61,0.0,0.0,29.9,7.0,43.7
2021-04-24 02:00:00,43.2,42.0,95.13,0.0,0.0,29.91,7.0,43.2
2021-04-24 03:00:00,43.3,41.7,94.03,0.0,0.0,29.91,10.0,43.3
2021-04-24 04:00:00,42.8,42.0,97.34,0.0,0.0,29.91,5.0,42.8
2021-04-24 05:00:00,42.3,42.0,98.47,0.0,0.0,29.92,5.0,42.3
2021-04-24 06:00:00,41.4,41.2,99.23,0.0,0.0,29.92,3.0,41.4
2021-04-24 07:00:00,42.0,41.4,98.09,0.0,0.0,29.91,4.0,41.9
2021-04-24 08:00:00,42.0,41.2,97.33,0.0,0.0,29.91,4.0,41.9
2021-04-24 09:00:00,41.5,41.0,98.09,0.0,0.0,29.9,5.0,41.5
2021-04-24 10:00:00,42.0,41.2,96.59,0.0,0.0,29.9,5.0,42.1
2021-04-24 11:00:00,41.0,40.5,98.08,320.0,7.0,29.91,5.0,35.75
2021-04-24 12:00:00,39.2,38.0,95.04,320.0,8.0,29.93,10.0,32.98
2021-04-24 13:00:00,36.5,35.6,96.5,320.0,7.0,29.94,4.0,30.26
2021-04-24 14:00:00,35.0,33.8,94.95,320.0,6.0,29.95,7.0,29.26
2021-04-24 15:00:00,36.0,34.2,93.09,330.0,8.0,29.95,10.0,29.04
2021-04-24 16:00:00,37.0,34.5,90.57,320.0,8.0,29.96,10.0,30.27
2021-04-24 17:00:00,38.8,34.2,83.38,330.0,7.0,29.96,10.0,33.07
2021-04-24 18:00:00,40.0,33.6,77.99,340.0,7.0,29.95,10.0,34.41
2021-04-24 19:00:00,41.0,33.0,72.66,320.0,8.0,29.96,10.0,35.2
2021-04-24 20:00:00,40.8,33.6,75.31,330.0,9.0,29.95,10.0,34.46
2021-04-24 21:00:00,39.6,31.6,72.81,330.0,9.0,29.96,10.0,32.96
2021-04-24 22:00:00,39.7,30.4,69.09,310.0,8.0,29.98,10.0,33.6
2021-04-24 23:00:00,41.0,29.1,62.3,360.0,8.0,29.98,10.0,35.2
2021-04-25 00:00:00,38.5,28.4,66.73,10.0,7.0,29.99,10.0,32.7
2021-04-25 01:00:00,33.0,27.1,78.35,30.0,4.0,30.0,10.0,28.7
2021-04-25 02:00:00,32.0,26.2,78.9,0.0,0.0,30.02,10.0,32.0
2021-04-25 03:00:00,29.3,27.7,93.66,0.0,0.0,30.04,10.0,29.3
2021-04-25 04:00:00,28.4,27.1,94.8,0.0,0.0,30.06,10.0,28.4
2021-04-25 05:00:00,27.5,26.8,97.16,0.0,0.0,30.06,10.0,27.5
2021-04-25 06:00:00,26.1,25.3,96.73,0.0,0.0,30.06,10.0,26.1
2021-04-25 07:00:00,25.5,25.2,98.76,0.0,0.0,30.07,7.0,25.5
2021-04-25 08:00:00,23.0,21.7,94.67,0.0,0.0,30.08,10.0,23.0
2021-04-25 09:00:00,23.7,23.0,97.11,0.0,0.0,30.09,10.0,23.7
2021-04-25 10:00:00,23.0,22.6,98.33,0.0,0.0,30.1,1.5,23.0
2021-04-25 11:00:00,22.8,21.9,96.28,0.0,0.0,30.11,10.0,22.8
2021-04-25 12:00:00,27.5,27.0,97.96,0.0,0.0,30.13,10.0,27.5
2021-04-25 13:00:00,31.5,30.0,94.1,0.0,0.0,30.14,10.0,31.5
2021-04-25 14:00:00,38.0,27.1,64.76,0.0,0.0,30.14,10.0,37.9
2021-04-25 15:00:00,40.6,16.0,36.44,0.0,0.0,30.15,10.0,40.6
2021-04-25 16:00:00,44.0,18.1,34.87,140.0,5.0,30.15,10.0,40.77
2021-04-25 17:00:00,44.6,19.0,35.56,100.0,3.0,30.13,10.0,43.09
2021-04-25 18:00:00,45.5,19.2,34.66,160.0,5.0,30.1,7.0,42.43
2021-04-25 19:00:00,45.7,16.9,31.16,100.0,9.0,30.07,10.0,40.55
2021-04-25 20:00:00,46.2,19.6,34.34,140.0,8.0,30.06,10.0,41.61
2021-04-25 21:00:00,44.6,21.6,39.72,140.0,6.0,30.04,10.0,40.71
2021-04-25 22:00:00,43.3,25.5,49.16,140.0,10.0,30.02,10.0,37.14
2021-04-25 23:00:00,41.4,27.9,58.4,130.0,8.0,30.01,10.0,35.69
2021-04-26 00:00:00,41.0,28.8,61.54,130.0,9.0,30.01,10.0,34.7
2021-04-26 01:00:00,40.6,28.4,61.49,130.0,8.0,30.0,10.0,34.71
2021-04-26 02:00:00,39.4,31.3,72.5,110.0,8.0,30.02,10.0,33.23
2021-04-26 03:00:00,38.0,32.7,80.7,70.0,6.0,30.01,10.0,32.88
2021-04-26 04:00:00,38.7,32.0,76.64,100.0,7.0,29.99,10.0,32.95
2021-04-26 05:00:00,37.4,32.4,81.96,80.0,10.0,29.96,10.0,29.74
2021-04-26 06:00:00,38.3,32.2,78.48,100.0,12.0,29.94,10.0,30.02
2021-04-26 07:00:00,37.6,32.5,81.65,110.0,11.0,29.93,10.0,29.54
2021-04-26 08:00:00,38.3,32.0,77.85,100.0,14.0,29.91,10.0,29.28
2021-04-26 09:00:00,37.6,31.5,78.42,110.0,16.0,29.9,10.0,27.72
2021-04-26 10:00:00,36.7,30.4,77.71,120.0,14.0,29.92,10.0,27.22
2021-04-26 11:00:00,34.7,31.8,89.03,120.0,14.0,29.9,7.0,24.64
2021-04-26 12:00:00,34.3,32.0,91.19,130.0,15.0,29.9,10.0,23.76
2021-04-26 13:00:00,33.4,32.0,94.53,120.0,15.0,29.86,3.0,22.59
2021-04-26 14:00:00,34.2,32.0,91.55,110.0,10.0,29.85,10.0,25.73
2021-04-26 15:00:00,38.0,33.6,83.67,120.0,12.0,29.82,10.0,29.77
2021-04-26 16:00:00,40.6,34.5,78.68,110.0,12.0,29.82,10.0,32.95
2021-04-26 17:00:00,42.0,34.3,74.23,100.0,10.0,29.79,10.0,35.38
2021-04-26 18:00:00,43.3,35.8,74.66,90.0,9.0,29.74,10.0,37.56
2021-04-26 19:00:00,44.0,36.7,75.03,70.0,9.0,29.7,10.0,38.56
2021-04-26 20:00:00,44.0,37.4,77.72,40.0,7.0,29.73,10.0,39.28
2021-04-26 21:00:00,42.0,39.4,90.07,20.0,8.0,29.74,10.0,36.55
2021-04-26 22:00:00,40.5,39.6,96.56,10.0,11.0,29.76,3.0,33.21
2021-04-26 23:00:00,40.3,40.0,98.46,40.0,11.0,29.76,2.5,32.96
2021-04-27 00:00:00,42.0,40.5,94.73,70.0,6.0,29.72,10.0,37.45
2021-04-27 01:00:00,42.0,40.5,94.73,70.0,6.0,29.72,10.0,37.45
2021-04-27 02:00:00,41.5,39.6,92.9,50.0,5.0,29.76,10.0,37.68
2021-04-27 03:00:00,41.4,40.0,95.09,20.0,6.0,29.77,10.0,36.85
2021-04-27 04:00:00,40.3,38.7,93.96,30.0,7.0,29.76,10.0,34.9
2021-04-27 05:00:00,39.2,37.8,94.67,40.0,5.0,29.77,10.0,34.95
2021-04-27 06:00:00,38.3,37.0,95.02,30.0,6.0,29.75,10.0,33.12
2021-04-27 07:00:00,38.3,36.7,93.9,30.0,6.0,29.75,10.0,33.12
2021-04-27 08:00:00,38.0,36.5,94.64,20.0,7.0,29.74,10.0,31.97
2021-04-27 09:00:00,38.0,36.5,94.64,30.0,7.0,29.75,10.0,31.97
2021-04-27 10:00:00,38.5,36.5,92.44,0.0,0.0,29.77,10.0,38.5
2021-04-27 11:00:00,38.5,36.7,93.17,10.0,11.0,29.75,10.0,30.68
2021-04-27 12:00:00,39.4,37.4,92.47,10.0,9.0,29.79,10.0,32.72
2021-04-27 13:00:00,41.2,38.0,88.63,350.0,6.0,29.83,10.0,36.61
2021-04-27 14:00:00,42.4,39.0,87.65,20.0,8.0,29.82,10.0,36.92
2021-04-27 15:00:00,44.6,40.0,84.1,20.0,9.0,29.82,10.0,39.18
2021-04-27 16:00:00,47.0,41.7,81.39,20.0,9.0,29.81,10.0,42.29
2021-04-27 17:00:00,51.0,43.7,76.26,20.0,11.0,29.79,10.0,50.9
2021-04-27 18:00:00,51.8,44.2,75.19,10.0,14.0,29.78,10.0,51.8
2021-04-27 19:00:00,50.2,43.2,76.78,350.0,9.0,29.82,10.0,50.2
2021-04-27 20:00:00,48.4,44.4,85.97,10.0,10.0,29.83,10.0,43.53
2021-04-27 21:00:00,48.2,44.2,85.96,360.0,8.0,29.86,10.0,44.07
2021-04-27 22:00:00,46.4,43.2,88.53,20.0,13.0,29.85,10.0,40.02
2021-04-27 23:00:00,43.2,40.8,91.17,340.0,7.0,29.89,10.0,38.43
2021-04-28 00:00:00,41.5,40.0,94.72,10.0,12.0,29.88,10.0,34.09
2021-04-28 01:00:00,40.0,39.2,96.56,10.0,11.0,29.91,7.0,32.7
2021-04-28 02:00:00,39.6,38.7,96.55,360.0,9.0,29.93,4.0,32.96
2021-04-28 03:00:00,39.6,38.5,95.8,10.0,10.0,29.93,10.0,32.5
2021-04-28 04:00:00,39.2,38.5,97.3,10.0,6.0,29.92,10.0,34.2
2021-04-28 05:00:00,39.2,38.3,96.54,350.0,5.0,29.95,10.0,34.95
2021-04-28 06:00:00,38.3,37.0,95.02,360.0,6.0,29.96,10.0,33.12
2021-04-28 07:00:00,37.4,36.0,95.0,360.0,5.0,29.96,10.0,32.81
2021-04-28 08:00:00,37.4,36.0,94.62,20.0,6.0,29.95,10.0,32.03
2021-04-28 09:00:00,37.0,35.6,94.99,10.0,4.0,29.96,10.0,33.14
2021-04-28 10:00:00,35.6,34.7,96.49,350.0,3.0,29.97,10.0,32.8
2021-04-28 11:00:00,35.6,34.7,96.49,10.0,4.0,29.98,7.0,31.62
2021-04-28 12:00:00,37.4,36.0,94.62,360.0,7.0,30.0,10.0,31.36
2021-04-28 13:00:00,39.2,37.2,92.46,30.0,8.0,30.01,10.0,32.98
2021-04-28 14:00:00,41.7,38.0,86.25,20.0,8.0,30.0,10.0,36.06
2021-04-28 15:00:00,46.0,40.0,79.75,10.0,6.0,30.01,10.0,42.39
2021-04-28 16:00:00,50.0,42.6,75.59,40.0,6.0,30.01,10.0,50.0
2021-04-28 17:00:00,51.8,43.0,71.81,350.0,5.0,29.99,10.0,51.8
2021-04-28 18:00:00,54.0,42.0,63.98,360.0,4.0,29.99,10.0,54.0
2021-04-28 19:00:00,54.7,42.3,62.85,350.0,6.0,29.97,10.0,54.7
2021-04-28 20:00:00,58.5,41.4,52.92,20.0,6.0,29.95,10.0,58.5
2021-04-28 21:00:00,59.7,42.0,52.08,10.0,8.0,29.94,10.0,59.7
2021-04-28 22:00:00,60.0,40.3,48.24,330.0,4.0,29.93,10.0,59.9
2021-04-28 23:00:00,60.0,37.8,43.44,360.0,6.0,29.92,10.0,60.1
2021-04-29 00:00:00,58.0,42.0,55.55,10.0,3.0,29.92,10.0,57.9
2021-04-29 01:00:00,52.7,38.7,58.81,0.0,0.0,29.93,10.0,52.7
2021-04-29 02:00:00,46.6,43.0,87.2,0.0,0.0,29.94,10.0,46.6
2021-04-29 03:00:00,43.7,41.7,92.6,0.0,0.0,29.94,10.0,43.7
2021-04-29 04:00:00,41.7,40.3,94.72,0.0,0.0,29.93,10.0,41.7
2021-04-29 05:00:00,40.3,39.6,97.31,0.0,0.0,29.92,10.0,40.3
2021-04-29 06:00:00,38.5,38.0,97.68,0.0,0.0,29.91,10.0,38.5
2021-04-29 07:00:00,36.7,36.3,98.43,0.0,0.0,29.91,10.0,36.7
2021-04-29 08:00:00,35.8,35.6,99.21,0.0,0.0,29.91,7.0,35.8
2021-04-29 09:00:00,35.4,35.2,99.21,0.0,0.0,29.9,10.0,35.4
2021-04-29 10:00:00,35.2,35.0,99.6,0.0,0.0,29.9,7.0,35.2
2021-04-29 11:00:00,36.5,36.0,98.43,0.0,0.0,29.9,10.0,36.5
2021-04-29 12:00:00,38.5,37.6,96.53,0.0,0.0,29.9,10.0,38.5
2021-04-29 13:00:00,41.4,39.4,92.53,0.0,0.0,29.91,10.0,41.4
2021-04-29 14:00:00,53.0,44.0,71.93,0.0,0.0,29.91,10.0,52.9
2021-04-29 15:00:00,58.3,44.4,59.8,320.0,10.0,29.92,10.0,58.3
2021-04-29 16:00:00,58.6,43.5,57.16,340.0,10.0,29.93,10.0,58.6
2021-04-29 17:00:00,59.4,42.6,53.67,320.0,12.0,29.94,10.0,59.4
2021-04-29 18:00:00,58.5,38.0,46.54,340.0,11.0,29.95,10.0,58.5
2021-04-29 19:00:00,60.3,34.3,37.55,290.0,14.0,29.95,10.0,60.3
2021-04-29 20:00:00,61.3,33.4,34.96,300.0,10.0,29.95,10.0,61.3
2021-04-29 21:00:00,62.2,32.0,32.01,310.0,13.0,29.94,10.0,62.2
2021-04-29 22:00:00,62.2,32.0,32.01,310.0,13.0,29.94,10.0,62.2
2021-04-29 23:00:00,62.2,32.0,32.01,310.0,13.0,29.94,10.0,62.2
2021-04-30 00:00:00,62.2,32.0,32.01,310.0,13.0,29.94,10.0,62.2
2021-04-30 01:00:00,62.2,32.0,32.01,310.0,13.0,29.94,10.0,62.2
2021-04-30 02:00:00,62.2,32.0,32.01,310.0,13.0,29.94,10.0,62.2
2021-04-30 03:00:00,53.8,35.2,49.21,300.0,10.0,29.99,10.0,53.8
2021-04-30 04:00:00,52.3,37.2,56.27,290.0,5.0,30.0,10.0,52.3
2021-04-30 05:00:00,52.0,30.0,42.65,310.0,6.0,30.01,10.0,52.0
2021-04-30 06:00:00,46.6,34.0,61.3,360.0,17.0,30.06,10.0,39.2
2021-04-30 07:00:00,44.0,31.3,60.47,350.0,9.0,30.09,10.0,38.56
2021-04-30 08:00:00,42.0,30.6,63.47,340.0,6.0,30.13,10.0,37.69
2021-04-30 09:00:00,39.4,27.9,63.11,350.0,9.0,30.17,10.0,32.72
2021-04-30 10:00:00,37.4,26.4,64.16,340.0,8.0,30.2,10.0,30.76
2021-04-30 11:00:00,37.0,26.4,65.18,330.0,5.0,30.23,10.0,32.33
2021-04-30 12:00:00,39.2,25.5,57.6,360.0,9.0,30.24,10.0,32.47
2021-04-30 13:00:00,40.5,25.3,54.31,10.0,10.0,30.25,10.0,33.63
2021-04-30 14:00:00,42.4,25.0,49.84,30.0,7.0,30.25,10.0,37.46
2021-04-30 15:00:00,45.0,25.0,44.95,20.0,4.0,30.26,10.0,42.72
2021-04-30 16:00:00,48.0,25.3,40.79,0.0,0.0,30.25,10.0,48.0
2021-04-30 17:00:00,51.4,25.0,35.5,40.0,4.0,30.24,10.0,51.4
2021-04-30 18:00:00,53.0,22.8,30.63,50.0,4.0,30.22,10.0,52.9
2021-04-30 19:00:00,54.7,19.4,24.83,360.0,3.0,30.2,10.0,54.7
2021-04-30 20:00:00,56.0,20.1,24.49,290.0,3.0,30.19,10.0,55.9
2021-04-30 21:00:00,56.3,22.1,26.28,0.0,0.0,30.17,10.0,56.3
2021-04-30 22:00:00,55.6,21.0,25.73,0.0,0.0,30.15,10.0,55.6
2021-04-30 23:00:00,56.0,22.1,26.47,150.0,3.0,30.13,10.0,56.1
2021-05-01 00:00:00,53.6,26.1,34.27,160.0,4.0,30.11,10.0,53.6
2021-05-01 01:00:00,51.0,28.4,41.61,140.0,4.0,30.07,10.0,50.9
2021-05-01 02:00:00,49.0,28.6,44.86,150.0,6.0,30.05,10.0,46.13
2021-05-01 03:00:00,48.2,26.4,42.38,140.0,6.0,30.02,10.0,45.04
2021-05-01 04:00:00,47.7,26.1,42.65,140.0,7.0,29.99,10.0,43.92
2021-05-01 05:00:00,48.6,26.1,41.23,130.0,7.0,29.94,10.0,45.01
2021-05-01 06:00:00,48.6,27.3,43.33,130.0,6.0,29.91,10.0,45.52
2021-05-01 07:00:00,47.7,26.4,43.18,130.0,6.0,29.86,10.0,44.44
2021-05-01 08:00:00,48.2,26.6,42.73,120.0,7.0,29.82,10.0,44.53
2021-05-01 09:00:00,47.3,28.8,48.39,110.0,5.0,29.77,10.0,44.57
2021-05-01 10:00:00,48.2,29.8,48.73,100.0,6.0,29.72,10.0,45.04
2021-05-01 11:00:00,47.8,31.5,52.99,130.0,6.0,29.68,10.0,44.56
2021-05-01 12:00:00,52.7,32.2,45.44,140.0,9.0,29.65,10.0,52.7
2021-05-01 13:00:00,59.0,36.5,42.92,190.0,8.0,29.62,10.0,59.0
2021-05-01 14:00:00,61.7,38.8,42.68,210.0,10.0,29.6,10.0,61.7
2021-05-01 15:00:00,68.7,42.4,38.45,250.0,11.0,29.59,10.0,68.7
2021-05-01 16:00:00,71.6,43.2,35.92,240.0,6.0,29.59,10.0,71.6
2021-05-01 17:00:00,75.4,43.5,31.97,260.0,7.0,29.57,10.0,75.4
2021-05-01 18:00:00,78.4,43.5,28.95,260.0,10.0,29.55,10.0,78.4
2021-05-01 19:00:00,81.3,41.0,23.91,250.0,8.0,29.54,10.0,79.61
2021-05-01 20:00:00,83.3,38.5,20.33,220.0,11.0,29.52,10.0,80.78
2021-05-01 21:00:00,82.6,39.2,21.37,230.0,7.0,29.51,10.0,80.34
2021-05-01 22:00:00,83.7,41.4,22.46,230.0,11.0,29.51,10.0,81.18
2021-05-01 23:00:00,81.0,43.7,26.78,200.0,6.0,29.49,10.0,79.59
2021-05-02 00:00:00,75.4,45.7,34.77,160.0,4.0,29.47,10.0,75.4
2021-05-02 01:00:00,73.0,44.0,35.31,190.0,3.0,29.46,10.0,72.9
2021-05-02 02:00:00,67.5,46.2,46.33,0.0,0.0,29.47,10.0,67.5
2021-05-02 03:00:00,62.0,48.0,59.86,0.0,0.0,29.48,10.0,62.1
2021-05-02 04:00:00,69.0,42.4,38.19,220.0,6.0,29.47,10.0,68.9
2021-05-02 05:00:00,63.0,44.8,51.39,0.0,0.0,29.47,10.0,63.0
2021-05-02 06:00:00,55.2,47.0,73.54,10.0,6.0,29.47,10.0,55.2
2021-05-02 07:00:00,52.5,46.6,80.26,0.0,0.0,29.48,10.0,52.5
2021-05-02 08:00:00,51.0,44.2,77.73,0.0,0.0,29.5,10.0,50.9
2021-05-02 09:00:00,51.0,43.3,75.1,360.0,4.0,29.5,10.0,50.9
2021-05-02 10:00:00,50.4,42.0,73.06,10.0,4.0,29.52,10.0,50.4
2021-05-02 11:00:00,55.0,40.5,57.99,340.0,5.0,29.54,10.0,55.0
2021-05-02 12:00:00,57.6,42.4,56.8,10.0,6.0,29.54,10.0,57.6
2021-05-02 13:00:00,59.7,43.5,54.96,10.0,6.0,29.55,10.0,59.7
2021-05-02 14:00:00,61.7,45.0,54.21,330.0,3.0,29.54,10.0,61.7
2021-05-02 15:00:00,65.0,44.4,47.35,10.0,4.0,29.55,10.0,64.9
2021-05-02 16:00:00,66.4,44.0,44.43,310.0,5.0,29.59,10.0,66.4
2021-05-02 17:00:00,63.0,43.7,49.1,350.0,10.0,29.59,10.0,63.1
2021-05-02 18:00:00,61.7,45.0,54.41,10.0,12.0,29.59,10.0,61.7
2021-05-02 19:00:00,59.5,48.6,67.14,30.0,11.0,29.59,10.0,59.5
2021-05-02 20:00:00,62.2,49.5,63.09,30.0,4.0,29.59,10.0,62.2
2021-05-02 21:00:00,62.8,48.0,58.4,30.0,5.0,29.59,10.0,62.8
2021-05-02 22:00:00,65.0,47.7,53.65,50.0,5.0,29.59,10.0,64.9
2021-05-02 23:00:00,64.0,46.2,52.32,50.0,5.0,29.56,10.0,64.0
2021-05-03 00:00:00,63.0,46.4,54.41,50.0,5.0,29.56,10.0,63.1
2021-05-03 01:00:00,60.3,49.0,66.48,100.0,7.0,29.59,10.0,60.3
2021-05-03 02:00:00,57.2,50.7,78.85,10.0,3.0,29.6,10.0,57.2
2021-05-03 03:00:00,55.6,51.4,85.74,10.0,5.0,29.59,10.0,55.6
2021-05-03 04:00:00,55.0,51.4,87.95,20.0,7.0,29.59,10.0,54.9
2021-05-03 05:00:00,54.5,51.0,87.6,20.0,6.0,29.6,10.0,54.5
2021-05-03 06:00:00,53.8,49.0,83.43,40.0,6.0,29.6,10.0,53.8
2021-05-03 07:00:00,52.3,48.4,86.52,30.0,5.0,29.59,10.0,52.3
2021-05-03 08:00:00,51.3,47.3,86.14,10.0,7.0,29.59,10.0,51.3
2021-05-03 09:00:00,50.2,46.4,86.73,360.0,8.0,29.6,10.0,50.2
2021-05-03 10:00:00,49.0,45.5,87.98,10.0,7.0,29.59,10.0,45.38
2021-05-03 11:00:00,49.0,44.6,84.39,360.0,6.0,29.6,10.0,46.13
2021-05-03 12:00:00,50.0,45.7,85.09,360.0,6.0,29.62,10.0,50.0
2021-05-03 13:00:00,51.6,46.8,83.6,360.0,7.0,29.62,10.0,51.6
2021-05-03 14:00:00,54.3,48.2,79.8,10.0,4.0,29.62,10.0,54.3
2021-05-03 15:00:00,60.6,51.0,70.33,330.0,6.0,29.63,10.0,60.6
2021-05-03 16:00:00,62.4,49.6,62.88,330.0,10.0,29.64,10.0,62.4
2021-05-03 17:00:00,63.7,48.7,58.09,340.0,11.0,29.64,10.0,63.7
2021-05-03 18:00:00,63.5,47.3,55.5,330.0,10.0,29.65,10.0,63.5
2021-05-03 19:00:00,63.0,46.0,53.39,340.0,12.0,29.67,10.0,63.1
2021-05-03 20:00:00,61.2,45.0,55.38,310.0,11.0,29.69,10.0,61.2
2021-05-03 21:00:00,57.7,42.8,57.48,340.0,14.0,29.72,10.0,57.7
2021-05-03 22:00:00,53.6,41.2,62.71,330.0,12.0,29.76,10.0,53.6
2021-05-03 23:00:00,51.4,42.0,70.4,340.0,8.0,29.77,10.0,51.4
2021-05-04 00:00:00,50.0,42.0,74.15,350.0,14.0,29.8,10.0,50.0
2021-05-04 01:00:00,48.6,42.4,79.04,330.0,7.0,29.83,10.0,45.01
2021-05-04 02:00:00,47.7,42.0,80.19,330.0,8.0,29.86,10.0,43.45
2021-05-04 03:00:00,46.6,42.0,83.58,340.0,6.0,29.87,10.0,43.11
2021-05-04 04:00:00,46.4,41.5,82.93,340.0,6.0,29.88,10.0,42.87
2021-05-04 05:00:00,46.6,41.7,82.94,310.0,5.0,29.88,10.0,43.73
2021-05-04 06:00:00,46.4,40.0,77.94,340.0,6.0,29.86,10.0,42.87
2021-05-04 07:00:00,45.0,38.8,78.44,0.0,0.0,29.85,10.0,45.1
2021-05-04 08:00:00,43.2,39.2,85.67,310.0,6.0,29.88,10.0,39.02
2021-05-04 09:00:00,43.3,37.8,80.79,300.0,6.0,29.91,10.0,39.14
2021-05-04 10:00:00,43.7,35.2,71.8,320.0,10.0,29.93,10.0,37.64
2021-05-04 11:00:00,42.8,35.6,75.5,340.0,7.0,29.95,10.0,37.94
2021-05-04 12:00:00,44.6,33.8,65.61,340.0,10.0,29.96,10.0,38.77
2021-05-04 13:00:00,47.3,34.7,61.4,350.0,14.0,29.96,10.0,40.88
2021-05-04 14:00:00,47.3,34.3,60.42,340.0,14.0,29.96,10.0,40.88
2021-05-04 15:00:00,48.7,33.3,55.08,340.0,11.0,29.96,10.0,43.57
2021-05-04 16:00:00,49.8,33.4,53.08,320.0,10.0,29.96,10.0,45.29
2021-05-04 17:00:00,50.5,35.0,54.91,350.0,10.0,29.96,10.0,50.5
2021-05-04 18:00:00,51.6,35.6,54.2,340.0,7.0,29.96,10.0,51.6
2021-05-04 19:00:00,54.0,32.2,43.32,350.0,11.0,29.96,10.0,54.0
2021-05-04 20:00:00,53.6,31.5,42.74,330.0,10.0,29.96,10.0,53.6
2021-05-04 21:00:00,53.2,30.0,40.81,320.0,9.0,29.97,10.0,53.2
2021-05-04 22:00:00,53.0,29.1,39.48,320.0,6.0,29.98,10.0,53.1
2021-05-04 23:00:00,52.7,29.7,41.06,350.0,7.0,29.98,10.0,52.7
2021-05-05 00:00:00,51.4,30.9,45.23,340.0,6.0,29.98,10.0,51.4
2021-05-05 01:00:00,48.6,31.6,51.64,320.0,3.0,29.99,10.0,47.67
2021-05-05 02:00:00,43.0,36.5,77.64,0.0,0.0,30.03,10.0,43.0
2021-05-05 03:00:00,40.3,35.6,83.16,0.0,0.0,30.06,10.0,40.3
2021-05-05 04:00:00,40.0,36.0,85.14,0.0,0.0,30.07,10.0,40.1
2021-05-05 05:00:00,39.2,34.3,82.42,0.0,0.0,30.08,10.0,39.2
2021-05-05 06:00:00,40.5,32.0,71.45,330.0,4.0,30.08,10.0,37.35
2021-05-05 07:00:00,38.8,31.6,75.12,330.0,4.0,30.08,10.0,35.36
2021-05-05 08:00:00,34.7,32.4,91.2,0.0,0.0,30.09,10.0,34.7
2021-05-05 09:00:00,33.0,31.8,94.9,0.0,0.0,30.11,10.0,33.1
2021-05-05 10:00:00,32.0,31.5,98.0,0.0,0.0,30.12,10.0,32.0
2021-05-05 11:00:00,34.3,32.0,91.19,0.0,0.0,30.14,10.0,34.3
2021-05-05 12:00:00,41.5,35.2,78.13,0.0,0.0,30.15,10.0,41.5
2021-05-05 13:00:00,46.6,32.5,57.72,0.0,0.0,30.16,10.0,46.6
2021-05-05 14:00:00,49.6,28.4,43.67,330.0,3.0,30.17,10.0,48.81
2021-05-05 15:00:00,51.0,25.0,35.89,20.0,10.0,30.16,10.0,51.1
2021-05-05 16:00:00,51.3,24.8,35.33,350.0,8.0,30.16,10.0,51.3
2021-05-05 17:00:00,53.2,24.8,32.94,290.0,4.0,30.15,10.0,53.2
2021-05-05 18:00:00,55.0,25.7,32.02,330.0,4.0,30.14,10.0,55.0
2021-05-05 19:00:00,55.6,24.1,29.31,270.0,8.0,30.14,10.0,55.6
2021-05-05 20:00:00,56.3,27.0,32.24,210.0,4.0,30.13,10.0,56.3
2021-05-05 21:00:00,55.4,25.5,31.3,260.0,6.0,30.12,10.0,55.4
2021-05-05 22:00:00,54.7,27.3,34.59,240.0,10.0,30.13,10.0,54.7
2021-05-05 23:00:00,52.3,30.6,43.22,230.0,10.0,30.13,10.0,52.3
2021-05-06 00:00:00,50.0,32.7,51.23,250.0,9.0,30.14,10.0,50.0
2021-05-06 01:00:00,48.2,34.2,58.18,240.0,6.0,30.15,10.0,45.04
2021-05-06 02:00:00,47.5,35.0,61.42,260.0,6.0,30.16,10.0,44.2
2021-05-06 03:00:00,46.4,35.0,64.02,270.0,4.0,30.17,10.0,44.24
2021-05-06 04:00:00,45.5,35.8,68.65,260.0,3.0,30.16,10.0,44.12
2021-05-06 05:00:00,43.5,36.0,74.68,0.0,0.0,30.16,10.0,43.5
2021-05-06 06:00:00,41.2,35.2,79.04,0.0,0.0,30.16,10.0,41.2
2021-05-06 07:00:00,40.0,35.2,82.49,0.0,0.0,30.15,10.0,40.1
2021-05-06 08:00:00,35.4,33.4,92.33,0.0,0.0,30.15,10.0,35.4
2021-05-06 09:00:00,35.0,34.7,98.42,0.0,0.0,30.15,10.0,35.1
2021-05-06 10:00:00,34.7,34.0,97.25,0.0,0.0,30.14,10.0,34.7
2021-05-06 11:00:00,36.0,35.2,96.49,280.0,3.0,30.16,10.0,33.38
2021-05-06 12:00:00,40.3,37.0,87.54,0.0,0.0,30.17,10.0,40.3
2021-05-06 13:00:00,45.7,35.2,66.53,0.0,0.0,30.17,10.0,45.7
2021-05-06 14:00:00,49.6,31.1,48.75,350.0,3.0,30.17,10.0,48.81
2021-05-06 15:00:00,53.2,27.0,36.09,340.0,10.0,30.16,10.0,53.2
2021-05-06 16:00:00,54.0,25.5,32.82,350.0,9.0,30.14,10.0,54.1
2021-05-06 17:00:00,56.0,23.5,28.28,300.0,11.0,30.13,10.0,55.9
2021-05-06 18:00:00,56.7,23.4,27.35,330.0,6.0,30.1,10.0,56.7
2021-05-06 19:00:00,58.0,21.4,24.08,280.0,9.0,30.09,10.0,57.9
2021-05-06 20:00:00,56.8,19.4,23.01,280.0,11.0,30.07,10.0,56.8
2021-05-06 21:00:00,56.7,19.6,23.29,280.0,8.0,30.05,10.0,56.7
2021-05-06 22:00:00,57.4,20.5,23.6,290.0,9.0,30.03,10.0,57.4
2021-05-06 23:00:00,56.5,22.6,26.64,280.0,11.0,30.02,10.0,56.5
2021-05-07 00:00:00,54.0,26.2,33.91,310.0,6.0,30.01,10.0,54.0
2021-05-07 01:00:00,52.2,30.0,42.34,0.0,0.0,30.0,10.0,52.2
2021-05-07 02:00:00,45.0,40.0,82.19,320.0,5.0,30.06,10.0,41.83
2021-05-07 03:00:00,43.0,38.8,84.99,350.0,7.0,30.06,10.0,38.19
2021-05-07 04:00:00,42.0,38.7,87.64,0.0,0.0,30.04,10.0,42.1
2021-05-07 05:00:00,40.0,39.0,96.55,0.0,0.0,30.04,10.0,39.9
2021-05-07 06:00:00,40.0,38.0,92.49,330.0,4.0,30.05,10.0,36.88
2021-05-07 07:00:00,38.7,34.5,84.72,320.0,3.0,30.06,10.0,36.35
2021-05-07 08:00:00,37.0,32.5,83.93,0.0,0.0,30.06,10.0,36.9
2021-05-07 09:00:00,35.8,32.0,85.91,320.0,3.0,30.06,10.0,33.03
2021-05-07 10:00:00,35.0,31.8,87.62,320.0,4.0,30.07,10.0,31.04
2021-05-07 11:00:00,37.4,32.0,80.65,320.0,4.0,30.1,10.0,33.73
2021-05-07 12:00:00,40.6,31.3,69.19,340.0,7.0,30.11,10.0,35.26
2021-05-07 13:00:00,42.8,31.3,63.56,340.0,6.0,30.12,10.0,38.54
2021-05-07 14:00:00,43.7,29.5,57.08,350.0,11.0,30.12,10.0,37.25
2021-05-07 15:00:00,47.0,25.5,42.87,330.0,13.0,30.12,10.0,40.66
2021-05-07 16:00:00,48.4,24.3,38.55,360.0,9.0,30.12,10.0,43.91
2021-05-07 17:00:00,49.3,24.1,36.96,10.0,12.0,30.11,10.0,44.02
2021-05-07 18:00:00,49.0,24.1,37.24,360.0,11.0,30.11,10.0,44.08
2021-05-07 19:00:00,51.8,24.4,34.11,310.0,6.0,30.11,10.0,51.8
2021-05-07 20:00:00,50.2,23.7,35.15,350.0,7.0,30.11,10.0,50.2
2021-05-07 21:00:00,51.6,24.8,34.94,20.0,12.0,30.1,10.0,51.6
2021-05-07 22:00:00,50.7,24.3,35.38,330.0,4.0,30.09,10.0,50.7
2021-05-07 23:00:00,50.4,24.4,35.93,360.0,7.0,30.09,10.0,50.4
2021-05-08 00:00:00,48.6,24.4,38.42,10.0,7.0,30.09,10.0,45.01
2021-05-08 01:00:00,44.0,26.2,49.46,50.0,4.0,30.11,10.0,41.32
2021-05-08 02:00:00,39.4,27.3,61.58,70.0,3.0,30.12,10.0,37.15
2021-05-08 03:00:00,37.0,29.3,73.43,0.0,0.0,30.13,10.0,37.0
2021-05-08 04:00:00,34.5,28.4,78.15,0.0,0.0,30.13,10.0,34.5
2021-05-08 05:00:00,32.0,30.6,94.5,0.0,0.0,30.13,10.0,32.0
2021-05-08 06:00:00,31.8,30.4,94.49,0.0,0.0,30.13,10.0,31.8
2021-05-08 07:00:00,30.2,29.7,97.99,0.0,0.0,30.13,10.0,30.2
2021-05-08 08:00:00,29.5,28.4,95.6,0.0,0.0,30.14,10.0,29.5
2021-05-08 09:00:00,29.1,28.4,97.18,0.0,0.0,30.14,10.0,29.1
2021-05-08 10:00:00,28.4,28.0,98.37,0.0,0.0,30.14,10.0,28.4
2021-05-08 11:00:00,31.8,30.2,93.73,0.0,0.0,30.14,10.0,31.8
2021-05-08 12:00:00,37.8,31.6,78.12,0.0,0.0,30.14,10.0,37.8
2021-05-08 13:00:00,43.3,30.7,60.86,280.0,3.0,30.13,10.0,41.61
2021-05-08 14:00:00,49.5,29.7,46.23,220.0,4.0,30.14,10.0,47.86
2021-05-08 15:00:00,52.5,25.9,35.38,0.0,0.0,30.12,10.0,52.5
2021-05-08 16:00:00,54.7,25.3,31.84,300.0,4.0,30.1,10.0,54.7
2021-05-08 17:00:00,56.0,22.6,27.03,10.0,5.0,30.08,10.0,56.1
2021-05-08 18:00:00,57.0,25.2,29.17,0.0,0.0,30.06,10.0,57.0
2021-05-08 19:00:00,56.5,23.7,27.9,0.0,0.0,30.04,10.0,56.5
2021-05-08 20:00:00,57.0,22.5,26.05,30.0,3.0,30.03,10.0,57.0
2021-05-08 21:00:00,56.8,22.1,25.8,210.0,4.0,30.0,10.0,56.8
2021-05-08 22:00:00,58.3,22.3,24.66,300.0,4.0,29.99,10.0,58.3
2021-05-08 23:00:00,58.0,22.6,25.15,300.0,3.0,29.99,10.0,58.1
2021-05-09 00:00:00,54.5,25.5,32.34,200.0,4.0,29.99,10.0,54.5
2021-05-09 01:00:00,50.4,26.1,38.56,0.0,0.0,29.99,10.0,50.4
2021-05-09 02:00:00,48.7,28.2,44.79,210.0,3.0,30.02,10.0,47.78
2021-05-09 03:00:00,44.0,31.8,61.71,0.0,0.0,30.02,10.0,44.1
2021-05-09 04:00:00,42.8,32.7,67.25,0.0,0.0,30.01,10.0,42.8
2021-05-09 05:00:00,39.7,31.6,72.53,0.0,0.0,29.99,10.0,39.7
2021-05-09 06:00:00,37.8,33.3,83.65,0.0,0.0,30.0,10.0,37.8
2021-05-09 07:00:00,37.4,32.2,81.3,0.0,0.0,29.97,10.0,37.4
2021-05-09 08:00:00,34.2,32.2,92.29,0.0,0.0,29.96,10.0,34.2
2021-05-09 09:00:00,32.2,31.3,96.43,0.0,0.0,29.96,10.0,32.2
2021-05-09 10:00:00,32.0,31.5,98.0,0.0,0.0,29.98,10.0,32.0
2021-05-09 11:00:00,36.5,32.2,84.24,0.0,0.0,29.99,10.0,36.5
2021-05-09 12:00:00,41.7,31.6,67.12,10.0,10.0,29.99,10.0,35.13
2021-05-09 13:00:00,45.7,32.4,59.48,360.0,7.0,30.0,10.0,41.48
2021-05-09 14:00:00,50.5,32.4,49.68,350.0,7.0,30.0,10.0,50.5
2021-05-09 15:00:00,54.0,32.0,42.98,320.0,8.0,30.01,10.0,54.0
2021-05-09 16:00:00,56.5,29.1,34.88,20.0,12.0,30.01,10.0,56.5
2021-05-09 17:00:00,57.7,28.0,31.94,360.0,9.0,30.01,10.0,57.7
2021-05-09 18:00:00,56.8,25.7,30.0,20.0,7.0,30.0,10.0,56.8
2021-05-09 19:00:00,57.6,24.8,28.08,360.0,9.0,30.01,10.0,57.6
2021-05-09 20:00:00,56.0,26.2,31.64,10.0,14.0,30.01,10.0,55.9
2021-05-09 21:00:00,56.0,23.9,28.75,320.0,5.0,30.02,10.0,55.9
2021-05-09 22:00:00,55.0,24.1,29.96,360.0,11.0,30.04,10.0,55.0
2021-05-09 23:00:00,53.0,24.4,32.76,10.0,15.0,30.05,10.0,52.9
2021-05-10 00:00:00,50.0,25.2,37.7,20.0,15.0,30.07,10.0,50.0
2021-05-10 01:00:00,46.4,25.0,42.79,40.0,10.0,30.1,10.0,41.03
2021-05-10 02:00:00,44.8,26.4,48.19,30.0,11.0,30.12,10.0,38.64
2021-05-10 03:00:00,43.0,26.6,52.05,30.0,8.0,30.13,10.0,37.66
2021-05-10 04:00:00,42.0,25.9,52.75,40.0,7.0,30.14,10.0,36.85
2021-05-10 05:00:00,39.2,26.4,59.79,40.0,5.0,30.14,10.0,34.95
2021-05-10 06:00:00,40.0,25.9,56.55,30.0,8.0,30.15,10.0,34.09
2021-05-10 07:00:00,39.7,25.3,56.03,40.0,5.0,30.16,10.0,35.54
2021-05-10 08:00:00,39.2,25.9,58.57,30.0,6.0,30.16,10.0,34.2
2021-05-10 09:00:00,37.4,26.6,64.7,20.0,6.0,30.18,10.0,32.03
2021-05-10 10:00:00,35.4,26.8,70.6,30.0,5.0,30.19,10.0,30.43
2021-05-10 11:00:00,35.6,27.0,70.62,30.0,4.0,30.22,10.0,31.62
2021-05-10 12:00:00,40.6,27.3,58.77,30.0,6.0,30.23,10.0,35.89
2021-05-10 13:00:00,42.6,25.5,50.5,50.0,4.0,30.23,10.0,39.8
2021-05-10 14:00:00,46.8,23.4,39.42,10.0,7.0,30.23,10.0,42.82
2021-05-10 15:00:00,46.2,21.4,37.07,50.0,8.0,30.23,10.0,41.61
2021-05-10 16:00:00,48.6,17.8,29.04,10.0,12.0,30.23,10.0,43.13
2021-05-10 17:00:00,49.0,17.6,28.47,20.0,9.0,30.24,10.0,44.53
2021-05-10 18:00:00,48.6,21.6,34.15,40.0,10.0,30.23,10.0,43.78
2021-05-10 19:00:00,49.0,21.0,32.68,350.0,9.0,30.23,10.0,44.78
2021-05-10 20:00:00,50.7,20.8,30.53,40.0,4.0,30.23,10.0,50.7
2021-05-10 21:00:00,52.3,21.6,29.77,340.0,6.0,30.23,10.0,52.3
2021-05-10 22:00:00,51.6,22.5,31.73,20.0,6.0,30.23,10.0,51.6
2021-05-10 23:00:00,51.0,20.5,29.7,360.0,6.0,30.23,10.0,51.1
2021-05-11 00:00:00,48.2,21.6,34.67,30.0,4.0,30.24,10.0,46.34
2021-05-11 01:00:00,43.5,23.9,45.64,30.0,4.0,30.26,10.0,40.85
2021-05-11 02:00:00,42.0,27.5,56.35,20.0,3.0,30.28,10.0,40.01
2021-05-11 03:00:00,39.6,25.2,56.01,40.0,5.0,30.3,10.0,35.42
2021-05-11 04:00:00,37.4,26.1,63.37,0.0,0.0,30.31,10.0,37.4
2021-05-11 05:00:00,35.0,29.1,79.15,0.0,0.0,30.33,10.0,34.9
2021-05-11 06:00:00,32.0,28.9,88.17,0.0,0.0,30.33,10.0,32.0
2021-05-11 07:00:00,30.2,28.0,91.4,0.0,0.0,30.34,10.0,30.2
2021-05-11 08:00:00,29.1,27.3,92.88,0.0,0.0,30.35,10.0,29.1
2021-05-11 09:00:00,28.8,27.0,92.87,0.0,0.0,30.35,10.0,28.8
2021-05-11 10:00:00,28.0,27.1,96.36,0.0,0.0,30.38,10.0,28.0
2021-05-11 11:00:00,32.2,30.0,91.48,10.0,3.0,30.39,10.0,28.92
2021-05-11 12:00:00,39.4,31.3,72.5,0.0,0.0,30.41,10.0,39.4
2021-05-11 13:00:00,44.2,27.3,51.17,0.0,0.0,30.42,10.0,44.2
2021-05-11 14:00:00,47.7,25.3,41.26,0.0,0.0,30.42,10.0,47.7
2021-05-11 15:00:00,51.0,26.8,38.96,360.0,4.0,30.42,10.0,50.9
2021-05-11 16:00:00,52.3,24.3,33.35,320.0,8.0,30.41,10.0,52.3
2021-05-11 17:00:00,53.2,24.3,32.26,320.0,3.0,30.39,10.0,53.2
2021-05-11 18:00:00,55.8,23.0,27.79,340.0,7.0,30.37,10.0,55.8
2021-05-11 19:00:00,56.8,23.4,27.26,280.0,4.0,30.35,10.0,56.8
2021-05-11 20:00:00,58.0,23.4,26.2,360.0,3.0,30.34,10.0,57.9
2021-05-11 21:00:00,58.0,23.4,26.2,360.0,5.0,30.33,10.0,57.9
2021-05-11 22:00:00,58.6,22.5,24.6,290.0,3.0,30.34,10.0,58.6
2021-05-11 23:00:00,58.0,21.2,23.71,0.0,0.0,30.34,10.0,58.1
2021-05-12 00:00:00,56.7,22.1,25.9,0.0,0.0,30.35,10.0,56.7
2021-05-12 01:00:00,51.0,29.7,43.56,0.0,0.0,30.38,10.0,51.1
2021-05-12 02:00:00,45.5,30.9,56.41,0.0,0.0,30.4,10.0,45.5
2021-05-12 03:00:00,42.0,30.9,64.74,0.0,0.0,30.4,10.0,41.9
2021-05-12 04:00:00,44.2,25.3,47.1,90.0,5.0,30.41,10.0,40.88
2021-05-12 05:00:00,40.5,29.1,63.52,0.0,0.0,30.41,10.0,40.5
2021-05-12 06:00:00,36.7,29.7,75.53,0.0,0.0,30.41,10.0,36.7
2021-05-12 07:00:00,34.2,30.7,86.87,0.0,0.0,30.41,10.0,34.2
2021-05-12 08:00:00,32.2,30.7,94.12,0.0,0.0,30.41,10.0,32.2
2021-05-12 09:00:00,32.2,30.0,91.48,0.0,0.0,30.43,10.0,32.2
2021-05-12 10:00:00,31.5,30.6,96.42,0.0,0.0,30.43,10.0,31.5
2021-05-12 11:00:00,34.7,31.8,89.03,0.0,0.0,30.45,10.0,34.7
2021-05-12 12:00:00,43.3,32.7,65.97,0.0,0.0,30.46,10.0,43.3
2021-05-12 13:00:00,51.0,30.7,45.37,160.0,3.0,30.46,10.0,51.1
2021-05-12 14:00:00,56.8,28.6,33.81,240.0,3.0,30.45,10.0,56.8
2021-05-12 15:00:00,60.6,26.4,26.95,220.0,3.0,30.45,10.0,60.6
2021-05-12 16:00:00,62.2,25.9,24.95,0.0,0.0,30.44,10.0,62.2
2021-05-12 17:00:00,61.7,24.1,23.56,280.0,4.0,30.43,10.0,61.7
2021-05-12 18:00:00,65.0,26.1,22.72,170.0,6.0,30.41,10.0,65.1
2021-05-12 19:00:00,65.5,25.3,21.68,200.0,8.0,30.4,10.0,65.5
2021-05-12 20:00:00,65.0,24.3,21.23,230.0,6.0,30.38,10.0,64.9
2021-05-12 21:00:00,65.0,24.3,21.08,280.0,3.0,30.37,10.0,65.1
2021-05-12 22:00:00,64.8,23.9,20.95,280.0,3.0,30.36,10.0,64.8
2021-05-12 23:00:00,65.0,23.4,20.3,260.0,4.0,30.35,10.0,65.1
2021-05-13 00:00:00,62.8,26.2,24.73,0.0,0.0,30.35,10.0,62.8
2021-05-13 01:00:00,55.4,32.0,40.84,0.0,0.0,30.35,10.0,55.4
2021-05-13 02:00:00,50.0,34.7,55.5,0.0,0.0,30.37,10.0,50.0
2021-05-13 03:00:00,46.4,39.4,76.44,0.0,0.0,30.37,10.0,46.4
2021-05-13 04:00:00,42.0,37.6,83.94,0.0,0.0,30.37,10.0,42.1
2021-05-13 05:00:00,40.3,35.0,80.88,0.0,0.0,30.37,10.0,40.3
2021-05-13 06:00:00,38.5,36.0,90.63,0.0,0.0,30.37,10.0,38.5
2021-05-13 07:00:00,37.6,36.5,95.76,0.0,0.0,30.36,10.0,37.6
2021-05-13 08:00:00,36.0,35.0,95.35,0.0,0.0,30.36,10.0,36.1
2021-05-13 09:00:00,35.0,34.3,96.86,0.0,0.0,30.36,10.0,35.1
2021-05-13 10:00:00,34.5,33.6,96.47,0.0,0.0,30.36,10.0,34.5
2021-05-13 11:00:00,38.3,35.8,90.62,0.0,0.0,30.38,10.0,38.3
2021-05-13 12:00:00,48.0,35.6,61.98,0.0,0.0,30.38,10.0,48.0
2021-05-13 13:00:00,54.3,33.8,45.69,240.0,3.0,30.38,10.0,54.3
2021-05-13 14:00:00,61.3,30.9,31.61,250.0,8.0,30.37,10.0,61.3
2021-05-13 15:00:00,64.2,30.0,27.52,240.0,7.0,30.36,10.0,64.2
2021-05-13 16:00:00,65.5,29.1,25.35,200.0,7.0,30.34,10.0,65.5
2021-05-13 17:00:00,66.4,27.0,22.54,240.0,5.0,30.32,10.0,66.4
2021-05-13 18:00:00,66.4,27.0,22.54,240.0,5.0,30.32,10.0,66.4
2021-05-13 19:00:00,67.0,26.4,21.61,210.0,8.0,30.3,10.0,66.9
2021-05-13 20:00:00,68.5,26.4,20.45,240.0,6.0,30.28,10.0,68.5
2021-05-13 21:00:00,67.5,26.6,21.34,210.0,9.0,30.27,10.0,67.5
2021-05-13 22:00:00,66.0,27.0,22.86,210.0,7.0,30.26,10.0,66.0
2021-05-13 23:00:00,65.5,27.1,23.35,210.0,3.0,30.25,10.0,65.5
2021-05-14 00:00:00,64.0,29.8,27.58,160.0,3.0,30.25,10.0,63.9
2021-05-14 01:00:00,58.8,30.9,34.55,150.0,5.0,30.25,10.0,58.8
2021-05-14 02:00:00,53.0,32.0,44.74,150.0,5.0,30.25,10.0,52.9
2021-05-14 03:00:00,52.0,32.0,46.25,160.0,3.0,30.25,10.0,52.0
2021-05-14 04:00:00,48.0,34.2,58.62,0.0,0.0,30.25,10.0,48.0
2021-05-14 05:00:00,46.6,34.7,63.04,0.0,0.0,30.25,10.0,46.6
2021-05-14 06:00:00,45.0,35.0,67.26,0.0,0.0,30.26,10.0,45.1
2021-05-14 07:00:00,41.5,37.4,85.23,0.0,0.0,30.25,10.0,41.5
2021-05-14 08:00:00,41.2,36.7,83.88,0.0,0.0,30.25,10.0,41.2
2021-05-14 09:00:00,40.8,35.8,82.21,0.0,0.0,30.25,10.0,40.8
2021-05-14 10:00:00,40.0,37.4,90.68,0.0,0.0,30.25,10.0,39.9
2021-05-14 11:00:00,44.0,33.0,65.0,120.0,3.0,30.26,10.0,42.29
2021-05-14 12:00:00,50.5,35.2,55.57,130.0,4.0,30.26,10.0,50.5
2021-05-14 13:00:00,57.2,33.0,39.99,180.0,7.0,30.26,10.0,57.2
2021-05-14 14:00:00,60.0,32.0,34.73,180.0,6.0,30.26,10.0,59.9
2021-05-14 15:00:00,61.5,31.8,32.55,180.0,8.0,30.25,10.0,61.5
2021-05-14 16:00:00,64.0,32.2,30.29,180.0,8.0,30.23,10.0,64.0
2021-05-14 17:00:00,65.8,30.4,26.45,180.0,8.0,30.21,10.0,65.8
2021-05-14 18:00:00,68.0,30.0,24.12,160.0,5.0,30.19,10.0,68.0
2021-05-14 19:00:00,69.0,30.0,23.38,190.0,9.0,30.17,10.0,68.9
2021-05-14 20:00:00,66.4,30.4,25.91,210.0,9.0,30.16,10.0,66.4
2021-05-14 21:00:00,62.6,37.0,38.37,230.0,13.0,30.18,10.0,62.6
2021-05-14 22:00:00,62.0,36.0,37.69,190.0,14.0,30.17,10.0,62.1
2021-05-14 23:00:00,60.4,36.5,40.83,170.0,9.0,30.16,10.0,60.4
2021-05-15 00:00:00,60.0,36.5,41.57,150.0,6.0,30.16,10.0,59.9
2021-05-15 01:00:00,57.6,37.4,46.76,170.0,6.0,30.16,10.0,57.6
2021-05-15 02:00:00,56.8,37.6,48.51,190.0,8.0,30.17,10.0,56.8
2021-05-15 03:00:00,55.6,38.8,53.11,160.0,6.0,30.16,10.0,55.6
2021-05-15 04:00:00,55.0,39.7,56.22,140.0,6.0,30.15,10.0,55.0
2021-05-15 05:00:00,54.7,39.7,56.83,130.0,4.0,30.14,10.0,54.7
2021-05-15 06:00:00,54.7,40.3,58.18,120.0,6.0,30.14,10.0,54.7
2021-05-15 07:00:00,54.5,40.3,58.6,120.0,6.0,30.13,10.0,54.5
2021-05-15 08:00:00,54.5,40.0,57.7,130.0,7.0,30.13,10.0,54.5
2021-05-15 09:00:00,53.6,40.0,59.63,120.0,8.0,30.12,10.0,53.6
2021-05-15 10:00:00,52.7,41.0,64.32,120.0,5.0,30.12,10.0,52.7
2021-05-15 11:00:00,52.7,41.7,66.08,0.0,0.0,30.12,10.0,52.7
2021-05-15 12:00:00,51.8,44.8,76.92,140.0,4.0,30.13,10.0,51.8
2021-05-15 13:00:00,49.5,46.8,90.37,120.0,3.0,30.13,10.0,48.69
2021-05-15 14:00:00,50.7,49.0,93.52,110.0,4.0,30.13,10.0,50.7
2021-05-15 15:00:00,54.7,49.3,81.95,100.0,6.0,30.13,10.0,54.7
2021-05-15 16:00:00,56.3,50.0,79.36,50.0,4.0,30.12,10.0,56.3
2021-05-15 17:00:00,57.7,51.0,78.02,60.0,3.0,30.11,7.0,57.7
2021-05-15 18:00:00,62.6,50.2,63.85,130.0,9.0,30.09,10.0,62.6
2021-05-15 19:00:00,65.0,49.5,57.39,120.0,5.0,30.09,10.0,64.9
2021-05-15 20:00:00,64.0,47.7,55.56,70.0,3.0,30.07,10.0,63.9
2021-05-15 21:00:00,63.7,48.6,57.87,120.0,4.0,30.06,10.0,63.7
2021-05-15 22:00:00,63.7,48.2,57.01,130.0,4.0,30.06,10.0,63.7
2021-05-15 23:00:00,64.6,49.0,56.71,120.0,6.0,30.06,10.0,64.6
2021-05-16 00:00:00,62.0,49.5,63.31,100.0,5.0,30.07,10.0,62.1
2021-05-16 01:00:00,58.5,49.6,72.23,130.0,6.0,30.08,10.0,58.5
2021-05-16 02:00:00,56.0,49.5,79.03,120.0,5.0,30.1,10.0,55.9
2021-05-16 03:00:00,54.5,49.3,82.54,110.0,4.0,30.11,10.0,54.5
2021-05-16 04:00:00,52.7,49.0,87.51,110.0,5.0,30.11,10.0,52.7
2021-05-16 05:00:00,50.4,48.4,92.81,120.0,3.0,30.12,10.0,50.4
2021-05-16 06:00:00,49.8,48.4,94.91,0.0,0.0,30.12,10.0,49.8
2021-05-16 07:00:00,48.2,47.5,97.41,0.0,0.0,30.12,10.0,48.2
2021-05-16 08:00:00,47.0,46.6,98.87,0.0,0.0,30.11,5.0,46.9
2021-05-16 09:00:00,46.2,46.0,99.25,140.0,3.0,30.12,7.0,44.92
2021-05-16 10:00:00,47.3,47.3,100.0,0.0,0.0,30.12,2.0,47.3
2021-05-16 11:00:00,49.6,49.5,99.63,130.0,5.0,30.14,5.0,47.3
2021-05-16 12:00:00,51.4,51.3,99.63,120.0,5.0,30.16,4.0,51.4
2021-05-16 13:00:00,54.0,52.5,94.65,100.0,3.0,30.16,5.0,54.0
2021-05-16 14:00:00,54.5,52.0,91.24,140.0,5.0,30.17,7.0,54.5
2021-05-16 15:00:00,56.7,52.3,85.17,120.0,6.0,30.17,10.0,56.7
2021-05-16 16:00:00,59.0,51.8,76.98,150.0,8.0,30.17,10.0,59.0
2021-05-16 17:00:00,62.6,51.8,67.75,140.0,5.0,30.15,10.0,62.6
2021-05-16 18:00:00,64.6,52.3,64.33,160.0,6.0,30.14,10.0,64.6
2021-05-16 19:00:00,67.3,51.8,57.5,170.0,11.0,30.12,10.0,67.3
2021-05-16 20:00:00,69.4,52.0,53.9,150.0,10.0,30.11,10.0,69.4
2021-05-16 21:00:00,70.5,50.5,49.11,170.0,6.0,30.1,10.0,70.5
2021-05-16 22:00:00,69.6,49.8,49.34,0.0,0.0,30.1,10.0,69.6
2021-05-16 23:00:00,70.0,48.7,46.71,160.0,7.0,30.09,10.0,70.0
2021-05-17 00:00:00,68.4,50.0,51.79,210.0,3.0,30.09,10.0,68.4
2021-05-17 01:00:00,62.0,51.0,67.67,0.0,0.0,30.09,10.0,61.9
2021-05-17 02:00:00,56.5,50.2,79.38,0.0,0.0,30.1,10.0,56.5
2021-05-17 03:00:00,53.8,51.4,91.55,0.0,0.0,30.11,10.0,53.8
2021-05-17 04:00:00,50.4,49.0,95.27,10.0,3.0,30.12,10.0,50.4
2021-05-17 05:00:00,49.5,48.7,97.06,0.0,0.0,30.12,10.0,49.5
2021-05-17 06:00:00,47.8,47.5,98.88,0.0,0.0,30.13,5.0,47.8
2021-05-17 07:00:00,47.0,46.8,99.62,0.0,0.0,30.12,3.0,46.9
2021-05-17 08:00:00,45.7,45.3,98.49,0.0,0.0,30.13,7.0,45.7
2021-05-17 09:00:00,44.6,44.6,100.0,0.0,0.0,30.14,4.0,44.6
2021-05-17 10:00:00,44.0,44.0,99.24,0.0,0.0,30.15,4.0,44.1
2021-05-17 11:00:00,47.8,47.5,98.88,0.0,0.0,30.16,5.0,47.8
2021-05-17 12:00:00,55.6,52.2,88.31,150.0,3.0,30.18,10.0,55.6
2021-05-17 13:00:00,61.3,53.6,75.78,0.0,0.0,30.19,10.0,61.3
2021-05-17 14:00:00,65.8,53.2,63.77,0.0,0.0,30.19,10.0,65.8
2021-05-17 15:00:00,70.0,49.5,48.13,170.0,4.0,30.18,10.0,70.0
2021-05-17 16:00:00,71.6,45.3,38.92,120.0,6.0,30.18,10.0,71.6
2021-05-17 17:00:00,75.6,43.2,31.4,110.0,6.0,30.16,10.0,75.6
2021-05-17 18:00:00,76.0,43.3,31.0,150.0,6.0,30.15,10.0,76.1
2021-05-17 19:00:00,77.2,45.0,31.89,100.0,6.0,30.14,10.0,77.2
2021-05-17 20:00:00,78.6,44.4,29.76,120.0,8.0,30.14,10.0,78.6
2021-05-17 21:00:00,79.2,43.2,27.87,130.0,11.0,30.13,10.0,79.2
2021-05-17 22:00:00,78.0,41.7,27.28,110.0,7.0,30.12,10.0,78.1
2021-05-17 23:00:00,77.4,42.6,28.9,110.0,7.0,30.12,10.0,77.4
2021-05-18 00:00:00,74.5,43.0,32.33,100.0,7.0,30.12,10.0,74.5
2021-05-18 01:00:00,68.5,44.6,42.12,120.0,3.0,30.14,10.0,68.5
2021-05-18 02:00:00,64.0,46.4,52.9,110.0,3.0,30.16,10.0,63.9
2021-05-18 03:00:00,61.3,47.3,59.98,0.0,0.0,30.16,10.0,61.3
2021-05-18 04:00:00,59.0,47.5,65.59,0.0,0.0,30.16,10.0,59.0
2021-05-18 05:00:00,56.5,46.6,69.36,120.0,3.0,30.17,10.0,56.5
2021-05-18 06:00:00,57.7,47.3,68.2,120.0,5.0,30.17,10.0,57.7
2021-05-18 07:00:00,58.0,46.4,64.98,130.0,7.0,30.18,10.0,58.1
2021-05-18 08:00:00,55.2,46.4,72.16,120.0,4.0,30.19,10.0,55.2
2021-05-18 09:00:00,51.6,47.3,85.19,0.0,0.0,30.19,10.0,51.6
2021-05-18 10:00:00,53.0,47.5,81.22,120.0,4.0,30.19,10.0,53.1
2021-05-18 11:00:00,55.8,48.7,76.99,110.0,4.0,30.19,10.0,55.8
2021-05-18 12:00:00,60.0,50.2,70.26,90.0,7.0,30.19,10.0,59.9
2021-05-18 13:00:00,62.6,51.8,67.75,120.0,8.0,30.18,10.0,62.6
2021-05-18 14:00:00,67.0,53.0,60.71,140.0,13.0,30.18,10.0,66.9
2021-05-18 15:00:00,70.0,52.7,54.18,120.0,6.0,30.16,10.0,70.0
2021-05-18 16:00:00,73.2,53.4,49.87,120.0,11.0,30.15,10.0,73.2
2021-05-18 17:00:00,74.5,53.2,47.39,120.0,15.0,30.13,10.0,74.5
2021-05-18 18:00:00,75.6,53.0,45.18,150.0,17.0,30.12,10.0,75.6
2021-05-18 19:00:00,74.3,53.2,47.71,160.0,12.0,30.11,10.0,74.3
2021-05-18 20:00:00,73.6,53.2,48.85,150.0,13.0,30.09,10.0,73.6
2021-05-18 21:00:00,74.0,53.0,47.51,160.0,12.0,30.08,10.0,74.1
2021-05-18 22:00:00,71.0,53.4,53.55,150.0,12.0,30.08,10.0,71.1
2021-05-18 23:00:00,67.3,54.0,62.57,120.0,12.0,30.08,10.0,67.3
2021-05-19 00:00:00,66.2,56.3,70.41,130.0,10.0,30.07,10.0,66.2
2021-05-19 01:00:00,65.0,56.3,73.67,120.0,10.0,30.07,10.0,64.9
2021-05-19 02:00:00,60.3,59.4,96.84,120.0,8.0,30.07,2.0,60.3
2021-05-19 03:00:00,60.0,59.4,97.53,120.0,9.0,30.06,2.5,60.1
2021-05-19 04:00:00,60.3,59.5,97.19,120.0,10.0,30.04,7.0,60.3
2021-05-19 05:00:00,60.8,60.0,96.85,130.0,8.0,30.03,10.0,60.8
2021-05-19 06:00:00,60.8,60.0,97.54,130.0,8.0,30.01,4.0,60.8
2021-05-19 07:00:00,60.8,60.4,98.59,130.0,8.0,30.0,2.0,60.8
2021-05-19 08:00:00,61.0,60.8,99.29,140.0,8.0,30.0,3.0,61.0
2021-05-19 09:00:00,61.0,60.8,99.29,140.0,8.0,30.01,2.0,61.0
2021-05-19 10:00:00,61.2,61.0,99.29,150.0,8.0,30.01,2.0,61.2
2021-05-19 11:00:00,61.7,61.5,99.29,150.0,8.0,30.02,4.0,61.7
2021-05-19 12:00:00,62.0,61.7,98.6,150.0,9.0,30.03,5.0,62.1
2021-05-19 13:00:00,62.8,62.4,98.6,150.0,8.0,30.04,7.0,62.8
2021-05-19 14:00:00,63.5,63.0,98.26,160.0,8.0,30.04,4.0,63.5
2021-05-19 15:00:00,64.0,63.5,98.26,160.0,6.0,30.04,5.0,64.0
2021-05-19 16:00:00,67.5,64.6,90.42,170.0,10.0,30.05,10.0,67.5
2021-05-19 17:00:00,66.7,64.6,92.96,170.0,9.0,30.06,7.0,66.7
2021-05-19 18:00:00,69.0,65.3,87.7,150.0,8.0,30.06,10.0,69.1
2021-05-19 19:00:00,71.8,65.0,78.88,170.0,9.0,30.05,10.0,71.8
2021-05-19 20:00:00,72.5,64.4,75.7,170.0,10.0,30.04,10.0,72.5
2021-05-19 21:00:00,70.5,64.4,81.02,150.0,13.0,30.04,10.0,70.5
2021-05-19 22:00:00,70.7,64.4,80.47,150.0,13.0,30.06,10.0,70.7
2021-05-19 23:00:00,70.2,64.2,81.28,150.0,9.0,30.06,10.0,70.2
2021-05-20 00:00:00,69.0,64.0,84.38,140.0,9.0,30.04,10.0,68.9
2021-05-20 01:00:00,67.6,63.5,86.71,140.0,7.0,30.05,10.0,67.6
2021-05-20 02:00:00,67.0,63.5,88.22,140.0,8.0,30.07,10.0,67.1
2021-05-20 03:00:00,66.4,63.5,90.38,130.0,8.0,30.07,10.0,66.4
2021-05-20 04:00:00,66.2,63.7,91.65,130.0,9.0,30.07,10.0,66.2
2021-05-20 05:00:00,65.7,63.7,93.26,120.0,8.0,30.07,10.0,65.7
2021-05-20 06:00:00,65.5,63.7,93.91,130.0,6.0,30.06,10.0,65.5
2021-05-20 07:00:00,65.8,64.0,93.59,150.0,6.0,30.06,10.0,65.8
2021-05-20 08:00:00,66.4,63.7,91.02,140.0,7.0,30.06,10.0,66.4
2021-05-20 09:00:00,65.5,64.0,94.57,130.0,5.0,30.06,10.0,65.5
2021-05-20 10:00:00,64.4,64.0,98.61,140.0,4.0,30.06,3.0,64.4
2021-05-20 11:00:00,64.0,63.7,98.95,150.0,5.0,30.06,5.0,64.0
2021-05-20 12:00:00,64.6,64.0,97.92,170.0,7.0,30.07,3.0,64.6
2021-05-20 13:00:00,64.8,64.4,98.61,150.0,5.0,30.07,3.0,64.8
2021-05-20 14:00:00,65.0,64.6,98.27,150.0,10.0,30.07,5.0,65.1
2021-05-20 15:00:00,65.3,64.8,98.27,140.0,9.0,30.06,4.0,65.3
2021-05-20 16:00:00,65.3,64.8,98.27,150.0,10.0,30.06,3.0,65.3
2021-05-20 17:00:00,65.5,65.0,97.93,150.0,9.0,30.06,3.0,65.5
2021-05-20 18:00:00,66.0,65.3,97.6,170.0,10.0,30.06,4.0,66.0
2021-05-20 19:00:00,66.4,65.3,96.25,170.0,10.0,30.07,10.0,66.4
2021-05-20 20:00:00,66.6,66.0,97.94,160.0,6.0,30.07,1.5,66.6
2021-05-20 21:00:00,66.2,65.7,98.28,160.0,8.0,30.07,3.0,66.2
2021-05-20 22:00:00,66.2,65.5,97.6,160.0,8.0,30.08,7.0,66.2
2021-05-20 23:00:00,66.6,65.8,97.26,140.0,10.0,30.08,7.0,66.6
2021-05-21 00:00:00,67.0,65.5,94.6,160.0,9.0,30.08,10.0,67.1
2021-05-21 01:00:00,66.7,65.0,93.94,150.0,7.0,30.09,10.0,66.7
2021-05-21 02:00:00,66.2,65.0,95.58,140.0,5.0,30.11,10.0,66.2
2021-05-21 03:00:00,65.7,64.8,96.91,140.0,7.0,30.12,10.0,65.7
2021-05-21 04:00:00,65.7,64.8,96.91,120.0,4.0,30.12,10.0,65.7
2021-05-21 05:00:00,65.7,65.0,97.93,150.0,4.0,30.12,5.0,65.7
2021-05-21 06:00:00,65.3,65.3,100.0,0.0,0.0,30.1,0.75,65.3
2021-05-21 07:00:00,64.6,64.4,99.3,160.0,3.0,30.1,1.0,64.6
2021-05-21 08:00:00,65.0,64.8,98.96,250.0,12.0,30.11,2.0,65.1
2021-05-21 09:00:00,63.0,62.0,95.86,180.0,4.0,30.12,10.0,63.1
2021-05-21 10:00:00,62.4,62.0,98.25,140.0,4.0,30.14,2.5,62.4
2021-05-21 11:00:00,62.6,62.2,98.6,0.0,0.0,30.16,3.0,62.6
2021-05-21 12:00:00,62.6,62.6,100.0,110.0,5.0,30.16,10.0,62.6
2021-05-21 13:00:00,64.4,64.2,99.3,140.0,6.0,30.16,10.0,64.4
2021-05-21 14:00:00,66.7,66.2,98.28,160.0,6.0,30.17,10.0,66.7
2021-05-21 15:00:00,68.4,66.6,93.98,170.0,8.0,30.17,10.0,68.4
2021-05-21 16:00:00,70.7,66.7,87.17,190.0,11.0,30.18,10.0,70.7
2021-05-21 17:00:00,72.7,66.6,81.18,170.0,10.0,30.18,10.0,72.7
2021-05-21 18:00:00,68.5,66.7,93.98,190.0,12.0,30.19,1.5,68.5
2021-05-21 19:00:00,68.0,67.3,97.62,200.0,3.0,30.19,1.75,68.0
2021-05-21 20:00:00,69.8,68.5,95.64,180.0,10.0,30.18,10.0,69.8
2021-05-21 21:00:00,71.0,68.5,91.5,150.0,7.0,30.18,10.0,71.1
2021-05-21 22:00:00,73.6,67.5,81.24,190.0,8.0,30.18,10.0,73.6
2021-05-21 23:00:00,73.0,67.6,83.18,190.0,7.0,30.19,10.0,73.0
2021-05-22 00:00:00,71.6,68.2,89.04,150.0,5.0,30.19,10.0,71.6
2021-05-22 01:00:00,69.8,67.6,92.73,130.0,4.0,30.19,10.0,69.8
2021-05-22 02:00:00,68.4,67.0,95.62,120.0,5.0,30.21,10.0,68.4
2021-05-22 03:00:00,68.2,66.7,94.96,140.0,5.0,30.23,10.0,68.2
2021-05-22 04:00:00,68.2,66.4,93.97,150.0,4.0,30.23,10.0,68.2
2021-05-22 05:00:00,68.4,66.2,92.68,160.0,6.0,30.23,10.0,68.4
2021-05-22 06:00:00,67.0,65.3,93.95,170.0,6.0,30.23,10.0,67.1
2021-05-22 07:00:00,66.2,64.6,94.58,180.0,6.0,30.24,10.0,66.2
2021-05-22 08:00:00,65.3,64.0,95.56,190.0,5.0,30.24,10.0,65.3
2021-05-22 09:00:00,66.4,64.4,93.28,200.0,8.0,30.25,10.0,66.4
2021-05-22 10:00:00,66.7,64.4,92.31,190.0,5.0,30.26,10.0,66.7
2021-05-22 11:00:00,66.7,64.6,92.96,180.0,5.0,30.26,10.0,66.7
2021-05-22 12:00:00,67.0,64.6,91.68,200.0,5.0,30.27,10.0,67.1
2021-05-22 13:00:00,68.0,65.0,90.44,180.0,5.0,30.26,10.0,68.0
2021-05-22 14:00:00,69.0,65.7,88.93,180.0,6.0,30.26,10.0,69.1
2021-05-22 15:00:00,70.0,65.5,85.63,200.0,5.0,30.25,10.0,70.0
2021-05-22 16:00:00,72.3,66.7,82.56,180.0,8.0,30.24,10.0,72.3
2021-05-22 17:00:00,74.3,67.8,80.18,160.0,8.0,30.23,10.0,74.3
2021-05-22 18:00:00,77.2,66.2,68.87,190.0,10.0,30.23,7.0,77.2
2021-05-22 19:00:00,79.3,66.4,64.71,200.0,9.0,30.2,10.0,79.3
2021-05-22 20:00:00,79.2,66.2,64.47,200.0,9.0,30.19,10.0,79.2
2021-05-22 21:00:00,79.7,66.4,63.87,220.0,10.0,30.18,10.0,79.7
2021-05-22 22:00:00,79.3,66.0,63.82,200.0,10.0,30.17,10.0,79.3
2021-05-22 23:00:00,79.0,65.8,64.01,210.0,10.0,30.17,10.0,79.0
2021-05-23 00:00:00,77.2,66.2,68.87,200.0,6.0,30.16,10.0,77.2
2021-05-23 01:00:00,73.0,66.2,79.25,170.0,3.0,30.15,10.0,73.0
2021-05-23 02:00:00,68.2,65.8,92.04,0.0,0.0,30.16,7.0,68.2
2021-05-23 03:00:00,67.3,65.5,93.95,0.0,0.0,30.17,7.0,67.3
2021-05-23 04:00:00,65.5,65.0,97.93,0.0,0.0,30.18,7.0,65.5
2021-05-23 05:00:00,65.7,65.0,97.25,0.0,0.0,30.17,7.0,65.7
2021-05-23 06:00:00,65.7,64.8,96.91,0.0,0.0,30.16,7.0,65.7
2021-05-23 07:00:00,65.5,65.0,98.62,0.0,0.0,30.15,10.0,65.5
2021-05-23 08:00:00,66.6,65.7,96.93,0.0,0.0,30.16,10.0,66.6
2021-05-23 09:00:00,66.6,66.2,98.62,40.0,3.0,30.16,10.0,66.6
2021-05-23 10:00:00,66.6,66.2,98.62,130.0,3.0,30.18,7.0,66.6
2021-05-23 11:00:00,67.0,66.6,98.29,0.0,0.0,30.18,7.0,67.1
2021-05-23 12:00:00,67.0,66.4,97.61,100.0,4.0,30.18,10.0,67.1
2021-05-23 13:00:00,63.3,61.5,93.85,10.0,11.0,30.18,10.0,63.3
2021-05-23 14:00:00,55.2,52.2,89.6,360.0,10.0,30.19,10.0,55.2
2021-05-23 15:00:00,54.3,51.0,88.9,30.0,10.0,30.2,10.0,54.3
2021-05-23 16:00:00,56.3,52.2,86.1,10.0,9.0,30.2,10.0,56.3
2021-05-23 17:00:00,58.0,53.6,84.94,10.0,10.0,30.21,10.0,58.1
2021-05-23 18:00:00,60.8,55.2,81.78,360.0,7.0,30.19,10.0,60.8
2021-05-23 19:00:00,62.0,56.0,80.69,30.0,8.0,30.17,10.0,62.1
2021-05-23 20:00:00,62.4,56.0,79.84,20.0,12.0,30.16,10.0,62.4
2021-05-23 21:00:00,62.2,56.5,81.58,30.0,11.0,30.16,10.0,62.2
2021-05-23 22:00:00,62.0,55.6,79.24,10.0,8.0,30.17,10.0,62.1
2021-05-23 23:00:00,61.0,55.4,81.79,20.0,7.0,30.15,10.0,61.0
2021-05-24 00:00:00,60.0,55.2,84.44,10.0,7.0,30.14,10.0,59.9
2021-05-24 01:00:00,60.0,55.4,85.05,50.0,4.0,30.13,10.0,59.9
2021-05-24 02:00:00,60.8,57.7,89.51,90.0,5.0,30.14,10.0,60.8
2021-05-24 03:00:00,59.7,57.7,93.09,80.0,6.0,30.13,10.0,59.7
2021-05-24 04:00:00,59.5,57.4,92.75,110.0,6.0,30.13,10.0,59.5
2021-05-24 05:00:00,60.0,58.0,93.76,100.0,6.0,30.11,10.0,59.9
2021-05-24 06:00:00,58.6,57.2,95.09,100.0,9.0,30.09,10.0,58.6
2021-05-24 07:00:00,56.7,55.6,96.09,120.0,10.0,30.09,10.0,56.7
2021-05-24 08:00:00,56.0,55.8,99.64,110.0,7.0,30.08,1.5,55.9
2021-05-24 09:00:00,55.4,55.0,98.56,130.0,8.0,30.07,2.5,55.4
2021-05-24 10:00:00,55.4,55.0,98.2,120.0,5.0,30.06,10.0,55.4
2021-05-24 11:00:00,55.4,55.0,98.56,130.0,8.0,30.06,4.0,55.4
2021-05-24 12:00:00,56.3,56.3,100.0,130.0,7.0,30.05,0.5,56.3
2021-05-24 13:00:00,58.0,58.0,100.0,140.0,6.0,30.04,1.5,58.1
2021-05-24 14:00:00,60.6,60.3,98.94,120.0,7.0,30.01,3.0,60.6
2021-05-24 15:00:00,64.0,63.0,96.89,140.0,8.0,29.99,7.0,64.0
2021-05-24 16:00:00,67.0,64.8,92.32,140.0,11.0,29.98,7.0,67.1
2021-05-24 17:00:00,71.0,66.7,86.58,130.0,7.0,29.96,7.0,70.9
2021-05-24 18:00:00,72.7,68.2,85.78,140.0,5.0,29.95,7.0,72.7
2021-05-24 19:00:00,74.3,67.0,77.72,200.0,6.0,29.95,7.0,74.3
2021-05-24 20:00:00,78.6,66.6,66.68,230.0,12.0,29.93,7.0,78.6
2021-05-24 21:00:00,80.0,66.0,62.17,220.0,9.0,29.91,7.0,82.17
2021-05-24 22:00:00,79.7,65.7,62.33,220.0,11.0,29.9,7.0,79.7
2021-05-24 23:00:00,80.6,66.0,61.16,200.0,9.0,29.88,7.0,82.7
2021-05-25 00:00:00,78.6,67.5,68.79,170.0,5.0,29.88,10.0,78.6
2021-05-25 01:00:00,74.7,67.0,77.22,160.0,6.0,29.87,10.0,74.7
2021-05-25 02:00:00,72.7,65.5,78.13,170.0,7.0,29.88,7.0,72.7
2021-05-25 03:00:00,71.6,64.6,78.59,180.0,10.0,29.88,7.0,71.6
2021-05-25 04:00:00,69.8,64.0,81.82,280.0,9.0,29.88,10.0,69.8
2021-05-25 05:00:00,69.0,65.0,87.09,0.0,0.0,29.86,10.0,69.1
2021-05-25 06:00:00,69.6,63.3,80.39,170.0,7.0,29.85,10.0,69.6
2021-05-25 07:00:00,69.0,62.8,80.9,180.0,10.0,29.84,10.0,68.9
2021-05-25 08:00:00,69.0,62.8,80.9,180.0,10.0,29.84,10.0,68.9
2021-05-25 09:00:00,69.0,62.8,80.9,180.0,10.0,29.84,10.0,68.9
2021-05-25 10:00:00,69.0,62.8,80.9,180.0,10.0,29.84,10.0,68.9
2021-05-25 11:00:00,65.0,62.2,90.96,190.0,4.0,29.83,10.0,64.9
2021-05-25 12:00:00,67.3,63.0,86.39,130.0,6.0,29.76,10.0,67.3
2021-05-25 13:00:00,68.7,64.0,84.96,200.0,8.0,29.79,10.0,68.7
2021-05-25 14:00:00,70.2,64.2,81.28,200.0,10.0,29.79,10.0,70.2
2021-05-25 15:00:00,71.8,64.8,78.61,220.0,12.0,29.79,10.0,71.8
2021-05-25 16:00:00,75.2,65.0,70.36,190.0,15.0,29.77,10.0,75.2
2021-05-25 17:00:00,77.4,64.8,65.17,210.0,14.0,29.76,10.0,77.4
2021-05-25 18:00:00,80.2,64.0,57.79,190.0,15.0,29.75,10.0,81.8
2021-05-25 19:00:00,79.5,60.6,52.45,200.0,12.0,29.72,10.0,79.5
2021-05-25 20:00:00,77.5,64.4,64.05,190.0,13.0,29.7,10.0,77.5
2021-05-25 21:00:00,81.7,52.5,36.42,220.0,18.0,29.69,10.0,80.84
2021-05-25 22:00:00,80.0,54.7,41.86,250.0,13.0,29.67,10.0,79.9
2021-05-25 23:00:00,80.4,45.5,29.25,250.0,14.0,29.68,10.0,79.38
2021-05-26 00:00:00,78.0,44.6,30.69,250.0,8.0,29.7,10.0,77.9
2021-05-26 01:00:00,73.4,45.5,36.9,260.0,7.0,29.73,10.0,73.4
2021-05-26 02:00:00,71.2,46.2,40.82,270.0,11.0,29.77,10.0,71.2
2021-05-26 03:00:00,68.0,45.7,44.68,280.0,10.0,29.8,7.0,68.0
2021-05-26 04:00:00,64.8,45.5,49.55,260.0,7.0,29.83,10.0,64.8
2021-05-26 05:00:00,63.0,46.4,54.41,280.0,8.0,29.85,10.0,63.1
2021-05-26 06:00:00,61.2,47.0,59.74,260.0,7.0,29.86,10.0,61.2
2021-05-26 07:00:00,59.4,47.7,65.14,270.0,6.0,29.88,7.0,59.4
2021-05-26 08:00:00,58.0,48.2,69.54,270.0,7.0,29.9,10.0,58.1
2021-05-26 09:00:00,56.8,47.3,70.45,280.0,9.0,29.91,10.0,56.8
2021-05-26 10:00:00,54.5,46.0,72.92,290.0,9.0,29.94,10.0,54.5
2021-05-26 11:00:00,53.8,45.3,72.85,300.0,13.0,29.97,10.0,53.8
2021-05-26 12:00:00,52.5,44.6,74.4,320.0,9.0,30.01,10.0,52.5
2021-05-26 13:00:00,50.0,42.3,74.73,280.0,10.0,30.06,10.0,50.0
2021-05-26 14:00:00,50.0,41.7,73.02,300.0,9.0,30.09,10.0,50.0
2021-05-26 15:00:00,50.0,41.4,72.18,290.0,9.0,30.13,10.0,50.0
2021-05-26 16:00:00,51.0,41.0,68.23,290.0,7.0,30.15,10.0,51.1
2021-05-26 17:00:00,54.7,42.3,62.85,310.0,5.0,30.16,10.0,54.7
2021-05-26 18:00:00,56.7,41.4,56.46,310.0,11.0,30.16,10.0,56.7
2021-05-26 19:00:00,58.3,38.7,47.99,340.0,6.0,30.16,10.0,58.3
2021-05-26 20:00:00,59.7,40.0,48.2,10.0,4.0,30.14,10.0,59.7
2021-05-26 21:00:00,60.6,38.0,42.84,340.0,7.0,30.16,10.0,60.6
2021-05-26 22:00:00,60.0,36.0,40.75,320.0,3.0,30.16,10.0,59.9
2021-05-26 23:00:00,59.0,37.0,43.61,330.0,4.0,30.16,10.0,59.0
2021-05-27 00:00:00,57.4,38.7,49.57,350.0,5.0,30.16,10.0,57.4
2021-05-27 01:00:00,55.2,40.6,57.8,0.0,0.0,30.18,10.0,55.2
2021-05-27 02:00:00,52.7,44.2,72.73,0.0,0.0,30.19,10.0,52.7
2021-05-27 03:00:00,52.7,40.3,62.59,20.0,7.0,30.23,10.0,52.7
2021-05-27 04:00:00,51.8,38.5,60.32,50.0,7.0,30.2,10.0,51.8
2021-05-27 05:00:00,50.5,37.0,59.44,90.0,5.0,30.21,10.0,50.5
2021-05-27 06:00:00,49.3,37.2,62.89,0.0,0.0,30.23,10.0,49.3
2021-05-27 07:00:00,48.6,37.8,66.1,70.0,6.0,30.21,10.0,45.52
2021-05-27 08:00:00,48.4,35.4,60.57,60.0,6.0,30.2,10.0,45.28
2021-05-27 09:00:00,45.5,39.4,79.09,40.0,3.0,30.21,10.0,44.12
2021-05-27 10:00:00,44.2,39.6,83.75,60.0,3.0,30.22,10.0,42.64
2021-05-27 11:00:00,44.6,40.6,85.75,40.0,4.0,30.26,10.0,42.13
2021-05-27 12:00:00,43.7,40.8,89.44,50.0,6.0,30.26,10.0,39.62
2021-05-27 13:00:00,43.2,40.8,91.17,70.0,9.0,30.25,7.0,37.44
2021-05-27 14:00:00,43.3,41.7,94.03,80.0,6.0,30.24,10.0,39.14
2021-05-27 15:00:00,43.2,40.8,91.17,110.0,11.0,30.25,7.0,36.62
2021-05-27 16:00:00,42.0,40.3,93.28,100.0,9.0,30.24,10.0,36.07
2021-05-27 17:00:00,40.5,38.7,93.23,90.0,11.0,30.23,10.0,33.21
2021-05-27 18:00:00,41.2,39.6,93.98,50.0,13.0,30.21,10.0,33.35
2021-05-27 19:00:00,41.2,39.4,93.25,50.0,11.0,30.19,10.0,34.09
2021-05-27 20:00:00,41.5,40.0,94.72,40.0,10.0,30.19,10.0,34.88
2021-05-27 21:00:00,42.4,40.5,92.92,50.0,5.0,30.19,10.0,38.75
2021-05-27 22:00:00,42.8,40.6,91.86,60.0,6.0,30.19,10.0,38.54
2021-05-27 23:00:00,43.2,41.2,92.59,50.0,4.0,30.2,10.0,40.5
2021-05-28 00:00:00,42.6,40.0,90.79,50.0,6.0,30.19,10.0,38.3
2021-05-28 01:00:00,42.0,37.2,83.27,20.0,10.0,30.2,10.0,35.38
2021-05-28 02:00:00,41.0,35.2,79.66,20.0,11.0,30.22,10.0,33.84
2021-05-28 03:00:00,40.5,34.5,78.98,20.0,11.0,30.22,10.0,33.21
2021-05-28 04:00:00,40.0,34.3,79.58,20.0,9.0,30.23,10.0,33.59
2021-05-28 05:00:00,39.7,34.0,79.87,20.0,7.0,30.23,10.0,34.16
2021-05-28 06:00:00,39.2,33.0,77.93,20.0,10.0,30.22,10.0,32.0
2021-05-28 07:00:00,38.5,32.0,77.24,30.0,8.0,30.22,10.0,32.12
2021-05-28 08:00:00,37.4,30.4,75.59,20.0,10.0,30.22,10.0,29.74
2021-05-28 09:00:00,36.0,30.2,78.93,20.0,11.0,30.22,10.0,27.65
2021-05-28 10:00:00,35.0,29.5,79.81,30.0,6.0,30.23,10.0,29.26
2021-05-28 11:00:00,35.8,28.8,75.44,50.0,7.0,30.24,10.0,29.41
2021-05-28 12:00:00,38.0,29.5,71.46,40.0,6.0,30.26,10.0,32.64
2021-05-28 13:00:00,40.5,30.4,66.97,40.0,6.0,30.26,10.0,35.77
2021-05-28 14:00:00,43.5,31.6,62.63,20.0,7.0,30.27,10.0,38.8
2021-05-28 15:00:00,49.0,33.0,54.24,80.0,7.0,30.27,10.0,45.38
2021-05-28 16:00:00,53.0,33.0,46.77,70.0,5.0,30.26,10.0,52.9
2021-05-28 17:00:00,54.3,33.0,44.43,50.0,5.0,30.25,10.0,54.3
2021-05-28 18:00:00,55.6,31.3,39.41,360.0,6.0,30.23,10.0,55.6
2021-05-28 19:00:00,58.3,34.2,40.17,360.0,6.0,30.22,10.0,58.3
2021-05-28 20:00:00,60.0,29.8,31.55,40.0,6.0,30.2,10.0,60.1
2021-05-28 21:00:00,61.2,29.3,29.72,350.0,5.0,30.19,10.0,61.2
2021-05-28 22:00:00,61.7,27.7,27.35,20.0,4.0,30.17,10.0,61.7
2021-05-28 23:00:00,60.8,31.5,32.97,340.0,5.0,30.18,10.0,60.8
2021-05-29 00:00:00,58.3,36.5,44.01,30.0,6.0,30.19,10.0,58.3
2021-05-29 01:00:00,53.0,37.4,55.07,30.0,6.0,30.21,10.0,53.1
2021-05-29 02:00:00,50.0,35.0,56.39,20.0,7.0,30.23,10.0,50.0
2021-05-29 03:00:00,47.3,33.8,59.23,30.0,6.0,30.23,10.0,43.96
2021-05-29 04:00:00,44.4,33.8,66.11,40.0,3.0,30.23,10.0,42.86
2021-05-29 05:00:00,41.7,35.4,78.15,0.0,0.0,30.23,10.0,41.7
2021-05-29 06:00:00,38.7,36.0,90.28,0.0,0.0,30.23,10.0,38.7
2021-05-29 07:00:00,37.8,36.7,95.76,0.0,0.0,30.24,10.0,37.8
2021-05-29 08:00:00,37.0,35.2,93.49,0.0,0.0,30.26,10.0,36.9
2021-05-29 09:00:00,37.4,33.8,86.69,0.0,0.0,30.27,10.0,37.4
2021-05-29 10:00:00,38.3,34.5,86.06,0.0,0.0,30.28,10.0,38.3
2021-05-29 11:00:00,41.4,35.2,78.43,0.0,0.0,30.3,10.0,41.4
2021-05-29 12:00:00,47.5,34.7,60.94,170.0,6.0,30.32,10.0,44.2
2021-05-29 13:00:00,50.5,32.2,49.28,190.0,8.0,30.33,10.0,50.5
2021-05-29 14:00:00,53.2,31.8,43.9,190.0,10.0,30.33,10.0,53.2
2021-05-29 15:00:00,55.4,31.8,40.51,170.0,9.0,30.31,10.0,55.4
2021-05-29 16:00:00,57.2,33.3,40.32,250.0,5.0,30.29,10.0,57.2
2021-05-29 17:00:00,59.4,32.2,35.64,110.0,7.0,30.28,10.0,59.4
2021-05-29 18:00:00,61.0,31.8,33.13,170.0,7.0,30.27,10.0,61.0
2021-05-29 19:00:00,62.0,34.0,35.06,170.0,4.0,30.25,10.0,61.9
2021-05-29 20:00:00,63.7,32.7,31.24,170.0,8.0,30.24,10.0,63.7
2021-05-29 21:00:00,64.0,34.2,32.94,0.0,0.0,30.23,10.0,63.9
2021-05-29 22:00:00,64.6,32.5,30.02,190.0,5.0,30.22,10.0,64.6
2021-05-29 23:00:00,62.4,33.0,32.96,160.0,4.0,30.22,10.0,62.4
2021-05-30 00:00:00,60.6,35.2,38.51,180.0,5.0,30.21,10.0,60.6
2021-05-30 01:00:00,57.0,39.4,51.68,160.0,3.0,30.2,10.0,57.0
2021-05-30 02:00:00,53.6,42.4,65.68,0.0,0.0,30.22,10.0,53.6
2021-05-30 03:00:00,51.0,44.0,76.28,0.0,0.0,30.23,10.0,51.1
2021-05-30 04:00:00,48.4,44.8,87.29,0.0,0.0,30.23,10.0,48.4
2021-05-30 05:00:00,47.3,44.6,90.28,0.0,0.0,30.23,10.0,47.3
2021-05-30 06:00:00,50.4,42.0,72.5,0.0,0.0,30.22,10.0,50.4
2021-05-30 07:00:00,49.5,44.6,83.14,0.0,0.0,30.22,10.0,49.5
2021-05-30 08:00:00,48.2,47.0,95.23,0.0,0.0,30.21,10.0,48.2
2021-05-30 09:00:00,49.5,43.7,80.33,160.0,6.0,30.21,10.0,46.61
2021-05-30 10:00:00,50.0,43.2,77.35,160.0,4.0,30.21,10.0,50.0
2021-05-30 11:00:00,51.6,42.0,69.35,210.0,5.0,30.23,10.0,51.6
2021-05-30 12:00:00,51.8,44.0,74.9,160.0,3.0,30.24,10.0,51.8
2021-05-30 13:00:00,53.0,45.0,73.89,160.0,7.0,30.24,10.0,53.1
2021-05-30 14:00:00,51.8,45.0,77.51,170.0,9.0,30.22,10.0,51.8
2021-05-30 15:00:00,51.8,46.4,81.74,170.0,7.0,30.23,10.0,51.8
2021-05-30 16:00:00,52.2,46.0,79.03,170.0,9.0,30.23,10.0,52.2
2021-05-30 17:00:00,52.0,48.2,86.82,160.0,6.0,30.22,10.0,52.0
2021-05-30 18:00:00,55.4,49.0,79.29,160.0,10.0,30.2,10.0,55.4
2021-05-30 19:00:00,53.6,49.0,84.67,170.0,12.0,30.21,10.0,53.6
2021-05-30 20:00:00,54.0,49.0,83.44,180.0,9.0,30.21,10.0,54.0
2021-05-30 21:00:00,53.2,50.5,90.52,190.0,6.0,30.2,10.0,53.2
2021-05-30 22:00:00,53.6,51.0,91.21,170.0,8.0,30.19,10.0,53.6
2021-05-30 23:00:00,53.2,52.5,97.46,170.0,7.0,30.18,4.0,53.2
2021-05-31 00:00:00,53.6,52.7,96.75,160.0,8.0,30.17,10.0,53.6
2021-05-31 01:00:00,54.0,52.5,94.3,180.0,8.0,30.18,10.0,54.1
2021-05-31 02:00:00,53.8,52.3,94.64,170.0,6.0,30.17,10.0,53.8
2021-05-31 03:00:00,54.0,52.3,93.95,170.0,4.0,30.19,10.0,54.0
2021-05-31 04:00:00,53.6,52.2,94.99,130.0,4.0,30.19,10.0,53.6
2021-05-31 05:00:00,54.0,52.2,93.61,210.0,4.0,30.19,10.0,54.0
2021-05-31 06:00:00,53.8,52.7,96.05,130.0,4.0,30.19,10.0,53.8
2021-05-31 07:00:00,51.4,51.0,98.17,160.0,4.0,30.17,10.0,51.4
2021-05-31 08:00:00,51.0,51.0,100.0,330.0,4.0,30.21,10.0,51.1
2021-05-31 09:00:00,51.3,51.0,99.26,130.0,5.0,30.17,7.0,51.3
2021-05-31 10:00:00,51.0,51.0,100.0,0.0,0.0,30.2,10.0,50.9
2021-05-31 11:00:00,51.0,51.0,99.26,170.0,6.0,30.19,7.0,51.1
2021-05-31 12:00:00,55.4,53.8,94.33,150.0,8.0,30.17,10.0,55.4
2021-05-31 13:00:00,57.6,54.0,88.08,170.0,8.0,30.17,10.0,57.6
2021-05-31 14:00:00,61.7,55.8,80.95,160.0,10.0,30.16,10.0,61.7
2021-05-31 15:00:00,65.0,55.8,71.85,210.0,8.0,30.15,10.0,65.1
2021-05-31 16:00:00,65.3,56.0,71.61,210.0,9.0,30.15,10.0,65.3
2021-05-31 17:00:00,70.0,58.0,65.45,190.0,8.0,30.13,10.0,70.0
2021-05-31 18:00:00,72.3,52.7,50.11,220.0,9.0,30.13,10.0,72.3
2021-05-31 19:00:00,71.4,52.2,50.72,260.0,9.0,30.12,10.0,71.4
2021-05-31 20:00:00,73.8,49.0,41.38,260.0,10.0,30.11,10.0,73.8
2021-05-31 21:00:00,73.4,45.7,37.18,290.0,10.0,30.1,10.0,73.4
2021-05-31 22:00:00,72.7,47.3,40.44,270.0,6.0,30.11,10.0,72.7
2021-05-31 23:00:00,71.6,48.2,43.42,330.0,4.0,30.11,10.0,71.6
2021-06-01 00:00:00,70.0,49.6,48.31,340.0,3.0,30.12,10.0,70.0
2021-06-01 01:00:00,65.0,49.6,57.2,0.0,0.0,30.12,10.0,65.1
2021-06-01 02:00:00,58.3,53.8,84.96,0.0,0.0,30.14,10.0,58.3
2021-06-01 03:00:00,56.0,53.0,89.64,0.0,0.0,30.16,10.0,56.1
2021-06-01 04:00:00,54.5,51.8,90.57,0.0,0.0,30.16,10.0,54.5
2021-06-01 05:00:00,51.8,51.3,98.17,0.0,0.0,30.16,10.0,51.8
2021-06-01 06:00:00,51.0,50.7,98.53,0.0,0.0,30.16,10.0,51.1
2021-06-01 07:00:00,50.0,49.5,98.16,0.0,0.0,30.16,10.0,50.0
2021-06-01 08:00:00,49.0,49.0,99.26,0.0,0.0,30.15,10.0,49.1
2021-06-01 09:00:00,47.7,47.5,99.25,0.0,0.0,30.16,7.0,47.7
2021-06-01 10:00:00,48.2,48.2,100.0,0.0,0.0,30.16,10.0,48.2
2021-06-01 11:00:00,51.6,50.2,94.95,0.0,0.0,30.17,10.0,51.6
2021-06-01 12:00:00,56.3,51.8,84.84,150.0,3.0,30.18,10.0,56.3
2021-06-01 13:00:00,59.5,52.7,78.17,0.0,0.0,30.18,10.0,59.5
2021-06-01 14:00:00,64.8,52.3,63.88,110.0,6.0,30.17,10.0,64.8
2021-06-01 15:00:00,68.4,53.0,57.65,50.0,3.0,30.16,10.0,68.4
2021-06-01 16:00:00,71.4,47.5,42.58,100.0,5.0,30.15,10.0,71.4
2021-06-01 17:00:00,72.0,45.5,38.68,0.0,0.0,30.14,10.0,72.0
2021-06-01 18:00:00,74.0,46.6,37.83,120.0,4.0,30.12,10.0,73.9
2021-06-01 19:00:00,74.0,45.0,35.74,200.0,5.0,30.11,10.0,73.9
2021-06-01 20:00:00,76.0,47.7,36.63,50.0,4.0,30.1,10.0,76.1
2021-06-01 21:00:00,75.0,46.6,36.46,10.0,3.0,30.09,10.0,75.0
2021-06-01 22:00:00,73.8,46.4,37.67,0.0,0.0,30.08,10.0,73.8
2021-06-01 23:00:00,74.5,49.6,41.49,190.0,5.0,30.07,10.0,74.5
2021-06-02 00:00:00,72.7,51.3,46.95,170.0,3.0,30.07,10.0,72.7
2021-06-02 01:00:00,68.0,55.2,63.58,160.0,3.0,30.06,10.0,68.0
2021-06-02 02:00:00,62.8,55.8,77.87,0.0,0.0,30.06,10.0,62.8
2021-06-02 03:00:00,58.0,55.0,89.07,0.0,0.0,30.06,10.0,58.1
2021-06-02 04:00:00,56.8,55.0,93.68,0.0,0.0,30.05,10.0,56.8
2021-06-02 05:00:00,55.0,54.3,97.48,0.0,0.0,30.04,10.0,55.0
2021-06-02 06:00:00,53.6,52.5,96.04,0.0,0.0,30.02,10.0,53.6
2021-06-02 07:00:00,53.8,53.0,96.75,0.0,0.0,30.02,10.0,53.8
2021-06-02 08:00:00,51.8,51.0,97.45,0.0,0.0,30.01,10.0,51.8
2021-06-02 09:00:00,50.7,50.4,98.89,0.0,0.0,30.01,10.0,50.7
2021-06-02 10:00:00,50.5,50.2,98.89,0.0,0.0,30.01,10.0,50.5
2021-06-02 11:00:00,55.8,51.4,85.12,120.0,4.0,30.01,10.0,55.8
2021-06-02 12:00:00,55.8,52.3,87.99,360.0,3.0,30.02,10.0,55.8
2021-06-02 13:00:00,57.7,54.3,88.41,120.0,5.0,30.0,10.0,57.7
2021-06-02 14:00:00,61.2,56.0,82.7,110.0,5.0,29.99,10.0,61.2
2021-06-02 15:00:00,64.2,54.7,71.23,220.0,3.0,29.99,10.0,64.2
2021-06-02 16:00:00,69.3,54.7,59.71,140.0,9.0,29.97,10.0,69.3
2021-06-02 17:00:00,73.0,52.7,49.1,150.0,8.0,29.96,10.0,72.9
2021-06-02 18:00:00,75.7,51.8,43.24,180.0,8.0,29.94,10.0,75.7
2021-06-02 19:00:00,76.0,45.7,34.19,180.0,11.0,29.92,10.0,75.9
2021-06-02 20:00:00,78.3,51.8,39.67,190.0,10.0,29.91,10.0,78.3
2021-06-02 21:00:00,79.0,49.0,34.81,210.0,8.0,29.89,10.0,79.0
2021-06-02 22:00:00,78.4,50.5,37.68,210.0,7.0,29.87,10.0,78.4
2021-06-02 23:00:00,78.0,50.2,37.64,220.0,8.0,29.85,10.0,78.1
2021-06-03 00:00:00,75.6,48.4,38.24,220.0,7.0,29.85,10.0,75.6
2021-06-03 01:00:00,68.7,53.4,58.12,0.0,0.0,29.84,10.0,68.7
2021-06-03 02:00:00,64.4,53.2,66.96,0.0,0.0,29.86,10.0,64.4
2021-06-03 03:00:00,60.0,53.6,79.08,0.0,0.0,29.85,10.0,60.1
2021-06-03 04:00:00,58.5,54.7,87.17,0.0,0.0,29.84,10.0,58.5
2021-06-03 05:00:00,57.2,54.0,89.03,0.0,0.0,29.83,10.0,57.2
2021-06-03 06:00:00,57.2,54.0,89.36,0.0,0.0,29.82,10.0,57.2
2021-06-03 07:00:00,59.0,53.4,81.65,90.0,4.0,29.81,10.0,59.0
2021-06-03 08:00:00,58.5,55.0,87.8,0.0,0.0,29.81,10.0,58.5
2021-06-03 09:00:00,59.5,54.0,81.98,130.0,4.0,29.8,10.0,59.5
2021-06-03 10:00:00,58.8,53.8,83.45,0.0,0.0,29.8,10.0,58.8
2021-06-03 11:00:00,62.8,53.0,70.05,0.0,0.0,29.8,10.0,62.8
2021-06-03 12:00:00,69.0,50.2,50.94,240.0,6.0,29.8,10.0,69.1
2021-06-03 13:00:00,71.6,50.2,46.78,260.0,7.0,29.8,10.0,71.6
2021-06-03 14:00:00,74.0,51.0,44.76,260.0,11.0,29.8,10.0,73.9
2021-06-03 15:00:00,76.8,53.2,43.89,240.0,8.0,29.8,10.0,76.8
2021-06-03 16:00:00,79.2,53.0,40.4,260.0,8.0,29.81,10.0,79.2
2021-06-03 17:00:00,81.5,53.2,37.61,300.0,5.0,29.8,10.0,80.8
2021-06-03 18:00:00,82.4,51.3,34.06,280.0,5.0,29.8,10.0,81.14
2021-06-03 19:00:00,82.0,50.5,33.5,290.0,3.0,29.79,10.0,80.78
2021-06-03 20:00:00,80.6,52.3,37.47,0.0,0.0,29.8,10.0,80.13
2021-06-03 21:00:00,79.7,54.0,41.23,200.0,5.0,29.78,10.0,79.7
2021-06-03 22:00:00,81.7,55.0,39.91,210.0,5.0,29.77,10.0,81.19
2021-06-03 23:00:00,80.0,55.0,41.89,200.0,6.0,29.76,10.0,80.16
2021-06-04 00:00:00,78.8,56.5,46.33,200.0,3.0,29.76,10.0,78.8
2021-06-04 01:00:00,78.8,56.5,46.33,200.0,3.0,29.76,10.0,78.8
2021-06-04 02:00:00,68.7,60.8,75.9,0.0,0.0,29.77,10.0,68.7
2021-06-04 03:00:00,67.8,60.4,77.18,0.0,0.0,29.78,10.0,67.8
2021-06-04 04:00:00,68.0,61.7,80.27,100.0,4.0,29.78,10.0,68.0
2021-06-04 05:00:00,67.8,60.0,75.82,130.0,3.0,29.78,10.0,67.8
2021-06-04 06:00:00,64.0,61.0,90.28,0.0,0.0,29.78,10.0,63.9
2021-06-04 07:00:00,63.0,62.0,96.88,0.0,0.0,29.78,10.0,63.0
2021-06-04 08:00:00,61.7,61.0,97.55,0.0,0.0,29.78,10.0,61.7
2021-06-04 09:00:00,62.0,60.4,94.82,0.0,0.0,29.78,10.0,61.9
2021-06-04 10:00:00,61.3,59.5,93.8,0.0,0.0,29.78,10.0,61.3
2021-06-04 11:00:00,64.6,57.6,78.02,150.0,4.0,29.78,10.0,64.6
2021-06-04 12:00:00,71.4,55.4,57.02,220.0,7.0,29.78,10.0,71.4
2021-06-04 13:00:00,74.5,56.0,52.68,240.0,8.0,29.79,10.0,74.5
2021-06-04 14:00:00,77.7,56.5,48.05,230.0,8.0,29.79,10.0,77.7
2021-06-04 15:00:00,80.4,58.0,46.24,230.0,6.0,29.79,10.0,80.78
2021-06-04 16:00:00,83.7,58.0,41.84,210.0,9.0,29.79,10.0,83.28
2021-06-04 17:00:00,85.6,58.5,39.93,230.0,7.0,29.79,10.0,84.97
2021-06-04 18:00:00,88.3,58.5,36.64,240.0,7.0,29.78,10.0,87.43
2021-06-04 19:00:00,89.8,60.0,36.74,240.0,8.0,29.76,10.0,89.39
2021-06-04 20:00:00,91.4,58.8,33.6,220.0,10.0,29.76,10.0,90.6
2021-06-04 21:00:00,92.3,57.2,30.84,230.0,11.0,29.74,10.0,90.98
2021-06-04 22:00:00,92.3,57.2,30.84,220.0,9.0,29.73,10.0,90.98
2021-06-04 23:00:00,91.6,56.3,30.51,220.0,7.0,29.71,10.0,89.98
2021-06-05 00:00:00,88.2,57.6,35.59,200.0,6.0,29.7,10.0,87.06
2021-06-05 01:00:00,83.0,57.4,41.87,190.0,6.0,29.69,10.0,82.5
2021-06-05 02:00:00,80.4,56.8,44.44,170.0,6.0,29.7,10.0,80.61
2021-06-05 03:00:00,79.7,55.6,43.54,180.0,7.0,29.7,10.0,79.7
2021-06-05 04:00:00,80.0,54.0,40.96,190.0,9.0,29.72,10.0,79.9
2021-06-05 05:00:00,79.0,54.0,42.19,200.0,11.0,29.72,10.0,79.0
2021-06-05 06:00:00,77.4,55.0,45.96,200.0,8.0,29.71,10.0,77.4
2021-06-05 07:00:00,75.6,55.6,49.86,190.0,9.0,29.69,10.0,75.6
2021-06-05 08:00:00,74.0,56.0,53.39,200.0,6.0,29.69,10.0,74.1
2021-06-05 09:00:00,72.7,56.7,57.19,200.0,5.0,29.7,10.0,72.7
2021-06-05 10:00:00,72.5,56.7,57.58,200.0,4.0,29.71,10.0,72.5
2021-06-05 11:00:00,73.4,57.4,57.29,200.0,6.0,29.72,10.0,73.4
2021-06-05 12:00:00,77.0,58.0,52.09,220.0,11.0,29.72,10.0,77.0
2021-06-05 13:00:00,80.0,58.6,48.2,220.0,12.0,29.72,10.0,79.9
2021-06-05 14:00:00,82.8,59.2,44.81,220.0,12.0,29.72,10.0,82.82
2021-06-05 15:00:00,85.0,59.5,42.33,220.0,10.0,29.72,10.0,84.65
2021-06-05 16:00:00,87.8,61.2,40.99,210.0,8.0,29.71,10.0,87.9
2021-06-05 17:00:00,89.6,61.7,39.41,220.0,8.0,29.7,10.0,89.91
2021-06-05 18:00:00,91.8,60.8,35.63,230.0,12.0,29.7,10.0,91.82
2021-06-05 19:00:00,94.0,62.0,34.49,220.0,12.0,29.7,10.0,94.84
2021-06-05 20:00:00,95.4,61.0,32.1,210.0,10.0,29.69,10.0,95.85
2021-06-05 21:00:00,95.7,59.2,29.83,200.0,13.0,29.68,10.0,95.36
2021-06-05 22:00:00,93.4,57.4,30.02,200.0,12.0,29.68,10.0,92.19
2021-06-05 23:00:00,89.6,58.6,35.3,190.0,6.0,29.68,10.0,88.72
2021-06-06 00:00:00,87.0,60.3,40.85,210.0,3.0,29.69,10.0,86.71
2021-06-06 01:00:00,84.4,60.0,43.63,140.0,6.0,29.68,10.0,84.34
2021-06-06 02:00:00,83.5,57.0,40.48,150.0,7.0,29.69,10.0,82.87
2021-06-06 03:00:00,81.7,56.0,41.53,160.0,6.0,29.7,10.0,81.38
2021-06-06 04:00:00,78.4,57.4,48.5,160.0,5.0,29.71,10.0,78.4
2021-06-06 05:00:00,78.4,58.5,50.45,170.0,7.0,29.71,10.0,78.4
2021-06-06 06:00:00,78.0,59.5,52.81,180.0,7.0,29.71,10.0,78.1
2021-06-06 07:00:00,76.8,60.0,56.33,180.0,8.0,29.71,10.0,76.8
2021-06-06 08:00:00,76.0,60.0,57.24,190.0,8.0,29.72,10.0,76.1
2021-06-06 09:00:00,74.7,60.0,59.98,190.0,5.0,29.74,10.0,74.7
2021-06-06 10:00:00,73.8,59.7,61.38,190.0,7.0,29.75,10.0,73.8
2021-06-06 11:00:00,75.2,59.7,58.57,190.0,8.0,29.77,10.0,75.2
2021-06-06 12:00:00,76.5,60.0,56.89,190.0,9.0,29.77,10.0,76.5
2021-06-06 13:00:00,78.8,60.3,53.1,180.0,12.0,29.76,10.0,78.8
2021-06-06 14:00:00,81.0,60.6,49.94,190.0,10.0,29.75,10.0,81.73
2021-06-06 15:00:00,83.0,60.0,46.12,180.0,15.0,29.74,10.0,83.13
2021-06-06 16:00:00,84.6,58.0,40.36,200.0,19.0,29.74,10.0,83.96
2021-06-06 17:00:00,85.6,58.0,39.36,180.0,16.0,29.73,10.0,84.86
2021-06-06 18:00:00,86.0,57.7,38.31,190.0,16.0,29.73,10.0,85.1
2021-06-06 19:00:00,87.0,59.5,39.7,180.0,15.0,29.72,10.0,86.44
2021-06-06 20:00:00,86.5,59.5,40.21,200.0,14.0,29.72,10.0,86.07
2021-06-06 21:00:00,88.3,60.3,39.08,210.0,10.0,29.71,10.0,88.05
2021-06-06 22:00:00,88.7,59.2,37.1,200.0,13.0,29.71,10.0,88.05
2021-06-06 23:00:00,87.4,58.8,38.11,180.0,11.0,29.71,10.0,86.68
2021-06-07 00:00:00,85.6,60.0,41.98,180.0,8.0,29.71,10.0,85.39
2021-06-07 01:00:00,81.0,61.0,50.65,170.0,7.0,29.71,10.0,81.81
2021-06-07 02:00:00,79.2,62.0,55.86,170.0,9.0,29.73,10.0,79.2
2021-06-07 03:00:00,78.0,63.0,60.39,180.0,10.0,29.74,10.0,77.9
2021-06-07 04:00:00,76.5,63.0,63.04,170.0,8.0,29.75,10.0,76.5
2021-06-07 05:00:00,75.4,62.6,64.47,190.0,7.0,29.76,10.0,75.4
2021-06-07 06:00:00,75.6,62.8,64.5,210.0,8.0,29.78,10.0,75.6
2021-06-07 07:00:00,74.3,63.0,68.08,190.0,5.0,29.78,10.0,74.3
2021-06-07 08:00:00,72.5,63.5,73.35,160.0,4.0,29.79,10.0,72.5
2021-06-07 09:00:00,71.6,64.0,76.69,150.0,5.0,29.78,10.0,71.6
2021-06-07 10:00:00,70.3,64.0,80.44,170.0,3.0,29.81,10.0,70.3
2021-06-07 11:00:00,72.5,65.0,77.04,160.0,5.0,29.82,10.0,72.5
2021-06-07 12:00:00,75.4,65.3,70.87,180.0,6.0,29.83,10.0,75.4
2021-06-07 13:00:00,76.8,65.3,67.64,190.0,7.0,29.84,10.0,76.8
2021-06-07 14:00:00,79.5,66.6,64.73,190.0,5.0,29.84,10.0,79.5
2021-06-07 15:00:00,81.5,66.7,60.85,210.0,3.0,29.85,10.0,83.87
2021-06-07 16:00:00,82.8,66.4,57.73,140.0,4.0,29.85,10.0,85.13
2021-06-07 17:00:00,84.2,67.0,56.14,200.0,5.0,29.86,10.0,86.84
2021-06-07 18:00:00,84.4,67.0,55.78,180.0,6.0,29.85,10.0,87.05
2021-06-07 19:00:00,87.0,67.8,53.12,230.0,3.0,29.85,10.0,90.29
2021-06-07 20:00:00,87.3,69.0,54.47,210.0,4.0,29.84,10.0,91.47
2021-06-07 21:00:00,88.3,68.4,51.87,190.0,6.0,29.83,10.0,92.27
2021-06-07 22:00:00,88.3,68.7,52.41,190.0,7.0,29.83,10.0,92.48
2021-06-07 23:00:00,88.7,68.7,51.75,160.0,6.0,29.83,10.0,92.94
2021-06-08 00:00:00,87.0,69.0,55.17,150.0,6.0,29.84,10.0,91.01
2021-06-08 01:00:00,84.2,69.0,60.15,140.0,4.0,29.85,10.0,87.9
2021-06-08 02:00:00,81.5,68.0,63.64,130.0,5.0,29.87,10.0,84.35
2021-06-08 03:00:00,79.0,66.7,66.03,140.0,6.0,29.87,10.0,79.0
2021-06-08 04:00:00,76.6,66.6,71.24,130.0,5.0,29.9,10.0,76.6
2021-06-08 05:00:00,74.3,67.0,78.26,0.0,0.0,29.91,10.0,74.3
2021-06-08 06:00:00,72.7,67.3,83.16,0.0,0.0,29.93,10.0,72.7
2021-06-08 07:00:00,71.8,67.3,85.73,130.0,3.0,29.94,10.0,71.8
2021-06-08 08:00:00,70.5,68.0,91.79,0.0,0.0,29.94,10.0,70.5
2021-06-08 09:00:00,69.8,67.6,92.73,0.0,0.0,29.96,10.0,69.8
2021-06-08 10:00:00,71.0,68.0,90.55,330.0,4.0,29.98,10.0,70.9
2021-06-08 11:00:00,72.7,68.2,85.78,0.0,0.0,29.99,10.0,72.7
2021-06-08 12:00:00,76.0,68.4,77.59,0.0,0.0,30.01,10.0,75.9
2021-06-08 13:00:00,79.2,67.3,66.98,90.0,5.0,30.01,10.0,79.2
2021-06-08 14:00:00,82.0,64.6,55.65,90.0,9.0,30.01,10.0,83.66
2021-06-08 15:00:00,83.0,64.6,53.7,100.0,7.0,30.0,10.0,84.72
2021-06-08 16:00:00,85.8,66.0,51.7,130.0,8.0,30.01,10.0,88.07
2021-06-08 17:00:00,88.5,67.5,49.97,170.0,9.0,30.0,10.0,91.88
2021-06-08 18:00:00,90.5,67.3,46.6,170.0,8.0,29.99,10.0,94.01
2021-06-08 19:00:00,92.0,65.7,42.19,190.0,6.0,29.99,10.0,94.53
2021-06-08 20:00:00,93.2,63.5,37.52,140.0,5.0,29.99,10.0,94.68
2021-06-08 21:00:00,92.8,65.7,41.03,0.0,0.0,29.97,10.0,95.55
2021-06-08 22:00:00,92.7,65.3,40.59,220.0,3.0,29.96,10.0,95.18
2021-06-08 23:00:00,92.0,65.8,42.34,290.0,5.0,29.96,10.0,94.59
2021-06-09 00:00:00,88.0,67.3,50.42,50.0,7.0,29.99,10.0,91.2
2021-06-09 01:00:00,74.0,69.8,87.03,170.0,8.0,30.03,10.0,73.9
2021-06-09 02:00:00,73.4,70.3,90.03,0.0,0.0,30.02,10.0,73.4
2021-06-09 03:00:00,73.0,70.3,91.56,30.0,8.0,30.04,10.0,72.9
2021-06-09 04:00:00,71.8,67.0,85.14,0.0,0.0,30.09,10.0,71.8
2021-06-09 05:00:00,69.3,68.0,95.63,0.0,0.0,30.06,7.0,69.3
2021-06-09 06:00:00,68.2,67.0,96.28,0.0,0.0,30.04,7.0,68.2
2021-06-09 07:00:00,67.6,66.2,95.27,30.0,4.0,30.03,7.0,67.6
2021-06-09 08:00:00,67.0,65.8,96.26,0.0,0.0,30.02,7.0,66.9
2021-06-09 09:00:00,66.6,66.2,98.62,0.0,0.0,30.07,7.0,66.6
2021-06-09 10:00:00,66.2,64.4,93.92,0.0,0.0,30.1,7.0,66.2
2021-06-09 11:00:00,68.5,64.0,85.55,0.0,0.0,30.1,7.0,68.5
2021-06-09 12:00:00,72.3,64.4,76.22,110.0,4.0,30.11,10.0,72.3
2021-06-09 13:00:00,75.7,64.2,67.52,130.0,6.0,30.11,10.0,75.7
2021-06-09 14:00:00,78.8,65.5,63.76,110.0,6.0,30.1,7.0,78.8
2021-06-09 15:00:00,81.0,68.4,65.37,110.0,5.0,30.09,10.0,84.02
2021-06-09 16:00:00,83.8,67.6,58.26,110.0,5.0,30.08,10.0,86.75
2021-06-09 17:00:00,86.5,69.0,55.87,100.0,3.0,30.07,10.0,90.55
2021-06-09 18:00:00,87.8,67.6,51.27,160.0,5.0,30.05,10.0,91.17
2021-06-09 19:00:00,89.0,65.7,46.36,100.0,6.0,30.04,10.0,91.21
2021-06-09 20:00:00,91.2,65.3,42.53,120.0,9.0,30.02,10.0,93.49
2021-06-09 21:00:00,90.5,65.0,43.17,150.0,7.0,30.01,10.0,92.6
2021-06-09 22:00:00,90.0,66.0,45.25,150.0,8.0,30.0,10.0,92.59
2021-06-09 23:00:00,89.4,66.0,46.11,140.0,6.0,29.99,10.0,91.93
2021-06-10 00:00:00,87.8,66.2,48.84,140.0,4.0,30.0,10.0,90.31
2021-06-10 01:00:00,82.6,66.6,58.51,110.0,3.0,30.0,10.0,85.0
2021-06-10 02:00:00,80.0,68.0,66.62,130.0,5.0,30.0,10.0,82.7
2021-06-10 03:00:00,79.3,68.0,68.39,140.0,6.0,29.99,10.0,79.3
2021-06-10 04:00:00,77.0,68.0,73.78,140.0,5.0,29.99,10.0,77.0
2021-06-10 05:00:00,75.7,67.5,75.72,130.0,3.0,30.0,10.0,75.7
2021-06-10 06:00:00,75.2,67.5,77.0,140.0,5.0,29.99,10.0,75.2
2021-06-10 07:00:00,74.5,67.3,78.28,130.0,5.0,29.98,10.0,74.5
2021-06-10 08:00:00,73.4,66.7,79.56,130.0,5.0,29.97,10.0,73.4
2021-06-10 09:00:00,73.0,66.6,80.63,140.0,5.0,29.96,10.0,72.9
2021-06-10 10:00:00,71.8,66.6,83.68,120.0,3.0,29.97,10.0,71.8
2021-06-10 11:00:00,74.3,67.3,78.81,140.0,5.0,29.96,10.0,74.3
2021-06-10 12:00:00,76.6,68.7,76.59,170.0,6.0,29.96,10.0,76.6
2021-06-10 13:00:00,79.7,69.0,70.09,160.0,4.0,29.96,10.0,79.7
2021-06-10 14:00:00,83.5,69.4,62.58,170.0,6.0,29.94,10.0,87.36
2021-06-10 15:00:00,85.3,69.6,59.47,210.0,7.0,29.94,10.0,89.62
2021-06-10 16:00:00,87.8,70.2,56.05,170.0,5.0,29.92,10.0,93.02
2021-06-10 17:00:00,90.0,69.4,50.72,240.0,6.0,29.91,10.0,95.11
2021-06-10 18:00:00,91.4,68.2,46.73,180.0,5.0,29.89,10.0,95.7
2021-06-10 19:00:00,93.0,68.0,44.15,260.0,7.0,29.88,10.0,97.43
2021-06-10 20:00:00,92.7,68.4,45.18,220.0,8.0,29.86,10.0,97.39
2021-06-10 21:00:00,93.6,67.5,42.59,210.0,8.0,29.84,10.0,97.75
2021-06-10 22:00:00,92.7,67.6,43.95,210.0,9.0,29.83,10.0,96.77
2021-06-10 23:00:00,91.0,68.0,47.14,200.0,6.0,29.82,10.0,94.97
2021-06-11 00:00:00,89.2,69.3,52.0,170.0,5.0,29.81,10.0,93.98
2021-06-11 01:00:00,89.2,69.3,52.0,170.0,5.0,29.81,10.0,93.98
2021-06-11 02:00:00,76.5,65.3,68.32,100.0,14.0,29.89,10.0,76.5
2021-06-11 03:00:00,74.8,65.3,72.3,130.0,13.0,29.86,10.0,74.8
2021-06-11 04:00:00,74.3,63.7,69.53,150.0,7.0,29.85,10.0,74.3
2021-06-11 05:00:00,73.0,61.7,67.92,140.0,7.0,29.86,10.0,72.9
2021-06-11 06:00:00,72.0,61.3,69.04,120.0,7.0,29.86,10.0,72.0
2021-06-11 07:00:00,70.5,61.0,71.88,130.0,5.0,29.85,10.0,70.5
2021-06-11 08:00:00,69.0,61.0,75.92,150.0,3.0,29.83,10.0,68.9
2021-06-11 09:00:00,68.0,61.2,78.86,0.0,0.0,29.82,10.0,68.0
2021-06-11 10:00:00,67.0,60.8,80.2,80.0,5.0,29.83,10.0,67.1
2021-06-11 11:00:00,70.0,61.5,74.42,110.0,3.0,29.83,10.0,70.0
2021-06-11 12:00:00,73.4,62.2,67.98,130.0,4.0,29.84,10.0,73.4
2021-06-11 13:00:00,76.5,63.5,64.15,150.0,6.0,29.86,10.0,76.5
2021-06-11 14:00:00,79.2,65.0,62.06,160.0,6.0,29.87,10.0,79.2
2021-06-11 15:00:00,80.4,69.4,69.21,140.0,4.0,29.84,10.0,83.5
2021-06-11 16:00:00,84.2,70.2,62.88,0.0,0.0,29.85,10.0,88.68
2021-06-11 17:00:00,85.0,70.2,61.09,250.0,9.0,29.84,10.0,89.78
2021-06-11 18:00:00,85.5,69.3,58.48,130.0,12.0,29.77,10.0,89.66
2021-06-11 19:00:00,86.5,68.5,55.11,140.0,6.0,29.78,10.0,90.29
2021-06-11 20:00:00,87.4,68.4,53.37,180.0,10.0,29.79,10.0,91.25
2021-06-11 21:00:00,87.3,67.3,51.55,160.0,9.0,29.8,10.0,90.42
2021-06-11 22:00:00,87.4,63.0,44.24,200.0,10.0,29.79,10.0,88.26
2021-06-11 23:00:00,86.0,63.0,46.25,230.0,6.0,29.8,10.0,86.88
2021-06-12 00:00:00,84.4,64.4,51.14,0.0,0.0,29.82,10.0,85.91
2021-06-12 01:00:00,79.2,68.0,68.61,0.0,0.0,29.83,10.0,79.2
2021-06-12 02:00:00,77.4,67.0,70.58,0.0,0.0,29.84,10.0,77.4
2021-06-12 03:00:00,74.3,67.3,78.81,320.0,4.0,29.87,10.0,74.3
2021-06-12 04:00:00,73.4,67.5,81.79,0.0,0.0,29.88,10.0,73.4
2021-06-12 05:00:00,71.8,65.7,81.11,290.0,4.0,29.9,10.0,71.8
2021-06-12 06:00:00,69.0,62.4,79.23,300.0,5.0,29.91,10.0,69.1
2021-06-12 07:00:00,67.6,60.3,77.44,320.0,4.0,29.92,10.0,67.6
2021-06-12 08:00:00,64.4,58.6,81.44,300.0,3.0,29.94,10.0,64.4
2021-06-12 09:00:00,62.4,58.0,85.81,0.0,0.0,29.95,10.0,62.4
2021-06-12 10:00:00,60.3,57.2,89.49,0.0,0.0,29.97,10.0,60.3
2021-06-12 11:00:00,63.5,55.8,75.98,300.0,4.0,29.99,10.0,63.5
2021-06-12 12:00:00,65.8,54.5,66.88,330.0,4.0,30.0,10.0,65.8
2021-06-12 13:00:00,69.6,51.6,52.74,320.0,4.0,30.0,10.0,69.6
2021-06-12 14:00:00,69.6,51.6,52.74,320.0,4.0,30.0,10.0,69.6
2021-06-12 15:00:00,75.2,45.3,34.47,310.0,11.0,30.0,10.0,75.2
2021-06-12 16:00:00,77.5,46.4,33.3,320.0,9.0,29.99,10.0,77.5
2021-06-12 17:00:00,78.0,44.4,30.26,290.0,17.0,29.99,10.0,78.1
2021-06-12 18:00:00,79.5,46.4,31.17,290.0,13.0,29.98,10.0,79.5
2021-06-12 19:00:00,80.2,45.3,29.22,260.0,12.0,29.97,10.0,79.26
2021-06-12 20:00:00,81.0,45.5,28.59,280.0,9.0,29.96,10.0,79.77
2021-06-12 21:00:00,81.7,45.3,27.83,300.0,10.0,29.96,10.0,80.12
2021-06-12 22:00:00,81.0,45.3,28.38,310.0,9.0,29.95,10.0,79.76
2021-06-12 23:00:00,80.6,47.5,31.34,290.0,6.0,29.95,10.0,79.65
2021-06-13 00:00:00,78.4,45.5,31.24,300.0,6.0,29.96,10.0,78.4
2021-06-13 01:00:00,72.7,49.5,43.91,290.0,3.0,29.97,10.0,72.7
2021-06-13 02:00:00,69.0,50.0,50.91,0.0,0.0,29.99,10.0,68.9
2021-06-13 03:00:00,65.7,55.0,68.1,0.0,0.0,30.01,10.0,65.7
2021-06-13 04:00:00,63.5,53.0,68.85,0.0,0.0,30.01,10.0,63.5
2021-06-13 05:00:00,59.5,54.5,83.49,0.0,0.0,30.02,10.0,59.5
2021-06-13 06:00:00,57.6,53.6,86.48,0.0,0.0,30.02,10.0,57.6
2021-06-13 07:00:00,56.3,53.8,91.3,0.0,0.0,30.04,10.0,56.3
2021-06-13 08:00:00,55.4,53.6,93.65,0.0,0.0,30.05,10.0,55.4
2021-06-13 09:00:00,55.2,53.8,95.02,0.0,0.0,30.05,10.0,55.2
2021-06-13 10:00:00,55.2,54.0,95.72,0.0,0.0,30.05,10.0,55.2
2021-06-13 11:00:00,59.2,55.0,85.63,0.0,0.0,30.06,10.0,59.2
2021-06-13 12:00:00,64.4,54.3,69.71,0.0,0.0,30.08,10.0,64.4
2021-06-13 13:00:00,71.6,56.7,59.36,0.0,0.0,30.08,10.0,71.6
2021-06-13 14:00:00,78.0,50.2,37.64,230.0,5.0,30.06,10.0,78.1
2021-06-13 15:00:00,80.6,49.5,33.78,230.0,7.0,30.05,10.0,79.83
2021-06-13 16:00:00,82.0,47.5,29.95,200.0,8.0,30.04,10.0,80.48
2021-06-13 17:00:00,83.5,49.0,30.29,200.0,7.0,30.01,10.0,81.63
2021-06-13 18:00:00,84.2,48.6,29.06,190.0,11.0,29.99,10.0,82.08
2021-06-13 19:00:00,85.8,49.3,28.34,200.0,8.0,29.96,10.0,83.37
2021-06-13 20:00:00,88.0,49.0,26.23,240.0,14.0,29.93,10.0,85.16
2021-06-13 21:00:00,88.5,51.0,27.81,230.0,9.0,29.9,10.0,85.88
2021-06-13 22:00:00,88.2,52.7,29.78,250.0,8.0,29.87,10.0,85.9
2021-06-13 23:00:00,88.3,53.0,30.13,290.0,9.0,29.85,10.0,86.06
2021-06-14 00:00:00,83.3,56.5,40.01,350.0,15.0,29.88,10.0,82.61
2021-06-14 01:00:00,71.8,56.7,58.96,360.0,11.0,29.94,10.0,71.8
2021-06-14 02:00:00,67.0,54.0,63.01,360.0,11.0,29.99,10.0,67.1
2021-06-14 03:00:00,64.4,54.5,70.22,10.0,8.0,30.02,10.0,64.4
2021-06-14 04:00:00,62.4,54.7,75.88,350.0,3.0,30.02,10.0,62.4
2021-06-14 05:00:00,59.5,54.3,82.89,290.0,4.0,30.03,10.0,59.5
2021-06-14 06:00:00,57.2,54.0,89.36,10.0,3.0,30.02,10.0,57.2
2021-06-14 07:00:00,55.0,53.6,95.36,0.0,0.0,30.04,10.0,54.9
2021-06-14 08:00:00,55.0,53.0,92.61,0.0,0.0,30.04,10.0,55.0
2021-06-14 09:00:00,53.8,52.3,94.64,50.0,3.0,30.06,10.0,53.8
2021-06-14 10:00:00,54.0,52.7,95.35,0.0,0.0,30.08,10.0,54.0
2021-06-14 11:00:00,58.0,54.0,86.2,0.0,0.0,30.09,10.0,58.1
2021-06-14 12:00:00,64.0,55.8,74.66,340.0,5.0,30.09,10.0,64.0
2021-06-14 13:00:00,69.4,57.6,66.09,250.0,4.0,30.08,10.0,69.4
2021-06-14 14:00:00,75.4,54.0,47.53,310.0,5.0,30.08,10.0,75.4
2021-06-14 15:00:00,78.0,47.3,33.77,330.0,8.0,30.07,10.0,78.1
2021-06-14 16:00:00,79.0,47.7,33.28,330.0,11.0,30.07,10.0,79.0
2021-06-14 17:00:00,79.5,44.6,29.11,320.0,10.0,30.06,10.0,79.5
2021-06-14 18:00:00,81.0,44.6,27.72,330.0,9.0,30.05,10.0,79.65
2021-06-14 19:00:00,81.7,46.0,28.47,330.0,9.0,30.04,10.0,80.16
2021-06-14 20:00:00,81.5,45.0,27.69,300.0,10.0,30.04,10.0,79.97
2021-06-14 21:00:00,81.7,46.0,28.47,330.0,12.0,30.04,10.0,80.16
2021-06-14 22:00:00,79.5,46.4,31.17,330.0,7.0,30.04,10.0,79.5
2021-06-14 23:00:00,80.4,48.6,32.88,330.0,6.0,30.05,10.0,79.64
2021-06-15 00:00:00,78.0,49.8,37.33,360.0,9.0,30.06,10.0,77.9
2021-06-15 01:00:00,73.8,51.8,46.08,30.0,8.0,30.08,10.0,73.8
2021-06-15 02:00:00,70.0,53.0,54.98,40.0,7.0,30.11,10.0,70.0
2021-06-15 03:00:00,66.7,53.0,61.59,30.0,7.0,30.13,10.0,66.7
2021-06-15 04:00:00,63.7,53.6,69.64,360.0,3.0,30.14,10.0,63.7
2021-06-15 05:00:00,61.0,54.3,78.58,0.0,0.0,30.15,10.0,61.0
2021-06-15 06:00:00,59.7,54.3,82.3,0.0,0.0,30.15,10.0,59.7
2021-06-15 07:00:00,55.8,53.8,92.97,0.0,0.0,30.15,10.0,55.8
2021-06-15 08:00:00,55.0,52.7,92.27,0.0,0.0,30.16,10.0,54.9
2021-06-15 09:00:00,53.6,52.2,94.99,0.0,0.0,30.17,10.0,53.6
2021-06-15 10:00:00,53.6,52.3,95.34,0.0,0.0,30.19,10.0,53.6
2021-06-15 11:00:00,59.0,54.3,84.38,10.0,3.0,30.2,10.0,59.0
2021-06-15 12:00:00,62.8,54.7,74.82,30.0,5.0,30.2,10.0,62.8
2021-06-15 13:00:00,66.6,55.6,67.7,80.0,3.0,30.21,10.0,66.6
2021-06-15 14:00:00,70.3,55.0,58.12,40.0,4.0,30.21,10.0,70.3
2021-06-15 15:00:00,72.5,53.6,51.44,20.0,8.0,30.2,10.0,72.5
2021-06-15 16:00:00,73.6,53.8,49.93,10.0,6.0,30.21,10.0,73.6
2021-06-15 17:00:00,75.6,52.7,44.85,30.0,3.0,30.2,10.0,75.6
2021-06-15 18:00:00,75.7,52.0,43.56,10.0,6.0,30.19,10.0,75.7
2021-06-15 19:00:00,77.7,49.6,37.3,50.0,7.0,30.17,10.0,77.7
2021-06-15 20:00:00,76.3,51.0,41.31,40.0,6.0,30.16,10.0,76.3
2021-06-15 21:00:00,77.7,51.0,39.14,50.0,8.0,30.16,10.0,77.7
2021-06-15 22:00:00,77.0,51.3,40.66,20.0,10.0,30.16,10.0,77.0
2021-06-15 23:00:00,75.6,50.4,41.2,20.0,10.0,30.16,10.0,75.6
2021-06-16 00:00:00,72.7,48.4,42.14,20.0,8.0,30.16,10.0,72.7
2021-06-16 01:00:00,67.5,49.3,52.05,20.0,3.0,30.17,10.0,67.5
2021-06-16 02:00:00,62.6,53.6,72.38,0.0,0.0,30.18,10.0,62.6
2021-06-16 03:00:00,61.5,50.2,66.38,360.0,3.0,30.18,10.0,61.5
2021-06-16 04:00:00,60.0,49.5,68.45,30.0,4.0,30.17,10.0,59.9
2021-06-16 05:00:00,55.8,50.4,82.02,0.0,0.0,30.17,10.0,55.8
2021-06-16 06:00:00,54.7,51.0,87.61,0.0,0.0,30.16,10.0,54.7
2021-06-16 07:00:00,52.7,51.0,93.57,0.0,0.0,30.17,10.0,52.7
2021-06-16 08:00:00,52.5,49.0,88.16,0.0,0.0,30.16,10.0,52.5
2021-06-16 09:00:00,53.0,48.0,82.76,0.0,0.0,30.16,10.0,53.1
2021-06-16 10:00:00,54.7,46.6,74.05,100.0,3.0,30.17,10.0,54.7
2021-06-16 11:00:00,58.8,48.0,67.31,90.0,5.0,30.17,10.0,58.8
2021-06-16 12:00:00,62.0,48.2,60.74,130.0,9.0,30.17,10.0,61.9
2021-06-16 13:00:00,65.0,50.0,58.47,140.0,8.0,30.16,10.0,64.9
2021-06-16 14:00:00,68.0,51.4,55.31,130.0,6.0,30.15,10.0,68.0
2021-06-16 15:00:00,72.0,53.0,51.37,100.0,6.0,30.14,10.0,72.0
2021-06-16 16:00:00,75.0,54.0,47.99,120.0,7.0,30.13,10.0,75.0
2021-06-16 17:00:00,76.8,55.4,47.57,140.0,6.0,30.11,10.0,76.8
2021-06-16 18:00:00,78.8,56.0,45.34,160.0,6.0,30.09,10.0,78.8
2021-06-16 19:00:00,79.2,55.8,44.58,160.0,4.0,30.07,10.0,79.2
2021-06-16 20:00:00,81.0,55.6,41.73,180.0,7.0,30.04,10.0,80.82
2021-06-16 21:00:00,81.7,55.2,40.2,150.0,9.0,30.02,10.0,81.23
2021-06-16 22:00:00,82.0,56.5,41.87,200.0,6.0,30.0,10.0,81.59
2021-06-16 23:00:00,80.2,56.0,43.3,170.0,7.0,29.99,10.0,80.35
2021-06-17 00:00:00,77.5,57.2,49.6,180.0,5.0,29.98,10.0,77.5
2021-06-17 01:00:00,75.2,57.2,53.55,140.0,6.0,29.96,10.0,75.2
2021-06-17 02:00:00,71.0,57.2,61.48,0.0,0.0,29.98,10.0,71.1
2021-06-17 03:00:00,70.7,56.3,60.33,120.0,4.0,29.98,10.0,70.7
2021-06-17 04:00:00,69.0,56.3,64.15,110.0,3.0,29.97,10.0,68.9
2021-06-17 05:00:00,68.4,56.8,66.45,120.0,4.0,29.95,10.0,68.4
2021-06-17 06:00:00,70.0,56.0,61.34,130.0,7.0,29.93,10.0,70.0
2021-06-17 07:00:00,66.4,56.0,68.92,180.0,4.0,29.91,10.0,66.4
2021-06-17 08:00:00,67.0,55.8,67.49,120.0,5.0,29.9,10.0,66.9
2021-06-17 09:00:00,67.8,55.4,64.49,140.0,5.0,29.88,10.0,67.8
2021-06-17 10:00:00,67.0,55.6,66.54,130.0,3.0,29.87,10.0,67.1
2021-06-17 11:00:00,69.0,56.5,64.62,140.0,4.0,29.87,10.0,68.9
2021-06-17 12:00:00,72.0,58.3,62.03,150.0,4.0,29.87,10.0,72.0
2021-06-17 13:00:00,75.0,58.3,56.08,180.0,8.0,29.87,10.0,75.0
2021-06-17 14:00:00,77.0,60.0,55.95,200.0,4.0,29.87,10.0,77.0
2021-06-17 15:00:00,80.0,61.5,53.44,180.0,6.0,29.83,10.0,79.9
2021-06-17 16:00:00,82.2,63.7,53.58,220.0,8.0,29.84,10.0,83.56
2021-06-17 17:00:00,84.2,64.4,51.47,240.0,7.0,29.84,10.0,85.71
2021-06-17 18:00:00,83.5,64.4,52.64,280.0,5.0,29.8,10.0,85.04
2021-06-17 19:00:00,83.0,65.8,56.36,290.0,5.0,29.8,10.0,84.99
2021-06-17 20:00:00,82.4,66.2,58.08,260.0,3.0,29.8,10.0,84.63
2021-06-17 21:00:00,82.8,67.5,59.97,270.0,5.0,29.78,10.0,85.6
2021-06-17 22:00:00,81.0,67.5,63.58,0.0,0.0,29.79,10.0,83.59
2021-06-17 23:00:00,80.8,67.0,63.12,320.0,5.0,29.78,10.0,83.24
2021-06-18 00:00:00,78.8,63.0,58.42,320.0,6.0,29.77,10.0,78.8
2021-06-18 01:00:00,75.0,56.7,52.94,350.0,4.0,29.76,10.0,75.0
2021-06-18 02:00:00,71.8,59.2,64.5,300.0,3.0,29.78,10.0,71.8
2021-06-18 03:00:00,69.8,58.3,66.85,0.0,0.0,29.78,10.0,69.8
2021-06-18 04:00:00,65.0,59.0,80.62,0.0,0.0,29.78,10.0,65.1
2021-06-18 05:00:00,61.5,59.0,91.49,0.0,0.0,29.77,10.0,61.5
2021-06-18 06:00:00,60.0,58.6,94.78,0.0,0.0,29.77,10.0,60.1
2021-06-18 07:00:00,60.3,58.5,93.77,0.0,0.0,29.77,10.0,60.3
2021-06-18 08:00:00,59.0,57.4,94.42,0.0,0.0,29.79,10.0,59.0
2021-06-18 09:00:00,60.4,57.2,89.17,0.0,0.0,29.79,10.0,60.4
2021-06-18 10:00:00,59.4,57.7,94.09,0.0,0.0,29.8,10.0,59.4
2021-06-18 11:00:00,63.5,55.4,74.89,0.0,0.0,29.82,10.0,63.5
2021-06-18 12:00:00,68.0,54.0,61.08,300.0,4.0,29.84,10.0,68.0
2021-06-18 13:00:00,73.2,52.5,48.25,310.0,3.0,29.85,10.0,73.2
2021-06-18 14:00:00,76.8,47.0,34.99,320.0,7.0,29.85,10.0,76.8
2021-06-18 15:00:00,79.0,41.2,25.98,320.0,5.0,29.84,10.0,79.0
2021-06-18 16:00:00,81.0,39.2,22.44,290.0,7.0,29.83,10.0,79.4
2021-06-18 17:00:00,82.4,39.6,21.85,290.0,10.0,29.82,10.0,80.22
2021-06-18 18:00:00,84.0,40.0,20.99,280.0,11.0,29.81,10.0,81.33
2021-06-18 19:00:00,85.0,38.3,19.16,290.0,12.0,29.81,10.0,81.92
2021-06-18 20:00:00,85.6,39.2,19.4,310.0,9.0,29.8,10.0,82.48
2021-06-18 21:00:00,85.3,40.6,20.68,290.0,13.0,29.79,10.0,82.31
2021-06-18 22:00:00,85.0,41.4,21.47,290.0,10.0,29.79,10.0,82.19
2021-06-18 23:00:00,84.0,40.5,21.48,280.0,10.0,29.78,10.0,81.35
2021-06-19 00:00:00,81.3,44.0,26.73,270.0,4.0,29.78,10.0,79.78
2021-06-19 01:00:00,71.0,48.0,43.83,0.0,0.0,29.77,10.0,71.1
2021-06-19 02:00:00,67.0,53.6,62.29,0.0,0.0,29.77,10.0,66.9
2021-06-19 03:00:00,74.3,46.0,36.35,300.0,10.0,29.79,10.0,74.3
2021-06-19 04:00:00,73.0,46.0,38.1,350.0,17.0,29.79,10.0,72.9
2021-06-19 05:00:00,66.2,52.7,61.75,340.0,7.0,29.81,10.0,66.2
2021-06-19 06:00:00,60.6,57.0,87.91,0.0,0.0,29.77,10.0,60.6
2021-06-19 07:00:00,59.2,57.4,93.75,260.0,4.0,29.79,10.0,59.2
2021-06-19 08:00:00,58.0,56.0,92.37,330.0,3.0,29.81,10.0,58.1
2021-06-19 09:00:00,56.5,55.4,96.09,0.0,0.0,29.82,10.0,56.5
2021-06-19 10:00:00,55.6,55.0,97.84,0.0,0.0,29.85,10.0,55.6
2021-06-19 11:00:00,58.0,56.0,93.04,320.0,4.0,29.86,10.0,58.1
2021-06-19 12:00:00,62.0,56.3,81.85,350.0,7.0,29.86,10.0,61.9
2021-06-19 13:00:00,64.6,54.7,70.24,360.0,5.0,29.87,10.0,64.6
2021-06-19 14:00:00,67.0,53.2,60.96,340.0,5.0,29.87,7.0,67.1
2021-06-19 15:00:00,69.0,53.8,58.17,340.0,6.0,29.85,7.0,69.1
2021-06-19 16:00:00,70.7,52.7,52.9,340.0,6.0,29.84,7.0,70.7
2021-06-19 17:00:00,71.0,51.8,50.49,0.0,0.0,29.84,7.0,71.1
2021-06-19 18:00:00,72.0,51.3,47.91,280.0,4.0,29.83,7.0,72.1
2021-06-19 19:00:00,74.3,52.3,46.16,300.0,5.0,29.83,10.0,74.3
2021-06-19 20:00:00,75.0,53.0,46.1,260.0,5.0,29.81,10.0,75.0
2021-06-19 21:00:00,74.0,50.0,42.68,340.0,4.0,29.8,10.0,74.1
2021-06-19 22:00:00,74.5,50.2,42.42,280.0,8.0,29.79,10.0,74.5
2021-06-19 23:00:00,74.3,50.5,43.19,300.0,5.0,29.79,10.0,74.3
2021-06-20 00:00:00,72.5,50.0,45.04,280.0,4.0,29.79,7.0,72.5
2021-06-20 01:00:00,67.3,49.8,53.4,290.0,3.0,29.8,7.0,67.3
2021-06-20 02:00:00,64.0,51.0,62.39,340.0,3.0,29.81,7.0,64.0
2021-06-20 03:00:00,61.0,53.0,75.2,0.0,0.0,29.81,7.0,61.0
2021-06-20 04:00:00,57.2,53.8,88.38,0.0,0.0,29.81,10.0,57.2
2021-06-20 05:00:00,56.7,53.6,89.34,0.0,0.0,29.79,10.0,56.7
2021-06-20 06:00:00,55.4,54.0,95.03,0.0,0.0,29.78,7.0,55.4
2021-06-20 07:00:00,54.7,53.0,94.32,0.0,0.0,29.79,5.0,54.7
2021-06-20 08:00:00,58.3,53.6,84.34,100.0,4.0,29.75,7.0,58.3
2021-06-20 09:00:00,57.2,53.0,85.52,0.0,0.0,29.74,7.0,57.2
2021-06-20 10:00:00,57.2,54.0,89.03,160.0,4.0,29.74,7.0,57.2
2021-06-20 11:00:00,58.8,53.4,82.23,0.0,0.0,29.75,7.0,58.8
2021-06-20 12:00:00,60.8,54.0,78.56,0.0,0.0,29.76,7.0,60.8
2021-06-20 13:00:00,60.6,56.3,85.71,120.0,5.0,29.76,10.0,60.6
2021-06-20 14:00:00,62.0,57.4,85.17,50.0,3.0,29.72,7.0,61.9
2021-06-20 15:00:00,63.0,57.7,82.82,60.0,4.0,29.7,10.0,63.0
2021-06-20 16:00:00,63.5,59.0,85.26,120.0,6.0,29.68,10.0,63.5
2021-06-20 17:00:00,65.5,58.8,78.94,150.0,12.0,29.64,7.0,65.5
2021-06-20 18:00:00,67.5,59.0,74.19,140.0,8.0,29.61,7.0,67.5
2021-06-20 19:00:00,67.3,58.0,72.33,140.0,8.0,29.57,7.0,67.3
2021-06-20 20:00:00,64.0,63.3,97.58,110.0,6.0,29.54,7.0,64.0
2021-06-20 21:00:00,62.6,61.7,96.87,350.0,7.0,29.54,0.75,62.6
2021-06-20 22:00:00,61.3,60.8,98.24,340.0,5.0,29.53,7.0,61.3
2021-06-20 23:00:00,60.0,58.6,94.78,30.0,12.0,29.52,10.0,60.1
2021-06-21 00:00:00,60.0,58.3,93.77,10.0,7.0,29.54,7.0,60.1
2021-06-21 01:00:00,58.0,56.7,95.08,350.0,11.0,29.58,5.0,58.1
2021-06-21 02:00:00,57.6,56.5,96.11,340.0,6.0,29.62,7.0,57.6
2021-06-21 03:00:00,57.6,56.8,97.16,320.0,3.0,29.64,10.0,57.6
2021-06-21 04:00:00,57.2,55.8,95.06,330.0,7.0,29.64,10.0,57.2
2021-06-21 05:00:00,57.4,55.8,94.38,300.0,8.0,29.64,5.0,57.4
2021-06-21 06:00:00,57.4,54.5,90.02,330.0,8.0,29.67,5.0,57.4
2021-06-21 07:00:00,54.5,49.0,81.32,350.0,13.0,29.7,7.0,54.5
2021-06-21 08:00:00,53.0,47.7,81.83,320.0,5.0,29.72,7.0,53.1
2021-06-21 09:00:00,50.2,45.5,83.82,320.0,7.0,29.75,5.0,50.2
2021-06-21 10:00:00,49.0,44.4,84.38,300.0,7.0,29.79,7.0,45.38
2021-06-21 11:00:00,49.8,43.5,78.83,300.0,10.0,29.82,7.0,45.29
2021-06-21 12:00:00,50.7,43.3,75.66,330.0,9.0,29.84,7.0,50.7
2021-06-21 13:00:00,52.5,41.4,65.8,340.0,12.0,29.87,7.0,52.5
2021-06-21 14:00:00,54.3,40.0,58.12,330.0,12.0,29.88,7.0,54.3
2021-06-21 15:00:00,56.7,40.8,55.16,340.0,11.0,29.91,7.0,56.7
2021-06-21 16:00:00,57.4,41.0,54.21,310.0,7.0,29.91,7.0,57.4
2021-06-21 17:00:00,59.0,40.3,49.81,340.0,8.0,29.91,7.0,59.0
2021-06-21 18:00:00,60.0,43.2,53.56,340.0,10.0,29.9,7.0,60.1
2021-06-21 19:00:00,60.3,43.7,54.21,340.0,9.0,29.91,7.0,60.3
2021-06-21 20:00:00,62.0,40.0,44.24,290.0,11.0,29.91,7.0,61.9
2021-06-21 21:00:00,62.8,42.4,47.21,290.0,11.0,29.91,7.0,62.8
2021-06-21 22:00:00,60.0,40.6,48.45,290.0,9.0,29.92,7.0,60.1
2021-06-21 23:00:00,61.2,41.2,47.69,290.0,10.0,29.91,7.0,61.2
2021-06-22 00:00:00,58.3,40.5,51.47,310.0,3.0,29.92,10.0,58.3
2021-06-22 01:00:00,56.0,44.6,65.23,0.0,0.0,29.92,7.0,56.1
2021-06-22 02:00:00,51.0,47.5,87.43,0.0,0.0,29.93,7.0,51.1
2021-06-22 03:00:00,49.8,46.8,89.37,0.0,0.0,29.94,7.0,49.8
2021-06-22 04:00:00,50.4,47.8,90.75,0.0,0.0,29.94,7.0,50.4
2021-06-22 05:00:00,51.0,46.0,83.23,0.0,0.0,29.94,5.0,50.9
2021-06-22 06:00:00,50.4,46.8,87.39,0.0,0.0,29.93,7.0,50.4
2021-06-22 07:00:00,50.2,46.2,86.07,0.0,0.0,29.92,7.0,50.2
2021-06-22 08:00:00,50.2,47.0,88.38,0.0,0.0,29.92,7.0,50.2
2021-06-22 09:00:00,49.6,45.7,86.37,0.0,0.0,29.93,7.0,49.6
2021-06-22 10:00:00,48.4,44.6,86.63,250.0,4.0,29.94,7.0,46.57
2021-06-22 11:00:00,51.3,45.5,80.47,270.0,3.0,29.95,7.0,51.3
2021-06-22 12:00:00,55.2,44.8,67.92,260.0,6.0,29.96,10.0,55.2
2021-06-22 13:00:00,59.0,44.8,59.22,260.0,6.0,29.96,10.0,59.0
2021-06-22 14:00:00,62.0,40.3,44.93,280.0,8.0,29.96,7.0,61.9
2021-06-22 15:00:00,63.3,40.0,42.44,250.0,8.0,29.95,10.0,63.3
2021-06-22 16:00:00,65.3,39.0,37.91,0.0,0.0,29.94,10.0,65.3
2021-06-22 17:00:00,66.4,39.2,36.78,270.0,5.0,29.94,10.0,66.4
2021-06-22 18:00:00,68.0,38.3,33.6,230.0,8.0,29.92,10.0,68.0
2021-06-22 19:00:00,69.0,39.7,34.17,190.0,4.0,29.91,10.0,69.1
2021-06-22 20:00:00,67.5,38.3,34.18,150.0,3.0,29.91,10.0,67.5
2021-06-22 21:00:00,70.0,38.0,30.88,170.0,3.0,29.91,10.0,70.0
2021-06-22 22:00:00,70.7,40.0,32.86,230.0,5.0,29.89,10.0,70.7
2021-06-22 23:00:00,69.8,38.3,31.58,170.0,4.0,29.88,10.0,69.8
2021-06-23 00:00:00,68.4,40.0,35.27,160.0,5.0,29.89,7.0,68.4
2021-06-23 01:00:00,64.2,43.2,46.35,140.0,4.0,29.89,10.0,64.2
2021-06-23 02:00:00,59.0,45.5,60.81,140.0,4.0,29.91,10.0,59.0
2021-06-23 03:00:00,58.0,43.7,59.07,130.0,4.0,29.92,7.0,57.9
2021-06-23 04:00:00,56.5,43.3,61.18,130.0,4.0,29.92,7.0,56.5
2021-06-23 05:00:00,54.5,44.4,68.62,130.0,4.0,29.92,10.0,54.5
2021-06-23 06:00:00,54.7,43.7,66.32,130.0,4.0,29.9,7.0,54.7
2021-06-23 07:00:00,53.6,44.6,71.45,110.0,3.0,29.89,10.0,53.6
2021-06-23 08:00:00,53.0,44.0,71.38,110.0,4.0,29.88,10.0,52.9
2021-06-23 09:00:00,51.0,44.0,76.84,100.0,3.0,29.87,10.0,50.9
2021-06-23 10:00:00,49.5,46.4,89.02,0.0,0.0,29.88,10.0,49.5
2021-06-23 11:00:00,54.3,46.6,75.14,130.0,6.0,29.88,10.0,54.3
2021-06-23 12:00:00,54.3,46.6,75.14,130.0,6.0,29.88,10.0,54.3
2021-06-23 13:00:00,63.0,54.7,74.3,170.0,6.0,29.88,10.0,63.0
2021-06-23 14:00:00,67.3,57.7,71.3,140.0,6.0,29.86,10.0,67.3
2021-06-23 15:00:00,69.6,59.7,70.77,170.0,8.0,29.86,10.0,69.6
2021-06-23 16:00:00,70.3,61.3,73.14,140.0,6.0,29.86,10.0,70.3
2021-06-23 17:00:00,73.6,61.5,65.87,140.0,8.0,29.85,10.0,73.6
2021-06-23 18:00:00,73.6,61.7,66.34,170.0,11.0,29.83,10.0,73.6
2021-06-23 19:00:00,75.4,62.2,63.57,130.0,9.0,29.83,10.0,75.4
2021-06-23 20:00:00,75.6,62.0,62.93,180.0,10.0,29.82,10.0,75.6
2021-06-23 21:00:00,75.7,62.0,62.28,160.0,9.0,29.81,10.0,75.7
2021-06-23 22:00:00,78.0,63.3,60.42,190.0,11.0,29.79,10.0,78.1
2021-06-23 23:00:00,78.8,64.6,61.79,160.0,9.0,29.78,10.0,78.8
2021-06-24 00:00:00,77.4,64.4,64.26,140.0,9.0,29.76,10.0,77.4
2021-06-24 01:00:00,74.8,64.6,70.56,150.0,7.0,29.77,10.0,74.8
2021-06-24 02:00:00,72.5,64.4,75.7,140.0,7.0,29.77,10.0,72.5
2021-06-24 03:00:00,71.4,64.6,79.13,150.0,9.0,29.78,10.0,71.4
2021-06-24 04:00:00,70.2,65.0,83.87,140.0,7.0,29.77,10.0,70.2
2021-06-24 05:00:00,70.2,65.5,85.05,140.0,8.0,29.76,10.0,70.2
2021-06-24 06:00:00,69.8,66.2,88.34,140.0,6.0,29.72,10.0,69.8
2021-06-24 07:00:00,70.5,67.0,88.38,140.0,5.0,29.71,10.0,70.5
2021-06-24 08:00:00,71.2,67.6,88.41,150.0,5.0,29.71,10.0,71.2
2021-06-24 09:00:00,70.5,68.7,94.03,20.0,4.0,29.76,5.0,70.5
2021-06-24 10:00:00,67.0,66.2,96.93,140.0,6.0,29.72,10.0,67.1
2021-06-24 11:00:00,68.7,67.5,95.95,100.0,4.0,29.75,10.0,68.7
2021-06-24 12:00:00,69.8,68.2,94.66,130.0,7.0,29.75,10.0,69.8
2021-06-24 13:00:00,71.6,69.4,92.78,140.0,6.0,29.77,10.0,71.6
2021-06-24 14:00:00,74.0,70.5,89.14,160.0,4.0,29.78,10.0,73.9
2021-06-24 15:00:00,77.2,72.0,84.02,0.0,0.0,29.78,10.0,77.2
2021-06-24 16:00:00,78.4,72.5,82.13,230.0,3.0,29.79,7.0,78.4
2021-06-24 17:00:00,81.7,73.0,74.72,240.0,4.0,29.78,10.0,86.87
2021-06-24 18:00:00,81.0,73.6,78.01,340.0,8.0,29.79,10.0,86.27
2021-06-24 19:00:00,76.3,70.7,82.83,340.0,10.0,29.81,10.0,76.3
2021-06-24 20:00:00,75.7,69.4,80.83,350.0,9.0,29.81,10.0,75.7
2021-06-24 21:00:00,75.2,69.0,80.8,350.0,7.0,29.83,10.0,75.2
2021-06-24 22:00:00,76.0,68.0,76.53,360.0,8.0,29.83,10.0,75.9
2021-06-24 23:00:00,75.2,68.2,78.88,40.0,6.0,29.85,10.0,75.2
2021-06-25 00:00:00,75.0,66.7,75.4,40.0,5.0,29.86,10.0,75.0
2021-06-25 01:00:00,71.6,65.0,79.42,360.0,5.0,29.84,10.0,71.6
2021-06-25 02:00:00,67.8,64.6,89.49,10.0,3.0,29.87,10.0,67.8
2021-06-25 03:00:00,64.4,62.6,93.88,0.0,0.0,29.88,10.0,64.4
2021-06-25 04:00:00,62.6,61.7,96.87,0.0,0.0,29.91,10.0,62.6
2021-06-25 05:00:00,61.0,60.6,98.59,310.0,5.0,29.91,10.0,61.0
2021-06-25 06:00:00,58.6,58.3,98.93,0.0,0.0,29.91,10.0,58.6
2021-06-25 07:00:00,59.0,58.3,97.52,0.0,0.0,29.91,10.0,59.0
2021-06-25 08:00:00,58.8,58.0,97.52,350.0,4.0,29.9,10.0,58.8
2021-06-25 09:00:00,58.0,57.0,96.12,0.0,0.0,29.9,10.0,58.1
2021-06-25 10:00:00,57.7,56.3,95.07,360.0,3.0,29.9,10.0,57.7
2021-06-25 11:00:00,60.8,57.7,89.51,10.0,7.0,29.91,10.0,60.8
2021-06-25 12:00:00,65.0,59.0,81.19,360.0,4.0,29.92,10.0,64.9
2021-06-25 13:00:00,69.8,59.0,68.55,30.0,4.0,29.93,10.0,69.8
2021-06-25 14:00:00,74.0,57.0,55.15,30.0,7.0,29.92,10.0,74.1
2021-06-25 15:00:00,76.6,56.5,49.83,50.0,6.0,29.93,10.0,76.6
2021-06-25 16:00:00,78.3,54.7,44.12,50.0,9.0,29.91,10.0,78.3
2021-06-25 17:00:00,79.5,57.2,46.44,30.0,7.0,29.91,10.0,79.5
2021-06-25 18:00:00,80.4,55.6,42.55,30.0,9.0,29.88,10.0,80.44
2021-06-25 19:00:00,81.5,55.6,41.05,10.0,9.0,29.88,10.0,81.16
2021-06-25 20:00:00,80.8,54.0,39.77,50.0,6.0,29.87,10.0,80.48
2021-06-25 21:00:00,82.0,55.0,39.51,40.0,7.0,29.86,10.0,81.31
2021-06-25 22:00:00,82.0,55.0,39.52,70.0,7.0,29.86,10.0,81.4
2021-06-25 23:00:00,80.4,56.0,43.33,60.0,5.0,29.86,10.0,80.51
2021-06-26 00:00:00,77.7,58.0,50.9,100.0,4.0,29.87,10.0,77.7
2021-06-26 01:00:00,73.8,60.3,62.7,10.0,4.0,29.87,10.0,73.8
2021-06-26 02:00:00,71.6,58.0,62.43,20.0,6.0,29.87,10.0,71.6
2021-06-26 03:00:00,68.4,59.2,72.44,20.0,4.0,29.87,10.0,68.4
2021-06-26 04:00:00,67.6,57.6,70.31,20.0,4.0,29.86,10.0,67.6
2021-06-26 05:00:00,64.4,58.3,80.57,20.0,4.0,29.86,7.0,64.4
2021-06-26 06:00:00,62.4,59.0,88.63,0.0,0.0,29.85,10.0,62.4
2021-06-26 07:00:00,63.0,58.3,84.33,0.0,0.0,29.85,10.0,63.1
2021-06-26 08:00:00,62.6,60.0,91.53,0.0,0.0,29.84,10.0,62.6
2021-06-26 09:00:00,62.0,60.0,93.16,0.0,0.0,29.82,10.0,62.1
2021-06-26 10:00:00,64.6,63.0,94.88,0.0,0.0,29.82,10.0,64.6
2021-06-26 11:00:00,67.0,65.3,93.95,70.0,3.0,29.81,10.0,67.1
2021-06-26 12:00:00,68.5,65.3,89.52,60.0,6.0,29.81,10.0,68.5
2021-06-26 13:00:00,69.6,65.5,86.81,50.0,5.0,29.81,10.0,69.6
2021-06-26 14:00:00,69.8,65.0,84.44,80.0,6.0,29.81,10.0,69.8
2021-06-26 15:00:00,70.5,65.3,83.6,50.0,5.0,29.8,10.0,70.5
2021-06-26 16:00:00,71.6,65.5,81.1,60.0,6.0,29.79,10.0,71.6
2021-06-26 17:00:00,71.8,65.8,81.39,50.0,5.0,29.79,10.0,71.8
2021-06-26 18:00:00,72.0,64.0,75.67,60.0,8.0,29.79,10.0,72.1
2021-06-26 19:00:00,72.0,65.0,78.9,40.0,5.0,29.78,10.0,72.0
2021-06-26 20:00:00,71.6,65.5,81.1,40.0,5.0,29.78,10.0,71.6
2021-06-26 21:00:00,70.7,66.6,86.87,20.0,4.0,29.79,10.0,70.7
2021-06-26 22:00:00,68.4,65.7,91.09,90.0,5.0,29.79,10.0,68.4
2021-06-26 23:00:00,66.2,64.6,94.58,80.0,4.0,29.79,10.0,66.2
2021-06-27 00:00:00,65.5,63.0,91.63,70.0,6.0,29.8,10.0,65.5
2021-06-27 01:00:00,64.6,62.6,93.23,360.0,3.0,29.81,10.0,64.6
2021-06-27 02:00:00,64.4,63.0,95.21,10.0,5.0,29.82,10.0,64.4
2021-06-27 03:00:00,63.7,62.6,96.21,360.0,4.0,29.82,10.0,63.7
2021-06-27 04:00:00,64.0,63.0,97.23,330.0,4.0,29.83,10.0,63.9
2021-06-27 05:00:00,64.0,63.0,96.89,340.0,3.0,29.84,10.0,63.9
2021-06-27 06:00:00,63.5,62.0,95.19,0.0,0.0,29.84,10.0,63.5
2021-06-27 07:00:00,62.6,61.7,96.87,330.0,3.0,29.84,10.0,62.6
2021-06-27 08:00:00,62.0,60.3,94.49,310.0,4.0,29.84,10.0,61.9
2021-06-27 09:00:00,61.7,60.0,94.48,340.0,3.0,29.85,10.0,61.7
2021-06-27 10:00:00,61.5,59.5,93.14,0.0,0.0,29.86,10.0,61.5
2021-06-27 11:00:00,61.0,59.0,93.12,0.0,0.0,29.89,10.0,61.0
2021-06-27 12:00:00,61.7,59.4,92.15,300.0,3.0,29.91,10.0,61.7
2021-06-27 13:00:00,62.8,59.5,88.96,0.0,0.0,29.93,10.0,62.8
2021-06-27 14:00:00,63.7,60.0,87.43,0.0,0.0,29.96,10.0,63.7
2021-06-27 15:00:00,65.8,60.4,82.71,330.0,3.0,29.98,10.0,65.8
2021-06-27 16:00:00,67.8,61.2,79.4,350.0,3.0,29.98,10.0,67.8
2021-06-27 17:00:00,70.5,59.4,67.9,10.0,4.0,29.98,10.0,70.5
2021-06-27 18:00:00,73.0,60.0,63.51,0.0,0.0,29.97,10.0,73.0
2021-06-27 19:00:00,75.0,58.0,55.28,230.0,6.0,29.96,10.0,75.0
2021-06-27 20:00:00,75.7,59.7,57.6,210.0,5.0,29.97,10.0,75.7
2021-06-27 21:00:00,76.6,60.3,57.11,200.0,4.0,29.97,10.0,76.6
2021-06-27 22:00:00,77.0,59.7,55.16,140.0,4.0,29.97,7.0,77.0
2021-06-27 23:00:00,75.2,60.4,60.04,190.0,3.0,29.99,10.0,75.2
2021-06-28 00:00:00,74.0,60.4,62.72,140.0,4.0,29.99,10.0,73.9
2021-06-28 01:00:00,70.0,63.0,78.46,0.0,0.0,29.99,10.0,70.0
2021-06-28 02:00:00,67.8,62.6,83.43,200.0,4.0,30.01,10.0,67.8
2021-06-28 03:00:00,66.7,63.0,87.89,0.0,0.0,30.03,10.0,66.7
2021-06-28 04:00:00,66.2,63.0,89.43,0.0,0.0,30.03,10.0,66.2
2021-06-28 05:00:00,63.5,62.0,94.52,0.0,0.0,30.02,10.0,63.5
2021-06-28 06:00:00,61.5,61.0,98.24,0.0,0.0,30.03,10.0,61.5
2021-06-28 07:00:00,60.4,60.0,98.94,0.0,0.0,30.05,7.0,60.4
2021-06-28 08:00:00,59.5,59.4,99.64,360.0,3.0,30.05,7.0,59.5
2021-06-28 09:00:00,59.0,59.0,100.0,0.0,0.0,30.06,5.0,59.0
2021-06-28 10:00:00,58.8,58.8,100.0,0.0,0.0,30.07,5.0,58.8
2021-06-28 11:00:00,62.0,61.5,97.9,0.0,0.0,30.07,10.0,62.1
2021-06-28 12:00:00,67.0,64.4,91.04,150.0,5.0,30.09,10.0,67.1
2021-06-28 13:00:00,70.5,65.3,83.6,150.0,3.0,30.09,10.0,70.5
2021-06-28 14:00:00,74.0,66.4,76.9,0.0,0.0,30.09,10.0,74.1
2021-06-28 15:00:00,77.2,66.0,68.4,160.0,4.0,30.09,10.0,77.2
2021-06-28 16:00:00,77.4,65.3,66.31,170.0,6.0,30.09,10.0,77.4
2021-06-28 17:00:00,80.2,64.8,59.43,150.0,4.0,30.08,10.0,81.99
2021-06-28 18:00:00,80.6,63.7,56.44,220.0,5.0,30.06,10.0,82.1
2021-06-28 19:00:00,80.4,64.2,57.82,240.0,7.0,30.07,10.0,82.03
2021-06-28 20:00:00,69.8,66.6,89.58,350.0,7.0,30.09,10.0,69.8
2021-06-28 21:00:00,68.0,63.5,85.52,340.0,3.0,30.08,4.0,68.0
2021-06-28 22:00:00,69.0,66.4,91.74,120.0,3.0,30.09,10.0,68.9
2021-06-28 23:00:00,69.4,66.2,89.56,110.0,3.0,30.09,10.0,69.4
2021-06-29 00:00:00,69.0,65.3,88.3,140.0,3.0,30.1,10.0,68.9
2021-06-29 01:00:00,67.8,65.5,92.35,0.0,0.0,30.1,10.0,67.8
2021-06-29 02:00:00,66.4,65.3,96.25,140.0,3.0,30.11,10.0,66.4
2021-06-29 03:00:00,65.8,65.0,97.59,0.0,0.0,30.12,10.0,65.8
2021-06-29 04:00:00,65.7,65.0,97.93,0.0,0.0,30.12,10.0,65.7
2021-06-29 05:00:00,65.7,65.3,98.62,150.0,3.0,30.12,10.0,65.7
2021-06-29 06:00:00,65.5,65.0,97.93,0.0,0.0,30.11,10.0,65.5
2021-06-29 07:00:00,65.3,65.0,99.31,0.0,0.0,30.12,7.0,65.3
2021-06-29 08:00:00,65.0,65.0,100.0,0.0,0.0,30.13,4.0,64.9
2021-06-29 09:00:00,65.0,65.0,100.0,0.0,0.0,30.12,4.0,65.1
2021-06-29 10:00:00,65.0,65.0,100.0,0.0,0.0,30.11,3.0,64.9
2021-06-29 11:00:00,65.0,65.0,99.31,0.0,0.0,30.12,3.0,65.1
2021-06-29 12:00:00,67.5,66.2,95.6,0.0,0.0,30.13,5.0,67.5
2021-06-29 13:00:00,69.4,65.8,88.32,0.0,0.0,30.14,10.0,69.4
2021-06-29 14:00:00,69.8,66.0,87.73,200.0,4.0,30.14,10.0,69.8
2021-06-29 15:00:00,70.2,66.7,88.67,260.0,4.0,30.14,10.0,70.2
2021-06-29 16:00:00,70.2,66.4,87.75,240.0,5.0,30.14,10.0,70.2
2021-06-29 17:00:00,70.3,66.7,88.37,0.0,0.0,30.12,10.0,70.3
2021-06-29 18:00:00,74.3,64.0,70.26,270.0,5.0,30.11,10.0,74.3
2021-06-29 19:00:00,78.0,64.0,61.7,240.0,7.0,30.1,10.0,78.1
2021-06-29 20:00:00,79.0,62.8,57.63,260.0,7.0,30.09,10.0,79.0
2021-06-29 21:00:00,75.4,62.6,64.47,340.0,5.0,30.09,10.0,75.4
2021-06-29 22:00:00,78.0,64.0,61.7,360.0,4.0,30.09,10.0,78.1
2021-06-29 23:00:00,78.0,63.5,61.25,310.0,4.0,30.09,10.0,77.9
2021-06-30 00:00:00,77.2,63.0,61.81,0.0,0.0,30.1,10.0,77.2
2021-06-30 01:00:00,71.8,65.0,78.88,350.0,3.0,30.09,10.0,71.8
2021-06-30 02:00:00,66.7,65.3,95.26,0.0,0.0,30.1,10.0,66.7
2021-06-30 03:00:00,66.0,64.2,93.92,0.0,0.0,30.11,10.0,66.0
2021-06-30 04:00:00,63.7,63.0,97.57,0.0,0.0,30.11,7.0,63.7
2021-06-30 05:00:00,62.8,62.6,99.3,0.0,0.0,30.11,7.0,62.8
2021-06-30 06:00:00,61.2,61.2,100.0,0.0,0.0,30.11,4.0,61.2
2021-06-30 07:00:00,60.6,60.6,100.0,0.0,0.0,30.11,4.0,60.6
2021-06-30 08:00:00,60.0,60.0,100.0,0.0,0.0,30.1,5.0,59.9
2021-06-30 09:00:00,59.0,59.0,100.0,0.0,0.0,30.11,2.0,59.0
2021-06-30 10:00:00,58.6,58.6,100.0,0.0,0.0,30.11,1.25,58.6
2021-06-30 11:00:00,61.5,61.5,100.0,0.0,0.0,30.11,4.0,61.5
2021-06-30 12:00:00,66.0,64.0,92.94,0.0,0.0,30.12,10.0,66.0
2021-06-30 13:00:00,72.7,64.0,73.89,0.0,0.0,30.12,10.0,72.7
2021-06-30 14:00:00,76.6,61.2,58.96,320.0,4.0,30.12,10.0,76.6
2021-06-30 15:00:00,77.5,59.5,53.87,320.0,4.0,30.12,10.0,77.5
2021-06-30 16:00:00,80.2,60.6,51.26,320.0,3.0,30.12,10.0,81.11
2021-06-30 17:00:00,80.8,57.7,45.31,330.0,3.0,30.12,10.0,81.03
2021-06-30 18:00:00,81.0,57.6,44.86,280.0,6.0,30.11,10.0,81.15
2021-06-30 19:00:00,82.2,57.6,43.14,270.0,6.0,30.09,10.0,82.01
2021-06-30 20:00:00,83.0,56.0,39.4,280.0,4.0,30.09,10.0,82.34
2021-06-30 21:00:00,82.8,56.7,40.96,330.0,5.0,30.08,10.0,82.28
2021-06-30 22:00:00,82.4,56.7,41.49,330.0,6.0,30.07,10.0,81.98
2021-06-30 23:00:00,81.7,58.6,45.45,320.0,3.0,30.07,10.0,81.84
2021-07-01 00:00:00,79.7,59.7,50.46,0.0,0.0,30.07,10.0,79.7
2021-07-01 01:00:00,73.4,62.2,67.98,0.0,0.0,30.07,10.0,73.4
2021-07-01 02:00:00,68.7,64.4,86.16,0.0,0.0,30.08,10.0,68.7
2021-07-01 03:00:00,65.5,63.0,91.95,0.0,0.0,30.09,10.0,65.5
2021-07-01 04:00:00,63.5,62.2,95.53,0.0,0.0,30.09,10.0,63.5
2021-07-01 05:00:00,61.7,61.2,98.25,0.0,0.0,30.09,10.0,61.7
2021-07-01 06:00:00,61.2,60.8,98.59,0.0,0.0,30.09,7.0,61.2
2021-07-01 07:00:00,59.7,59.4,98.94,0.0,0.0,30.09,10.0,59.7
2021-07-01 08:00:00,60.0,59.5,98.58,0.0,0.0,30.1,10.0,59.9
2021-07-01 09:00:00,58.0,57.4,98.22,0.0,0.0,30.1,10.0,57.9
2021-07-01 10:00:00,59.2,59.0,99.29,30.0,3.0,30.12,10.0,59.2
2021-07-01 11:00:00,61.7,59.0,90.84,0.0,0.0,30.13,10.0,61.7
2021-07-01 12:00:00,66.7,60.0,79.32,70.0,4.0,30.13,10.0,66.7
2021-07-01 13:00:00,70.2,60.6,71.59,80.0,5.0,30.14,10.0,70.2
2021-07-01 14:00:00,73.8,61.2,64.74,60.0,4.0,30.14,10.0,73.8
2021-07-01 15:00:00,76.3,60.8,58.71,110.0,4.0,30.14,10.0,76.3
2021-07-01 16:00:00,78.8,56.0,45.67,90.0,5.0,30.14,10.0,78.8
2021-07-01 17:00:00,79.5,56.8,45.77,40.0,3.0,30.14,10.0,79.5
2021-07-01 18:00:00,80.6,55.4,41.97,30.0,6.0,30.13,10.0,80.53
2021-07-01 19:00:00,80.6,57.2,44.8,50.0,7.0,30.12,10.0,80.81
2021-07-01 20:00:00,80.2,57.7,46.21,20.0,9.0,30.12,10.0,80.62
2021-07-01 21:00:00,80.0,56.7,45.01,20.0,10.0,30.12,10.0,79.9
2021-07-01 22:00:00,78.0,56.0,46.4,40.0,10.0,30.12,10.0,78.1
2021-07-01 23:00:00,76.0,54.7,47.46,20.0,12.0,30.13,10.0,76.1
2021-07-02 00:00:00,73.0,55.0,53.04,30.0,10.0,30.13,10.0,73.0
2021-07-02 01:00:00,67.0,49.5,53.54,30.0,7.0,30.14,10.0,66.9
2021-07-02 02:00:00,62.0,51.0,67.19,0.0,0.0,30.14,10.0,62.1
2021-07-02 03:00:00,58.0,52.5,82.17,0.0,0.0,30.14,10.0,57.9
2021-07-02 04:00:00,56.7,52.5,85.8,0.0,0.0,30.15,10.0,56.7
2021-07-02 05:00:00,55.2,48.2,77.22,10.0,3.0,30.17,10.0,55.2
2021-07-02 06:00:00,51.6,49.0,91.13,0.0,0.0,30.17,10.0,51.6
2021-07-02 07:00:00,51.6,49.0,91.13,0.0,0.0,30.17,10.0,51.6
2021-07-02 08:00:00,50.0,49.0,96.7,0.0,0.0,30.16,10.0,50.0
2021-07-02 09:00:00,48.2,47.5,97.41,0.0,0.0,30.18,10.0,48.2
2021-07-02 10:00:00,47.5,46.6,96.67,0.0,0.0,30.18,10.0,47.5
2021-07-02 11:00:00,51.3,49.0,91.46,0.0,0.0,30.2,10.0,51.3
2021-07-02 12:00:00,58.8,51.0,75.0,0.0,0.0,30.19,10.0,58.8
2021-07-02 13:00:00,63.0,53.8,71.64,0.0,0.0,30.19,10.0,63.1
2021-07-02 14:00:00,67.3,53.8,61.89,0.0,0.0,30.19,7.0,67.3
2021-07-02 15:00:00,72.7,49.0,42.94,160.0,4.0,30.19,10.0,72.7
2021-07-02 16:00:00,76.0,49.0,38.32,50.0,3.0,30.18,10.0,76.1
2021-07-02 17:00:00,77.2,51.0,40.09,0.0,0.0,30.16,10.0,77.2
2021-07-02 18:00:00,80.0,54.7,41.86,320.0,3.0,30.14,10.0,79.9
2021-07-02 19:00:00,79.5,55.0,42.88,0.0,0.0,30.13,10.0,79.5
2021-07-02 20:00:00,82.0,56.5,41.87,350.0,7.0,30.12,10.0,81.59
2021-07-02 21:00:00,81.7,56.3,41.84,0.0,0.0,30.1,10.0,81.41
2021-07-02 22:00:00,81.5,56.3,42.11,330.0,4.0,30.09,10.0,81.27
2021-07-02 23:00:00,80.0,56.3,44.08,340.0,3.0,30.09,10.0,80.35
2021-07-03 00:00:00,78.0,58.8,51.51,0.0,0.0,30.1,10.0,78.1
2021-07-03 01:00:00,71.0,61.3,71.66,0.0,0.0,30.08,10.0,70.9
2021-07-03 02:00:00,67.3,60.8,79.65,0.0,0.0,30.07,10.0,67.3
2021-07-03 03:00:00,64.8,61.7,89.68,0.0,0.0,30.06,10.0,64.8
2021-07-03 04:00:00,63.0,62.0,96.2,0.0,0.0,30.06,10.0,63.0
2021-07-03 05:00:00,61.7,60.0,93.81,0.0,0.0,30.07,10.0,61.7
2021-07-03 06:00:00,61.0,59.5,94.8,0.0,0.0,30.07,10.0,61.0
2021-07-03 07:00:00,60.6,59.4,95.82,0.0,0.0,30.07,10.0,60.6
2021-07-03 08:00:00,59.5,58.6,96.83,0.0,0.0,30.08,10.0,59.5
2021-07-03 09:00:00,58.8,58.0,97.52,0.0,0.0,30.08,10.0,58.8
2021-07-03 10:00:00,59.0,57.7,95.44,0.0,0.0,30.09,10.0,59.0
2021-07-03 11:00:00,59.0,57.7,95.44,0.0,0.0,30.09,10.0,59.0
2021-07-03 12:00:00,67.0,59.7,77.12,0.0,0.0,30.09,10.0,67.1
2021-07-03 13:00:00,72.7,60.6,65.77,0.0,0.0,30.09,10.0,72.7
2021-07-03 14:00:00,77.4,59.0,53.09,280.0,3.0,30.08,10.0,77.4
2021-07-03 15:00:00,80.0,58.5,48.03,250.0,8.0,30.07,10.0,79.9
2021-07-03 16:00:00,82.2,58.3,44.24,260.0,5.0,30.05,10.0,82.16
2021-07-03 17:00:00,84.2,59.4,43.13,270.0,7.0,30.03,10.0,84.02
2021-07-03 18:00:00,85.3,59.0,41.05,200.0,5.0,30.01,10.0,84.85
2021-07-03 19:00:00,86.2,58.0,38.62,220.0,6.0,30.0,10.0,85.39
2021-07-03 20:00:00,87.0,60.0,40.02,220.0,6.0,29.98,10.0,86.76
2021-07-03 21:00:00,86.0,60.0,41.74,190.0,7.0,29.97,10.0,85.81
2021-07-03 22:00:00,85.3,60.3,42.99,200.0,5.0,29.96,10.0,85.25
2021-07-03 23:00:00,83.3,61.5,47.85,210.0,4.0,29.96,10.0,83.86
2021-07-04 00:00:00,80.4,62.4,54.27,200.0,4.0,29.96,10.0,81.63
2021-07-04 01:00:00,75.4,63.7,67.02,180.0,3.0,29.94,10.0,75.4
2021-07-04 02:00:00,72.7,63.5,72.86,170.0,3.0,29.95,10.0,72.7
2021-07-04 03:00:00,69.4,63.5,81.51,150.0,3.0,29.94,10.0,69.4
2021-07-04 04:00:00,65.3,63.5,93.9,0.0,0.0,29.95,10.0,65.3
2021-07-04 05:00:00,65.0,63.3,94.55,0.0,0.0,29.95,7.0,64.9
2021-07-04 06:00:00,65.5,62.2,89.08,140.0,3.0,29.91,10.0,65.5
2021-07-04 07:00:00,64.6,61.3,89.04,0.0,0.0,29.92,10.0,64.6
2021-07-04 08:00:00,64.6,61.7,90.31,0.0,0.0,29.92,10.0,64.6
2021-07-04 09:00:00,68.7,62.6,80.89,210.0,3.0,29.91,10.0,68.7
2021-07-04 10:00:00,64.4,61.7,90.94,0.0,0.0,29.91,10.0,64.4
2021-07-04 11:00:00,68.7,63.7,84.08,0.0,0.0,29.9,10.0,68.7
2021-07-04 12:00:00,73.6,65.0,74.75,190.0,7.0,29.89,10.0,73.6
2021-07-04 13:00:00,77.7,66.2,67.74,200.0,11.0,29.89,10.0,77.7
2021-07-04 14:00:00,80.0,66.2,63.01,190.0,12.0,29.87,10.0,79.9
2021-07-04 15:00:00,82.6,66.7,58.71,210.0,11.0,29.87,10.0,85.04
2021-07-04 16:00:00,86.4,66.6,51.78,200.0,10.0,29.84,10.0,89.03
2021-07-04 17:00:00,88.0,63.7,44.48,200.0,18.0,29.82,10.0,89.19
2021-07-04 18:00:00,90.5,65.0,42.87,200.0,15.0,29.82,10.0,92.48
2021-07-04 19:00:00,91.2,64.0,40.64,190.0,14.0,29.81,10.0,92.74
2021-07-04 20:00:00,90.5,64.6,42.43,190.0,13.0,29.79,10.0,92.31
2021-07-04 21:00:00,91.2,66.0,43.58,210.0,13.0,29.79,10.0,93.93
2021-07-04 22:00:00,90.0,66.6,46.2,200.0,12.0,29.79,10.0,92.97
2021-07-04 23:00:00,88.3,67.0,49.6,200.0,9.0,29.79,10.0,91.4
2021-07-05 00:00:00,86.2,67.6,53.95,190.0,8.0,29.79,10.0,89.39
2021-07-05 01:00:00,83.3,67.0,58.2,190.0,10.0,29.78,10.0,85.97
2021-07-05 02:00:00,82.0,65.7,57.83,190.0,9.0,29.79,10.0,84.04
2021-07-05 03:00:00,81.0,65.5,59.33,200.0,8.0,29.79,10.0,82.96
2021-07-05 04:00:00,80.2,65.7,61.32,210.0,9.0,29.81,10.0,82.2
2021-07-05 05:00:00,78.8,65.7,64.2,210.0,6.0,29.8,10.0,78.8
2021-07-05 06:00:00,77.4,65.7,67.24,220.0,8.0,29.8,10.0,77.4
2021-07-05 07:00:00,75.4,66.2,73.12,220.0,5.0,29.8,10.0,75.4
2021-07-05 08:00:00,74.5,66.7,76.67,230.0,4.0,29.81,10.0,74.5
2021-07-05 09:00:00,73.8,67.0,79.59,220.0,9.0,29.82,10.0,73.8
2021-07-05 10:00:00,72.0,67.5,85.75,230.0,4.0,29.84,10.0,72.0
2021-07-05 11:00:00,73.8,68.5,83.52,250.0,5.0,29.86,10.0,73.8
2021-07-05 12:00:00,77.4,70.0,77.98,260.0,8.0,29.87,10.0,77.4
2021-07-05 13:00:00,80.6,71.0,72.87,270.0,6.0,29.88,10.0,84.38
2021-07-05 14:00:00,83.3,72.0,68.82,290.0,6.0,29.89,10.0,88.66
2021-07-05 15:00:00,86.0,71.6,62.25,260.0,6.0,29.89,10.0,91.92
2021-07-05 16:00:00,87.4,69.6,55.61,310.0,7.0,29.9,10.0,92.09
2021-07-05 17:00:00,88.2,67.3,50.1,290.0,6.0,29.91,10.0,91.42
2021-07-05 18:00:00,91.2,65.5,42.83,290.0,9.0,29.91,10.0,93.62
2021-07-05 19:00:00,92.0,62.6,37.62,300.0,7.0,29.91,10.0,92.99
2021-07-05 20:00:00,92.3,62.0,36.73,280.0,10.0,29.91,10.0,92.95
2021-07-05 21:00:00,91.6,64.2,40.42,320.0,8.0,29.92,7.0,93.29
2021-07-05 22:00:00,90.3,64.8,42.99,320.0,5.0,29.92,10.0,92.21
2021-07-05 23:00:00,88.7,64.6,44.9,300.0,8.0,29.93,10.0,90.38
2021-07-06 00:00:00,85.5,65.5,51.3,330.0,4.0,29.94,10.0,87.51
2021-07-06 01:00:00,79.0,68.7,70.75,0.0,0.0,29.95,10.0,79.0
2021-07-06 02:00:00,72.5,67.8,85.18,0.0,0.0,29.96,10.0,72.5
2021-07-06 03:00:00,71.2,68.0,89.63,0.0,0.0,29.98,10.0,71.2
2021-07-06 04:00:00,69.4,67.5,93.68,0.0,0.0,29.98,10.0,69.4
2021-07-06 05:00:00,68.0,65.5,91.71,0.0,0.0,29.98,10.0,68.0
2021-07-06 06:00:00,66.0,65.0,96.24,0.0,0.0,29.98,10.0,66.0
2021-07-06 07:00:00,65.3,64.4,96.91,0.0,0.0,29.97,10.0,65.3
2021-07-06 08:00:00,65.0,64.6,98.27,0.0,0.0,29.97,10.0,65.1
2021-07-06 09:00:00,66.4,65.3,96.25,0.0,0.0,29.97,10.0,66.4
2021-07-06 10:00:00,65.0,64.6,98.27,0.0,0.0,29.98,7.0,65.1
2021-07-06 11:00:00,69.0,66.4,91.74,0.0,0.0,29.99,10.0,68.9
2021-07-06 12:00:00,69.6,66.6,90.19,0.0,0.0,30.01,10.0,69.6
2021-07-06 13:00:00,72.7,67.0,82.02,0.0,0.0,30.01,10.0,72.7
2021-07-06 14:00:00,74.3,65.5,74.04,0.0,0.0,30.0,10.0,74.3
2021-07-06 15:00:00,74.3,68.5,82.13,0.0,0.0,29.99,10.0,74.3
2021-07-06 16:00:00,75.6,68.5,78.64,360.0,6.0,30.0,10.0,75.6
2021-07-06 17:00:00,71.0,66.6,86.28,10.0,15.0,30.0,10.0,70.9
2021-07-06 18:00:00,67.0,64.6,91.68,20.0,13.0,30.0,10.0,67.1
2021-07-06 19:00:00,65.3,64.2,96.23,40.0,3.0,30.02,3.0,65.3
2021-07-06 20:00:00,66.2,65.0,95.58,20.0,7.0,30.01,10.0,66.2
2021-07-06 21:00:00,66.6,65.5,96.25,360.0,5.0,29.99,10.0,66.6
2021-07-06 22:00:00,66.7,65.7,96.59,20.0,7.0,30.0,10.0,66.7
2021-07-06 23:00:00,65.7,64.8,96.91,10.0,7.0,29.99,10.0,65.7
2021-07-07 00:00:00,63.0,62.0,96.2,10.0,12.0,30.03,10.0,63.0
2021-07-07 01:00:00,60.0,59.0,96.84,360.0,9.0,30.03,10.0,59.9
2021-07-07 02:00:00,58.3,57.6,97.52,360.0,9.0,30.05,10.0,58.3
2021-07-07 03:00:00,57.6,57.2,98.57,350.0,6.0,30.06,7.0,57.6
2021-07-07 04:00:00,56.7,56.5,99.28,10.0,6.0,30.04,3.0,56.7
2021-07-07 05:00:00,56.8,56.7,99.64,20.0,7.0,30.03,3.0,56.8
2021-07-07 06:00:00,56.8,56.5,98.92,20.0,7.0,30.03,3.0,56.8
2021-07-07 07:00:00,57.2,56.8,98.57,20.0,6.0,30.02,2.5,57.2
2021-07-07 08:00:00,56.7,56.3,98.56,20.0,7.0,30.02,5.0,56.7
2021-07-07 09:00:00,56.3,55.8,98.2,20.0,9.0,30.02,7.0,56.3
2021-07-07 10:00:00,54.7,54.0,97.83,10.0,10.0,30.02,7.0,54.7
2021-07-07 11:00:00,54.5,53.8,97.48,30.0,8.0,30.02,10.0,54.5
2021-07-07 12:00:00,54.7,53.6,96.06,20.0,7.0,30.04,10.0,54.7
2021-07-07 13:00:00,55.0,54.0,96.42,20.0,7.0,30.05,7.0,55.0
2021-07-07 14:00:00,56.3,54.7,94.35,30.0,7.0,30.05,10.0,56.3
2021-07-07 15:00:00,57.2,54.7,91.34,30.0,6.0,30.06,10.0,57.2
2021-07-07 16:00:00,58.6,55.4,89.1,30.0,7.0,30.05,10.0,58.6
2021-07-07 17:00:00,60.0,55.4,85.05,40.0,7.0,30.05,10.0,59.9
2021-07-07 18:00:00,62.0,55.2,78.1,40.0,8.0,30.04,10.0,62.1
2021-07-07 19:00:00,64.2,56.0,74.41,20.0,7.0,30.03,10.0,64.2
2021-07-07 20:00:00,63.5,54.7,73.0,30.0,9.0,30.02,10.0,63.5
2021-07-07 21:00:00,64.0,54.0,70.17,40.0,7.0,30.02,10.0,63.9
2021-07-07 22:00:00,63.3,54.5,72.98,360.0,9.0,30.01,10.0,63.3
2021-07-07 23:00:00,61.7,54.0,76.1,20.0,10.0,30.02,10.0,61.7
2021-07-08 00:00:00,60.8,53.0,75.74,10.0,11.0,30.02,10.0,60.8
2021-07-08 01:00:00,59.7,52.2,76.2,40.0,7.0,30.03,10.0,59.7
2021-07-08 02:00:00,58.8,51.4,76.4,40.0,6.0,30.04,10.0,58.8
2021-07-08 03:00:00,58.3,51.8,78.94,20.0,5.0,30.04,10.0,58.3
2021-07-08 04:00:00,57.4,50.5,77.7,20.0,5.0,30.02,10.0,57.4
2021-07-08 05:00:00,56.7,50.7,80.28,360.0,4.0,30.03,10.0,56.7
2021-07-08 06:00:00,56.0,51.0,82.65,350.0,3.0,30.03,10.0,56.1
2021-07-08 07:00:00,56.3,50.5,80.85,30.0,5.0,30.01,10.0,56.3
2021-07-08 08:00:00,56.0,51.0,83.88,0.0,0.0,30.02,10.0,55.9
2021-07-08 09:00:00,55.8,51.6,85.75,50.0,3.0,30.01,10.0,55.8
2021-07-08 10:00:00,55.6,51.3,85.42,40.0,3.0,30.01,10.0,55.6
2021-07-08 11:00:00,56.3,51.8,84.84,30.0,4.0,30.03,10.0,56.3
2021-07-08 12:00:00,58.0,52.3,80.98,40.0,3.0,30.03,10.0,58.1
2021-07-08 13:00:00,60.0,53.0,77.65,0.0,0.0,30.02,10.0,60.1
2021-07-08 14:00:00,60.4,52.7,75.7,0.0,0.0,30.02,10.0,60.4
2021-07-08 15:00:00,62.0,53.0,72.33,0.0,0.0,30.04,10.0,62.1
2021-07-08 16:00:00,62.6,54.3,74.26,0.0,0.0,30.05,10.0,62.6
2021-07-08 17:00:00,63.0,53.0,69.32,0.0,0.0,30.04,10.0,63.1
2021-07-08 18:00:00,64.0,54.5,71.21,350.0,3.0,30.04,10.0,64.0
2021-07-08 19:00:00,66.4,53.8,63.85,0.0,0.0,30.02,10.0,66.4
2021-07-08 20:00:00,66.4,53.0,62.23,0.0,0.0,30.02,10.0,66.4
2021-07-08 21:00:00,67.3,55.0,64.42,0.0,0.0,30.01,10.0,67.3
2021-07-08 22:00:00,67.0,53.2,60.96,0.0,0.0,30.0,10.0,67.1
2021-07-08 23:00:00,66.6,52.7,60.9,0.0,0.0,30.0,10.0,66.6
2021-07-09 00:00:00,66.7,54.3,64.35,240.0,3.0,30.01,10.0,66.7
2021-07-09 01:00:00,60.0,56.0,86.61,0.0,0.0,30.01,10.0,59.9
2021-07-09 02:00:00,57.2,56.3,96.8,0.0,0.0,30.02,10.0,57.2
2021-07-09 03:00:00,55.4,55.0,98.56,0.0,0.0,30.03,10.0,55.4
2021-07-09 04:00:00,55.0,55.0,99.64,0.0,0.0,30.04,10.0,55.0
2021-07-09 05:00:00,53.4,53.4,100.0,360.0,3.0,30.04,7.0,53.4
2021-07-09 06:00:00,52.2,52.2,100.0,0.0,0.0,30.05,10.0,52.2
2021-07-09 07:00:00,51.0,51.0,100.0,0.0,0.0,30.04,7.0,50.9
2021-07-09 08:00:00,50.2,50.2,100.0,0.0,0.0,30.04,7.0,50.2
2021-07-09 09:00:00,51.4,51.4,100.0,20.0,4.0,30.04,10.0,51.4
2021-07-09 10:00:00,50.0,50.0,100.0,0.0,0.0,30.07,7.0,50.0
2021-07-09 11:00:00,52.3,52.3,100.0,0.0,0.0,30.08,10.0,52.3
2021-07-09 12:00:00,57.4,55.4,93.02,0.0,0.0,30.09,10.0,57.4
2021-07-09 13:00:00,62.6,56.3,79.86,0.0,0.0,30.09,10.0,62.6
2021-07-09 14:00:00,66.7,56.8,70.47,0.0,0.0,30.08,10.0,66.7
2021-07-09 15:00:00,70.7,55.8,59.24,100.0,4.0,30.07,10.0,70.7
2021-07-09 16:00:00,70.2,55.0,58.32,0.0,0.0,30.07,10.0,70.2
2021-07-09 17:00:00,72.7,55.6,54.96,300.0,3.0,30.07,10.0,72.7
2021-07-09 18:00:00,74.3,55.0,50.96,0.0,0.0,30.06,10.0,74.3
2021-07-09 19:00:00,75.7,56.3,50.97,110.0,6.0,30.06,10.0,75.7
2021-07-09 20:00:00,77.2,55.0,46.26,150.0,7.0,30.06,10.0,77.2
2021-07-09 21:00:00,74.7,55.6,51.39,120.0,4.0,30.06,10.0,74.7
2021-07-09 22:00:00,77.4,56.0,47.83,140.0,7.0,30.04,10.0,77.4
2021-07-09 23:00:00,76.0,55.0,47.98,120.0,5.0,30.04,10.0,76.1
2021-07-10 00:00:00,73.8,56.0,53.54,160.0,4.0,30.04,10.0,73.8
2021-07-10 01:00:00,67.8,59.5,74.75,0.0,0.0,30.04,10.0,67.8
2021-07-10 02:00:00,62.8,59.0,87.39,0.0,0.0,30.06,10.0,62.8
2021-07-10 03:00:00,60.0,58.6,95.46,0.0,0.0,30.06,10.0,59.9
2021-07-10 04:00:00,58.5,58.0,98.58,0.0,0.0,30.05,10.0,58.5
2021-07-10 05:00:00,57.2,56.8,98.57,20.0,4.0,30.01,10.0,57.2
2021-07-10 06:00:00,57.2,56.3,96.8,0.0,0.0,29.99,10.0,57.2
2021-07-10 07:00:00,55.8,55.2,97.84,0.0,0.0,30.06,10.0,55.8
2021-07-10 08:00:00,55.0,54.5,98.55,0.0,0.0,30.06,10.0,54.9
2021-07-10 09:00:00,55.0,55.0,100.0,0.0,0.0,30.04,7.0,54.9
2021-07-10 10:00:00,56.0,56.0,100.0,0.0,0.0,30.06,7.0,55.9
2021-07-10 11:00:00,58.0,57.7,98.57,0.0,0.0,30.07,10.0,58.1
2021-07-10 12:00:00,60.8,59.2,94.46,0.0,0.0,30.08,10.0,60.8
2021-07-10 13:00:00,68.0,62.0,80.84,0.0,0.0,30.08,10.0,68.0
2021-07-10 14:00:00,71.6,62.2,72.24,120.0,5.0,30.07,10.0,71.6
2021-07-10 15:00:00,73.4,61.2,65.62,130.0,6.0,30.07,10.0,73.4
2021-07-10 16:00:00,74.8,56.8,53.49,0.0,0.0,30.04,10.0,74.8
2021-07-10 17:00:00,76.6,55.8,48.58,120.0,7.0,30.03,10.0,76.6
2021-07-10 18:00:00,76.5,56.0,48.92,150.0,3.0,30.03,10.0,76.5
2021-07-10 19:00:00,76.6,55.6,48.23,100.0,3.0,30.03,10.0,76.6
2021-07-10 20:00:00,80.0,56.7,45.01,30.0,6.0,30.01,10.0,79.9
2021-07-10 21:00:00,79.0,56.0,45.37,60.0,3.0,30.01,10.0,79.0
2021-07-10 22:00:00,78.8,56.3,46.0,60.0,4.0,30.0,10.0,78.8
2021-07-10 23:00:00,78.8,57.2,47.52,40.0,4.0,30.01,10.0,78.8
2021-07-11 00:00:00,75.0,58.8,57.09,360.0,4.0,30.01,10.0,75.0
2021-07-11 01:00:00,70.0,61.0,73.11,330.0,3.0,30.02,10.0,70.0
2021-07-11 02:00:00,65.5,60.0,82.1,360.0,3.0,30.03,10.0,65.5
2021-07-11 03:00:00,63.7,57.6,80.52,360.0,3.0,30.03,10.0,63.7
2021-07-11 04:00:00,62.0,56.7,83.05,0.0,0.0,30.04,10.0,61.9
2021-07-11 05:00:00,60.0,56.5,88.51,0.0,0.0,30.04,10.0,59.9
2021-07-11 06:00:00,58.0,55.6,92.03,0.0,0.0,30.04,10.0,57.9
2021-07-11 07:00:00,56.3,54.7,94.35,0.0,0.0,30.06,10.0,56.3
2021-07-11 08:00:00,55.4,54.0,95.37,360.0,3.0,30.05,10.0,55.4
2021-07-11 09:00:00,53.6,52.7,96.75,20.0,3.0,30.04,10.0,53.6
2021-07-11 10:00:00,53.6,52.7,96.75,0.0,0.0,30.07,10.0,53.6
2021-07-11 11:00:00,55.0,54.3,97.84,0.0,0.0,30.08,7.0,54.9
2021-07-11 12:00:00,59.4,55.8,87.85,0.0,0.0,30.09,10.0,59.4
2021-07-11 13:00:00,64.0,56.7,77.13,0.0,0.0,30.1,10.0,64.0
2021-07-11 14:00:00,69.6,58.0,66.35,0.0,0.0,30.1,10.0,69.6
2021-07-11 15:00:00,74.5,58.5,57.44,110.0,3.0,30.1,10.0,74.5
2021-07-11 16:00:00,77.0,56.7,49.53,50.0,3.0,30.1,10.0,77.0
2021-07-11 17:00:00,80.2,53.6,39.82,80.0,6.0,30.09,10.0,80.05
2021-07-11 18:00:00,80.0,53.8,40.51,90.0,4.0,30.08,10.0,79.9
2021-07-11 19:00:00,81.3,57.2,43.79,80.0,4.0,30.08,10.0,81.29
2021-07-11 20:00:00,80.8,57.6,45.15,110.0,4.0,30.08,10.0,81.01
2021-07-11 21:00:00,81.0,56.0,42.49,80.0,7.0,30.07,7.0,80.9
2021-07-11 22:00:00,80.2,55.2,42.22,80.0,6.0,30.06,7.0,80.26
2021-07-11 23:00:00,79.2,56.7,46.06,80.0,4.0,30.06,10.0,79.2
2021-07-12 00:00:00,77.2,59.0,53.44,0.0,0.0,30.06,10.0,77.2
2021-07-12 01:00:00,67.6,61.7,81.38,0.0,0.0,30.07,10.0,67.6
2021-07-12 02:00:00,64.4,61.7,90.94,0.0,0.0,30.09,7.0,64.4
2021-07-12 03:00:00,61.0,60.0,96.16,0.0,0.0,30.1,5.0,61.0
2021-07-12 04:00:00,60.0,59.7,98.58,0.0,0.0,30.11,4.0,60.1
2021-07-12 05:00:00,59.0,58.6,98.58,0.0,0.0,30.11,4.0,59.0
2021-07-12 06:00:00,57.2,56.8,98.57,0.0,0.0,30.12,2.0,57.2
2021-07-12 07:00:00,55.2,55.0,98.91,0.0,0.0,30.11,2.5,55.2
2021-07-12 08:00:00,55.0,54.7,99.27,0.0,0.0,30.12,2.5,54.9
2021-07-12 09:00:00,53.4,53.2,99.27,0.0,0.0,30.12,1.75,53.4
2021-07-12 10:00:00,53.2,53.2,100.0,0.0,0.0,30.13,1.75,53.2
2021-07-12 11:00:00,55.2,54.7,98.2,0.0,0.0,30.13,7.0,55.2
2021-07-12 12:00:00,61.3,58.0,89.21,0.0,0.0,30.14,10.0,61.3
2021-07-12 13:00:00,67.3,57.0,69.52,0.0,0.0,30.14,10.0,67.3
2021-07-12 14:00:00,70.5,56.0,59.86,180.0,4.0,30.14,10.0,70.5
2021-07-12 15:00:00,74.3,58.0,57.0,140.0,6.0,30.14,10.0,74.3
2021-07-12 16:00:00,76.5,56.0,49.28,110.0,4.0,30.13,10.0,76.5
2021-07-12 17:00:00,78.0,54.3,44.06,80.0,4.0,30.11,10.0,77.9
2021-07-12 18:00:00,80.0,54.3,41.26,170.0,6.0,30.1,10.0,79.9
2021-07-12 19:00:00,80.6,51.3,36.11,90.0,6.0,30.08,10.0,80.02
2021-07-12 20:00:00,80.8,53.6,39.05,160.0,5.0,30.07,10.0,80.41
2021-07-12 21:00:00,81.5,53.8,38.45,140.0,3.0,30.07,10.0,80.88
2021-07-12 22:00:00,80.8,52.0,36.82,110.0,6.0,30.04,10.0,80.22
2021-07-12 23:00:00,78.3,51.6,39.38,150.0,6.0,30.04,10.0,78.3
2021-07-13 00:00:00,76.3,55.8,49.07,180.0,4.0,30.04,10.0,76.3
2021-07-13 01:00:00,70.2,57.7,64.54,0.0,0.0,30.04,10.0,70.2
2021-07-13 02:00:00,64.6,57.6,78.02,0.0,0.0,30.05,10.0,64.6
2021-07-13 03:00:00,61.5,58.3,89.22,0.0,0.0,30.06,10.0,61.5
2021-07-13 04:00:00,59.4,58.0,95.45,0.0,0.0,30.06,10.0,59.4
2021-07-13 05:00:00,58.0,57.0,96.81,0.0,0.0,30.04,10.0,57.9
2021-07-13 06:00:00,57.0,55.6,95.06,0.0,0.0,30.04,10.0,57.0
2021-07-13 07:00:00,55.4,54.7,97.49,0.0,0.0,30.04,10.0,55.4
2021-07-13 08:00:00,54.7,54.0,97.48,0.0,0.0,30.04,10.0,54.7
2021-07-13 09:00:00,53.8,53.2,97.83,0.0,0.0,30.04,7.0,53.8
2021-07-13 10:00:00,54.5,54.0,98.19,0.0,0.0,30.04,10.0,54.5
2021-07-13 11:00:00,56.7,56.3,98.56,0.0,0.0,30.04,10.0,56.7
2021-07-13 12:00:00,62.6,59.7,90.23,0.0,0.0,30.04,10.0,62.6
2021-07-13 13:00:00,68.2,60.4,76.13,200.0,4.0,30.03,10.0,68.2
2021-07-13 14:00:00,73.8,59.7,61.38,200.0,5.0,30.02,10.0,73.8
2021-07-13 15:00:00,76.5,61.2,59.16,210.0,6.0,30.02,10.0,76.5
2021-07-13 16:00:00,78.4,62.0,56.94,220.0,5.0,30.01,10.0,78.4
2021-07-13 17:00:00,80.6,60.8,50.95,220.0,4.0,30.01,10.0,81.46
2021-07-13 18:00:00,80.8,61.2,51.35,210.0,9.0,30.01,10.0,81.7
2021-07-13 19:00:00,83.8,62.2,48.26,220.0,7.0,29.99,10.0,84.53
2021-07-13 20:00:00,84.2,62.0,47.14,210.0,12.0,29.99,10.0,84.79
2021-07-13 21:00:00,81.5,62.0,51.81,200.0,6.0,29.99,10.0,82.49
2021-07-13 22:00:00,81.0,62.4,53.05,200.0,7.0,29.97,10.0,82.22
2021-07-13 23:00:00,78.0,63.5,60.84,250.0,6.0,29.99,10.0,78.1
2021-07-14 00:00:00,76.0,65.7,70.21,220.0,3.0,30.0,10.0,76.1
2021-07-14 01:00:00,74.3,64.6,71.75,210.0,4.0,30.0,10.0,74.3
2021-07-14 02:00:00,71.0,64.8,80.5,0.0,0.0,30.02,10.0,71.1
2021-07-14 03:00:00,67.8,64.2,88.25,0.0,0.0,30.02,10.0,67.8
2021-07-14 04:00:00,66.7,64.6,92.96,0.0,0.0,30.03,10.0,66.7
2021-07-14 05:00:00,65.5,63.5,93.25,0.0,0.0,30.04,10.0,65.5
2021-07-14 06:00:00,63.5,62.8,97.57,0.0,0.0,30.03,7.0,63.5
2021-07-14 07:00:00,62.0,61.3,97.9,0.0,0.0,30.02,5.0,61.9
2021-07-14 08:00:00,60.6,60.0,97.54,0.0,0.0,30.02,7.0,60.6
2021-07-14 09:00:00,60.0,60.0,100.0,0.0,0.0,30.02,4.0,59.9
2021-07-14 10:00:00,58.8,58.3,98.22,0.0,0.0,30.01,5.0,58.8
2021-07-14 11:00:00,62.0,61.7,99.3,0.0,0.0,30.05,5.0,61.9
2021-07-14 12:00:00,66.7,65.3,95.26,0.0,0.0,30.05,10.0,66.7
2021-07-14 13:00:00,71.0,66.7,86.58,0.0,0.0,30.04,10.0,70.9
2021-07-14 14:00:00,72.7,67.6,84.03,0.0,0.0,30.03,10.0,72.7
2021-07-14 15:00:00,75.4,68.7,79.71,120.0,3.0,30.02,10.0,75.4
2021-07-14 16:00:00,76.0,69.0,78.41,130.0,5.0,30.01,10.0,76.1
2021-07-14 17:00:00,76.0,69.0,79.47,130.0,7.0,30.0,10.0,75.9
2021-07-14 18:00:00,72.5,69.4,90.0,130.0,10.0,29.95,7.0,72.5
2021-07-14 19:00:00,71.4,67.0,86.31,130.0,10.0,29.93,10.0,71.4
2021-07-14 20:00:00,64.6,62.6,93.23,350.0,7.0,29.96,10.0,64.6
2021-07-14 21:00:00,63.5,61.2,92.21,20.0,10.0,29.99,3.0,63.5
2021-07-14 22:00:00,63.0,61.2,93.84,80.0,11.0,29.99,10.0,63.0
2021-07-14 23:00:00,62.8,61.0,93.84,340.0,3.0,29.98,10.0,62.8
2021-07-15 00:00:00,63.5,61.5,93.19,20.0,7.0,29.97,10.0,63.5
2021-07-15 01:00:00,63.0,61.7,95.52,30.0,5.0,29.96,10.0,63.0
2021-07-15 02:00:00,62.6,61.7,96.87,330.0,3.0,29.97,10.0,62.6
2021-07-15 03:00:00,62.6,62.0,98.25,340.0,4.0,29.97,10.0,62.6
2021-07-15 04:00:00,62.6,61.7,96.87,360.0,4.0,29.98,7.0,62.6
2021-07-15 05:00:00,62.0,61.0,96.86,330.0,5.0,29.98,7.0,61.9
2021-07-15 06:00:00,60.8,60.0,96.85,350.0,7.0,29.98,5.0,60.8
2021-07-15 07:00:00,60.8,60.0,96.85,350.0,8.0,29.98,7.0,60.8
2021-07-15 08:00:00,60.8,60.0,97.54,350.0,4.0,29.98,5.0,60.8
2021-07-15 09:00:00,60.0,59.2,96.84,330.0,4.0,29.99,7.0,60.1
2021-07-15 10:00:00,59.4,58.5,96.83,330.0,4.0,30.01,7.0,59.4
2021-07-15 11:00:00,59.0,57.6,95.1,350.0,5.0,30.03,7.0,59.0
2021-07-15 12:00:00,61.2,58.6,91.15,340.0,4.0,30.06,10.0,61.2
2021-07-15 13:00:00,64.0,57.4,79.11,360.0,4.0,30.07,10.0,64.0
2021-07-15 14:00:00,67.6,57.7,70.56,20.0,5.0,30.07,10.0,67.6
2021-07-15 15:00:00,71.0,58.5,64.86,40.0,3.0,30.06,10.0,70.9
2021-07-15 16:00:00,73.6,57.2,56.49,10.0,6.0,30.06,10.0,73.6
2021-07-15 17:00:00,75.6,55.6,49.86,30.0,6.0,30.06,10.0,75.6
2021-07-15 18:00:00,74.5,54.0,48.8,40.0,6.0,30.06,10.0,74.5
2021-07-15 19:00:00,77.5,53.2,42.89,30.0,6.0,30.04,10.0,77.5
2021-07-15 20:00:00,78.8,53.2,41.09,330.0,4.0,30.04,10.0,78.8
2021-07-15 21:00:00,78.3,53.8,42.7,70.0,4.0,30.03,10.0,78.3
2021-07-15 22:00:00,78.4,55.0,44.46,50.0,4.0,30.02,10.0,78.4
2021-07-15 23:00:00,78.0,55.0,45.04,0.0,0.0,30.02,10.0,77.9
2021-07-16 00:00:00,74.0,63.7,70.47,0.0,0.0,30.02,10.0,73.9
2021-07-16 01:00:00,67.3,61.7,82.23,0.0,0.0,30.03,10.0,67.3
2021-07-16 02:00:00,64.2,61.0,89.34,0.0,0.0,30.04,10.0,64.2
2021-07-16 03:00:00,61.0,60.0,96.85,0.0,0.0,30.04,10.0,61.0
2021-07-16 04:00:00,59.5,59.4,99.64,0.0,0.0,30.05,10.0,59.5
2021-07-16 05:00:00,57.6,57.2,98.57,0.0,0.0,30.04,10.0,57.6
2021-07-16 06:00:00,56.0,55.8,98.92,0.0,0.0,30.04,7.0,56.1
2021-07-16 07:00:00,55.2,55.0,99.28,0.0,0.0,30.04,5.0,55.2
2021-07-16 08:00:00,55.0,55.0,100.0,0.0,0.0,30.06,5.0,54.9
2021-07-16 09:00:00,54.5,54.5,100.0,0.0,0.0,30.06,7.0,54.5
2021-07-16 10:00:00,53.0,53.0,100.0,0.0,0.0,30.07,7.0,53.1
2021-07-16 11:00:00,55.0,55.0,100.0,0.0,0.0,30.08,10.0,54.9
2021-07-16 12:00:00,60.0,58.5,95.12,0.0,0.0,30.08,10.0,59.9
2021-07-16 13:00:00,66.4,57.6,73.29,0.0,0.0,30.09,10.0,66.4
2021-07-16 14:00:00,71.4,58.6,63.99,120.0,3.0,30.1,10.0,71.4
2021-07-16 15:00:00,76.0,59.0,55.43,0.0,0.0,30.09,10.0,76.1
2021-07-16 16:00:00,77.7,57.6,49.99,0.0,0.0,30.09,10.0,77.7
2021-07-16 17:00:00,80.0,56.8,44.88,10.0,6.0,30.08,10.0,80.42
2021-07-16 18:00:00,81.5,56.0,41.5,70.0,4.0,30.07,10.0,81.2
2021-07-16 19:00:00,82.0,57.6,43.56,90.0,4.0,30.06,10.0,81.79
2021-07-16 20:00:00,81.5,56.8,42.88,0.0,0.0,30.06,10.0,81.36
2021-07-16 21:00:00,80.0,57.2,45.83,110.0,6.0,30.04,10.0,79.9
2021-07-16 22:00:00,81.3,57.2,43.79,110.0,5.0,30.04,10.0,81.29
2021-07-16 23:00:00,80.0,56.3,44.08,110.0,5.0,30.04,10.0,80.35
2021-07-17 00:00:00,77.2,58.0,51.75,140.0,5.0,30.04,10.0,77.2
2021-07-17 01:00:00,71.0,60.4,69.41,0.0,0.0,30.05,10.0,70.9
2021-07-17 02:00:00,65.5,60.4,83.58,0.0,0.0,30.07,10.0,65.5
2021-07-17 03:00:00,62.8,60.4,91.86,0.0,0.0,30.09,10.0,62.8
2021-07-17 04:00:00,60.0,59.2,96.84,0.0,0.0,30.09,10.0,60.1
2021-07-17 05:00:00,59.4,59.0,98.58,0.0,0.0,30.09,7.0,59.4
2021-07-17 06:00:00,57.6,57.2,98.57,0.0,0.0,30.11,7.0,57.6
2021-07-17 07:00:00,56.5,56.0,98.56,0.0,0.0,30.11,4.0,56.5
2021-07-17 08:00:00,56.3,56.0,99.28,0.0,0.0,30.12,5.0,56.3
2021-07-17 09:00:00,54.7,54.5,99.27,0.0,0.0,30.14,5.0,54.7
2021-07-17 10:00:00,53.8,53.4,98.55,0.0,0.0,30.15,5.0,53.8
2021-07-17 11:00:00,57.4,57.0,98.57,0.0,0.0,30.16,10.0,57.4
2021-07-17 12:00:00,64.6,60.0,85.33,0.0,0.0,30.17,10.0,64.6
2021-07-17 13:00:00,68.4,61.7,79.17,0.0,0.0,30.18,10.0,68.4
2021-07-17 14:00:00,73.0,62.6,69.88,0.0,0.0,30.18,10.0,73.0
2021-07-17 15:00:00,77.2,59.2,53.83,0.0,0.0,30.19,10.0,77.2
2021-07-17 16:00:00,80.2,57.7,46.21,50.0,3.0,30.19,10.0,80.62
2021-07-17 17:00:00,81.7,57.7,44.0,60.0,7.0,30.18,10.0,81.66
2021-07-17 18:00:00,84.4,57.2,39.61,90.0,4.0,30.19,10.0,83.63
2021-07-17 19:00:00,83.8,56.0,38.8,160.0,5.0,30.18,10.0,82.92
2021-07-17 20:00:00,84.6,56.7,38.65,360.0,3.0,30.18,10.0,83.68
2021-07-17 21:00:00,84.0,56.3,38.84,0.0,0.0,30.18,10.0,83.11
2021-07-17 22:00:00,83.8,58.0,41.71,140.0,4.0,30.17,10.0,83.36
2021-07-17 23:00:00,82.0,57.6,43.56,100.0,5.0,30.17,10.0,81.79
2021-07-18 00:00:00,79.2,58.8,49.67,140.0,4.0,30.18,10.0,79.2
2021-07-18 01:00:00,71.0,63.5,77.44,0.0,0.0,30.19,10.0,70.9
2021-07-18 02:00:00,67.3,61.5,81.65,0.0,0.0,30.2,10.0,67.3
2021-07-18 03:00:00,65.7,60.8,84.19,0.0,0.0,30.21,10.0,65.7
2021-07-18 04:00:00,61.7,60.8,96.86,0.0,0.0,30.23,10.0,61.7
2021-07-18 05:00:00,60.3,59.2,96.15,0.0,0.0,30.24,10.0,60.3
2021-07-18 06:00:00,59.0,58.5,98.23,0.0,0.0,30.25,7.0,59.0
2021-07-18 07:00:00,58.5,58.3,99.29,0.0,0.0,30.26,7.0,58.5
2021-07-18 08:00:00,57.0,56.8,99.28,0.0,0.0,30.26,5.0,57.0
2021-07-18 09:00:00,56.5,56.3,99.28,0.0,0.0,30.27,10.0,56.5
2021-07-18 10:00:00,55.0,54.5,98.55,0.0,0.0,30.28,5.0,54.9
2021-07-18 11:00:00,57.2,56.5,97.5,0.0,0.0,30.28,10.0,57.2
2021-07-18 12:00:00,61.7,60.0,93.81,0.0,0.0,30.29,10.0,61.7
2021-07-18 13:00:00,68.4,62.0,80.3,0.0,0.0,30.29,10.0,68.4
2021-07-18 14:00:00,73.0,63.0,70.87,0.0,0.0,30.29,10.0,73.0
2021-07-18 15:00:00,77.4,60.0,54.82,210.0,3.0,30.28,10.0,77.4
2021-07-18 16:00:00,80.0,58.0,46.7,0.0,0.0,30.28,10.0,80.58
2021-07-18 17:00:00,81.0,57.6,44.86,160.0,3.0,30.27,10.0,81.15
2021-07-18 18:00:00,82.0,56.8,42.32,110.0,5.0,30.25,10.0,81.64
2021-07-18 19:00:00,83.0,59.0,44.06,100.0,5.0,30.25,10.0,83.02
2021-07-18 20:00:00,83.0,60.0,45.82,150.0,5.0,30.24,10.0,83.3
2021-07-18 21:00:00,82.6,58.6,44.14,200.0,3.0,30.24,10.0,82.53
2021-07-18 22:00:00,81.7,58.8,45.78,170.0,4.0,30.23,10.0,81.88
2021-07-18 23:00:00,80.0,59.5,49.45,150.0,3.0,30.23,10.0,80.84
2021-07-19 00:00:00,77.0,60.8,57.36,160.0,4.0,30.23,10.0,77.0
2021-07-19 01:00:00,72.5,61.0,67.16,140.0,4.0,30.23,10.0,72.5
2021-07-19 02:00:00,69.0,61.0,75.92,0.0,0.0,30.23,10.0,68.9
2021-07-19 03:00:00,64.0,61.7,92.55,0.0,0.0,30.23,10.0,63.9
2021-07-19 04:00:00,60.3,59.4,96.84,0.0,0.0,30.24,10.0,60.3
2021-07-19 05:00:00,59.2,59.0,99.29,0.0,0.0,30.23,5.0,59.2
2021-07-19 06:00:00,58.8,58.6,99.29,0.0,0.0,30.23,5.0,58.8
2021-07-19 07:00:00,57.4,57.2,99.28,0.0,0.0,30.22,2.0,57.4
2021-07-19 08:00:00,56.5,56.5,100.0,0.0,0.0,30.23,4.0,56.5
2021-07-19 09:00:00,55.2,55.0,99.28,0.0,0.0,30.23,0.5,55.2
2021-07-19 10:00:00,54.3,54.3,100.0,0.0,0.0,30.24,4.0,54.3
2021-07-19 11:00:00,56.8,56.3,98.21,0.0,0.0,30.24,10.0,56.8
2021-07-19 12:00:00,61.7,60.0,93.81,0.0,0.0,30.25,10.0,61.7
2021-07-19 13:00:00,67.6,61.3,80.24,0.0,0.0,30.24,10.0,67.6
2021-07-19 14:00:00,73.4,63.7,71.66,250.0,3.0,30.23,10.0,73.4
2021-07-19 15:00:00,78.4,64.4,62.17,270.0,4.0,30.24,10.0,78.4
2021-07-19 16:00:00,81.5,63.3,54.05,330.0,5.0,30.23,10.0,82.81
2021-07-19 17:00:00,84.2,61.2,45.99,330.0,4.0,30.23,10.0,84.56
2021-07-19 18:00:00,84.0,57.0,39.83,310.0,5.0,30.21,10.0,83.26
2021-07-19 19:00:00,83.3,59.5,44.56,260.0,5.0,30.19,10.0,83.3
2021-07-19 20:00:00,83.3,60.0,45.53,280.0,3.0,30.17,10.0,83.46
2021-07-19 21:00:00,82.4,60.8,48.05,210.0,7.0,30.14,10.0,82.9
2021-07-19 22:00:00,82.6,59.2,45.1,250.0,8.0,30.14,10.0,82.67
2021-07-19 23:00:00,81.7,60.4,48.47,220.0,6.0,30.14,10.0,82.24
2021-07-20 00:00:00,78.4,63.0,59.2,0.0,0.0,30.13,10.0,78.4
2021-07-20 01:00:00,74.0,64.6,72.72,0.0,0.0,30.13,10.0,73.9
2021-07-20 02:00:00,70.2,63.5,79.31,0.0,0.0,30.14,10.0,70.2
2021-07-20 03:00:00,65.5,64.0,94.9,0.0,0.0,30.15,10.0,65.5
2021-07-20 04:00:00,63.3,62.0,95.86,0.0,0.0,30.16,10.0,63.3
2021-07-20 05:00:00,62.8,62.0,97.56,0.0,0.0,30.14,10.0,62.8
2021-07-20 06:00:00,61.7,61.0,97.55,0.0,0.0,30.13,5.0,61.7
2021-07-20 07:00:00,61.3,60.8,98.24,0.0,0.0,30.11,5.0,61.3
2021-07-20 08:00:00,60.8,60.3,98.24,0.0,0.0,30.11,7.0,60.8
2021-07-20 09:00:00,60.3,60.0,99.29,0.0,0.0,30.12,7.0,60.3
2021-07-20 10:00:00,59.5,59.2,98.93,0.0,0.0,30.14,5.0,59.5
2021-07-20 11:00:00,60.4,60.0,98.94,0.0,0.0,30.14,5.0,60.4
2021-07-20 12:00:00,65.7,63.5,92.6,0.0,0.0,30.15,10.0,65.7
2021-07-20 13:00:00,70.7,65.8,84.49,350.0,3.0,30.15,10.0,70.7
2021-07-20 14:00:00,75.2,66.6,74.64,0.0,0.0,30.14,10.0,75.2
2021-07-20 15:00:00,78.4,67.8,69.96,0.0,0.0,30.15,10.0,78.4
2021-07-20 16:00:00,80.4,67.5,64.84,330.0,5.0,30.14,10.0,82.91
2021-07-20 17:00:00,80.0,67.5,65.48,350.0,6.0,30.13,7.0,82.56
2021-07-20 18:00:00,80.4,66.2,61.99,340.0,9.0,30.14,7.0,82.54
2021-07-20 19:00:00,78.8,66.4,65.78,10.0,8.0,30.13,5.0,78.8
2021-07-20 20:00:00,79.2,64.6,60.98,350.0,8.0,30.14,4.0,79.2
2021-07-20 21:00:00,77.7,64.6,64.07,30.0,10.0,30.13,4.0,77.7
2021-07-20 22:00:00,74.3,63.7,69.53,20.0,10.0,30.14,5.0,74.3
2021-07-20 23:00:00,72.7,62.4,70.1,30.0,11.0,30.14,5.0,72.7
2021-07-21 00:00:00,69.0,61.0,75.92,10.0,10.0,30.14,7.0,68.9
2021-07-21 01:00:00,65.5,60.0,82.1,20.0,8.0,30.15,10.0,65.5
2021-07-21 02:00:00,63.5,58.6,84.05,40.0,3.0,30.16,10.0,63.5
2021-07-21 03:00:00,61.7,58.0,87.96,40.0,6.0,30.16,10.0,61.7
2021-07-21 04:00:00,60.3,57.2,89.49,40.0,4.0,30.16,10.0,60.3
2021-07-21 05:00:00,58.5,56.3,92.38,30.0,5.0,30.15,10.0,58.5
2021-07-21 06:00:00,59.0,56.3,90.74,0.0,0.0,30.15,10.0,59.0
2021-07-21 07:00:00,59.0,55.8,89.11,0.0,0.0,30.14,10.0,59.0
2021-07-21 08:00:00,58.5,55.0,88.12,30.0,3.0,30.16,10.0,58.5
2021-07-21 09:00:00,57.2,55.4,93.69,10.0,3.0,30.16,10.0,57.2
2021-07-21 10:00:00,58.3,55.4,90.06,0.0,0.0,30.17,10.0,58.3
2021-07-21 11:00:00,60.0,56.5,88.51,0.0,0.0,30.18,10.0,59.9
2021-07-21 12:00:00,61.5,57.4,86.38,100.0,3.0,30.18,10.0,61.5
2021-07-21 13:00:00,62.8,58.0,84.01,90.0,5.0,30.19,10.0,62.8
2021-07-21 14:00:00,64.0,58.0,81.41,110.0,7.0,30.19,10.0,63.9
2021-07-21 15:00:00,66.2,59.0,77.6,100.0,7.0,30.2,10.0,66.2
2021-07-21 16:00:00,68.0,60.4,76.65,120.0,5.0,30.2,10.0,68.0
2021-07-21 17:00:00,70.0,61.0,73.11,110.0,8.0,30.18,10.0,70.0
2021-07-21 18:00:00,72.3,61.3,68.34,110.0,6.0,30.16,10.0,72.3
2021-07-21 19:00:00,73.4,61.7,66.79,110.0,4.0,30.17,10.0,73.4
2021-07-21 20:00:00,73.2,62.6,69.41,130.0,8.0,30.15,10.0,73.2
2021-07-21 21:00:00,74.7,63.0,66.94,130.0,8.0,30.14,10.0,74.7
2021-07-21 22:00:00,73.8,63.0,68.99,120.0,8.0,30.13,10.0,73.8
2021-07-21 23:00:00,73.2,63.5,71.64,130.0,6.0,30.12,10.0,73.2
2021-07-22 00:00:00,72.0,63.7,74.88,120.0,4.0,30.13,10.0,72.1
2021-07-22 01:00:00,70.7,63.7,78.52,110.0,4.0,30.12,10.0,70.7
2021-07-22 02:00:00,69.8,64.0,81.54,110.0,3.0,30.14,10.0,69.8
2021-07-22 03:00:00,69.4,64.0,82.95,130.0,6.0,30.14,10.0,69.4
2021-07-22 04:00:00,69.4,63.7,82.08,120.0,7.0,30.14,10.0,69.4
2021-07-22 05:00:00,69.0,63.7,83.5,130.0,6.0,30.14,10.0,68.9
2021-07-22 06:00:00,68.5,63.7,84.65,140.0,4.0,30.13,10.0,68.5
2021-07-22 07:00:00,68.0,63.5,85.52,130.0,3.0,30.13,10.0,68.0
2021-07-22 08:00:00,68.2,63.7,85.53,130.0,4.0,30.12,10.0,68.2
2021-07-22 09:00:00,68.0,63.7,86.12,140.0,5.0,30.11,10.0,68.0
2021-07-22 10:00:00,68.0,64.0,86.73,130.0,4.0,30.12,10.0,68.0
2021-07-22 11:00:00,68.0,64.6,88.88,140.0,5.0,30.12,10.0,68.0
2021-07-22 12:00:00,68.4,65.0,89.21,150.0,5.0,30.12,7.0,68.4
2021-07-22 13:00:00,70.0,66.6,88.97,120.0,5.0,30.12,7.0,70.0
2021-07-22 14:00:00,71.0,66.7,85.99,140.0,5.0,30.11,10.0,71.1
2021-07-22 15:00:00,72.0,67.0,84.57,150.0,6.0,30.12,10.0,72.0
2021-07-22 16:00:00,74.5,67.8,79.64,120.0,8.0,30.11,10.0,74.5
2021-07-22 17:00:00,79.2,69.0,71.25,130.0,9.0,30.09,10.0,79.2
2021-07-22 18:00:00,81.5,69.0,65.64,110.0,7.0,30.07,10.0,84.7
2021-07-22 19:00:00,83.5,68.4,60.47,170.0,11.0,30.06,10.0,86.82
2021-07-22 20:00:00,81.7,69.0,65.21,170.0,9.0,30.04,10.0,84.94
2021-07-22 21:00:00,71.2,70.7,98.31,120.0,10.0,30.06,1.25,71.2
2021-07-22 22:00:00,73.6,71.8,94.1,140.0,5.0,30.04,10.0,73.6
2021-07-22 23:00:00,74.3,72.5,94.12,120.0,6.0,30.04,10.0,74.3
2021-07-23 00:00:00,73.4,72.5,97.01,120.0,6.0,30.03,5.0,73.4
2021-07-23 01:00:00,73.0,72.5,98.33,120.0,5.0,30.04,5.0,73.0
2021-07-23 02:00:00,73.0,71.6,95.7,120.0,5.0,30.05,7.0,72.9
2021-07-23 03:00:00,72.0,71.0,96.34,120.0,4.0,30.07,5.0,72.0
2021-07-23 04:00:00,71.0,70.3,97.98,120.0,5.0,30.07,5.0,70.9
2021-07-23 05:00:00,70.7,70.2,98.31,130.0,5.0,30.06,5.0,70.7
2021-07-23 06:00:00,70.7,70.2,98.31,130.0,6.0,30.04,4.0,70.7
2021-07-23 07:00:00,70.2,69.8,98.64,130.0,5.0,30.03,4.0,70.2
2021-07-23 08:00:00,69.3,69.0,98.64,140.0,3.0,30.03,4.0,69.3
2021-07-23 09:00:00,68.4,68.0,98.63,140.0,4.0,30.03,4.0,68.4
2021-07-23 10:00:00,68.2,67.6,97.95,130.0,3.0,30.03,5.0,68.2
2021-07-23 11:00:00,69.4,68.4,96.63,0.0,0.0,30.03,5.0,69.4
2021-07-23 12:00:00,71.0,69.3,94.04,130.0,7.0,30.02,7.0,71.1
2021-07-23 13:00:00,74.3,70.0,86.46,150.0,6.0,30.02,7.0,74.3
2021-07-23 14:00:00,78.0,69.8,75.67,160.0,6.0,30.01,7.0,78.1
2021-07-23 15:00:00,80.4,69.6,69.69,170.0,9.0,29.99,10.0,83.56
2021-07-23 16:00:00,83.7,71.0,65.45,190.0,10.0,29.98,10.0,88.49
2021-07-23 17:00:00,84.0,70.2,63.29,170.0,10.0,29.96,10.0,88.43
2021-07-23 18:00:00,87.0,71.4,60.08,170.0,13.0,29.94,10.0,92.89
2021-07-23 19:00:00,87.0,71.8,60.51,170.0,9.0,29.94,7.0,93.48
2021-07-23 20:00:00,86.0,71.4,61.83,170.0,10.0,29.93,7.0,91.77
2021-07-23 21:00:00,85.3,71.6,63.66,190.0,8.0,29.92,7.0,91.03
2021-07-23 22:00:00,85.3,72.7,66.07,180.0,10.0,29.91,7.0,91.9
2021-07-23 23:00:00,84.4,73.2,69.17,170.0,8.0,29.88,7.0,91.06
2021-07-24 00:00:00,82.8,73.0,72.1,190.0,6.0,29.88,10.0,88.54
2021-07-24 01:00:00,80.0,73.0,78.72,160.0,4.0,29.88,7.0,84.27
2021-07-24 02:00:00,78.8,73.4,83.55,140.0,5.0,29.89,7.0,78.8
2021-07-24 03:00:00,77.2,73.0,86.9,160.0,4.0,29.86,7.0,77.2
2021-07-24 04:00:00,76.6,73.0,88.35,0.0,0.0,29.86,10.0,76.6
2021-07-24 05:00:00,75.6,73.0,91.34,0.0,0.0,29.85,10.0,75.6
2021-07-24 06:00:00,75.0,68.7,80.78,30.0,13.0,29.84,10.0,75.0
2021-07-24 07:00:00,72.7,69.3,89.08,100.0,6.0,29.79,10.0,72.7
2021-07-24 08:00:00,69.0,68.5,98.64,0.0,0.0,29.81,3.0,68.9
2021-07-24 09:00:00,68.2,68.0,99.31,10.0,3.0,29.87,1.5,68.2
2021-07-24 10:00:00,68.5,68.4,99.66,0.0,0.0,29.88,5.0,68.5
2021-07-24 11:00:00,68.5,67.8,97.62,90.0,9.0,29.84,10.0,68.5
2021-07-24 12:00:00,68.2,67.6,97.95,320.0,3.0,29.87,10.0,68.2
2021-07-24 13:00:00,69.8,68.5,95.64,200.0,3.0,29.89,10.0,69.8
2021-07-24 14:00:00,73.2,67.8,83.2,220.0,6.0,29.89,10.0,73.2
2021-07-24 15:00:00,76.8,69.3,77.66,240.0,4.0,29.89,10.0,76.8
2021-07-24 16:00:00,78.8,69.0,72.2,230.0,6.0,29.89,10.0,78.8
2021-07-24 17:00:00,80.6,69.4,68.76,260.0,8.0,29.89,10.0,83.76
2021-07-24 18:00:00,82.0,69.0,65.03,280.0,8.0,29.9,7.0,85.39
2021-07-24 19:00:00,82.8,66.4,57.73,280.0,8.0,29.89,10.0,85.13
2021-07-24 20:00:00,83.7,58.6,42.6,290.0,13.0,29.9,10.0,83.4
2021-07-24 21:00:00,83.5,54.0,36.43,280.0,11.0,29.9,10.0,82.32
2021-07-24 22:00:00,83.0,53.0,35.81,300.0,5.0,29.91,10.0,81.73
2021-07-24 23:00:00,81.7,54.5,39.19,290.0,4.0,29.91,10.0,81.12
2021-07-25 00:00:00,77.7,56.5,48.05,280.0,4.0,29.91,10.0,77.7
2021-07-25 01:00:00,68.7,60.4,74.83,0.0,0.0,29.9,7.0,68.7
2021-07-25 02:00:00,64.2,60.8,88.71,0.0,0.0,29.91,10.0,64.2
2021-07-25 03:00:00,62.0,61.2,96.87,0.0,0.0,29.92,10.0,62.1
2021-07-25 04:00:00,61.7,60.0,93.81,0.0,0.0,29.93,10.0,61.7
2021-07-25 05:00:00,63.0,56.5,79.03,270.0,3.0,29.94,10.0,63.1
2021-07-25 06:00:00,60.0,58.3,93.77,0.0,0.0,29.94,10.0,60.1
2021-07-25 07:00:00,59.5,58.0,95.11,0.0,0.0,29.95,7.0,59.5
2021-07-25 08:00:00,57.7,57.0,97.51,0.0,0.0,29.96,10.0,57.7
2021-07-25 09:00:00,56.8,56.3,98.21,0.0,0.0,29.96,10.0,56.8
2021-07-25 10:00:00,56.3,56.0,98.56,0.0,0.0,29.97,7.0,56.3
2021-07-25 11:00:00,58.5,57.2,95.43,0.0,0.0,29.98,10.0,58.5
2021-07-25 12:00:00,63.7,58.6,83.46,0.0,0.0,29.99,10.0,63.7
2021-07-25 13:00:00,68.7,61.5,77.81,270.0,5.0,30.0,10.0,68.7
2021-07-25 14:00:00,74.7,60.0,59.98,260.0,5.0,29.99,10.0,74.7
2021-07-25 15:00:00,78.0,60.0,54.31,260.0,6.0,29.99,10.0,77.9
2021-07-25 16:00:00,80.2,59.5,49.29,260.0,7.0,30.01,10.0,80.91
2021-07-25 17:00:00,81.5,55.8,41.35,250.0,11.0,30.0,10.0,81.19
2021-07-25 18:00:00,83.0,58.0,42.35,270.0,10.0,29.99,10.0,82.76
2021-07-25 19:00:00,83.7,56.0,38.93,270.0,10.0,29.99,10.0,82.84
2021-07-25 20:00:00,84.4,53.8,35.0,270.0,9.0,29.98,7.0,82.94
2021-07-25 21:00:00,84.4,51.6,32.29,280.0,11.0,29.96,7.0,82.6
2021-07-25 22:00:00,84.2,55.0,36.67,280.0,7.0,29.95,7.0,82.99
2021-07-25 23:00:00,82.0,59.4,46.47,270.0,3.0,29.95,7.0,82.17
2021-07-26 00:00:00,79.3,60.6,52.79,260.0,3.0,29.95,7.0,79.3
2021-07-26 01:00:00,71.0,62.2,73.98,0.0,0.0,29.96,7.0,70.9
2021-07-26 02:00:00,67.5,62.0,82.82,0.0,0.0,29.98,10.0,67.5
2021-07-26 03:00:00,64.0,62.8,95.87,0.0,0.0,29.99,7.0,64.0
2021-07-26 04:00:00,63.0,61.7,95.52,0.0,0.0,30.0,7.0,63.0
2021-07-26 05:00:00,61.7,60.8,96.86,0.0,0.0,30.0,10.0,61.7
2021-07-26 06:00:00,61.0,60.0,96.85,0.0,0.0,29.99,10.0,61.0
2021-07-26 07:00:00,59.4,59.0,98.58,0.0,0.0,30.0,10.0,59.4
2021-07-26 08:00:00,59.5,59.4,99.64,0.0,0.0,30.0,5.0,59.5
2021-07-26 09:00:00,59.4,59.2,99.29,0.0,0.0,30.01,7.0,59.4
2021-07-26 10:00:00,59.7,59.5,99.29,0.0,0.0,30.0,10.0,59.7
2021-07-26 11:00:00,62.0,61.2,96.87,0.0,0.0,30.02,7.0,62.1
2021-07-26 12:00:00,67.5,63.3,86.4,210.0,3.0,30.02,10.0,67.5
2021-07-26 13:00:00,72.0,64.8,77.81,0.0,0.0,30.02,10.0,72.1
2021-07-26 14:00:00,77.4,65.0,65.85,0.0,0.0,30.01,10.0,77.4
2021-07-26 15:00:00,80.6,65.0,59.27,280.0,3.0,30.01,10.0,82.45
2021-07-26 16:00:00,83.5,65.5,54.7,240.0,7.0,30.02,10.0,85.48
2021-07-26 17:00:00,85.0,63.0,48.08,240.0,11.0,30.02,7.0,85.87
2021-07-26 18:00:00,85.5,67.8,55.55,230.0,7.0,30.0,7.0,88.74
2021-07-26 19:00:00,86.5,68.0,54.17,200.0,9.0,29.98,7.0,89.97
2021-07-26 20:00:00,87.8,67.3,50.74,210.0,7.0,29.96,10.0,90.97
2021-07-26 21:00:00,87.3,68.5,53.73,190.0,9.0,29.95,10.0,91.2
2021-07-26 22:00:00,85.5,67.0,54.22,200.0,9.0,29.94,10.0,88.34
2021-07-26 23:00:00,83.3,67.5,59.01,200.0,7.0,29.93,10.0,86.15
2021-07-27 00:00:00,80.6,68.2,65.99,190.0,6.0,29.91,10.0,83.36
2021-07-27 01:00:00,77.0,68.2,74.29,180.0,5.0,29.93,10.0,77.0
2021-07-27 02:00:00,75.6,68.7,79.18,0.0,0.0,29.96,10.0,75.6
2021-07-27 03:00:00,74.7,66.7,76.16,60.0,10.0,29.97,10.0,74.7
2021-07-27 04:00:00,73.0,64.0,73.15,110.0,10.0,29.97,10.0,73.0
2021-07-27 05:00:00,69.0,61.7,77.82,130.0,9.0,29.96,10.0,68.9
2021-07-27 06:00:00,69.3,62.0,77.31,130.0,11.0,29.96,10.0,69.3
2021-07-27 07:00:00,68.4,62.0,80.3,70.0,9.0,29.97,10.0,68.4
2021-07-27 08:00:00,65.7,62.8,90.35,140.0,8.0,29.96,4.0,65.7
2021-07-27 09:00:00,64.8,63.7,96.23,130.0,8.0,29.98,7.0,64.8
2021-07-27 10:00:00,64.4,63.5,96.9,130.0,10.0,29.99,10.0,64.4
2021-07-27 11:00:00,64.2,63.0,96.22,150.0,6.0,30.0,10.0,64.2
2021-07-27 12:00:00,66.2,65.3,96.92,110.0,5.0,30.01,10.0,66.2
2021-07-27 13:00:00,69.0,66.6,92.38,140.0,6.0,30.01,10.0,68.9
2021-07-27 14:00:00,72.7,68.0,85.2,130.0,4.0,30.0,10.0,72.7
2021-07-27 15:00:00,75.4,68.4,78.89,190.0,6.0,30.01,10.0,75.4
2021-07-27 16:00:00,77.4,70.0,77.98,150.0,4.0,30.01,10.0,77.4
2021-07-27 17:00:00,78.4,69.8,74.93,200.0,4.0,30.01,5.0,78.4
2021-07-27 18:00:00,79.7,70.7,74.03,190.0,5.0,30.01,10.0,79.7
2021-07-27 19:00:00,80.0,69.8,70.86,190.0,3.0,30.0,7.0,83.22
2021-07-27 20:00:00,81.7,70.7,69.35,190.0,4.0,30.01,10.0,85.75
2021-07-27 21:00:00,82.6,71.0,68.28,0.0,0.0,30.01,7.0,87.17
2021-07-27 22:00:00,82.0,72.0,72.02,40.0,4.0,30.01,10.0,86.88
2021-07-27 23:00:00,79.7,72.0,77.37,50.0,5.0,30.01,10.0,79.7
2021-07-28 00:00:00,76.5,72.5,87.46,30.0,3.0,30.02,10.0,76.5
2021-07-28 01:00:00,75.0,71.0,87.68,90.0,4.0,30.02,10.0,75.0
2021-07-28 02:00:00,71.8,69.8,93.42,0.0,0.0,30.02,7.0,71.8
2021-07-28 03:00:00,70.0,69.0,96.97,0.0,0.0,30.03,7.0,70.0
2021-07-28 04:00:00,68.5,68.4,99.66,0.0,0.0,30.04,4.0,68.5
2021-07-28 05:00:00,68.7,68.5,99.32,0.0,0.0,30.04,3.0,68.7
2021-07-28 06:00:00,69.0,68.2,97.62,0.0,0.0,30.04,5.0,68.9
2021-07-28 07:00:00,67.5,67.0,98.63,0.0,0.0,30.03,5.0,67.5
2021-07-28 08:00:00,67.0,66.6,98.29,0.0,0.0,30.02,7.0,67.1
2021-07-28 09:00:00,66.0,65.8,99.31,0.0,0.0,30.03,4.0,66.0
2021-07-28 10:00:00,64.0,64.0,100.0,0.0,0.0,30.01,1.5,64.0
2021-07-28 11:00:00,67.5,67.3,99.31,0.0,0.0,30.03,7.0,67.5
2021-07-28 12:00:00,68.0,67.5,98.29,140.0,3.0,30.06,7.0,68.0
2021-07-28 13:00:00,68.2,68.0,99.31,130.0,3.0,30.07,5.0,68.2
2021-07-28 14:00:00,70.0,69.0,96.97,140.0,3.0,30.03,10.0,70.0
2021-07-28 15:00:00,74.5,70.5,87.36,0.0,0.0,30.02,10.0,74.5
2021-07-28 16:00:00,72.0,69.0,89.67,0.0,0.0,30.0,5.0,72.1
2021-07-28 17:00:00,78.0,68.4,72.61,200.0,8.0,29.97,10.0,77.9
2021-07-28 18:00:00,82.2,71.0,68.7,40.0,3.0,29.98,10.0,86.52
2021-07-28 19:00:00,83.7,71.8,67.48,100.0,7.0,29.94,10.0,89.08
2021-07-28 20:00:00,82.6,72.7,72.08,170.0,6.0,29.92,7.0,88.12
2021-07-28 21:00:00,81.7,71.0,70.3,170.0,9.0,29.91,7.0,85.94
2021-07-28 22:00:00,79.7,72.0,77.63,160.0,10.0,29.87,10.0,79.7
2021-07-28 23:00:00,79.3,71.2,76.3,170.0,9.0,29.84,7.0,79.3
2021-07-29 00:00:00,80.0,71.2,74.32,190.0,5.0,29.77,7.0,83.67
2021-07-29 01:00:00,71.0,69.8,96.32,10.0,18.0,29.85,0.25,70.9
2021-07-29 02:00:00,71.8,71.2,97.99,250.0,3.0,29.89,7.0,71.8
2021-07-29 03:00:00,71.0,70.7,99.32,0.0,0.0,29.86,5.0,70.9
2021-07-29 04:00:00,70.7,70.5,99.32,0.0,0.0,29.82,4.0,70.7
2021-07-29 05:00:00,69.4,69.4,100.0,0.0,0.0,29.87,1.5,69.4
2021-07-29 06:00:00,70.7,70.7,100.0,340.0,3.0,29.89,0.5,70.7
2021-07-29 07:00:00,70.0,70.0,100.0,330.0,4.0,29.91,0.5,70.0
2021-07-29 08:00:00,69.3,69.3,100.0,320.0,3.0,29.92,0.75,69.3
2021-07-29 09:00:00,68.0,68.0,100.0,0.0,0.0,29.94,4.0,68.0
2021-07-29 10:00:00,67.0,66.4,97.61,330.0,3.0,29.97,5.0,67.1
2021-07-29 11:00:00,67.0,66.6,98.29,340.0,7.0,29.99,5.0,67.1
2021-07-29 12:00:00,68.7,66.7,93.34,340.0,7.0,30.02,7.0,68.7
2021-07-29 13:00:00,69.4,67.0,91.76,350.0,7.0,30.04,5.0,69.4
2021-07-29 14:00:00,69.8,65.5,86.22,350.0,7.0,30.05,7.0,69.8
2021-07-29 15:00:00,70.3,65.8,85.65,340.0,4.0,30.07,5.0,70.3
2021-07-29 16:00:00,71.6,65.0,79.97,360.0,7.0,30.08,5.0,71.6
2021-07-29 17:00:00,74.7,66.6,75.9,350.0,4.0,30.08,5.0,74.7
2021-07-29 18:00:00,76.5,65.7,69.28,350.0,5.0,30.08,7.0,76.5
2021-07-29 19:00:00,78.0,64.0,61.92,10.0,6.0,30.08,7.0,78.1
2021-07-29 20:00:00,77.5,62.4,59.71,350.0,6.0,30.08,5.0,77.5
2021-07-29 21:00:00,77.4,62.0,58.86,330.0,7.0,30.09,7.0,77.4
2021-07-29 22:00:00,76.0,63.3,64.56,350.0,5.0,30.09,5.0,76.1
2021-07-29 23:00:00,73.4,63.0,69.92,360.0,8.0,30.11,4.0,73.4
2021-07-30 00:00:00,70.3,61.3,73.14,350.0,5.0,30.13,5.0,70.3
2021-07-30 01:00:00,70.3,61.3,73.14,350.0,5.0,30.13,5.0,70.3
2021-07-30 02:00:00,64.0,61.5,91.9,0.0,0.0,30.14,4.0,63.9
2021-07-30 03:00:00,62.4,61.7,97.56,0.0,0.0,30.15,3.0,62.4
2021-07-30 04:00:00,62.4,62.0,98.25,0.0,0.0,30.16,2.5,62.4
2021-07-30 05:00:00,61.2,61.0,99.29,0.0,0.0,30.16,1.5,61.2
2021-07-30 06:00:00,60.8,60.8,100.0,0.0,0.0,30.16,2.0,60.8
2021-07-30 07:00:00,58.3,58.3,100.0,0.0,0.0,30.16,2.0,58.3
2021-07-30 08:00:00,57.4,57.4,100.0,0.0,0.0,30.17,0.25,57.4
2021-07-30 09:00:00,56.7,56.7,100.0,0.0,0.0,30.18,2.0,56.7
2021-07-30 10:00:00,56.3,56.3,100.0,0.0,0.0,30.2,1.75,56.3
2021-07-30 11:00:00,58.3,58.0,98.57,100.0,4.0,30.22,7.0,58.3
2021-07-30 12:00:00,60.0,59.0,96.84,90.0,4.0,30.23,7.0,59.9
2021-07-30 13:00:00,62.4,59.7,90.87,130.0,7.0,30.24,10.0,62.4
2021-07-30 14:00:00,63.5,60.4,89.63,170.0,5.0,30.24,10.0,63.5
2021-07-30 15:00:00,67.6,62.8,84.6,140.0,7.0,30.22,7.0,67.6
2021-07-30 16:00:00,69.3,61.7,76.76,160.0,3.0,30.19,7.0,69.3
2021-07-30 17:00:00,72.0,62.8,72.79,0.0,0.0,30.18,5.0,72.0
2021-07-30 18:00:00,72.3,61.5,68.83,0.0,0.0,30.16,7.0,72.3
2021-07-30 19:00:00,73.6,62.6,68.48,0.0,0.0,30.16,7.0,73.6
2021-07-30 20:00:00,75.6,62.2,63.15,0.0,0.0,30.14,7.0,75.6
2021-07-30 21:00:00,75.4,63.0,65.39,200.0,5.0,30.13,7.0,75.4
2021-07-30 22:00:00,74.0,64.2,71.71,200.0,4.0,30.12,7.0,73.9
2021-07-30 23:00:00,74.5,63.0,67.62,220.0,3.0,30.12,5.0,74.5
2021-07-31 00:00:00,71.6,64.2,77.5,200.0,4.0,30.11,7.0,71.6
2021-07-31 01:00:00,67.3,64.0,89.16,170.0,4.0,30.1,7.0,67.3
2021-07-31 02:00:00,65.0,63.0,92.91,0.0,0.0,30.1,7.0,65.1
2021-07-31 03:00:00,64.4,62.6,93.88,0.0,0.0,30.09,7.0,64.4
2021-07-31 04:00:00,63.5,61.2,92.21,0.0,0.0,30.08,5.0,63.5
2021-07-31 05:00:00,62.0,60.0,93.16,0.0,0.0,30.09,5.0,62.1
2021-07-31 06:00:00,62.0,60.0,92.49,230.0,3.0,30.08,5.0,62.1
2021-07-31 07:00:00,61.7,60.0,94.48,220.0,3.0,30.07,5.0,61.7
2021-07-31 08:00:00,61.3,59.7,94.47,240.0,4.0,30.06,4.0,61.3
2021-07-31 09:00:00,61.0,59.5,94.8,250.0,3.0,30.05,4.0,61.0
2021-07-31 10:00:00,59.5,58.8,97.53,0.0,0.0,30.06,3.0,59.5
2021-07-31 11:00:00,59.2,58.6,97.88,0.0,0.0,30.06,3.0,59.2
2021-07-31 12:00:00,61.7,60.0,94.48,240.0,3.0,30.04,4.0,61.7
2021-07-31 13:00:00,64.0,61.2,90.93,250.0,5.0,30.03,7.0,63.9
2021-07-31 14:00:00,67.0,62.4,84.87,260.0,5.0,30.02,5.0,67.1
2021-07-31 15:00:00,69.4,64.0,82.95,300.0,9.0,30.02,5.0,69.4
2021-07-31 16:00:00,71.2,64.2,78.56,350.0,5.0,30.02,4.0,71.2
2021-07-31 17:00:00,74.0,65.8,75.32,360.0,5.0,30.02,3.0,74.1
2021-07-31 18:00:00,75.7,64.2,67.52,300.0,4.0,30.01,5.0,75.7
2021-07-31 19:00:00,78.0,64.0,62.11,330.0,5.0,30.01,5.0,77.9
2021-07-31 20:00:00,78.6,65.0,62.85,360.0,8.0,30.0,5.0,78.6
2021-07-31 21:00:00,76.0,62.2,62.52,360.0,6.0,30.0,5.0,75.9
2021-07-31 22:00:00,76.0,62.0,61.89,360.0,8.0,30.0,7.0,76.1
2021-07-31 23:00:00,73.6,57.7,57.52,340.0,5.0,30.01,5.0,73.6
2021-08-01 00:00:00,70.7,58.0,64.37,0.0,0.0,30.02,5.0,70.7
2021-08-01 01:00:00,67.3,59.2,75.24,320.0,3.0,30.03,7.0,67.3
2021-08-01 02:00:00,65.3,58.0,77.52,330.0,3.0,30.04,7.0,65.3
2021-08-01 03:00:00,64.0,57.6,79.96,310.0,3.0,30.05,10.0,63.9
2021-08-01 04:00:00,62.0,57.4,85.17,350.0,3.0,30.06,10.0,61.9
2021-08-01 05:00:00,61.2,56.7,85.13,350.0,4.0,30.07,7.0,61.2
2021-08-01 06:00:00,61.3,56.5,84.22,330.0,4.0,30.07,10.0,61.3
2021-08-01 07:00:00,57.2,55.6,94.38,300.0,3.0,30.09,10.0,57.2
2021-08-01 08:00:00,58.3,55.4,90.06,330.0,3.0,30.1,7.0,58.3
2021-08-01 09:00:00,57.2,55.4,93.69,350.0,5.0,30.11,7.0,57.2
2021-08-01 10:00:00,57.2,55.4,93.69,350.0,5.0,30.11,7.0,57.2
2021-08-01 11:00:00,57.2,55.4,93.69,350.0,5.0,30.11,7.0,57.2
2021-08-01 12:00:00,57.2,55.4,93.69,350.0,5.0,30.11,7.0,57.2
2021-08-01 13:00:00,57.2,55.4,93.69,350.0,5.0,30.11,7.0,57.2
2021-08-01 14:00:00,67.0,56.8,69.98,340.0,7.0,30.19,7.0,66.9
2021-08-01 15:00:00,69.0,54.3,59.25,350.0,5.0,30.2,10.0,69.1
2021-08-01 16:00:00,67.3,54.0,62.57,340.0,6.0,30.2,10.0,67.3
2021-08-01 17:00:00,69.3,54.0,58.41,10.0,9.0,30.19,10.0,69.3
2021-08-01 18:00:00,69.3,54.5,59.27,330.0,6.0,30.19,10.0,69.3
2021-08-01 19:00:00,68.2,55.0,62.68,360.0,5.0,30.2,10.0,68.2
2021-08-01 20:00:00,69.4,53.8,57.58,360.0,5.0,30.2,10.0,69.4
2021-08-01 21:00:00,72.0,54.0,52.91,360.0,7.0,30.19,10.0,72.1
2021-08-01 22:00:00,71.4,52.0,50.34,360.0,10.0,30.19,10.0,71.4
2021-08-01 23:00:00,70.0,52.7,54.18,360.0,5.0,30.19,10.0,70.0
2021-08-02 00:00:00,66.6,54.5,65.05,0.0,0.0,30.19,10.0,66.6
2021-08-02 01:00:00,60.3,54.0,79.97,0.0,0.0,30.19,10.0,60.3
2021-08-02 02:00:00,57.2,55.4,93.69,0.0,0.0,30.2,10.0,57.2
2021-08-02 03:00:00,55.4,54.7,97.49,0.0,0.0,30.19,10.0,55.4
2021-08-02 04:00:00,54.0,53.6,98.55,0.0,0.0,30.19,7.0,54.0
2021-08-02 05:00:00,53.0,52.7,99.27,0.0,0.0,30.19,10.0,52.9
2021-08-02 06:00:00,51.8,51.8,100.0,0.0,0.0,30.19,7.0,51.8
2021-08-02 07:00:00,51.3,51.3,100.0,0.0,0.0,30.2,10.0,51.3
2021-08-02 08:00:00,53.0,53.0,99.27,0.0,0.0,30.2,10.0,53.1
2021-08-02 09:00:00,52.7,52.7,100.0,0.0,0.0,30.2,10.0,52.7
2021-08-02 10:00:00,54.0,54.0,100.0,0.0,0.0,30.21,10.0,54.0
2021-08-02 11:00:00,54.5,54.0,98.55,0.0,0.0,30.22,10.0,54.5
2021-08-02 12:00:00,59.0,56.3,90.74,0.0,0.0,30.21,10.0,59.0
2021-08-02 13:00:00,61.7,57.2,85.16,210.0,3.0,30.21,10.0,61.7
2021-08-02 14:00:00,66.6,58.5,75.17,250.0,4.0,30.2,10.0,66.6
2021-08-02 15:00:00,70.7,58.0,64.37,290.0,5.0,30.19,10.0,70.7
2021-08-02 16:00:00,73.6,58.5,59.2,260.0,4.0,30.18,7.0,73.6
2021-08-02 17:00:00,74.7,56.8,53.67,260.0,7.0,30.16,10.0,74.7
2021-08-02 18:00:00,76.5,57.0,50.91,310.0,6.0,30.14,10.0,76.5
2021-08-02 19:00:00,75.4,56.3,51.49,280.0,3.0,30.14,7.0,75.4
2021-08-02 20:00:00,77.7,57.2,49.28,260.0,5.0,30.13,5.0,77.7
2021-08-02 21:00:00,76.8,57.7,51.69,290.0,6.0,30.11,7.0,76.8
2021-08-02 22:00:00,76.8,58.0,52.06,260.0,4.0,30.11,7.0,76.8
2021-08-02 23:00:00,75.2,60.4,60.04,0.0,0.0,30.11,7.0,75.2
2021-08-03 00:00:00,71.4,63.0,75.08,0.0,0.0,30.1,7.0,71.4
2021-08-03 01:00:00,66.4,60.4,81.01,0.0,0.0,30.1,7.0,66.4
2021-08-03 02:00:00,62.6,61.2,95.17,0.0,0.0,30.11,5.0,62.6
2021-08-03 03:00:00,60.8,60.3,98.24,0.0,0.0,30.11,5.0,60.8
2021-08-03 04:00:00,58.0,57.7,98.57,0.0,0.0,30.11,4.0,58.1
2021-08-03 05:00:00,58.0,58.0,100.0,0.0,0.0,30.11,7.0,57.9
2021-08-03 06:00:00,56.7,56.7,100.0,0.0,0.0,30.09,0.25,56.7
2021-08-03 07:00:00,55.0,55.0,100.0,0.0,0.0,30.09,7.0,54.9
2021-08-03 08:00:00,54.7,54.7,100.0,0.0,0.0,30.1,7.0,54.7
2021-08-03 09:00:00,54.5,54.5,100.0,0.0,0.0,30.11,4.0,54.5
2021-08-03 10:00:00,54.7,54.7,100.0,0.0,0.0,30.11,0.75,54.7
2021-08-03 11:00:00,53.8,53.8,100.0,0.0,0.0,30.12,2.5,53.8
2021-08-03 12:00:00,57.4,57.4,100.0,0.0,0.0,30.12,7.0,57.4
2021-08-03 13:00:00,62.2,59.5,90.86,10.0,3.0,30.14,10.0,62.2
2021-08-03 14:00:00,66.6,60.4,80.45,0.0,0.0,30.13,10.0,66.6
2021-08-03 15:00:00,71.0,62.2,73.48,0.0,0.0,30.12,7.0,71.1
2021-08-03 16:00:00,74.8,62.0,64.63,230.0,3.0,30.11,4.0,74.8
2021-08-03 17:00:00,77.0,61.7,59.22,240.0,4.0,30.1,7.0,77.0
2021-08-03 18:00:00,78.0,60.3,54.7,230.0,5.0,30.09,7.0,77.9
2021-08-03 19:00:00,79.0,60.3,52.75,230.0,5.0,30.08,7.0,79.0
2021-08-03 20:00:00,79.2,58.6,49.32,220.0,7.0,30.08,7.0,79.2
2021-08-03 21:00:00,79.2,58.0,48.44,220.0,5.0,30.08,7.0,79.2
2021-08-03 22:00:00,78.6,60.0,53.07,220.0,4.0,30.07,5.0,78.6
2021-08-03 23:00:00,77.4,61.0,57.01,0.0,0.0,30.07,7.0,77.4
2021-08-04 00:00:00,73.6,64.0,71.68,170.0,4.0,30.07,7.0,73.6
2021-08-04 01:00:00,69.0,62.6,80.33,170.0,3.0,30.08,7.0,68.9
2021-08-04 02:00:00,66.4,61.7,84.83,0.0,0.0,30.09,4.0,66.4
2021-08-04 03:00:00,64.4,61.0,88.72,0.0,0.0,30.09,7.0,64.4
2021-08-04 04:00:00,62.8,60.6,92.52,0.0,0.0,30.09,7.0,62.8
2021-08-04 05:00:00,61.0,59.0,93.12,0.0,0.0,30.1,5.0,61.0
2021-08-04 06:00:00,59.5,59.2,98.93,0.0,0.0,30.09,5.0,59.5
2021-08-04 07:00:00,59.4,59.2,99.29,0.0,0.0,30.09,4.0,59.4
2021-08-04 08:00:00,58.0,57.7,98.57,0.0,0.0,30.1,5.0,58.1
2021-08-04 09:00:00,58.5,58.5,100.0,0.0,0.0,30.1,2.5,58.5
2021-08-04 10:00:00,56.7,56.3,98.56,0.0,0.0,30.11,5.0,56.7
2021-08-04 11:00:00,58.0,57.6,98.93,0.0,0.0,30.12,5.0,57.9
2021-08-04 12:00:00,62.6,60.0,90.88,0.0,0.0,30.12,7.0,62.6
2021-08-04 13:00:00,66.4,62.2,86.34,0.0,0.0,30.13,7.0,66.4
2021-08-04 14:00:00,71.4,64.0,77.21,260.0,4.0,30.13,7.0,71.4
2021-08-04 15:00:00,74.5,63.3,68.1,250.0,5.0,30.13,7.0,74.5
2021-08-04 16:00:00,76.8,63.0,62.63,190.0,5.0,30.12,7.0,76.8
2021-08-04 17:00:00,78.8,62.8,58.01,220.0,7.0,30.11,7.0,78.8
2021-08-04 18:00:00,79.7,62.0,54.56,210.0,7.0,30.1,7.0,79.7
2021-08-04 19:00:00,80.6,59.2,48.13,170.0,7.0,30.09,7.0,81.15
2021-08-04 20:00:00,80.8,58.3,46.3,220.0,6.0,30.08,7.0,81.13
2021-08-04 21:00:00,79.7,58.6,48.52,210.0,7.0,30.06,7.0,79.7
2021-08-04 22:00:00,77.4,60.3,55.61,190.0,5.0,30.06,5.0,77.4
2021-08-04 23:00:00,78.8,61.7,55.8,180.0,6.0,30.05,7.0,78.8
2021-08-05 00:00:00,74.7,62.0,64.85,190.0,5.0,30.06,7.0,74.7
2021-08-05 01:00:00,68.7,62.8,81.46,160.0,5.0,30.06,7.0,68.7
2021-08-05 02:00:00,67.8,62.0,81.4,160.0,3.0,30.06,10.0,67.8
2021-08-05 03:00:00,65.8,61.5,86.0,160.0,4.0,30.06,10.0,65.8
2021-08-05 04:00:00,66.2,62.0,86.02,170.0,3.0,30.06,7.0,66.2
2021-08-05 05:00:00,67.0,61.2,81.91,150.0,3.0,30.04,10.0,66.9
2021-08-05 06:00:00,65.8,62.2,88.16,160.0,3.0,30.03,10.0,65.8
2021-08-05 07:00:00,66.2,62.0,86.02,150.0,3.0,30.01,10.0,66.2
2021-08-05 08:00:00,65.7,61.3,85.69,140.0,3.0,30.02,10.0,65.7
2021-08-05 09:00:00,63.0,60.4,90.9,0.0,0.0,30.01,7.0,63.1
2021-08-05 10:00:00,62.6,60.3,92.18,140.0,4.0,30.0,10.0,62.6
2021-08-05 11:00:00,64.0,61.2,90.93,150.0,5.0,30.0,7.0,63.9
2021-08-05 12:00:00,65.3,61.7,88.13,150.0,4.0,30.0,10.0,65.3
2021-08-05 13:00:00,66.4,61.7,84.83,160.0,4.0,30.0,10.0,66.4
2021-08-05 14:00:00,68.0,61.0,78.3,180.0,9.0,29.99,10.0,68.0
2021-08-05 15:00:00,67.0,64.6,91.68,150.0,7.0,29.99,10.0,67.1
2021-08-05 16:00:00,69.4,64.6,84.71,180.0,9.0,29.98,10.0,69.4
2021-08-05 17:00:00,69.0,64.2,84.98,180.0,9.0,29.97,7.0,68.9
2021-08-05 18:00:00,69.0,64.0,84.38,180.0,10.0,29.96,10.0,68.9
2021-08-05 19:00:00,68.4,64.4,87.05,170.0,11.0,29.95,10.0,68.4
2021-08-05 20:00:00,68.4,64.6,87.66,170.0,9.0,29.94,10.0,68.4
2021-08-05 21:00:00,68.4,64.6,87.66,170.0,9.0,29.93,10.0,68.4
2021-08-05 22:00:00,68.4,64.8,88.28,160.0,7.0,29.92,10.0,68.4
2021-08-05 23:00:00,69.0,65.0,87.09,160.0,9.0,29.9,10.0,69.1
2021-08-06 00:00:00,68.0,64.8,89.5,160.0,5.0,29.9,10.0,68.0
2021-08-06 01:00:00,67.3,64.6,91.05,130.0,7.0,29.88,10.0,67.3
2021-08-06 02:00:00,69.0,64.4,85.57,290.0,3.0,29.94,10.0,68.9
2021-08-06 03:00:00,66.2,65.3,96.92,180.0,5.0,29.91,5.0,66.2
2021-08-06 04:00:00,65.3,64.4,96.91,200.0,8.0,29.9,10.0,65.3
2021-08-06 05:00:00,63.5,62.2,95.53,230.0,5.0,29.88,10.0,63.5
2021-08-06 06:00:00,62.8,62.0,97.56,0.0,0.0,29.88,10.0,62.8
2021-08-06 07:00:00,62.0,61.7,98.6,0.0,0.0,29.89,7.0,62.1
2021-08-06 08:00:00,61.2,61.2,100.0,0.0,0.0,29.89,3.0,61.2
2021-08-06 09:00:00,62.0,61.7,99.3,0.0,0.0,29.91,7.0,61.9
2021-08-06 10:00:00,62.6,62.6,100.0,0.0,0.0,29.91,2.0,62.6
2021-08-06 11:00:00,62.6,62.6,100.0,0.0,0.0,29.92,0.25,62.6
2021-08-06 12:00:00,63.5,63.5,100.0,0.0,0.0,29.93,0.5,63.5
2021-08-06 13:00:00,63.7,63.7,100.0,0.0,0.0,29.94,0.75,63.7
2021-08-06 14:00:00,66.2,64.8,95.25,0.0,0.0,29.95,5.0,66.2
2021-08-06 15:00:00,68.0,65.3,91.08,290.0,3.0,29.95,7.0,68.0
2021-08-06 16:00:00,72.3,66.2,81.15,0.0,0.0,29.96,7.0,72.3
2021-08-06 17:00:00,73.4,66.2,78.19,0.0,0.0,29.95,7.0,73.4
2021-08-06 18:00:00,74.8,66.2,74.6,10.0,3.0,29.95,7.0,74.8
2021-08-06 19:00:00,77.7,66.7,68.93,10.0,4.0,29.94,5.0,77.7
2021-08-06 20:00:00,77.0,64.6,65.58,360.0,4.0,29.94,7.0,77.0
2021-08-06 21:00:00,77.0,66.0,68.85,0.0,0.0,29.94,7.0,77.0
2021-08-06 22:00:00,78.8,63.7,59.87,0.0,0.0,29.93,5.0,78.8
2021-08-06 23:00:00,77.2,64.6,65.14,50.0,3.0,29.91,7.0,77.2
2021-08-07 00:00:00,72.0,67.6,86.04,0.0,0.0,29.93,7.0,72.0
2021-08-07 01:00:00,67.0,65.5,94.6,0.0,0.0,29.95,7.0,67.1
2021-08-07 02:00:00,64.8,64.4,98.61,0.0,0.0,29.97,5.0,64.8
2021-08-07 03:00:00,62.4,62.0,98.95,0.0,0.0,29.97,3.0,62.4
2021-08-07 04:00:00,62.8,62.6,99.3,350.0,3.0,29.97,2.5,62.8
2021-08-07 05:00:00,61.7,61.5,99.29,0.0,0.0,29.96,2.5,61.7
2021-08-07 06:00:00,62.0,62.0,100.0,0.0,0.0,29.96,4.0,61.9
2021-08-07 07:00:00,59.2,59.0,99.29,0.0,0.0,29.95,5.0,59.2
2021-08-07 08:00:00,58.6,58.6,100.0,30.0,4.0,29.93,0.75,58.6
2021-08-07 09:00:00,60.0,60.0,100.0,0.0,0.0,29.93,4.0,59.9
2021-08-07 10:00:00,60.0,60.0,100.0,0.0,0.0,29.95,5.0,60.1
2021-08-07 11:00:00,62.6,62.0,97.56,80.0,3.0,29.94,7.0,62.6
2021-08-07 12:00:00,63.3,62.6,97.57,140.0,4.0,29.94,7.0,63.3
2021-08-07 13:00:00,64.4,64.4,100.0,90.0,5.0,29.93,7.0,64.4
2021-08-07 14:00:00,65.3,65.0,98.62,90.0,6.0,29.91,7.0,65.3
2021-08-07 15:00:00,66.2,65.7,98.28,110.0,7.0,29.91,10.0,66.2
2021-08-07 16:00:00,66.2,65.7,98.28,110.0,8.0,29.91,7.0,66.2
2021-08-07 17:00:00,67.5,67.0,98.63,70.0,5.0,29.88,5.0,67.5
2021-08-07 18:00:00,67.6,67.3,98.97,0.0,0.0,29.9,2.0,67.6
2021-08-07 19:00:00,68.2,67.5,97.62,80.0,3.0,29.89,7.0,68.2
2021-08-07 20:00:00,67.5,66.7,97.27,110.0,6.0,29.88,5.0,67.5
2021-08-07 21:00:00,67.0,66.4,97.61,140.0,4.0,29.87,7.0,67.1
2021-08-07 22:00:00,69.3,68.0,95.63,100.0,5.0,29.84,7.0,69.3
2021-08-07 23:00:00,69.0,67.0,92.71,100.0,3.0,29.84,10.0,69.1
2021-08-08 00:00:00,68.5,67.0,94.63,70.0,4.0,29.84,7.0,68.5
2021-08-08 01:00:00,67.6,66.7,96.94,50.0,5.0,29.84,10.0,67.6
2021-08-08 02:00:00,67.5,66.4,96.27,70.0,4.0,29.84,7.0,67.5
2021-08-08 03:00:00,67.0,66.2,96.93,70.0,5.0,29.83,5.0,67.1
2021-08-08 04:00:00,67.0,66.2,96.93,70.0,5.0,29.82,7.0,67.1
2021-08-08 05:00:00,67.0,66.2,96.93,100.0,4.0,29.81,7.0,67.1
2021-08-08 06:00:00,67.0,66.2,96.93,50.0,3.0,29.8,7.0,67.1
2021-08-08 07:00:00,67.0,66.2,96.93,80.0,4.0,29.77,5.0,67.1
2021-08-08 08:00:00,67.0,66.6,98.29,100.0,3.0,29.76,4.0,67.1
2021-08-08 09:00:00,67.0,67.0,100.0,70.0,3.0,29.76,0.75,67.1
2021-08-08 10:00:00,67.0,67.0,100.0,90.0,3.0,29.76,0.25,67.1
2021-08-08 11:00:00,67.0,67.0,100.0,150.0,8.0,29.79,0.25,67.1
2021-08-08 12:00:00,68.0,66.7,95.61,190.0,5.0,29.81,10.0,68.0
2021-08-08 13:00:00,67.5,67.0,98.63,0.0,0.0,29.81,3.0,67.5
2021-08-08 14:00:00,67.5,67.0,98.63,360.0,4.0,29.75,7.0,67.5
2021-08-08 15:00:00,70.3,69.3,96.64,0.0,0.0,29.75,7.0,70.3
2021-08-08 16:00:00,71.8,69.6,92.78,180.0,4.0,29.78,10.0,71.8
2021-08-08 17:00:00,74.3,70.7,88.55,150.0,7.0,29.77,10.0,74.3
2021-08-08 18:00:00,79.2,71.0,75.77,190.0,6.0,29.76,7.0,79.2
2021-08-08 19:00:00,77.5,71.0,80.69,190.0,5.0,29.76,10.0,77.5
2021-08-08 20:00:00,77.0,69.8,78.48,180.0,6.0,29.76,5.0,77.0
2021-08-08 21:00:00,77.2,70.2,79.03,200.0,3.0,29.76,7.0,77.2
2021-08-08 22:00:00,74.8,70.7,87.08,0.0,0.0,29.76,10.0,74.8
2021-08-08 23:00:00,71.6,69.0,91.83,120.0,5.0,29.78,10.0,71.6
2021-08-09 00:00:00,69.0,68.4,98.3,0.0,0.0,29.78,4.0,68.9
2021-08-09 01:00:00,69.0,68.5,98.64,0.0,0.0,29.79,7.0,68.9
2021-08-09 02:00:00,68.2,68.2,100.0,170.0,4.0,29.8,7.0,68.2
2021-08-09 03:00:00,68.2,67.6,97.95,100.0,3.0,29.81,10.0,68.2
2021-08-09 04:00:00,68.0,67.8,99.31,140.0,4.0,29.8,7.0,68.0
2021-08-09 05:00:00,67.6,67.3,98.97,0.0,0.0,29.8,10.0,67.6
2021-08-09 06:00:00,66.7,66.7,100.0,360.0,3.0,29.81,5.0,66.7
2021-08-09 07:00:00,66.4,66.4,100.0,0.0,0.0,29.8,7.0,66.4
2021-08-09 08:00:00,65.7,65.7,100.0,0.0,0.0,29.79,4.0,65.7
2021-08-09 09:00:00,66.2,66.2,100.0,0.0,0.0,29.8,5.0,66.2
2021-08-09 10:00:00,66.4,66.4,100.0,0.0,0.0,29.82,4.0,66.4
2021-08-09 11:00:00,66.2,66.2,100.0,20.0,3.0,29.83,5.0,66.2
2021-08-09 12:00:00,66.6,66.6,100.0,30.0,4.0,29.83,5.0,66.6
2021-08-09 13:00:00,69.0,68.2,97.62,10.0,4.0,29.83,10.0,68.9
2021-08-09 14:00:00,73.0,69.3,88.19,80.0,4.0,29.84,10.0,73.0
2021-08-09 15:00:00,75.4,70.0,83.34,80.0,5.0,29.85,10.0,75.4
2021-08-09 16:00:00,77.5,70.2,78.25,160.0,4.0,29.86,10.0,77.5
2021-08-09 17:00:00,79.3,70.2,73.74,90.0,8.0,29.86,10.0,79.3
2021-08-09 18:00:00,80.4,69.8,70.17,60.0,4.0,29.86,10.0,83.63
2021-08-09 19:00:00,81.7,70.3,68.41,120.0,6.0,29.84,10.0,85.56
2021-08-09 20:00:00,82.8,70.7,66.92,90.0,3.0,29.84,10.0,87.21
2021-08-09 21:00:00,82.8,68.7,62.5,0.0,0.0,29.84,10.0,86.16
2021-08-09 22:00:00,82.6,69.8,65.32,0.0,0.0,29.84,10.0,86.47
2021-08-09 23:00:00,82.0,70.5,68.43,0.0,0.0,29.83,10.0,85.92
2021-08-10 00:00:00,77.4,72.5,84.89,0.0,0.0,29.83,10.0,77.4
2021-08-10 01:00:00,72.5,70.3,92.81,0.0,0.0,29.84,10.0,72.5
2021-08-10 02:00:00,70.0,69.6,98.64,0.0,0.0,29.87,7.0,70.0
2021-08-10 03:00:00,68.7,68.5,99.32,0.0,0.0,29.88,1.0,68.7
2021-08-10 04:00:00,68.0,68.0,100.0,0.0,0.0,29.88,1.75,68.0
2021-08-10 05:00:00,66.4,66.4,100.0,0.0,0.0,29.88,0.25,66.4
2021-08-10 06:00:00,65.3,65.3,100.0,0.0,0.0,29.86,5.0,65.3
2021-08-10 07:00:00,67.0,67.0,100.0,0.0,0.0,29.84,3.0,66.9
2021-08-10 08:00:00,65.3,65.3,100.0,0.0,0.0,29.84,7.0,65.3
2021-08-10 09:00:00,65.7,65.7,100.0,130.0,3.0,29.83,7.0,65.7
2021-08-10 10:00:00,67.0,67.0,100.0,140.0,3.0,29.81,5.0,67.1
2021-08-10 11:00:00,68.0,68.0,100.0,140.0,5.0,29.82,7.0,68.0
2021-08-10 12:00:00,69.4,68.7,97.63,130.0,4.0,29.82,10.0,69.4
2021-08-10 13:00:00,71.6,69.8,94.06,130.0,5.0,29.81,10.0,71.6
2021-08-10 14:00:00,72.5,70.3,92.81,180.0,4.0,29.82,10.0,72.5
2021-08-10 15:00:00,73.0,70.3,91.56,220.0,9.0,29.84,10.0,72.9
2021-08-10 16:00:00,73.4,71.2,92.83,0.0,0.0,29.8,10.0,73.4
2021-08-10 17:00:00,76.8,72.5,86.59,210.0,8.0,29.81,10.0,76.8
2021-08-10 18:00:00,80.0,72.0,76.87,230.0,9.0,29.81,10.0,79.9
2021-08-10 19:00:00,80.0,70.0,71.35,240.0,7.0,29.79,10.0,83.28
2021-08-10 20:00:00,82.0,69.0,64.79,250.0,6.0,29.76,10.0,85.19
2021-08-10 21:00:00,81.5,63.7,54.81,250.0,7.0,29.77,10.0,82.92
2021-08-10 22:00:00,80.8,65.3,59.3,240.0,3.0,29.76,10.0,82.71
2021-08-10 23:00:00,79.7,65.8,62.55,220.0,3.0,29.77,10.0,79.7
2021-08-11 00:00:00,76.0,68.5,77.85,0.0,0.0,29.77,10.0,75.9
2021-08-11 01:00:00,69.8,67.5,92.41,170.0,3.0,29.77,10.0,69.8
2021-08-11 02:00:00,66.6,65.0,94.26,190.0,4.0,29.78,10.0,66.6
2021-08-11 03:00:00,65.5,64.2,95.57,0.0,0.0,29.79,10.0,65.5
2021-08-11 04:00:00,65.0,63.7,95.22,0.0,0.0,29.79,10.0,65.1
2021-08-11 05:00:00,61.0,60.4,97.89,0.0,0.0,29.77,10.0,61.0
2021-08-11 06:00:00,60.8,60.0,97.54,0.0,0.0,29.76,10.0,60.8
2021-08-11 07:00:00,61.3,60.8,98.24,140.0,6.0,29.73,10.0,61.3
2021-08-11 08:00:00,61.3,60.8,98.24,140.0,6.0,29.73,10.0,61.3
2021-08-11 09:00:00,61.0,60.3,97.54,150.0,3.0,29.7,10.0,61.0
2021-08-11 10:00:00,62.6,61.2,95.17,0.0,0.0,29.69,10.0,62.6
2021-08-11 11:00:00,62.6,61.7,96.87,0.0,0.0,29.69,10.0,62.6
2021-08-11 12:00:00,67.0,64.8,92.96,180.0,4.0,29.68,10.0,66.9
2021-08-11 13:00:00,68.7,68.2,98.3,210.0,6.0,29.67,7.0,68.7
2021-08-11 14:00:00,71.2,69.4,94.05,270.0,3.0,29.67,7.0,71.2
2021-08-11 15:00:00,75.2,68.2,78.88,270.0,7.0,29.68,10.0,75.2
2021-08-11 16:00:00,78.0,69.3,74.88,270.0,7.0,29.7,10.0,77.9
2021-08-11 17:00:00,77.2,66.6,69.83,280.0,8.0,29.69,10.0,77.2
2021-08-11 18:00:00,78.6,67.0,67.84,300.0,8.0,29.69,10.0,78.6
2021-08-11 19:00:00,77.5,63.5,62.06,280.0,11.0,29.7,10.0,77.5
2021-08-11 20:00:00,77.5,58.5,51.98,260.0,8.0,29.71,10.0,77.5
2021-08-11 21:00:00,78.0,55.8,46.54,250.0,8.0,29.71,10.0,77.9
2021-08-11 22:00:00,77.2,53.6,43.96,260.0,6.0,29.72,10.0,77.2
2021-08-11 23:00:00,76.3,56.5,50.33,250.0,5.0,29.72,10.0,76.3
2021-08-12 00:00:00,72.3,55.6,55.71,240.0,4.0,29.73,10.0,72.3
2021-08-12 01:00:00,67.8,55.0,63.32,240.0,5.0,29.76,10.0,67.8
2021-08-12 02:00:00,66.4,55.0,66.46,230.0,4.0,29.78,10.0,66.4
2021-08-12 03:00:00,65.0,54.7,69.51,230.0,3.0,29.78,10.0,64.9
2021-08-12 04:00:00,63.0,55.0,74.84,0.0,0.0,29.78,10.0,63.0
2021-08-12 05:00:00,62.0,54.7,76.69,0.0,0.0,29.78,10.0,62.1
2021-08-12 06:00:00,60.8,54.7,80.3,0.0,0.0,29.79,10.0,60.8
2021-08-12 07:00:00,62.0,56.7,82.46,0.0,0.0,29.78,10.0,62.1
2021-08-12 08:00:00,64.4,55.6,73.09,220.0,4.0,29.79,10.0,64.4
2021-08-12 09:00:00,64.4,55.4,72.56,230.0,3.0,29.79,10.0,64.4
2021-08-12 10:00:00,63.0,56.0,77.61,0.0,0.0,29.79,10.0,63.0
2021-08-12 11:00:00,61.5,59.0,91.49,0.0,0.0,29.82,10.0,61.5
2021-08-12 12:00:00,66.7,58.8,75.72,220.0,3.0,29.83,10.0,66.7
2021-08-12 13:00:00,66.6,59.7,78.47,0.0,0.0,29.84,10.0,66.6
2021-08-12 14:00:00,64.8,61.0,87.49,270.0,5.0,29.87,10.0,64.8
2021-08-12 15:00:00,71.0,62.0,73.72,270.0,10.0,29.88,10.0,70.9
2021-08-12 16:00:00,74.3,60.0,61.22,270.0,8.0,29.89,10.0,74.3
2021-08-12 17:00:00,75.6,58.6,55.56,280.0,10.0,29.9,10.0,75.6
2021-08-12 18:00:00,76.5,56.8,50.54,250.0,10.0,29.91,10.0,76.5
2021-08-12 19:00:00,76.0,54.0,46.43,260.0,8.0,29.92,10.0,76.1
2021-08-12 20:00:00,76.3,53.0,44.14,280.0,8.0,29.92,7.0,76.3
2021-08-12 21:00:00,76.0,53.0,44.44,260.0,9.0,29.93,10.0,76.1
2021-08-12 22:00:00,74.8,51.6,44.24,260.0,10.0,29.93,10.0,74.8
2021-08-12 23:00:00,74.8,51.6,44.24,260.0,10.0,29.93,10.0,74.8
2021-08-13 00:00:00,69.0,48.2,47.6,290.0,4.0,29.96,10.0,68.9
2021-08-13 01:00:00,61.5,51.6,69.91,0.0,0.0,29.99,10.0,61.5
2021-08-13 02:00:00,56.0,52.3,87.04,0.0,0.0,30.02,7.0,56.1
2021-08-13 03:00:00,55.6,51.0,84.17,0.0,0.0,30.02,10.0,55.6
2021-08-13 04:00:00,53.6,51.0,91.21,0.0,0.0,30.03,10.0,53.6
2021-08-13 05:00:00,51.8,51.0,97.45,0.0,0.0,30.02,7.0,51.8
2021-08-13 06:00:00,51.3,50.4,96.72,0.0,0.0,30.02,10.0,51.3
2021-08-13 07:00:00,50.5,50.4,99.63,0.0,0.0,30.03,10.0,50.5
2021-08-13 08:00:00,50.0,49.5,98.16,0.0,0.0,30.04,10.0,50.0
2021-08-13 09:00:00,49.5,49.0,98.52,0.0,0.0,30.06,10.0,49.5
2021-08-13 10:00:00,48.6,48.4,99.25,0.0,0.0,30.08,10.0,48.6
2021-08-13 11:00:00,49.6,49.5,99.63,0.0,0.0,30.09,10.0,49.6
2021-08-13 12:00:00,55.8,52.7,89.3,300.0,3.0,30.11,10.0,55.8
2021-08-13 13:00:00,60.8,53.6,77.14,310.0,4.0,30.11,10.0,60.8
2021-08-13 14:00:00,64.4,51.0,61.98,350.0,5.0,30.14,10.0,64.4
2021-08-13 15:00:00,67.3,51.0,56.04,340.0,4.0,30.15,10.0,67.3
2021-08-13 16:00:00,68.5,49.5,50.66,300.0,8.0,30.15,7.0,68.5
2021-08-13 17:00:00,69.6,49.5,48.79,290.0,7.0,30.15,7.0,69.6
2021-08-13 18:00:00,71.0,49.0,45.64,270.0,7.0,30.15,5.0,70.9
2021-08-13 19:00:00,71.8,48.2,43.12,290.0,8.0,30.14,7.0,71.8
2021-08-13 20:00:00,72.5,48.6,42.75,280.0,8.0,30.14,7.0,72.5
2021-08-13 21:00:00,72.7,46.2,38.79,270.0,7.0,30.14,7.0,72.7
2021-08-13 22:00:00,72.5,48.4,42.43,250.0,5.0,30.14,7.0,72.5
2021-08-13 23:00:00,71.0,49.5,46.36,260.0,4.0,30.13,7.0,71.1
2021-08-14 00:00:00,65.0,55.4,71.31,0.0,0.0,30.14,7.0,64.9
2021-08-14 01:00:00,58.8,53.2,81.63,0.0,0.0,30.16,7.0,58.8
2021-08-14 02:00:00,55.8,54.7,96.08,0.0,0.0,30.17,7.0,55.8
2021-08-14 03:00:00,53.0,51.8,95.33,0.0,0.0,30.18,10.0,53.1
2021-08-14 04:00:00,52.5,52.3,99.27,0.0,0.0,30.19,10.0,52.5
2021-08-14 05:00:00,51.0,51.0,100.0,0.0,0.0,30.2,7.0,50.9
2021-08-14 06:00:00,50.0,50.0,100.0,0.0,0.0,30.21,2.5,50.0
2021-08-14 07:00:00,49.0,49.0,100.0,0.0,0.0,30.22,10.0,48.9
2021-08-14 08:00:00,47.8,47.8,100.0,0.0,0.0,30.22,10.0,47.8
2021-08-14 09:00:00,47.8,47.8,100.0,0.0,0.0,30.23,3.0,47.8
2021-08-14 10:00:00,45.5,45.5,100.0,0.0,0.0,30.24,0.25,45.5
2021-08-14 11:00:00,46.8,46.8,100.0,0.0,0.0,30.26,7.0,46.8
2021-08-14 12:00:00,52.2,51.6,97.81,0.0,0.0,30.27,10.0,52.2
2021-08-14 13:00:00,58.0,53.6,85.56,0.0,0.0,30.27,10.0,57.9
2021-08-14 14:00:00,65.0,55.0,70.28,0.0,0.0,30.27,10.0,64.9
2021-08-14 15:00:00,71.2,56.0,58.46,0.0,0.0,30.28,7.0,71.2
2021-08-14 16:00:00,74.0,51.8,45.62,0.0,0.0,30.28,7.0,74.1
2021-08-14 17:00:00,75.2,49.8,40.83,220.0,3.0,30.27,7.0,75.2
2021-08-14 18:00:00,76.8,52.0,42.0,0.0,0.0,30.26,7.0,76.8
2021-08-14 19:00:00,78.0,52.2,40.8,190.0,6.0,30.25,7.0,77.9
2021-08-14 20:00:00,78.8,54.3,42.77,180.0,7.0,30.23,7.0,78.8
2021-08-14 21:00:00,79.7,53.0,39.74,220.0,6.0,30.22,7.0,79.7
2021-08-14 22:00:00,78.8,54.3,42.77,210.0,7.0,30.2,7.0,78.8
2021-08-14 23:00:00,77.0,55.2,46.91,190.0,6.0,30.19,10.0,77.0
2021-08-15 00:00:00,71.4,57.7,61.96,170.0,6.0,30.18,7.0,71.4
2021-08-15 01:00:00,64.6,57.6,78.02,160.0,4.0,30.18,7.0,64.6
2021-08-15 02:00:00,65.0,56.8,75.01,0.0,0.0,30.19,7.0,64.9
2021-08-15 03:00:00,62.2,56.0,80.41,140.0,3.0,30.19,10.0,62.2
2021-08-15 04:00:00,60.6,55.4,82.96,160.0,3.0,30.19,10.0,60.6
2021-08-15 05:00:00,59.5,55.4,86.27,0.0,0.0,30.2,10.0,59.5
2021-08-15 06:00:00,57.4,54.5,90.02,140.0,3.0,30.19,10.0,57.4
2021-08-15 07:00:00,57.7,54.5,89.06,0.0,0.0,30.19,10.0,57.7
2021-08-15 08:00:00,57.2,54.0,89.36,140.0,3.0,30.19,10.0,57.2
2021-08-15 09:00:00,56.0,54.0,92.98,0.0,0.0,30.19,10.0,56.1
2021-08-15 10:00:00,55.0,53.0,92.95,130.0,3.0,30.2,10.0,54.9
2021-08-15 11:00:00,55.6,53.4,92.29,0.0,0.0,30.2,10.0,55.6
2021-08-15 12:00:00,62.4,56.5,81.01,140.0,3.0,30.22,10.0,62.4
2021-08-15 13:00:00,67.0,57.7,71.79,190.0,3.0,30.22,10.0,67.1
2021-08-15 14:00:00,71.8,57.6,60.91,190.0,8.0,30.22,10.0,71.8
2021-08-15 15:00:00,74.3,57.4,55.58,200.0,6.0,30.22,10.0,74.3
2021-08-15 16:00:00,76.5,58.0,52.96,180.0,6.0,30.2,10.0,76.5
2021-08-15 17:00:00,79.0,58.6,49.64,170.0,9.0,30.18,10.0,79.0
2021-08-15 18:00:00,79.5,57.6,47.11,170.0,9.0,30.16,10.0,79.5
2021-08-15 19:00:00,80.2,57.0,45.06,170.0,10.0,30.16,7.0,80.51
2021-08-15 20:00:00,80.4,59.0,48.1,200.0,8.0,30.14,10.0,80.97
2021-08-15 21:00:00,80.4,60.0,50.03,170.0,11.0,30.13,7.0,81.17
2021-08-15 22:00:00,79.3,59.4,50.58,200.0,8.0,30.11,10.0,79.3
2021-08-15 23:00:00,77.0,60.0,55.95,160.0,9.0,30.1,10.0,77.0
2021-08-16 00:00:00,72.5,60.8,66.69,160.0,6.0,30.1,7.0,72.5
2021-08-16 01:00:00,66.4,60.0,80.15,160.0,5.0,30.11,10.0,66.4
2021-08-16 02:00:00,62.6,58.3,85.82,150.0,5.0,30.11,10.0,62.6
2021-08-16 03:00:00,61.7,57.6,86.39,140.0,5.0,30.11,10.0,61.7
2021-08-16 04:00:00,60.6,57.0,87.91,150.0,4.0,30.11,10.0,60.6
2021-08-16 05:00:00,60.0,56.3,87.87,150.0,3.0,30.11,10.0,59.9
2021-08-16 06:00:00,57.4,55.4,93.02,0.0,0.0,30.1,10.0,57.4
2021-08-16 07:00:00,55.6,55.0,97.84,0.0,0.0,30.09,10.0,55.6
2021-08-16 08:00:00,55.6,55.0,97.84,0.0,0.0,30.09,10.0,55.6
2021-08-16 09:00:00,55.0,53.8,95.72,120.0,3.0,30.08,10.0,55.0
2021-08-16 10:00:00,55.6,54.0,94.68,0.0,0.0,30.08,10.0,55.6
2021-08-16 11:00:00,56.3,53.8,91.3,130.0,3.0,30.09,10.0,56.3
2021-08-16 12:00:00,61.0,56.0,83.29,140.0,4.0,30.09,10.0,61.0
2021-08-16 13:00:00,65.0,57.7,76.95,160.0,8.0,30.09,10.0,65.1
2021-08-16 14:00:00,70.0,59.5,69.31,190.0,4.0,30.1,10.0,70.0
2021-08-16 15:00:00,73.4,61.2,65.62,180.0,9.0,30.1,10.0,73.4
2021-08-16 16:00:00,75.2,60.3,59.83,170.0,13.0,30.09,10.0,75.2
2021-08-16 17:00:00,77.4,60.6,56.21,160.0,12.0,30.07,10.0,77.4
2021-08-16 18:00:00,78.0,60.0,53.57,160.0,12.0,30.06,10.0,78.1
2021-08-16 19:00:00,78.6,59.7,52.32,180.0,14.0,30.04,10.0,78.6
2021-08-16 20:00:00,78.6,58.8,50.66,150.0,9.0,30.02,10.0,78.6
2021-08-16 21:00:00,78.8,58.5,49.79,180.0,9.0,30.01,10.0,78.8
2021-08-16 22:00:00,78.0,58.8,51.85,170.0,8.0,30.0,10.0,77.9
2021-08-16 23:00:00,76.0,59.4,56.61,170.0,8.0,29.99,10.0,75.9
2021-08-17 00:00:00,70.0,59.0,68.09,160.0,6.0,29.99,10.0,70.0
2021-08-17 01:00:00,66.0,59.0,78.14,140.0,5.0,29.98,10.0,66.0
2021-08-17 02:00:00,63.7,58.8,84.06,140.0,6.0,29.99,10.0,63.7
2021-08-17 03:00:00,63.0,58.0,83.72,140.0,6.0,29.99,10.0,63.1
2021-08-17 04:00:00,61.7,57.4,85.77,140.0,6.0,29.99,10.0,61.7
2021-08-17 05:00:00,61.3,57.2,86.37,140.0,3.0,30.0,10.0,61.3
2021-08-17 06:00:00,58.8,56.0,90.08,0.0,0.0,29.99,10.0,58.8
2021-08-17 07:00:00,59.7,56.7,89.79,0.0,0.0,29.99,10.0,59.7
2021-08-17 08:00:00,59.0,57.0,93.07,0.0,0.0,29.99,10.0,59.0
2021-08-17 09:00:00,58.3,56.8,94.74,0.0,0.0,29.99,10.0,58.3
2021-08-17 10:00:00,58.0,56.5,94.4,120.0,3.0,30.0,10.0,58.1
2021-08-17 11:00:00,59.0,57.2,93.74,120.0,3.0,30.0,10.0,59.0
2021-08-17 12:00:00,62.0,58.5,88.6,130.0,4.0,30.0,10.0,61.9
2021-08-17 13:00:00,65.8,60.0,81.83,160.0,4.0,30.0,10.0,65.8
2021-08-17 14:00:00,71.2,61.0,70.19,180.0,10.0,29.99,10.0,71.2
2021-08-17 15:00:00,71.2,61.0,70.19,180.0,10.0,29.99,10.0,71.2
2021-08-17 16:00:00,77.4,65.0,65.39,170.0,8.0,29.98,10.0,77.4
2021-08-17 17:00:00,79.2,67.0,66.06,160.0,11.0,29.98,10.0,79.2
2021-08-17 18:00:00,81.0,67.6,63.59,170.0,12.0,29.96,10.0,83.74
2021-08-17 19:00:00,82.0,68.2,63.25,160.0,10.0,29.96,10.0,84.89
2021-08-17 20:00:00,82.0,68.7,64.35,150.0,12.0,29.94,10.0,85.1
2021-08-17 21:00:00,82.4,69.8,65.74,160.0,9.0,29.94,10.0,86.22
2021-08-17 22:00:00,80.6,69.4,68.76,160.0,11.0,29.94,10.0,83.76
2021-08-17 23:00:00,78.8,68.7,71.21,160.0,9.0,29.95,10.0,78.8
2021-08-18 00:00:00,74.8,68.7,81.32,150.0,4.0,29.96,10.0,74.8
2021-08-18 01:00:00,72.0,67.8,86.34,140.0,5.0,29.98,10.0,72.1
2021-08-18 02:00:00,71.0,67.3,87.79,130.0,6.0,29.99,10.0,71.1
2021-08-18 03:00:00,69.4,66.4,90.18,130.0,5.0,30.0,10.0,69.4
2021-08-18 04:00:00,69.0,65.7,89.54,140.0,4.0,30.01,10.0,68.9
2021-08-18 05:00:00,67.0,64.4,91.04,0.0,0.0,30.02,10.0,67.1
2021-08-18 06:00:00,65.5,63.7,93.91,0.0,0.0,30.02,10.0,65.5
2021-08-18 07:00:00,64.0,63.0,96.89,0.0,0.0,30.03,10.0,63.9
2021-08-18 08:00:00,63.3,62.4,96.88,0.0,0.0,30.04,10.0,63.3
2021-08-18 09:00:00,63.5,62.8,97.57,120.0,3.0,30.04,10.0,63.5
2021-08-18 10:00:00,62.0,61.3,97.9,0.0,0.0,30.06,10.0,61.9
2021-08-18 11:00:00,61.7,61.0,97.55,0.0,0.0,30.07,10.0,61.7
2021-08-18 12:00:00,64.8,62.2,91.28,110.0,4.0,30.09,10.0,64.8
2021-08-18 13:00:00,69.0,63.7,83.5,140.0,5.0,30.09,10.0,68.9
2021-08-18 14:00:00,72.0,65.8,80.84,160.0,4.0,30.09,10.0,72.0
2021-08-18 15:00:00,77.2,68.2,73.8,170.0,5.0,30.1,10.0,77.2
2021-08-18 16:00:00,80.6,69.3,68.53,200.0,5.0,30.09,10.0,83.72
2021-08-18 17:00:00,82.6,69.3,64.21,170.0,4.0,30.09,10.0,86.22
2021-08-18 18:00:00,83.3,68.2,60.45,150.0,8.0,30.09,10.0,86.49
2021-08-18 19:00:00,83.3,67.0,57.8,170.0,6.0,30.09,7.0,85.88
2021-08-18 20:00:00,85.0,68.4,57.44,170.0,10.0,30.08,10.0,88.64
2021-08-18 21:00:00,84.0,67.0,56.9,150.0,8.0,30.08,7.0,86.72
2021-08-18 22:00:00,83.0,66.6,57.57,170.0,7.0,30.07,7.0,85.53
2021-08-18 23:00:00,80.8,67.3,63.56,160.0,5.0,30.07,7.0,83.3
2021-08-19 00:00:00,76.6,67.8,74.25,150.0,4.0,30.07,7.0,76.6
2021-08-19 01:00:00,73.6,67.0,80.12,130.0,4.0,30.08,7.0,73.6
2021-08-19 02:00:00,72.0,66.2,81.7,120.0,5.0,30.09,7.0,72.1
2021-08-19 03:00:00,68.4,65.0,89.21,140.0,4.0,30.1,7.0,68.4
2021-08-19 04:00:00,67.3,65.5,93.95,0.0,0.0,30.1,10.0,67.3
2021-08-19 05:00:00,65.0,63.5,94.56,0.0,0.0,30.11,10.0,65.1
2021-08-19 06:00:00,63.7,63.5,99.3,0.0,0.0,30.11,5.0,63.7
2021-08-19 07:00:00,63.3,63.3,100.0,0.0,0.0,30.1,0.5,63.3
2021-08-19 08:00:00,61.0,61.0,100.0,0.0,0.0,30.09,1.0,61.0
2021-08-19 09:00:00,60.0,59.7,99.29,0.0,0.0,30.09,0.25,59.9
2021-08-19 10:00:00,60.8,60.8,100.0,0.0,0.0,30.09,0.25,60.8
2021-08-19 11:00:00,58.8,58.8,100.0,0.0,0.0,30.11,0.25,58.8
2021-08-19 12:00:00,64.8,64.4,98.61,120.0,3.0,30.12,10.0,64.8
2021-08-19 13:00:00,69.8,65.5,86.22,150.0,4.0,30.12,10.0,69.8
2021-08-19 14:00:00,74.3,66.7,77.19,140.0,5.0,30.11,10.0,74.3
2021-08-19 15:00:00,78.0,68.2,71.64,140.0,4.0,30.11,10.0,78.1
2021-08-19 16:00:00,82.0,70.2,67.52,160.0,3.0,30.1,7.0,85.91
2021-08-19 17:00:00,83.8,68.7,60.51,170.0,7.0,30.09,10.0,87.33
2021-08-19 18:00:00,85.0,66.0,53.21,190.0,6.0,30.08,10.0,87.13
2021-08-19 19:00:00,85.3,65.5,51.63,140.0,4.0,30.06,10.0,87.3
2021-08-19 20:00:00,86.2,64.8,48.95,200.0,6.0,30.04,10.0,87.89
2021-08-19 21:00:00,86.0,65.3,50.13,140.0,9.0,30.03,10.0,87.93
2021-08-19 22:00:00,84.6,64.0,49.93,150.0,7.0,30.02,10.0,85.9
2021-08-19 23:00:00,82.2,65.8,57.65,150.0,4.0,30.01,10.0,84.28
2021-08-20 00:00:00,78.4,67.6,69.48,120.0,4.0,30.0,10.0,78.4
2021-08-20 01:00:00,75.4,66.7,74.4,120.0,5.0,30.01,10.0,75.4
2021-08-20 02:00:00,72.3,66.7,82.56,120.0,4.0,30.02,10.0,72.3
2021-08-20 03:00:00,71.0,66.2,84.52,0.0,0.0,30.02,10.0,71.1
2021-08-20 04:00:00,68.5,65.3,89.52,0.0,0.0,30.02,10.0,68.5
2021-08-20 05:00:00,69.0,65.5,88.92,120.0,5.0,30.0,10.0,68.9
2021-08-20 06:00:00,66.6,64.4,92.63,0.0,0.0,30.0,10.0,66.6
2021-08-20 07:00:00,65.7,64.0,94.24,0.0,0.0,29.99,10.0,65.7
2021-08-20 08:00:00,64.8,63.3,94.88,0.0,0.0,29.98,10.0,64.8
2021-08-20 09:00:00,65.3,63.7,94.56,0.0,0.0,29.97,10.0,65.3
2021-08-20 10:00:00,64.2,63.0,95.88,0.0,0.0,29.97,10.0,64.2
2021-08-20 11:00:00,65.0,63.7,95.89,0.0,0.0,29.97,10.0,64.9
2021-08-20 12:00:00,68.2,65.3,90.45,110.0,3.0,29.97,10.0,68.2
2021-08-20 13:00:00,72.0,66.0,81.41,140.0,6.0,29.97,10.0,72.0
2021-08-20 14:00:00,74.7,67.5,78.3,150.0,7.0,29.96,10.0,74.7
2021-08-20 15:00:00,78.8,69.0,72.2,130.0,9.0,29.94,10.0,78.8
2021-08-20 16:00:00,81.3,69.4,67.21,170.0,11.0,29.92,10.0,84.65
2021-08-20 17:00:00,83.5,69.0,61.94,140.0,15.0,29.9,10.0,87.19
2021-08-20 18:00:00,84.6,69.0,59.38,130.0,13.0,29.88,10.0,88.36
2021-08-20 19:00:00,84.4,67.5,56.95,150.0,12.0,29.86,10.0,87.36
2021-08-20 20:00:00,86.2,68.5,55.64,160.0,15.0,29.84,10.0,89.95
2021-08-20 21:00:00,84.6,67.0,55.81,150.0,11.0,29.81,10.0,87.37
2021-08-20 22:00:00,83.7,66.2,55.69,140.0,13.0,29.8,10.0,85.98
2021-08-20 23:00:00,80.8,66.0,60.76,150.0,10.0,29.8,10.0,82.91
2021-08-21 00:00:00,78.0,67.0,68.97,140.0,9.0,29.76,10.0,78.1
2021-08-21 01:00:00,76.6,67.3,72.98,150.0,7.0,29.78,10.0,76.6
2021-08-21 02:00:00,76.0,67.5,74.72,130.0,9.0,29.76,10.0,76.1
2021-08-21 03:00:00,75.7,67.6,75.98,130.0,6.0,29.76,10.0,75.7
2021-08-21 04:00:00,75.4,67.6,76.75,150.0,13.0,29.72,10.0,75.4
2021-08-21 05:00:00,74.0,68.0,81.82,120.0,13.0,29.68,10.0,73.9
2021-08-21 06:00:00,72.0,68.7,89.36,160.0,6.0,29.71,10.0,72.0
2021-08-21 07:00:00,70.7,69.0,94.04,170.0,8.0,29.72,7.0,70.7
2021-08-21 08:00:00,70.3,68.0,92.42,180.0,8.0,29.72,10.0,70.3
2021-08-21 09:00:00,69.8,67.3,91.77,170.0,7.0,29.74,10.0,69.8
2021-08-21 10:00:00,69.3,67.0,92.71,200.0,5.0,29.75,10.0,69.3
2021-08-21 11:00:00,68.5,67.0,95.29,210.0,4.0,29.75,10.0,68.5
2021-08-21 12:00:00,69.0,67.3,94.64,210.0,5.0,29.77,10.0,68.9
2021-08-21 13:00:00,71.8,64.0,76.17,240.0,11.0,29.78,10.0,71.8
2021-08-21 14:00:00,71.0,61.2,71.41,250.0,11.0,29.81,10.0,70.9
2021-08-21 15:00:00,72.0,60.4,66.64,230.0,11.0,29.83,10.0,72.1
2021-08-21 16:00:00,71.8,60.3,67.08,250.0,9.0,29.84,10.0,71.8
2021-08-21 17:00:00,72.3,59.4,63.87,250.0,14.0,29.86,10.0,72.3
2021-08-21 18:00:00,70.7,55.6,58.81,270.0,11.0,29.88,10.0,70.7
2021-08-21 19:00:00,69.6,54.5,58.67,260.0,11.0,29.91,10.0,69.6
2021-08-21 20:00:00,69.0,54.5,60.09,260.0,9.0,29.92,10.0,68.9
2021-08-21 21:00:00,71.6,54.3,54.41,280.0,10.0,29.93,10.0,71.6
2021-08-21 22:00:00,71.4,54.3,54.78,270.0,8.0,29.94,10.0,71.4
2021-08-21 23:00:00,69.3,51.0,51.93,320.0,6.0,29.96,10.0,69.3
2021-08-22 00:00:00,65.3,52.0,62.09,0.0,0.0,29.97,10.0,65.3
2021-08-22 01:00:00,57.4,53.0,85.53,290.0,3.0,29.99,10.0,57.4
2021-08-22 02:00:00,55.4,53.6,93.65,0.0,0.0,30.02,10.0,55.4
2021-08-22 03:00:00,53.0,53.0,99.27,0.0,0.0,30.03,10.0,53.1
2021-08-22 04:00:00,51.6,51.4,99.26,0.0,0.0,30.05,2.5,51.6
2021-08-22 05:00:00,50.7,50.7,100.0,0.0,0.0,30.06,10.0,50.7
2021-08-22 06:00:00,49.6,49.3,98.89,0.0,0.0,30.07,10.0,49.6
2021-08-22 07:00:00,48.6,48.0,97.78,0.0,0.0,30.07,7.0,48.6
2021-08-22 08:00:00,48.0,48.0,100.0,0.0,0.0,30.09,0.25,48.0
2021-08-22 09:00:00,47.5,47.5,100.0,0.0,0.0,30.09,4.0,47.5
2021-08-22 10:00:00,44.8,44.8,100.0,0.0,0.0,30.11,0.25,44.8
2021-08-22 11:00:00,44.6,44.6,100.0,0.0,0.0,30.13,1.5,44.6
2021-08-22 12:00:00,51.3,51.0,99.26,0.0,0.0,30.13,10.0,51.3
2021-08-22 13:00:00,59.0,56.0,90.09,0.0,0.0,30.14,10.0,59.0
2021-08-22 14:00:00,65.7,55.0,68.35,110.0,5.0,30.13,10.0,65.7
2021-08-22 15:00:00,69.3,53.4,56.94,80.0,5.0,30.12,10.0,69.3
2021-08-22 16:00:00,71.2,53.8,54.15,90.0,8.0,30.11,10.0,71.2
2021-08-22 17:00:00,72.5,53.2,50.69,140.0,8.0,30.09,10.0,72.5
2021-08-22 18:00:00,74.5,53.2,47.39,130.0,7.0,30.07,10.0,74.5
2021-08-22 19:00:00,75.6,54.0,47.04,130.0,8.0,30.05,10.0,75.6
2021-08-22 20:00:00,76.6,54.3,46.0,150.0,7.0,30.02,10.0,76.6
2021-08-22 21:00:00,76.3,54.0,46.12,150.0,6.0,29.99,10.0,76.3
2021-08-22 22:00:00,75.2,53.8,47.33,160.0,9.0,29.98,10.0,75.2
2021-08-22 23:00:00,71.4,55.2,56.6,140.0,6.0,29.97,10.0,71.4
2021-08-23 00:00:00,69.0,56.3,64.15,140.0,3.0,29.98,10.0,68.9
2021-08-23 01:00:00,64.8,59.4,82.64,270.0,3.0,30.01,10.0,64.8
2021-08-23 02:00:00,64.6,60.8,87.48,130.0,9.0,29.93,10.0,64.6
2021-08-23 03:00:00,63.5,59.4,86.49,190.0,6.0,29.94,10.0,63.5
2021-08-23 04:00:00,63.5,60.6,90.27,160.0,8.0,29.95,10.0,63.5
2021-08-23 05:00:00,62.2,60.0,92.17,170.0,3.0,29.94,10.0,62.2
2021-08-23 06:00:00,63.0,60.6,91.54,140.0,3.0,29.94,10.0,63.1
2021-08-23 07:00:00,63.0,60.6,91.54,140.0,3.0,29.94,10.0,63.1
2021-08-23 08:00:00,60.8,59.2,94.46,120.0,3.0,29.92,10.0,60.8
2021-08-23 09:00:00,62.6,60.0,90.88,140.0,6.0,29.91,10.0,62.6
2021-08-23 10:00:00,63.0,60.4,91.22,140.0,5.0,29.89,10.0,63.0
2021-08-23 11:00:00,61.5,60.0,94.48,150.0,4.0,29.91,10.0,61.5
2021-08-23 12:00:00,64.4,61.7,90.94,160.0,5.0,29.92,10.0,64.4
2021-08-23 13:00:00,67.8,63.0,84.61,190.0,5.0,29.93,10.0,67.8
2021-08-23 14:00:00,69.3,64.2,83.82,190.0,6.0,29.94,10.0,69.3
2021-08-23 15:00:00,71.0,65.5,83.05,190.0,7.0,29.94,10.0,70.9
2021-08-23 16:00:00,75.2,67.5,77.0,210.0,5.0,29.93,10.0,75.2
2021-08-23 17:00:00,78.8,69.0,71.7,210.0,5.0,29.92,10.0,78.8
2021-08-23 18:00:00,80.0,69.8,71.33,230.0,5.0,29.92,10.0,79.9
2021-08-23 19:00:00,81.3,70.3,69.31,250.0,6.0,29.91,10.0,85.03
2021-08-23 20:00:00,84.0,69.0,60.95,220.0,6.0,29.91,10.0,87.78
2021-08-23 21:00:00,84.4,66.0,54.07,240.0,8.0,29.9,10.0,86.62
2021-08-23 22:00:00,84.2,62.8,48.66,230.0,5.0,29.89,10.0,85.1
2021-08-23 23:00:00,82.0,64.2,55.06,210.0,3.0,29.89,10.0,83.44
2021-08-24 00:00:00,74.8,66.4,75.12,0.0,0.0,29.89,10.0,74.8
2021-08-24 01:00:00,69.6,65.0,85.02,0.0,0.0,29.92,10.0,69.6
2021-08-24 02:00:00,67.0,64.6,92.32,0.0,0.0,29.94,7.0,66.9
2021-08-24 03:00:00,64.4,64.0,98.27,0.0,0.0,29.94,7.0,64.4
2021-08-24 04:00:00,64.2,64.0,98.96,0.0,0.0,29.95,10.0,64.2
2021-08-24 05:00:00,64.2,64.0,98.96,0.0,0.0,29.96,10.0,64.2
2021-08-24 06:00:00,64.0,64.0,99.65,0.0,0.0,29.95,7.0,64.0
2021-08-24 07:00:00,65.0,65.0,100.0,0.0,0.0,29.94,7.0,64.9
2021-08-24 08:00:00,63.5,63.5,100.0,0.0,0.0,29.94,0.25,63.5
2021-08-24 09:00:00,62.6,62.6,100.0,20.0,3.0,29.93,1.25,62.6
2021-08-24 10:00:00,66.7,66.7,100.0,0.0,0.0,29.92,0.25,66.7
2021-08-24 11:00:00,68.4,68.4,100.0,80.0,8.0,29.93,2.0,68.4
2021-08-24 12:00:00,69.6,69.4,99.32,110.0,7.0,29.9,10.0,69.6
2021-08-24 13:00:00,68.5,67.6,96.95,240.0,6.0,30.0,5.0,68.5
2021-08-24 14:00:00,67.6,67.0,98.29,70.0,8.0,29.93,7.0,67.6
2021-08-24 15:00:00,67.8,67.3,98.29,140.0,12.0,29.9,5.0,67.8
2021-08-24 16:00:00,67.0,66.2,96.93,150.0,11.0,29.79,10.0,67.1
2021-08-24 17:00:00,70.2,64.6,82.42,240.0,6.0,29.84,10.0,70.2
2021-08-24 18:00:00,71.6,66.2,83.09,160.0,7.0,29.85,10.0,71.6
2021-08-24 19:00:00,73.0,65.5,77.61,190.0,3.0,29.86,10.0,72.9
2021-08-24 20:00:00,75.7,65.8,71.39,190.0,4.0,29.86,10.0,75.7
2021-08-24 21:00:00,77.2,66.7,70.08,240.0,3.0,29.87,10.0,77.2
2021-08-24 22:00:00,76.3,67.0,73.21,0.0,0.0,29.88,10.0,76.3
2021-08-24 23:00:00,76.8,67.8,73.76,0.0,0.0,29.89,10.0,76.8
2021-08-25 00:00:00,72.0,69.0,90.29,0.0,0.0,29.89,10.0,72.1
2021-08-25 01:00:00,70.3,69.0,95.33,0.0,0.0,29.92,10.0,70.3
2021-08-25 02:00:00,70.2,67.5,91.15,140.0,4.0,29.94,10.0,70.2
2021-08-25 03:00:00,68.0,66.6,95.28,0.0,0.0,29.95,10.0,68.0
2021-08-25 04:00:00,65.8,65.7,99.65,0.0,0.0,29.96,10.0,65.8
2021-08-25 05:00:00,64.8,64.8,100.0,0.0,0.0,29.98,10.0,64.8
2021-08-25 06:00:00,63.0,63.0,100.0,0.0,0.0,29.98,0.25,63.1
2021-08-25 07:00:00,63.5,63.5,100.0,0.0,0.0,29.99,0.5,63.5
2021-08-25 08:00:00,61.2,61.2,100.0,0.0,0.0,30.0,0.25,61.2
2021-08-25 09:00:00,60.4,60.4,100.0,0.0,0.0,30.01,0.25,60.4
2021-08-25 10:00:00,60.0,60.0,100.0,0.0,0.0,30.01,0.5,59.9
2021-08-25 11:00:00,60.0,60.0,100.0,0.0,0.0,30.01,0.25,59.9
2021-08-25 12:00:00,62.6,62.6,100.0,0.0,0.0,30.04,1.25,62.6
2021-08-25 13:00:00,66.2,66.2,100.0,0.0,0.0,30.06,7.0,66.2
2021-08-25 14:00:00,70.5,69.0,94.68,290.0,4.0,30.09,7.0,70.5
2021-08-25 15:00:00,73.0,69.4,88.79,230.0,3.0,30.12,7.0,72.9
2021-08-25 16:00:00,76.3,69.6,79.78,270.0,5.0,30.11,7.0,76.3
2021-08-25 17:00:00,76.3,68.2,76.04,330.0,9.0,30.11,10.0,76.3
2021-08-25 18:00:00,76.5,67.8,74.5,340.0,7.0,30.12,10.0,76.5
2021-08-25 19:00:00,77.2,68.0,73.29,340.0,5.0,30.13,10.0,77.2
2021-08-25 20:00:00,77.5,65.3,66.09,330.0,5.0,30.11,10.0,77.5
2021-08-25 21:00:00,77.2,63.0,61.59,330.0,6.0,30.12,10.0,77.2
2021-08-25 22:00:00,76.0,59.7,56.84,0.0,0.0,30.11,10.0,76.1
2021-08-25 23:00:00,76.0,59.7,56.84,290.0,3.0,30.12,10.0,76.1
2021-08-26 00:00:00,69.8,63.5,80.4,0.0,0.0,30.13,10.0,69.8
2021-08-26 01:00:00,65.7,62.6,89.72,0.0,0.0,30.15,10.0,65.7
2021-08-26 02:00:00,61.0,60.6,98.59,0.0,0.0,30.15,7.0,61.0
2021-08-26 03:00:00,59.4,59.4,100.0,0.0,0.0,30.17,10.0,59.4
2021-08-26 04:00:00,58.3,58.0,98.57,0.0,0.0,30.18,10.0,58.3
2021-08-26 05:00:00,56.7,56.0,97.85,0.0,0.0,30.19,10.0,56.7
2021-08-26 06:00:00,55.0,55.0,100.0,0.0,0.0,30.2,7.0,55.0
2021-08-26 07:00:00,53.8,53.6,99.27,0.0,0.0,30.2,7.0,53.8
2021-08-26 08:00:00,54.3,54.0,98.91,0.0,0.0,30.21,10.0,54.3
2021-08-26 09:00:00,53.2,53.2,100.0,0.0,0.0,30.21,7.0,53.2
2021-08-26 10:00:00,52.7,52.7,100.0,0.0,0.0,30.2,10.0,52.7
2021-08-26 11:00:00,53.4,53.4,100.0,0.0,0.0,30.22,7.0,53.4
2021-08-26 12:00:00,57.2,56.3,96.8,0.0,0.0,30.21,10.0,57.2
2021-08-26 13:00:00,60.6,58.3,92.12,10.0,3.0,30.22,5.0,60.6
2021-08-26 14:00:00,64.6,58.5,80.59,40.0,4.0,30.19,3.0,64.6
2021-08-26 15:00:00,69.0,57.6,66.77,70.0,3.0,30.2,4.0,69.1
2021-08-26 16:00:00,71.4,58.5,63.77,90.0,3.0,30.2,5.0,71.4
2021-08-26 17:00:00,70.3,59.4,68.36,110.0,4.0,30.21,5.0,70.3
2021-08-26 18:00:00,69.8,60.4,72.06,280.0,3.0,30.23,7.0,69.8
2021-08-26 19:00:00,71.0,60.3,68.69,30.0,6.0,30.21,5.0,71.1
2021-08-26 20:00:00,69.8,61.3,74.4,20.0,7.0,30.18,5.0,69.8
2021-08-26 21:00:00,66.2,62.8,88.8,90.0,11.0,30.04,4.0,66.2
2021-08-26 22:00:00,71.6,61.5,70.48,90.0,8.0,30.09,7.0,71.6
2021-08-26 23:00:00,70.0,62.0,75.48,30.0,5.0,30.09,7.0,70.0
2021-08-27 00:00:00,65.7,63.5,92.6,40.0,5.0,30.1,7.0,65.7
2021-08-27 01:00:00,66.4,62.6,87.57,20.0,5.0,30.11,7.0,66.4
2021-08-27 02:00:00,64.6,64.0,97.92,110.0,10.0,30.1,3.0,64.6
2021-08-27 03:00:00,64.8,63.5,95.55,110.0,4.0,30.1,7.0,64.8
2021-08-27 04:00:00,64.2,63.3,96.89,20.0,3.0,30.11,7.0,64.2
2021-08-27 05:00:00,64.0,63.3,97.92,70.0,6.0,30.06,5.0,63.9
2021-08-27 06:00:00,64.4,64.0,98.27,20.0,4.0,30.07,5.0,64.4
2021-08-27 07:00:00,64.4,64.0,98.27,60.0,5.0,30.09,7.0,64.4
2021-08-27 08:00:00,64.2,63.5,97.58,80.0,8.0,30.08,10.0,64.2
2021-08-27 09:00:00,63.5,62.0,94.52,90.0,8.0,30.07,10.0,63.5
2021-08-27 10:00:00,63.0,62.0,96.2,100.0,6.0,30.06,10.0,63.0
2021-08-27 11:00:00,62.6,62.0,97.56,110.0,5.0,30.04,10.0,62.6
2021-08-27 12:00:00,62.8,62.4,98.6,100.0,8.0,30.06,10.0,62.8
2021-08-27 13:00:00,63.5,62.8,97.57,100.0,9.0,30.01,10.0,63.5
2021-08-27 14:00:00,64.8,63.7,96.23,90.0,8.0,29.99,10.0,64.8
2021-08-27 15:00:00,65.3,63.7,94.56,110.0,7.0,30.02,10.0,65.3
2021-08-27 16:00:00,64.4,63.5,96.9,80.0,9.0,30.02,3.0,64.4
2021-08-27 17:00:00,64.4,63.5,96.9,90.0,9.0,30.0,10.0,64.4
2021-08-27 18:00:00,65.3,64.4,96.91,100.0,9.0,29.98,2.5,65.3
2021-08-27 19:00:00,66.0,65.5,98.28,100.0,8.0,29.96,7.0,66.0
2021-08-27 20:00:00,67.0,66.2,96.93,120.0,6.0,29.96,10.0,67.1
2021-08-27 21:00:00,68.0,67.0,96.94,90.0,4.0,29.96,10.0,68.0
2021-08-27 22:00:00,69.0,68.0,96.95,120.0,4.0,29.96,10.0,68.9
2021-08-27 23:00:00,70.5,69.0,94.68,90.0,3.0,29.93,7.0,70.5
2021-08-28 00:00:00,69.8,69.0,96.97,120.0,5.0,29.94,7.0,69.8
2021-08-28 01:00:00,69.0,68.5,97.96,100.0,3.0,29.94,7.0,69.1
2021-08-28 02:00:00,69.3,68.7,97.96,110.0,3.0,29.96,7.0,69.3
2021-08-28 03:00:00,68.7,68.0,97.62,120.0,4.0,29.96,5.0,68.7
2021-08-28 04:00:00,69.0,68.0,96.95,110.0,6.0,29.95,7.0,68.9
2021-08-28 05:00:00,68.7,68.0,97.62,130.0,5.0,29.97,7.0,68.7
2021-08-28 06:00:00,68.2,67.5,97.62,110.0,5.0,29.95,7.0,68.2
2021-08-28 07:00:00,67.5,67.0,98.63,130.0,5.0,29.96,7.0,67.5
2021-08-28 08:00:00,67.0,67.0,100.0,130.0,5.0,29.97,7.0,67.1
2021-08-28 09:00:00,68.0,67.5,98.29,150.0,4.0,29.97,10.0,68.0
2021-08-28 10:00:00,68.4,68.0,98.63,160.0,4.0,29.97,10.0,68.4
2021-08-28 11:00:00,68.7,67.8,96.95,0.0,0.0,29.97,10.0,68.7
2021-08-28 12:00:00,69.3,68.0,95.63,0.0,0.0,29.98,7.0,69.3
2021-08-28 13:00:00,71.2,68.7,91.82,140.0,4.0,29.97,10.0,71.2
2021-08-28 14:00:00,72.7,69.4,89.39,0.0,0.0,29.97,10.0,72.7
2021-08-28 15:00:00,74.8,69.6,83.87,180.0,7.0,29.96,10.0,74.8
2021-08-28 16:00:00,75.6,70.3,83.63,170.0,5.0,29.99,10.0,75.6
2021-08-28 17:00:00,79.0,71.8,78.64,230.0,8.0,29.99,10.0,79.0
2021-08-28 18:00:00,83.3,72.0,68.82,220.0,8.0,29.98,10.0,88.66
2021-08-28 19:00:00,81.7,68.7,64.77,230.0,9.0,29.98,10.0,84.86
2021-08-28 20:00:00,82.6,68.4,62.26,190.0,5.0,29.96,10.0,85.79
2021-08-28 21:00:00,82.0,68.0,62.62,170.0,7.0,29.95,10.0,84.92
2021-08-28 22:00:00,79.7,67.6,66.57,200.0,3.0,29.96,10.0,79.7
2021-08-28 23:00:00,75.4,69.0,80.81,200.0,12.0,29.99,10.0,75.4
2021-08-29 00:00:00,69.8,69.0,96.97,150.0,6.0,29.96,10.0,69.8
2021-08-29 01:00:00,71.6,69.4,92.78,140.0,8.0,29.93,10.0,71.6
2021-08-29 02:00:00,72.0,69.0,89.67,160.0,10.0,29.92,10.0,72.1
2021-08-29 03:00:00,70.2,68.0,92.74,180.0,13.0,29.94,10.0,70.2
2021-08-29 04:00:00,68.0,66.6,95.28,240.0,3.0,29.92,1.0,68.0
2021-08-29 05:00:00,67.0,66.4,97.61,280.0,10.0,29.94,10.0,67.1
2021-08-29 06:00:00,67.5,66.6,96.94,250.0,8.0,29.93,7.0,67.5
2021-08-29 07:00:00,66.4,65.3,96.25,250.0,3.0,29.88,10.0,66.4
2021-08-29 08:00:00,65.3,64.6,97.59,80.0,7.0,29.78,10.0,65.3
2021-08-29 09:00:00,64.4,64.0,98.27,160.0,3.0,29.87,10.0,64.4
2021-08-29 10:00:00,63.7,63.7,100.0,160.0,5.0,29.87,10.0,63.7
2021-08-29 11:00:00,64.2,64.0,98.96,0.0,0.0,29.88,10.0,64.2
2021-08-29 12:00:00,65.5,64.6,96.91,240.0,7.0,29.9,10.0,65.5
2021-08-29 13:00:00,67.0,64.4,91.67,240.0,6.0,29.9,10.0,66.9
2021-08-29 14:00:00,69.8,65.0,85.03,250.0,6.0,29.92,10.0,69.8
2021-08-29 15:00:00,71.2,64.0,78.01,230.0,7.0,29.93,10.0,71.2
2021-08-29 16:00:00,74.8,62.8,66.25,260.0,8.0,29.95,10.0,74.8
2021-08-29 17:00:00,75.7,61.2,60.75,270.0,8.0,29.96,10.0,75.7
2021-08-29 18:00:00,76.0,61.0,59.92,280.0,8.0,29.96,10.0,75.9
2021-08-29 19:00:00,76.8,59.7,55.53,280.0,10.0,29.96,10.0,76.8
2021-08-29 20:00:00,77.4,59.4,53.86,270.0,8.0,29.95,10.0,77.4
2021-08-29 21:00:00,78.0,58.5,51.29,260.0,9.0,29.94,10.0,77.9
2021-08-29 22:00:00,77.0,57.4,50.8,270.0,7.0,29.94,10.0,77.0
2021-08-29 23:00:00,74.5,58.5,57.44,250.0,5.0,29.94,10.0,74.5
2021-08-30 00:00:00,68.7,59.4,72.21,260.0,3.0,29.95,10.0,68.7
2021-08-30 01:00:00,63.0,60.0,89.93,0.0,0.0,29.98,10.0,63.1
2021-08-30 02:00:00,61.2,60.0,95.49,0.0,0.0,29.99,10.0,61.2
2021-08-30 03:00:00,60.8,58.0,90.16,0.0,0.0,29.99,10.0,60.8
2021-08-30 04:00:00,57.4,56.0,95.41,0.0,0.0,30.0,10.0,57.4
2021-08-30 05:00:00,57.4,56.8,97.86,0.0,0.0,30.01,7.0,57.4
2021-08-30 06:00:00,56.3,56.0,98.56,0.0,0.0,30.01,10.0,56.3
2021-08-30 07:00:00,55.4,55.2,99.28,0.0,0.0,30.01,7.0,55.4
2021-08-30 08:00:00,54.5,53.8,97.48,0.0,0.0,30.0,10.0,54.5
2021-08-30 09:00:00,55.0,55.0,100.0,0.0,0.0,30.0,7.0,54.9
2021-08-30 10:00:00,56.0,55.2,96.79,0.0,0.0,30.01,10.0,56.1
2021-08-30 11:00:00,57.0,55.6,95.06,0.0,0.0,30.01,10.0,57.0
2021-08-30 12:00:00,57.0,56.7,98.92,0.0,0.0,30.02,7.0,57.0
2021-08-30 13:00:00,62.8,59.4,88.64,0.0,0.0,30.03,10.0,62.8
2021-08-30 14:00:00,67.0,60.3,78.79,0.0,0.0,30.03,10.0,67.1
2021-08-30 15:00:00,70.3,60.3,70.59,0.0,0.0,30.02,10.0,70.3
2021-08-30 16:00:00,74.0,60.3,62.49,290.0,5.0,30.01,7.0,73.9
2021-08-30 17:00:00,75.2,59.5,58.15,310.0,5.0,30.0,7.0,75.2
2021-08-30 18:00:00,77.2,58.8,53.06,270.0,7.0,29.98,7.0,77.2
2021-08-30 19:00:00,78.0,58.0,50.2,280.0,6.0,29.96,10.0,77.9
2021-08-30 20:00:00,76.8,57.6,51.5,330.0,7.0,29.95,10.0,76.8
2021-08-30 21:00:00,76.5,57.2,51.28,310.0,5.0,29.94,10.0,76.5
2021-08-30 22:00:00,76.6,58.3,53.17,320.0,3.0,29.93,10.0,76.6
2021-08-30 23:00:00,74.5,58.3,57.03,340.0,3.0,29.93,10.0,74.5
2021-08-31 00:00:00,66.4,60.0,80.15,0.0,0.0,29.94,10.0,66.4
2021-08-31 01:00:00,61.5,60.0,94.48,0.0,0.0,29.95,7.0,61.5
2021-08-31 02:00:00,59.0,58.0,96.83,0.0,0.0,29.96,10.0,59.0
2021-08-31 03:00:00,58.3,57.4,96.82,10.0,3.0,29.97,10.0,58.3
2021-08-31 04:00:00,57.2,56.7,98.21,0.0,0.0,29.97,10.0,57.2
2021-08-31 05:00:00,56.0,55.8,98.92,0.0,0.0,29.96,7.0,56.1
2021-08-31 06:00:00,54.0,53.8,99.27,360.0,4.0,29.95,7.0,54.0
2021-08-31 07:00:00,53.6,53.6,100.0,10.0,4.0,29.92,7.0,53.6
2021-08-31 08:00:00,55.0,54.7,99.27,0.0,0.0,29.92,7.0,54.9
2021-08-31 09:00:00,53.0,53.0,100.0,0.0,0.0,29.94,7.0,53.1
2021-08-31 10:00:00,52.0,52.0,100.0,0.0,0.0,29.96,5.0,52.0
2021-08-31 11:00:00,53.0,53.0,100.0,10.0,3.0,29.95,5.0,52.9
2021-08-31 12:00:00,56.0,55.8,99.64,20.0,3.0,29.96,7.0,55.9
2021-08-31 13:00:00,59.7,58.0,94.43,20.0,3.0,29.97,7.0,59.7
2021-08-31 14:00:00,65.3,58.0,77.52,70.0,3.0,29.98,7.0,65.3
2021-08-31 15:00:00,68.2,58.8,71.9,70.0,5.0,29.97,7.0,68.2
2021-08-31 16:00:00,72.3,57.0,58.6,60.0,7.0,29.98,10.0,72.3
2021-08-31 17:00:00,71.6,55.2,56.22,80.0,7.0,29.96,7.0,71.6
2021-08-31 18:00:00,75.4,54.5,48.23,100.0,10.0,29.95,10.0,75.4
2021-08-31 19:00:00,75.7,55.4,49.34,80.0,7.0,29.94,10.0,75.7
2021-08-31 20:00:00,75.6,54.3,47.56,60.0,5.0,29.93,10.0,75.6
2021-08-31 21:00:00,75.6,54.3,47.56,30.0,3.0,29.93,10.0,75.6
2021-08-31 22:00:00,75.4,54.7,48.58,60.0,7.0,29.93,10.0,75.4
2021-08-31 23:00:00,69.0,58.8,69.71,0.0,0.0,29.94,10.0,69.1
2021-09-01 00:00:00,63.5,58.5,83.75,60.0,3.0,29.95,10.0,63.5
2021-09-01 01:00:00,60.0,56.7,89.15,360.0,3.0,29.96,10.0,59.9
2021-09-01 02:00:00,60.0,55.4,84.45,20.0,6.0,29.98,10.0,60.1
2021-09-01 03:00:00,58.0,53.4,84.93,50.0,4.0,29.99,7.0,57.9
2021-09-01 04:00:00,57.2,52.5,84.27,0.0,0.0,30.0,7.0,57.2
2021-09-01 05:00:00,53.4,52.5,96.75,0.0,0.0,30.01,10.0,53.4
2021-09-01 06:00:00,51.8,51.6,99.26,0.0,0.0,30.01,7.0,51.8
2021-09-01 07:00:00,52.3,52.3,100.0,0.0,0.0,30.02,5.0,52.3
2021-09-01 08:00:00,50.0,50.0,100.0,0.0,0.0,30.02,7.0,50.0
2021-09-01 09:00:00,50.0,50.0,100.0,0.0,0.0,30.03,4.0,50.0
2021-09-01 10:00:00,49.6,49.6,100.0,20.0,3.0,30.04,5.0,48.81
2021-09-01 11:00:00,49.5,49.5,100.0,0.0,0.0,30.06,1.25,49.5
2021-09-01 12:00:00,54.0,54.0,100.0,0.0,0.0,30.07,7.0,54.0
2021-09-01 13:00:00,58.6,56.7,93.39,0.0,0.0,30.09,10.0,58.6
2021-09-01 14:00:00,63.5,58.3,83.15,110.0,3.0,30.09,10.0,63.5
2021-09-01 15:00:00,67.5,60.4,77.98,80.0,3.0,30.09,7.0,67.5
2021-09-01 16:00:00,70.5,60.0,69.12,0.0,0.0,30.09,7.0,70.5
2021-09-01 17:00:00,72.0,59.5,64.54,50.0,3.0,30.09,10.0,72.1
2021-09-01 18:00:00,75.0,58.6,56.69,110.0,5.0,30.09,7.0,75.0
2021-09-01 19:00:00,74.3,58.0,57.0,110.0,3.0,30.08,10.0,74.3
2021-09-01 20:00:00,76.0,57.6,52.72,0.0,0.0,30.07,10.0,76.1
2021-09-01 21:00:00,75.2,57.6,54.32,0.0,0.0,30.07,10.0,75.2
2021-09-01 22:00:00,74.8,57.6,55.05,80.0,5.0,30.06,10.0,74.8
2021-09-01 23:00:00,72.0,57.4,59.86,90.0,4.0,30.07,10.0,72.1
2021-09-02 00:00:00,64.8,58.5,80.03,80.0,3.0,30.07,10.0,64.8
2021-09-02 01:00:00,60.0,58.0,93.09,0.0,0.0,30.09,10.0,59.9
2021-09-02 02:00:00,58.0,57.6,98.22,0.0,0.0,30.1,10.0,58.1
2021-09-02 03:00:00,56.3,56.3,100.0,0.0,0.0,30.09,7.0,56.3
2021-09-02 04:00:00,54.3,54.0,98.91,0.0,0.0,30.11,7.0,54.3
2021-09-02 05:00:00,52.7,52.2,98.18,30.0,3.0,30.11,7.0,52.7
2021-09-02 06:00:00,51.8,51.8,100.0,0.0,0.0,30.11,5.0,51.8
2021-09-02 07:00:00,51.0,51.0,99.26,0.0,0.0,30.12,10.0,51.1
2021-09-02 08:00:00,49.3,49.3,100.0,0.0,0.0,30.13,2.0,49.3
2021-09-02 09:00:00,48.6,48.6,100.0,0.0,0.0,30.14,7.0,48.6
2021-09-02 10:00:00,47.7,47.7,100.0,0.0,0.0,30.14,0.5,47.7
2021-09-02 11:00:00,48.2,48.2,100.0,0.0,0.0,30.16,5.0,48.2
2021-09-02 12:00:00,51.4,51.4,100.0,0.0,0.0,30.17,10.0,51.4
2021-09-02 13:00:00,56.7,53.8,89.99,110.0,6.0,30.17,10.0,56.7
2021-09-02 14:00:00,62.4,55.0,76.72,120.0,4.0,30.17,10.0,62.4
2021-09-02 15:00:00,65.0,56.0,73.14,160.0,5.0,30.18,10.0,64.9
2021-09-02 16:00:00,66.6,57.2,71.74,130.0,8.0,30.17,10.0,66.6
2021-09-02 17:00:00,67.0,53.8,62.32,170.0,7.0,30.17,7.0,67.1
2021-09-02 18:00:00,68.2,54.3,61.11,170.0,6.0,30.18,10.0,68.2
2021-09-02 19:00:00,67.5,56.0,66.35,150.0,4.0,30.16,10.0,67.5
2021-09-02 20:00:00,67.3,55.6,66.09,110.0,7.0,30.15,10.0,67.3
2021-09-02 21:00:00,66.2,56.5,70.93,90.0,7.0,30.12,10.0,66.2
2021-09-02 22:00:00,65.3,57.4,75.59,90.0,4.0,30.11,10.0,65.3
2021-09-02 23:00:00,64.4,58.0,79.99,110.0,4.0,30.11,10.0,64.4
2021-09-03 00:00:00,63.5,58.0,82.56,100.0,5.0,30.11,10.0,63.5
2021-09-03 01:00:00,63.0,58.3,84.62,90.0,6.0,30.1,10.0,63.0
2021-09-03 02:00:00,62.2,58.0,85.8,140.0,4.0,30.1,10.0,62.2
2021-09-03 03:00:00,62.6,57.2,82.5,120.0,5.0,30.09,10.0,62.6
2021-09-03 04:00:00,61.7,57.0,84.55,110.0,4.0,30.07,10.0,61.7
2021-09-03 05:00:00,62.4,57.0,82.48,120.0,5.0,30.07,10.0,62.4
2021-09-03 06:00:00,61.0,57.6,88.56,140.0,5.0,30.07,10.0,61.0
2021-09-03 07:00:00,61.0,57.4,87.93,140.0,6.0,30.09,10.0,61.0
2021-09-03 08:00:00,60.8,57.2,87.92,120.0,5.0,30.06,10.0,60.8
2021-09-03 09:00:00,60.3,58.0,92.44,160.0,5.0,30.07,10.0,60.3
2021-09-03 10:00:00,59.2,58.8,98.58,120.0,3.0,30.07,7.0,59.2
2021-09-03 11:00:00,59.4,58.3,96.14,130.0,8.0,30.08,10.0,59.4
2021-09-03 12:00:00,60.0,59.2,97.53,120.0,6.0,30.07,10.0,59.9
2021-09-03 13:00:00,59.0,58.3,97.52,110.0,5.0,30.06,7.0,59.0
2021-09-03 14:00:00,60.3,59.2,96.15,110.0,5.0,30.06,10.0,60.3
2021-09-03 15:00:00,60.3,58.6,94.11,120.0,10.0,30.07,3.0,60.3
2021-09-03 16:00:00,58.5,56.5,93.05,110.0,9.0,30.06,10.0,58.5
2021-09-03 17:00:00,59.0,57.0,93.07,110.0,8.0,30.04,10.0,59.0
2021-09-03 18:00:00,60.4,55.0,82.34,110.0,11.0,30.03,10.0,60.4
2021-09-03 19:00:00,60.8,55.4,82.37,110.0,9.0,30.02,10.0,60.8
2021-09-03 20:00:00,60.0,54.5,82.31,120.0,12.0,30.0,10.0,59.9
2021-09-03 21:00:00,58.0,56.0,92.37,100.0,7.0,29.99,4.0,58.1
2021-09-03 22:00:00,58.3,56.0,92.38,110.0,8.0,29.99,5.0,58.3
2021-09-03 23:00:00,57.4,56.8,97.86,90.0,5.0,29.99,1.75,57.4
2021-09-04 00:00:00,57.2,57.0,99.28,90.0,5.0,29.97,2.0,57.2
2021-09-04 01:00:00,57.4,57.0,98.57,0.0,0.0,29.99,5.0,57.4
2021-09-04 02:00:00,57.4,57.0,98.57,80.0,3.0,29.97,10.0,57.4
2021-09-04 03:00:00,58.0,57.6,98.93,0.0,0.0,29.98,1.5,57.9
2021-09-04 04:00:00,58.0,58.0,100.0,0.0,0.0,29.97,1.5,58.1
2021-09-04 05:00:00,57.7,57.7,100.0,0.0,0.0,29.95,1.5,57.7
2021-09-04 06:00:00,57.7,57.7,100.0,30.0,3.0,29.94,2.5,57.7
2021-09-04 07:00:00,57.6,57.6,100.0,0.0,0.0,29.93,1.25,57.6
2021-09-04 08:00:00,57.6,57.6,100.0,0.0,0.0,29.93,0.75,57.6
2021-09-04 09:00:00,58.0,58.0,100.0,0.0,0.0,29.94,2.0,58.1
2021-09-04 10:00:00,58.0,57.7,99.28,0.0,0.0,29.93,10.0,57.9
2021-09-04 11:00:00,57.7,57.4,98.93,300.0,3.0,29.94,10.0,57.7
2021-09-04 12:00:00,58.0,57.4,97.51,0.0,0.0,29.93,10.0,58.1
2021-09-04 13:00:00,59.2,58.3,96.83,280.0,6.0,29.94,10.0,59.2
2021-09-04 14:00:00,60.8,58.8,93.12,290.0,5.0,29.94,10.0,60.8
2021-09-04 15:00:00,63.0,59.4,87.71,290.0,5.0,29.94,10.0,63.1
2021-09-04 16:00:00,65.0,59.4,82.36,300.0,7.0,29.93,10.0,64.9
2021-09-04 17:00:00,68.7,60.6,75.36,320.0,5.0,29.92,10.0,68.7
2021-09-04 18:00:00,68.5,57.4,67.67,290.0,4.0,29.9,10.0,68.5
2021-09-04 19:00:00,72.3,56.0,56.32,270.0,7.0,29.89,7.0,72.3
2021-09-04 20:00:00,74.0,55.6,52.43,250.0,9.0,29.87,10.0,74.1
2021-09-04 21:00:00,75.0,54.7,49.23,270.0,9.0,29.86,10.0,75.0
2021-09-04 22:00:00,74.0,54.5,50.71,260.0,6.0,29.85,10.0,73.9
2021-09-04 23:00:00,71.6,54.7,55.21,250.0,6.0,29.85,7.0,71.6
2021-09-05 00:00:00,67.5,55.0,64.21,280.0,5.0,29.86,10.0,67.5
2021-09-05 01:00:00,61.0,54.7,79.73,260.0,3.0,29.87,7.0,61.0
2021-09-05 02:00:00,56.3,54.0,92.31,0.0,0.0,29.88,7.0,56.3
2021-09-05 03:00:00,57.6,52.7,83.68,0.0,0.0,29.88,10.0,57.6
2021-09-05 04:00:00,52.7,50.4,91.85,0.0,0.0,29.88,10.0,52.7
2021-09-05 05:00:00,55.2,51.4,86.99,0.0,0.0,29.88,10.0,55.2
2021-09-05 06:00:00,54.5,51.0,88.26,240.0,3.0,29.87,10.0,54.5
2021-09-05 07:00:00,53.6,51.0,90.53,260.0,4.0,29.87,10.0,53.6
2021-09-05 08:00:00,54.0,51.6,91.22,270.0,3.0,29.87,10.0,54.1
2021-09-05 09:00:00,52.0,50.4,94.25,0.0,0.0,29.87,10.0,52.0
2021-09-05 10:00:00,50.2,49.5,97.43,0.0,0.0,29.87,10.0,50.2
2021-09-05 11:00:00,49.0,49.0,99.26,0.0,0.0,29.88,10.0,49.1
2021-09-05 12:00:00,53.0,51.8,96.03,0.0,0.0,29.9,10.0,52.9
2021-09-05 13:00:00,58.3,54.5,87.16,270.0,3.0,29.9,10.0,58.3
2021-09-05 14:00:00,63.0,54.3,72.96,300.0,4.0,29.91,10.0,63.1
2021-09-05 15:00:00,67.0,53.2,60.96,290.0,4.0,29.91,10.0,67.1
2021-09-05 16:00:00,69.3,51.8,53.68,280.0,8.0,29.91,10.0,69.3
2021-09-05 17:00:00,71.0,51.3,49.9,280.0,8.0,29.9,10.0,70.9
2021-09-05 18:00:00,71.8,51.0,47.69,270.0,11.0,29.88,10.0,71.8
2021-09-05 19:00:00,72.0,51.4,48.09,280.0,9.0,29.87,10.0,72.1
2021-09-05 20:00:00,71.4,51.3,49.06,290.0,8.0,29.86,10.0,71.4
2021-09-05 21:00:00,72.7,49.3,43.59,270.0,11.0,29.86,10.0,72.7
2021-09-05 22:00:00,71.0,49.8,46.88,290.0,9.0,29.86,10.0,71.1
2021-09-05 23:00:00,69.0,50.5,51.51,290.0,6.0,29.87,10.0,69.1
2021-09-06 00:00:00,62.8,51.3,66.04,0.0,0.0,29.88,10.0,62.8
2021-09-06 01:00:00,57.0,53.0,86.13,0.0,0.0,29.9,10.0,57.0
2021-09-06 02:00:00,56.0,54.5,95.04,0.0,0.0,29.91,10.0,55.9
2021-09-06 03:00:00,53.6,52.7,96.75,0.0,0.0,29.92,10.0,53.6
2021-09-06 04:00:00,52.3,52.2,99.63,0.0,0.0,29.93,10.0,52.3
2021-09-06 05:00:00,49.3,49.0,99.26,0.0,0.0,29.95,5.0,49.3
2021-09-06 06:00:00,49.3,49.3,100.0,0.0,0.0,29.95,7.0,49.3
2021-09-06 07:00:00,48.0,48.0,100.0,0.0,0.0,29.94,0.25,48.0
2021-09-06 08:00:00,46.2,46.2,100.0,0.0,0.0,29.94,0.25,46.2
2021-09-06 09:00:00,44.8,44.8,100.0,0.0,0.0,29.95,5.0,44.8
2021-09-06 10:00:00,44.6,44.6,100.0,0.0,0.0,29.96,3.0,44.6
2021-09-06 11:00:00,44.0,44.0,100.0,0.0,0.0,29.96,0.25,44.1
2021-09-06 12:00:00,47.0,47.0,100.0,0.0,0.0,29.98,10.0,46.9
2021-09-06 13:00:00,52.5,52.5,100.0,0.0,0.0,29.98,10.0,52.5
2021-09-06 14:00:00,60.0,54.0,81.12,0.0,0.0,29.98,10.0,59.9
2021-09-06 15:00:00,68.0,54.5,61.98,250.0,5.0,29.97,10.0,68.0
2021-09-06 16:00:00,72.3,53.2,51.04,230.0,8.0,29.96,10.0,72.3
2021-09-06 17:00:00,73.8,52.3,46.94,260.0,4.0,29.95,10.0,73.8
2021-09-06 18:00:00,74.0,51.8,45.93,230.0,8.0,29.93,10.0,73.9
2021-09-06 19:00:00,75.7,53.4,45.87,210.0,6.0,29.91,10.0,75.7
2021-09-06 20:00:00,76.3,54.0,45.96,140.0,7.0,29.87,10.0,76.3
2021-09-06 21:00:00,76.5,53.0,43.85,190.0,6.0,29.85,10.0,76.5
2021-09-06 22:00:00,74.8,54.3,48.85,170.0,10.0,29.83,10.0,74.8
2021-09-06 23:00:00,71.0,55.4,57.99,160.0,6.0,29.82,10.0,70.9
2021-09-07 00:00:00,64.4,55.4,72.56,140.0,5.0,29.81,10.0,64.4
2021-09-07 01:00:00,61.3,55.0,79.76,140.0,5.0,29.81,10.0,61.3
2021-09-07 02:00:00,62.0,55.6,79.8,140.0,4.0,29.81,10.0,61.9
2021-09-07 03:00:00,61.7,55.0,78.63,140.0,8.0,29.77,10.0,61.7
2021-09-07 04:00:00,61.7,54.7,77.78,150.0,7.0,29.72,10.0,61.7
2021-09-07 05:00:00,63.7,54.5,71.96,150.0,6.0,29.7,10.0,63.7
2021-09-07 06:00:00,63.5,54.7,73.0,160.0,6.0,29.66,10.0,63.5
2021-09-07 07:00:00,66.0,55.8,69.63,290.0,5.0,29.66,10.0,66.0
2021-09-07 08:00:00,66.0,57.2,73.25,350.0,3.0,29.7,10.0,66.0
2021-09-07 09:00:00,64.6,56.7,75.53,360.0,3.0,29.66,10.0,64.6
2021-09-07 10:00:00,60.3,58.5,93.77,200.0,5.0,29.67,10.0,60.3
2021-09-07 11:00:00,59.2,57.6,94.42,270.0,3.0,29.69,10.0,59.2
2021-09-07 12:00:00,59.7,56.8,90.12,0.0,0.0,29.72,10.0,59.7
2021-09-07 13:00:00,62.0,57.4,85.17,300.0,5.0,29.72,10.0,61.9
2021-09-07 14:00:00,65.8,58.0,75.64,300.0,8.0,29.73,10.0,65.8
2021-09-07 15:00:00,70.0,57.4,64.29,280.0,7.0,29.75,10.0,70.0
2021-09-07 16:00:00,72.0,53.8,52.52,290.0,11.0,29.74,10.0,72.1
2021-09-07 17:00:00,73.8,50.0,43.11,310.0,11.0,29.74,10.0,73.8
2021-09-07 18:00:00,74.8,50.5,42.47,310.0,13.0,29.74,10.0,74.8
2021-09-07 19:00:00,75.6,49.3,39.54,290.0,12.0,29.74,10.0,75.6
2021-09-07 20:00:00,76.0,49.8,39.62,290.0,10.0,29.73,10.0,76.1
2021-09-07 21:00:00,76.0,48.6,38.14,280.0,16.0,29.73,10.0,75.9
2021-09-07 22:00:00,75.4,47.0,36.38,280.0,14.0,29.74,10.0,75.4
2021-09-07 23:00:00,71.6,48.2,43.42,310.0,8.0,29.75,10.0,71.6
2021-09-08 00:00:00,65.8,48.6,53.78,280.0,5.0,29.76,10.0,65.8
2021-09-08 01:00:00,63.0,47.0,55.86,350.0,8.0,29.79,10.0,63.1
2021-09-08 02:00:00,59.4,49.0,68.65,270.0,3.0,29.8,10.0,59.4
2021-09-08 03:00:00,56.3,49.3,77.32,240.0,4.0,29.8,10.0,56.3
2021-09-08 04:00:00,53.0,49.0,86.24,0.0,0.0,29.79,10.0,53.1
2021-09-08 05:00:00,53.8,50.0,86.92,260.0,5.0,29.78,10.0,53.8
2021-09-08 06:00:00,53.4,50.0,88.2,260.0,4.0,29.78,10.0,53.4
2021-09-08 07:00:00,53.0,50.0,89.84,260.0,5.0,29.78,10.0,52.9
2021-09-08 08:00:00,52.5,49.3,88.82,260.0,5.0,29.79,10.0,52.5
2021-09-08 09:00:00,51.8,49.0,90.46,260.0,4.0,29.8,10.0,51.8
2021-09-08 10:00:00,52.0,49.0,89.8,260.0,3.0,29.81,10.0,52.0
2021-09-08 11:00:00,53.0,50.0,89.84,280.0,4.0,29.83,10.0,52.9
2021-09-08 12:00:00,56.0,51.0,83.88,280.0,7.0,29.84,10.0,55.9
2021-09-08 13:00:00,60.0,52.3,75.93,310.0,8.0,29.86,10.0,59.9
2021-09-08 14:00:00,63.0,52.7,68.81,290.0,12.0,29.87,10.0,63.1
2021-09-08 15:00:00,65.3,52.7,63.71,330.0,10.0,29.87,10.0,65.3
2021-09-08 16:00:00,66.0,52.3,61.27,320.0,9.0,29.89,10.0,66.0
2021-09-08 17:00:00,69.8,52.7,54.55,280.0,11.0,29.89,10.0,69.8
2021-09-08 18:00:00,68.0,51.4,55.31,300.0,9.0,29.89,10.0,68.0
2021-09-08 19:00:00,67.8,52.7,58.43,330.0,8.0,29.89,10.0,67.8
2021-09-08 20:00:00,71.0,51.8,50.83,280.0,7.0,29.88,10.0,70.9
2021-09-08 21:00:00,62.2,56.0,79.83,320.0,5.0,29.91,10.0,62.2
2021-09-08 22:00:00,62.0,57.6,85.78,0.0,0.0,29.93,10.0,61.9
2021-09-08 23:00:00,62.2,55.2,77.82,290.0,5.0,29.94,10.0,62.2
2021-09-09 00:00:00,60.3,54.5,81.15,310.0,3.0,29.94,10.0,60.3
2021-09-09 01:00:00,57.2,54.3,90.01,0.0,0.0,29.96,10.0,57.2
2021-09-09 02:00:00,54.7,53.6,96.06,270.0,3.0,29.97,10.0,54.7
2021-09-09 03:00:00,54.0,53.0,96.4,0.0,0.0,29.97,10.0,54.1
2021-09-09 04:00:00,51.0,50.7,99.26,0.0,0.0,29.98,10.0,50.9
2021-09-09 05:00:00,52.2,51.6,97.81,250.0,3.0,29.98,10.0,52.2
2021-09-09 06:00:00,52.0,51.8,99.26,0.0,0.0,29.98,10.0,52.0
2021-09-09 07:00:00,51.0,50.4,98.16,0.0,0.0,29.99,10.0,50.9
2021-09-09 08:00:00,50.0,50.0,100.0,0.0,0.0,30.0,7.0,50.0
2021-09-09 09:00:00,47.3,47.3,100.0,0.0,0.0,30.0,10.0,47.3
2021-09-09 10:00:00,46.8,46.8,100.0,0.0,0.0,30.01,0.25,46.8
2021-09-09 11:00:00,45.7,45.7,100.0,0.0,0.0,30.03,0.25,45.7
2021-09-09 12:00:00,49.8,49.8,100.0,0.0,0.0,30.06,10.0,49.8
2021-09-09 13:00:00,54.7,54.5,99.27,0.0,0.0,30.06,10.0,54.7
2021-09-09 14:00:00,60.0,56.3,87.87,0.0,0.0,30.06,10.0,59.9
2021-09-09 15:00:00,64.0,56.8,77.41,0.0,0.0,30.07,10.0,64.0
2021-09-09 16:00:00,66.0,56.5,71.42,0.0,0.0,30.06,10.0,66.0
2021-09-09 17:00:00,68.2,55.8,64.53,0.0,0.0,30.05,10.0,68.2
2021-09-09 18:00:00,69.0,52.2,54.86,300.0,4.0,30.04,10.0,69.1
2021-09-09 19:00:00,72.0,52.2,49.53,270.0,7.0,30.03,10.0,72.1
2021-09-09 20:00:00,70.3,51.0,50.18,340.0,4.0,30.02,10.0,70.3
2021-09-09 21:00:00,70.7,51.0,49.5,320.0,3.0,30.01,10.0,70.7
2021-09-09 22:00:00,69.8,52.5,54.15,0.0,0.0,30.01,10.0,69.8
2021-09-09 23:00:00,66.6,55.0,66.24,260.0,3.0,30.02,10.0,66.6
2021-09-10 00:00:00,60.6,56.3,85.71,0.0,0.0,30.01,10.0,60.6
2021-09-10 01:00:00,58.0,55.6,92.03,0.0,0.0,30.02,10.0,57.9
2021-09-10 02:00:00,54.5,54.0,98.19,0.0,0.0,30.03,10.0,54.5
2021-09-10 03:00:00,53.8,53.8,100.0,0.0,0.0,30.04,7.0,53.8
2021-09-10 04:00:00,51.6,51.4,99.26,280.0,3.0,30.06,10.0,51.6
2021-09-10 05:00:00,49.8,49.3,98.15,0.0,0.0,30.06,10.0,49.8
2021-09-10 06:00:00,50.0,50.0,100.0,0.0,0.0,30.06,0.5,50.0
2021-09-10 07:00:00,47.0,47.0,100.0,0.0,0.0,30.04,2.5,46.9
2021-09-10 08:00:00,47.5,47.5,100.0,0.0,0.0,30.04,0.25,47.5
2021-09-10 09:00:00,46.6,46.6,100.0,0.0,0.0,30.04,0.25,46.6
2021-09-10 10:00:00,46.0,46.0,100.0,0.0,0.0,30.04,0.25,46.0
2021-09-10 11:00:00,44.6,44.6,100.0,0.0,0.0,30.04,0.25,44.6
2021-09-10 12:00:00,48.4,48.4,100.0,0.0,0.0,30.04,10.0,48.4
2021-09-10 13:00:00,55.8,55.4,98.56,140.0,3.0,30.04,10.0,55.8
2021-09-10 14:00:00,62.8,56.3,79.3,170.0,5.0,30.04,10.0,62.8
2021-09-10 15:00:00,69.4,55.0,59.94,150.0,5.0,30.03,10.0,69.4
2021-09-10 16:00:00,73.4,54.7,51.95,180.0,6.0,30.01,10.0,73.4
2021-09-10 17:00:00,75.2,54.0,47.67,160.0,10.0,29.99,10.0,75.2
2021-09-10 18:00:00,76.8,53.6,44.54,180.0,10.0,29.96,10.0,76.8
2021-09-10 19:00:00,78.0,53.6,42.95,180.0,8.0,29.96,10.0,77.9
2021-09-10 20:00:00,77.2,54.5,45.43,180.0,8.0,29.94,10.0,77.2
2021-09-10 21:00:00,76.0,55.6,49.04,180.0,10.0,29.92,10.0,76.1
2021-09-10 22:00:00,76.0,56.3,50.3,180.0,8.0,29.91,10.0,76.1
2021-09-10 23:00:00,71.6,57.6,61.32,160.0,6.0,29.9,10.0,71.6
2021-09-11 00:00:00,66.7,57.6,72.53,160.0,5.0,29.88,10.0,66.7
2021-09-11 01:00:00,64.0,57.7,79.96,0.0,0.0,29.89,10.0,64.0
2021-09-11 02:00:00,62.6,57.2,82.5,150.0,3.0,29.88,10.0,62.6
2021-09-11 03:00:00,60.0,56.7,88.52,110.0,3.0,29.88,10.0,60.1
2021-09-11 04:00:00,58.8,56.5,92.06,0.0,0.0,29.88,10.0,58.8
2021-09-11 05:00:00,59.2,56.8,91.74,0.0,0.0,29.87,10.0,59.2
2021-09-11 06:00:00,56.8,56.0,96.8,0.0,0.0,29.86,10.0,56.8
2021-09-11 07:00:00,55.6,55.4,99.28,0.0,0.0,29.85,10.0,55.6
2021-09-11 08:00:00,55.0,54.7,99.27,0.0,0.0,29.84,10.0,54.9
2021-09-11 09:00:00,54.0,54.0,99.64,0.0,0.0,29.84,10.0,54.1
2021-09-11 10:00:00,54.5,54.0,98.55,140.0,3.0,29.84,10.0,54.5
2021-09-11 11:00:00,55.4,55.4,100.0,0.0,0.0,29.82,10.0,55.4
2021-09-11 12:00:00,58.3,57.7,97.87,0.0,0.0,29.82,10.0,58.3
2021-09-11 13:00:00,61.7,60.4,95.49,0.0,0.0,29.83,10.0,61.7
2021-09-11 14:00:00,68.0,63.3,84.92,260.0,5.0,29.84,10.0,68.0
2021-09-11 15:00:00,71.0,63.0,76.36,300.0,6.0,29.86,10.0,70.9
2021-09-11 16:00:00,72.5,61.2,67.64,340.0,8.0,29.89,10.0,72.5
2021-09-11 17:00:00,73.8,60.0,61.82,360.0,5.0,29.9,10.0,73.8
2021-09-11 18:00:00,75.6,56.7,51.89,360.0,7.0,29.89,10.0,75.6
2021-09-11 19:00:00,76.6,54.7,46.68,330.0,4.0,29.88,10.0,76.6
2021-09-11 20:00:00,76.8,54.0,45.2,0.0,0.0,29.87,10.0,76.8
2021-09-11 21:00:00,76.3,52.2,43.02,310.0,3.0,29.88,10.0,76.3
2021-09-11 22:00:00,73.6,51.0,44.88,330.0,3.0,29.89,10.0,73.6
2021-09-11 23:00:00,69.8,50.7,50.67,0.0,0.0,29.91,10.0,69.8
2021-09-12 00:00:00,64.2,52.7,66.2,360.0,5.0,29.9,10.0,64.2
2021-09-12 01:00:00,64.2,51.4,63.11,260.0,5.0,29.94,10.0,64.2
2021-09-12 02:00:00,59.2,52.5,78.43,0.0,0.0,29.97,10.0,59.2
2021-09-12 03:00:00,60.0,51.8,74.02,0.0,0.0,29.96,10.0,60.1
2021-09-12 04:00:00,58.8,51.0,75.0,0.0,0.0,29.98,10.0,58.8
2021-09-12 05:00:00,55.4,51.0,85.41,0.0,0.0,29.99,10.0,55.4
2021-09-12 06:00:00,54.7,49.0,81.34,360.0,4.0,29.99,10.0,54.7
2021-09-12 07:00:00,55.4,48.4,77.24,0.0,0.0,29.98,10.0,55.4
2021-09-12 08:00:00,49.8,48.0,93.49,0.0,0.0,29.99,10.0,49.8
2021-09-12 09:00:00,50.0,47.0,89.04,0.0,0.0,30.0,10.0,50.0
2021-09-12 10:00:00,50.7,48.4,91.78,300.0,4.0,30.04,10.0,50.7
2021-09-12 11:00:00,48.2,46.4,93.45,360.0,3.0,30.03,10.0,47.21
2021-09-12 12:00:00,51.6,48.4,88.78,0.0,0.0,30.07,10.0,51.6
2021-09-12 13:00:00,57.2,49.3,74.85,0.0,0.0,30.09,10.0,57.2
2021-09-12 14:00:00,59.4,50.7,72.86,10.0,4.0,30.07,10.0,59.4
2021-09-12 15:00:00,62.0,48.6,61.22,20.0,4.0,30.07,10.0,62.1
2021-09-12 16:00:00,63.3,48.7,58.91,0.0,0.0,30.08,10.0,63.3
2021-09-12 17:00:00,64.0,47.0,54.13,0.0,0.0,30.09,10.0,64.0
2021-09-12 18:00:00,65.5,46.8,50.79,260.0,3.0,30.1,10.0,65.5
2021-09-12 19:00:00,67.8,46.0,45.33,250.0,4.0,30.09,10.0,67.8
2021-09-12 20:00:00,69.8,47.5,44.96,280.0,4.0,30.07,10.0,69.8
2021-09-12 21:00:00,69.4,46.2,43.4,340.0,4.0,30.08,10.0,69.4
2021-09-12 22:00:00,70.0,46.0,42.04,0.0,0.0,30.07,10.0,70.0
2021-09-12 23:00:00,67.0,47.3,49.3,330.0,3.0,30.08,10.0,66.9
2021-09-13 00:00:00,56.5,50.2,79.38,0.0,0.0,30.09,10.0,56.5
2021-09-13 01:00:00,53.4,49.6,86.9,0.0,0.0,30.1,10.0,53.4
2021-09-13 02:00:00,49.8,49.0,96.7,0.0,0.0,30.11,10.0,49.8
2021-09-13 03:00:00,48.2,48.2,100.0,0.0,0.0,30.11,10.0,48.2
2021-09-13 04:00:00,46.4,46.2,99.25,0.0,0.0,30.11,7.0,46.4
2021-09-13 05:00:00,45.0,45.0,100.0,0.0,0.0,30.12,10.0,45.1
2021-09-13 06:00:00,44.0,44.0,100.0,0.0,0.0,30.12,10.0,43.9
2021-09-13 07:00:00,44.0,44.0,100.0,0.0,0.0,30.11,10.0,43.9
2021-09-13 08:00:00,43.2,43.0,99.24,0.0,0.0,30.11,10.0,43.2
2021-09-13 09:00:00,42.6,42.6,100.0,0.0,0.0,30.12,10.0,42.6
2021-09-13 10:00:00,43.2,43.2,100.0,0.0,0.0,30.11,10.0,43.2
2021-09-13 11:00:00,41.2,41.0,99.23,0.0,0.0,30.11,10.0,41.2
2021-09-13 12:00:00,45.3,45.0,99.24,0.0,0.0,30.11,10.0,45.3
2021-09-13 13:00:00,53.0,50.5,91.52,0.0,0.0,30.11,10.0,52.9
2021-09-13 14:00:00,61.0,52.2,72.75,110.0,3.0,30.09,10.0,61.0
2021-09-13 15:00:00,67.0,52.3,59.39,100.0,6.0,30.08,10.0,66.9
2021-09-13 16:00:00,70.3,52.5,53.24,120.0,7.0,30.04,10.0,70.3
2021-09-13 17:00:00,72.5,51.0,46.92,140.0,8.0,30.03,10.0,72.5
2021-09-13 18:00:00,75.4,50.2,41.17,90.0,9.0,30.01,10.0,75.4
2021-09-13 19:00:00,73.8,51.6,45.74,120.0,9.0,29.99,10.0,73.8
2021-09-13 20:00:00,74.0,50.4,43.32,90.0,7.0,29.97,10.0,74.1
2021-09-13 21:00:00,73.6,50.7,44.54,110.0,8.0,29.95,10.0,73.6
2021-09-13 22:00:00,71.0,53.4,53.91,110.0,8.0,29.92,10.0,70.9
2021-09-13 23:00:00,68.5,55.0,62.04,100.0,8.0,29.87,10.0,68.5
2021-09-14 00:00:00,68.0,57.2,68.35,110.0,13.0,29.86,10.0,68.0
2021-09-14 01:00:00,67.3,58.5,73.37,110.0,6.0,29.84,10.0,67.3
2021-09-14 02:00:00,62.4,61.7,97.56,270.0,5.0,29.84,1.0,62.4
2021-09-14 03:00:00,62.0,62.0,100.0,70.0,3.0,29.8,4.0,61.9
2021-09-14 04:00:00,61.7,61.5,99.29,100.0,8.0,29.72,10.0,61.7
2021-09-14 05:00:00,61.7,61.2,98.25,110.0,8.0,29.7,7.0,61.7
2021-09-14 06:00:00,62.0,61.7,98.6,160.0,4.0,29.67,10.0,62.1
2021-09-14 07:00:00,62.8,62.4,98.6,170.0,6.0,29.64,10.0,62.8
2021-09-14 08:00:00,62.6,61.7,96.87,240.0,8.0,29.64,10.0,62.6
2021-09-14 09:00:00,60.6,57.4,89.18,260.0,15.0,29.67,10.0,60.6
2021-09-14 10:00:00,59.0,57.4,94.42,280.0,10.0,29.69,10.0,59.0
2021-09-14 11:00:00,58.0,57.6,98.22,270.0,8.0,29.74,3.0,58.1
2021-09-14 12:00:00,58.5,57.7,97.17,280.0,7.0,29.76,10.0,58.5
2021-09-14 13:00:00,58.8,57.4,95.1,300.0,10.0,29.78,10.0,58.8
2021-09-14 14:00:00,59.2,57.0,92.4,300.0,8.0,29.81,10.0,59.2
2021-09-14 15:00:00,60.3,56.5,87.26,290.0,10.0,29.83,10.0,60.3
2021-09-14 16:00:00,60.4,56.0,85.08,290.0,9.0,29.85,10.0,60.4
2021-09-14 17:00:00,64.8,56.5,74.47,300.0,9.0,29.86,10.0,64.8
2021-09-14 18:00:00,65.0,55.4,71.31,270.0,8.0,29.86,10.0,64.9
2021-09-14 19:00:00,69.4,56.0,62.16,280.0,10.0,29.85,10.0,69.4
2021-09-14 20:00:00,67.5,53.8,61.46,300.0,7.0,29.85,10.0,67.5
2021-09-14 21:00:00,69.0,52.7,56.26,270.0,6.0,29.86,10.0,68.9
2021-09-14 22:00:00,68.5,52.2,56.0,280.0,4.0,29.87,10.0,68.5
2021-09-14 23:00:00,65.8,51.0,58.59,270.0,3.0,29.88,10.0,65.8
2021-09-15 00:00:00,60.0,52.7,77.06,250.0,3.0,29.9,10.0,59.9
2021-09-15 01:00:00,57.2,52.5,84.27,0.0,0.0,29.91,10.0,57.2
2021-09-15 02:00:00,55.0,50.4,84.44,0.0,0.0,29.92,10.0,55.0
2021-09-15 03:00:00,51.3,50.4,96.72,0.0,0.0,29.93,10.0,51.3
2021-09-15 04:00:00,48.4,47.3,95.95,0.0,0.0,29.94,10.0,48.4
2021-09-15 05:00:00,48.4,48.0,98.51,0.0,0.0,29.95,10.0,48.4
2021-09-15 06:00:00,47.0,47.0,99.25,0.0,0.0,29.95,5.0,47.1
2021-09-15 07:00:00,47.0,47.0,99.25,0.0,0.0,29.95,5.0,47.1
2021-09-15 08:00:00,44.6,44.2,98.49,0.0,0.0,29.97,10.0,44.6
2021-09-15 09:00:00,45.0,45.0,100.0,0.0,0.0,29.97,7.0,45.0
2021-09-15 10:00:00,43.3,43.3,100.0,0.0,0.0,29.99,10.0,43.3
2021-09-15 11:00:00,42.0,42.0,100.0,0.0,0.0,30.01,7.0,41.9
2021-09-15 12:00:00,45.0,45.0,100.0,0.0,0.0,30.02,10.0,45.1
2021-09-15 13:00:00,52.2,50.0,92.18,0.0,0.0,30.02,10.0,52.2
2021-09-15 14:00:00,58.0,51.0,77.46,0.0,0.0,30.03,10.0,57.9
2021-09-15 15:00:00,65.3,52.2,62.55,160.0,3.0,30.03,10.0,65.3
2021-09-15 16:00:00,71.2,47.0,42.23,210.0,4.0,30.03,10.0,71.2
2021-09-15 17:00:00,73.0,45.0,36.7,220.0,6.0,30.03,10.0,73.0
2021-09-15 18:00:00,74.3,43.0,32.54,210.0,9.0,30.01,10.0,74.3
2021-09-15 19:00:00,75.2,42.0,30.5,240.0,7.0,30.0,10.0,75.2
2021-09-15 20:00:00,75.4,43.5,31.97,190.0,8.0,29.98,10.0,75.4
2021-09-15 21:00:00,75.0,43.2,32.03,220.0,6.0,29.97,10.0,75.0
2021-09-15 22:00:00,73.8,44.6,35.18,170.0,7.0,29.97,10.0,73.8
2021-09-15 23:00:00,69.3,47.5,45.74,150.0,5.0,29.96,10.0,69.3
2021-09-16 00:00:00,62.6,49.0,60.83,140.0,5.0,29.96,10.0,62.6
2021-09-16 01:00:00,63.5,48.4,57.84,140.0,7.0,29.96,10.0,63.5
2021-09-16 02:00:00,62.6,47.3,57.29,140.0,5.0,29.98,10.0,62.6
2021-09-16 03:00:00,60.0,47.5,63.51,130.0,6.0,29.98,10.0,59.9
2021-09-16 04:00:00,61.7,47.5,59.58,130.0,5.0,29.99,10.0,61.7
2021-09-16 05:00:00,59.5,51.3,74.23,140.0,7.0,29.98,10.0,59.5
2021-09-16 06:00:00,62.4,48.6,60.58,140.0,9.0,29.97,10.0,62.4
2021-09-16 07:00:00,62.0,48.2,60.74,140.0,9.0,29.96,10.0,61.9
2021-09-16 08:00:00,61.7,48.2,61.17,140.0,8.0,29.95,10.0,61.7
2021-09-16 09:00:00,61.7,47.8,60.26,140.0,8.0,29.96,10.0,61.7
2021-09-16 10:00:00,60.4,47.8,63.1,150.0,9.0,29.94,10.0,60.4
2021-09-16 11:00:00,60.4,48.4,64.54,150.0,9.0,29.94,10.0,60.4
2021-09-16 12:00:00,58.8,50.7,74.44,150.0,9.0,29.95,10.0,58.8
2021-09-16 13:00:00,58.5,53.8,84.35,140.0,8.0,29.94,10.0,58.5
2021-09-16 14:00:00,63.3,53.8,71.14,140.0,9.0,29.93,10.0,63.3
2021-09-16 15:00:00,69.6,55.4,60.62,170.0,11.0,29.92,10.0,69.6
2021-09-16 16:00:00,73.2,56.3,55.43,170.0,13.0,29.9,10.0,73.2
2021-09-16 17:00:00,76.6,57.4,51.48,150.0,18.0,29.87,10.0,76.6
2021-09-16 18:00:00,78.3,58.3,50.26,160.0,17.0,29.85,10.0,78.3
2021-09-16 19:00:00,79.3,58.8,49.51,170.0,17.0,29.83,10.0,79.3
2021-09-16 20:00:00,80.6,59.4,48.48,160.0,15.0,29.81,10.0,81.19
2021-09-16 21:00:00,80.2,59.2,48.76,160.0,16.0,29.8,10.0,80.86
2021-09-16 22:00:00,79.2,59.5,50.93,160.0,15.0,29.8,10.0,79.2
2021-09-16 23:00:00,76.3,59.5,56.06,150.0,11.0,29.79,10.0,76.3
2021-09-17 00:00:00,73.4,59.4,61.55,140.0,11.0,29.79,10.0,73.4
2021-09-17 01:00:00,71.8,59.4,64.96,140.0,7.0,29.84,10.0,71.8
2021-09-17 02:00:00,71.0,59.2,66.5,150.0,7.0,29.85,10.0,70.9
2021-09-17 03:00:00,71.0,59.2,66.5,150.0,7.0,29.85,10.0,70.9
2021-09-17 04:00:00,73.0,58.5,60.61,180.0,14.0,29.82,10.0,72.9
2021-09-17 05:00:00,71.8,58.5,62.91,170.0,12.0,29.82,10.0,71.8
2021-09-17 06:00:00,70.7,58.5,65.3,180.0,8.0,29.83,10.0,70.7
2021-09-17 07:00:00,71.6,58.3,62.88,180.0,10.0,29.83,10.0,71.6
2021-09-17 08:00:00,71.0,58.8,65.11,190.0,8.0,29.84,10.0,71.1
2021-09-17 09:00:00,63.3,61.5,93.85,320.0,13.0,29.91,10.0,63.3
2021-09-17 10:00:00,59.7,57.2,91.43,350.0,6.0,29.94,10.0,59.7
2021-09-17 11:00:00,57.6,56.3,95.42,220.0,7.0,30.02,10.0,57.6
2021-09-17 12:00:00,56.7,55.2,94.71,0.0,0.0,30.0,10.0,56.7
2021-09-17 13:00:00,58.6,56.5,92.72,270.0,4.0,30.03,10.0,58.6
2021-09-17 14:00:00,59.7,56.0,87.23,270.0,5.0,30.09,10.0,59.7
2021-09-17 15:00:00,61.7,53.4,74.17,270.0,7.0,30.13,10.0,61.7
2021-09-17 16:00:00,63.7,50.2,61.43,300.0,6.0,30.14,10.0,63.7
2021-09-17 17:00:00,66.0,43.0,43.2,320.0,8.0,30.14,10.0,66.0
2021-09-17 18:00:00,66.6,41.4,39.78,290.0,5.0,30.15,10.0,66.6
2021-09-17 19:00:00,69.0,39.7,34.4,290.0,10.0,30.14,10.0,68.9
2021-09-17 20:00:00,69.6,40.5,34.65,250.0,7.0,30.14,10.0,69.6
2021-09-17 21:00:00,70.0,42.6,37.07,260.0,5.0,30.15,10.0,70.0
2021-09-17 22:00:00,69.0,42.0,37.46,270.0,6.0,30.16,10.0,68.9
2021-09-17 23:00:00,65.0,43.5,45.75,270.0,4.0,30.17,10.0,64.9
2021-09-18 00:00:00,56.0,45.0,66.49,0.0,0.0,30.18,10.0,56.1
2021-09-18 01:00:00,51.3,48.6,90.44,0.0,0.0,30.2,10.0,51.3
2021-09-18 02:00:00,49.5,48.0,94.54,0.0,0.0,30.21,10.0,49.5
2021-09-18 03:00:00,47.0,46.4,98.13,0.0,0.0,30.23,10.0,46.9
2021-09-18 04:00:00,46.0,46.0,99.62,0.0,0.0,30.23,10.0,46.0
2021-09-18 05:00:00,46.0,45.3,97.75,0.0,0.0,30.25,10.0,45.9
2021-09-18 06:00:00,44.2,44.2,100.0,0.0,0.0,30.24,10.0,44.2
2021-09-18 07:00:00,42.8,42.6,99.23,0.0,0.0,30.25,10.0,42.8
2021-09-18 08:00:00,42.6,42.6,100.0,0.0,0.0,30.26,2.0,42.6
2021-09-18 09:00:00,41.5,41.5,100.0,0.0,0.0,30.26,5.0,41.5
2021-09-18 10:00:00,41.2,41.2,100.0,0.0,0.0,30.26,2.5,41.2
2021-09-18 11:00:00,40.0,40.0,100.0,0.0,0.0,30.26,2.0,39.9
2021-09-18 12:00:00,41.5,41.5,100.0,0.0,0.0,30.28,10.0,41.5
2021-09-18 13:00:00,49.5,48.6,96.69,0.0,0.0,30.28,10.0,49.5
2021-09-18 14:00:00,57.0,48.4,72.89,140.0,7.0,30.27,10.0,57.0
2021-09-18 15:00:00,63.0,48.6,59.31,150.0,5.0,30.26,10.0,63.0
2021-09-18 16:00:00,67.3,45.0,44.74,150.0,10.0,30.24,10.0,67.3
2021-09-18 17:00:00,70.2,45.0,40.5,180.0,7.0,30.21,10.0,70.2
2021-09-18 18:00:00,71.6,45.0,38.62,180.0,7.0,30.19,10.0,71.6
2021-09-18 19:00:00,72.3,46.2,39.32,170.0,7.0,30.16,10.0,72.3
2021-09-18 20:00:00,73.4,45.0,36.34,160.0,8.0,30.14,10.0,73.4
2021-09-18 21:00:00,73.4,43.7,34.45,150.0,11.0,30.12,10.0,73.4
2021-09-18 22:00:00,72.5,46.2,39.06,150.0,8.0,30.1,10.0,72.5
2021-09-18 23:00:00,68.7,49.0,49.2,140.0,7.0,30.09,10.0,68.7
2021-09-19 00:00:00,63.3,49.0,59.35,140.0,4.0,30.08,10.0,63.3
2021-09-19 01:00:00,63.5,48.6,58.28,130.0,7.0,30.07,10.0,63.5
2021-09-19 02:00:00,63.0,49.3,60.88,130.0,7.0,30.06,10.0,63.0
2021-09-19 03:00:00,62.0,50.0,64.96,130.0,8.0,30.05,10.0,61.9
2021-09-19 04:00:00,61.5,51.0,68.12,120.0,6.0,30.05,10.0,61.5
2021-09-19 05:00:00,61.0,51.6,71.16,120.0,7.0,30.05,10.0,61.0
2021-09-19 06:00:00,60.3,51.6,72.95,130.0,8.0,30.04,10.0,60.3
2021-09-19 07:00:00,59.4,51.6,75.33,130.0,6.0,30.04,10.0,59.4
2021-09-19 08:00:00,58.6,51.3,76.66,130.0,6.0,30.03,10.0,58.6
2021-09-19 09:00:00,58.6,51.4,76.95,120.0,6.0,30.02,10.0,58.6
2021-09-19 10:00:00,58.5,51.8,78.37,120.0,7.0,30.02,10.0,58.5
2021-09-19 11:00:00,57.7,52.3,82.16,130.0,5.0,30.01,10.0,57.7
2021-09-19 12:00:00,59.2,53.8,82.26,120.0,7.0,30.01,10.0,59.2
2021-09-19 13:00:00,64.2,56.7,76.59,130.0,6.0,30.0,10.0,64.2
2021-09-19 14:00:00,70.7,61.2,71.9,150.0,9.0,29.98,10.0,70.7
2021-09-19 15:00:00,76.0,64.2,67.07,180.0,9.0,29.97,10.0,75.9
2021-09-19 16:00:00,79.7,64.8,60.41,170.0,12.0,29.95,10.0,79.7
2021-09-19 17:00:00,82.0,65.0,56.24,170.0,16.0,29.92,10.0,83.76
2021-09-19 18:00:00,84.2,64.6,51.83,180.0,17.0,29.91,10.0,85.8
2021-09-19 19:00:00,86.0,64.6,48.92,160.0,16.0,29.89,10.0,87.59
2021-09-19 20:00:00,86.0,64.6,48.92,170.0,19.0,29.87,10.0,87.59
2021-09-19 21:00:00,86.0,65.0,49.44,170.0,16.0,29.86,10.0,87.73
2021-09-19 22:00:00,83.7,65.0,53.23,160.0,12.0,29.87,10.0,85.43
2021-09-19 23:00:00,79.7,64.6,59.99,160.0,12.0,29.86,10.0,79.7
2021-09-20 00:00:00,76.6,64.8,66.92,140.0,9.0,29.86,10.0,76.6
2021-09-20 01:00:00,75.4,65.7,71.86,160.0,9.0,29.87,10.0,75.4
2021-09-20 02:00:00,72.7,65.3,77.59,140.0,8.0,29.87,10.0,72.7
2021-09-20 03:00:00,71.0,65.0,80.78,140.0,7.0,29.87,7.0,71.1
2021-09-20 04:00:00,69.8,64.4,82.98,130.0,7.0,29.86,10.0,69.8
2021-09-20 05:00:00,68.7,64.0,84.67,130.0,5.0,29.84,10.0,68.7
2021-09-20 06:00:00,67.6,63.5,86.71,120.0,5.0,29.83,10.0,67.6
2021-09-20 07:00:00,66.4,63.0,89.12,110.0,5.0,29.81,10.0,66.4
2021-09-20 08:00:00,65.7,62.6,89.72,130.0,5.0,29.8,10.0,65.7
2021-09-20 09:00:00,66.7,62.6,86.66,130.0,8.0,29.78,10.0,66.7
2021-09-20 10:00:00,64.6,62.0,90.95,130.0,4.0,29.77,10.0,64.6
2021-09-20 11:00:00,64.0,62.0,93.54,120.0,4.0,29.78,10.0,64.0
2021-09-20 12:00:00,65.7,62.8,90.35,130.0,6.0,29.78,10.0,65.7
2021-09-20 13:00:00,65.7,62.8,90.35,130.0,6.0,29.78,10.0,65.7
2021-09-20 14:00:00,72.0,65.3,79.45,160.0,11.0,29.76,10.0,72.0
2021-09-20 15:00:00,72.7,65.8,78.95,150.0,10.0,29.76,10.0,72.7
2021-09-20 16:00:00,76.5,66.4,70.98,130.0,15.0,29.73,10.0,76.5
2021-09-20 17:00:00,74.8,66.0,74.09,150.0,14.0,29.71,10.0,74.8
2021-09-20 18:00:00,73.4,66.6,79.28,150.0,11.0,29.7,10.0,73.4
2021-09-20 19:00:00,73.4,66.6,79.28,150.0,11.0,29.7,10.0,73.4
2021-09-20 20:00:00,73.0,67.0,81.47,140.0,17.0,29.62,10.0,72.9
2021-09-20 21:00:00,73.6,67.0,80.12,150.0,14.0,29.56,10.0,73.6
2021-09-20 22:00:00,66.6,65.8,97.26,210.0,6.0,29.63,3.0,66.6
2021-09-20 23:00:00,65.5,64.8,97.59,220.0,4.0,29.64,10.0,65.5
2021-09-21 00:00:00,60.3,59.0,95.47,280.0,11.0,29.7,10.0,60.3
2021-09-21 01:00:00,58.6,56.0,91.39,290.0,12.0,29.76,10.0,58.6
2021-09-21 02:00:00,58.5,55.4,89.42,280.0,11.0,29.79,10.0,58.5
2021-09-21 03:00:00,58.6,54.7,86.85,290.0,9.0,29.82,10.0,58.6
2021-09-21 04:00:00,55.8,54.0,94.0,290.0,13.0,29.86,5.0,55.8
2021-09-21 05:00:00,55.0,51.8,88.93,290.0,10.0,29.9,10.0,55.0
2021-09-21 06:00:00,54.0,50.4,87.58,310.0,11.0,29.92,10.0,54.0
2021-09-21 07:00:00,53.2,49.0,85.92,300.0,7.0,29.93,10.0,53.2
2021-09-21 08:00:00,53.0,50.0,89.18,290.0,4.0,29.96,10.0,53.1
2021-09-21 09:00:00,53.2,50.5,90.52,290.0,6.0,29.99,10.0,53.2
2021-09-21 10:00:00,51.3,49.6,93.88,280.0,5.0,30.02,10.0,51.3
2021-09-21 11:00:00,50.0,49.0,96.7,270.0,3.0,30.06,10.0,50.0
2021-09-21 12:00:00,50.5,49.0,94.92,290.0,3.0,30.09,10.0,50.5
2021-09-21 13:00:00,54.5,49.3,82.54,290.0,9.0,30.12,10.0,54.5
2021-09-21 14:00:00,57.4,49.3,74.31,330.0,7.0,30.15,10.0,57.4
2021-09-21 15:00:00,61.0,49.0,64.85,290.0,7.0,30.17,10.0,61.0
2021-09-21 16:00:00,63.3,47.7,56.74,330.0,7.0,30.18,10.0,63.3
2021-09-21 17:00:00,65.3,46.8,51.14,330.0,9.0,30.19,10.0,65.3
2021-09-21 18:00:00,64.0,46.0,51.73,320.0,8.0,30.19,10.0,64.0
2021-09-21 19:00:00,65.5,44.6,46.73,350.0,5.0,30.19,10.0,65.5
2021-09-21 20:00:00,65.0,44.6,47.38,310.0,5.0,30.19,10.0,65.1
2021-09-21 21:00:00,66.4,43.5,43.42,310.0,5.0,30.2,10.0,66.4
2021-09-21 22:00:00,61.5,45.5,55.64,310.0,3.0,30.22,10.0,61.5
2021-09-21 23:00:00,62.6,45.0,52.71,0.0,0.0,30.24,10.0,62.6
2021-09-22 00:00:00,58.5,45.7,62.38,330.0,3.0,30.26,10.0,58.5
2021-09-22 01:00:00,55.4,46.0,70.3,330.0,3.0,30.28,10.0,55.4
2021-09-22 02:00:00,53.2,46.0,76.18,0.0,0.0,30.3,10.0,53.2
2021-09-22 03:00:00,50.2,46.4,86.73,0.0,0.0,30.31,10.0,50.2
2021-09-22 04:00:00,50.0,45.3,83.81,0.0,0.0,30.31,10.0,50.0
2021-09-22 05:00:00,46.0,44.4,94.46,0.0,0.0,30.31,10.0,45.9
2021-09-22 06:00:00,45.3,43.7,94.08,0.0,0.0,30.31,10.0,45.3
2021-09-22 07:00:00,43.0,42.6,98.48,0.0,0.0,30.31,10.0,43.0
2021-09-22 08:00:00,41.4,41.2,99.23,290.0,3.0,30.31,10.0,39.43
2021-09-22 09:00:00,41.2,41.2,100.0,0.0,0.0,30.31,10.0,41.2
2021-09-22 10:00:00,40.3,40.0,99.23,0.0,0.0,30.32,10.0,40.3
2021-09-22 11:00:00,41.4,41.4,100.0,0.0,0.0,30.33,10.0,41.4
2021-09-22 12:00:00,42.4,42.4,100.0,0.0,0.0,30.34,10.0,42.4
2021-09-22 13:00:00,47.8,47.0,96.67,0.0,0.0,30.34,10.0,47.8
2021-09-22 14:00:00,55.0,47.7,76.62,350.0,3.0,30.34,10.0,54.9
2021-09-22 15:00:00,60.0,45.0,57.78,340.0,3.0,30.34,10.0,59.9
2021-09-22 16:00:00,62.6,41.2,45.39,360.0,6.0,30.32,10.0,62.6
2021-09-22 17:00:00,64.0,41.0,42.88,360.0,4.0,30.31,10.0,64.0
2021-09-22 18:00:00,65.3,41.5,41.78,300.0,3.0,30.28,10.0,65.3
2021-09-22 19:00:00,66.4,40.6,38.83,320.0,4.0,30.26,10.0,66.4
2021-09-22 20:00:00,66.7,40.0,37.69,0.0,0.0,30.24,10.0,66.7
2021-09-22 21:00:00,67.0,41.5,39.52,300.0,3.0,30.23,10.0,66.9
2021-09-22 22:00:00,66.2,40.8,39.41,350.0,3.0,30.22,10.0,66.2
2021-09-22 23:00:00,61.5,45.7,56.06,0.0,0.0,30.21,10.0,61.5
2021-09-23 00:00:00,53.0,47.8,82.14,0.0,0.0,30.22,10.0,53.1
2021-09-23 01:00:00,50.7,48.4,91.78,0.0,0.0,30.22,10.0,50.7
2021-09-23 02:00:00,48.4,46.8,94.16,0.0,0.0,30.21,10.0,48.4
2021-09-23 03:00:00,46.8,46.2,97.76,0.0,0.0,30.19,10.0,46.8
2021-09-23 04:00:00,45.0,45.0,99.62,0.0,0.0,30.18,10.0,45.1
2021-09-23 05:00:00,44.2,44.2,100.0,0.0,0.0,30.17,10.0,44.2
2021-09-23 06:00:00,44.0,44.0,99.24,0.0,0.0,30.17,10.0,44.1
2021-09-23 07:00:00,42.0,42.0,100.0,0.0,0.0,30.16,10.0,42.1
2021-09-23 08:00:00,41.0,41.0,100.0,0.0,0.0,30.16,7.0,41.0
2021-09-23 09:00:00,40.0,40.0,100.0,0.0,0.0,30.14,10.0,40.1
2021-09-23 10:00:00,40.0,40.0,100.0,0.0,0.0,30.14,10.0,39.9
2021-09-23 11:00:00,39.6,39.6,100.0,0.0,0.0,30.14,10.0,39.6
2021-09-23 12:00:00,41.7,41.7,100.0,0.0,0.0,30.14,10.0,41.7
2021-09-23 13:00:00,46.8,46.0,96.66,0.0,0.0,30.13,10.0,46.8
2021-09-23 14:00:00,53.8,48.4,81.88,0.0,0.0,30.12,10.0,53.8
2021-09-23 15:00:00,60.8,48.2,63.15,240.0,3.0,30.12,10.0,60.8
2021-09-23 16:00:00,65.0,46.2,50.35,310.0,3.0,30.11,10.0,65.1
2021-09-23 17:00:00,67.0,44.2,43.53,280.0,3.0,30.08,10.0,67.1
2021-09-23 18:00:00,67.0,44.2,43.53,280.0,3.0,30.08,10.0,67.1
2021-09-23 19:00:00,69.8,44.0,39.53,0.0,0.0,30.02,10.0,69.8
2021-09-23 20:00:00,70.5,44.0,38.59,290.0,6.0,29.99,10.0,70.5
2021-09-23 21:00:00,71.0,43.0,36.5,250.0,4.0,29.98,10.0,70.9
2021-09-23 22:00:00,70.0,43.2,37.93,0.0,0.0,29.97,10.0,70.0
2021-09-23 23:00:00,62.8,46.8,55.82,0.0,0.0,29.97,10.0,62.8
2021-09-24 00:00:00,56.3,47.3,71.74,0.0,0.0,29.96,10.0,56.3
2021-09-24 01:00:00,51.4,49.5,93.19,0.0,0.0,29.96,10.0,51.4
2021-09-24 02:00:00,49.6,49.0,98.15,0.0,0.0,29.96,10.0,49.6
2021-09-24 03:00:00,47.8,47.3,98.14,0.0,0.0,29.96,10.0,47.8
2021-09-24 04:00:00,46.4,46.4,100.0,0.0,0.0,29.95,7.0,46.4
2021-09-24 05:00:00,44.6,44.6,100.0,0.0,0.0,29.94,2.5,44.6
2021-09-24 06:00:00,44.0,44.0,100.0,0.0,0.0,29.92,2.5,43.9
2021-09-24 07:00:00,43.2,43.2,100.0,0.0,0.0,29.91,10.0,43.2
2021-09-24 08:00:00,43.7,43.7,100.0,0.0,0.0,29.89,7.0,43.7
2021-09-24 09:00:00,42.0,42.0,100.0,0.0,0.0,29.87,5.0,42.1
2021-09-24 10:00:00,42.8,42.8,100.0,0.0,0.0,29.86,5.0,42.8
2021-09-24 11:00:00,42.3,42.3,100.0,0.0,0.0,29.84,10.0,42.3
2021-09-24 12:00:00,43.0,43.0,100.0,0.0,0.0,29.84,10.0,43.0
2021-09-24 13:00:00,50.2,48.4,93.5,0.0,0.0,29.84,10.0,50.2
2021-09-24 14:00:00,55.4,49.3,79.88,0.0,0.0,29.84,10.0,55.4
2021-09-24 15:00:00,59.4,49.6,69.94,270.0,5.0,29.84,10.0,59.4
2021-09-24 16:00:00,60.0,48.6,66.19,300.0,11.0,29.85,10.0,59.9
2021-09-24 17:00:00,60.0,48.6,66.19,300.0,11.0,29.85,10.0,59.9
2021-09-24 18:00:00,53.4,49.0,85.29,330.0,8.0,29.87,10.0,53.4
2021-09-24 19:00:00,51.0,49.0,93.52,320.0,3.0,29.91,10.0,50.9
2021-09-24 20:00:00,51.0,48.6,91.79,350.0,5.0,29.87,10.0,50.9
2021-09-24 21:00:00,51.3,49.0,91.46,300.0,5.0,29.89,10.0,51.3
2021-09-24 22:00:00,53.0,47.7,82.43,290.0,5.0,29.9,10.0,52.9
2021-09-24 23:00:00,51.6,47.7,86.48,0.0,0.0,29.9,10.0,51.6
2021-09-25 00:00:00,46.4,46.4,100.0,0.0,0.0,29.91,7.0,46.4
2021-09-25 01:00:00,44.6,44.6,100.0,0.0,0.0,29.91,1.5,44.6
2021-09-25 02:00:00,43.0,43.0,100.0,0.0,0.0,29.91,0.5,43.0
2021-09-25 03:00:00,42.3,42.3,100.0,0.0,0.0,29.92,10.0,42.3
2021-09-25 04:00:00,41.4,41.4,100.0,0.0,0.0,29.92,10.0,41.4
2021-09-25 05:00:00,42.8,42.0,96.6,0.0,0.0,29.92,10.0,42.8
2021-09-25 06:00:00,41.7,39.2,90.75,0.0,0.0,29.92,10.0,41.7
2021-09-25 07:00:00,41.4,38.3,88.64,250.0,3.0,29.91,10.0,39.43
2021-09-25 08:00:00,40.5,37.6,89.29,0.0,0.0,29.91,10.0,40.5
2021-09-25 09:00:00,40.0,37.4,89.98,0.0,0.0,29.92,10.0,40.1
2021-09-25 10:00:00,39.4,37.0,91.02,0.0,0.0,29.92,10.0,39.4
2021-09-25 11:00:00,38.7,37.4,95.03,0.0,0.0,29.93,10.0,38.7
2021-09-25 12:00:00,40.6,38.3,91.42,0.0,0.0,29.93,10.0,40.6
2021-09-25 13:00:00,44.0,40.0,85.71,0.0,0.0,29.94,10.0,43.9
2021-09-25 14:00:00,47.3,41.0,78.63,250.0,4.0,29.95,10.0,45.29
2021-09-25 15:00:00,47.3,41.0,78.63,250.0,4.0,29.95,10.0,45.29
2021-09-25 16:00:00,55.0,42.4,62.64,260.0,7.0,29.94,10.0,54.9
2021-09-25 17:00:00,57.0,42.4,58.05,250.0,8.0,29.94,10.0,57.0
2021-09-25 18:00:00,60.3,41.5,49.82,260.0,7.0,29.92,10.0,60.3
2021-09-25 19:00:00,61.7,40.0,44.55,270.0,8.0,29.91,10.0,61.7
2021-09-25 20:00:00,63.0,37.2,38.29,260.0,9.0,29.89,10.0,63.0
2021-09-25 21:00:00,62.0,38.3,41.56,260.0,6.0,29.88,10.0,61.9
2021-09-25 22:00:00,61.0,38.0,42.24,240.0,5.0,29.88,10.0,61.0
2021-09-25 23:00:00,60.0,38.3,44.3,0.0,0.0,29.88,10.0,60.1
2021-09-26 00:00:00,54.0,41.4,62.05,210.0,3.0,29.88,10.0,54.1
2021-09-26 01:00:00,49.0,40.8,72.93,0.0,0.0,29.88,10.0,49.1
2021-09-26 02:00:00,47.0,43.3,87.21,0.0,0.0,29.87,10.0,46.9
2021-09-26 03:00:00,46.0,42.8,88.51,0.0,0.0,29.87,10.0,46.0
2021-09-26 04:00:00,46.6,41.0,80.73,0.0,0.0,29.86,10.0,46.6
2021-09-26 05:00:00,43.7,41.5,91.89,0.0,0.0,29.85,10.0,43.7
2021-09-26 06:00:00,42.4,40.8,94.01,0.0,0.0,29.84,10.0,42.4
2021-09-26 07:00:00,42.0,41.5,97.71,0.0,0.0,29.82,10.0,42.1
2021-09-26 08:00:00,41.5,40.5,96.2,0.0,0.0,29.81,10.0,41.5
2021-09-26 09:00:00,42.4,39.7,90.08,0.0,0.0,29.81,10.0,42.4
2021-09-26 10:00:00,42.0,40.0,92.55,0.0,0.0,29.81,10.0,42.1
2021-09-26 11:00:00,44.0,41.4,90.84,0.0,0.0,29.81,10.0,43.9
2021-09-26 12:00:00,46.2,41.7,84.2,0.0,0.0,29.8,10.0,46.2
2021-09-26 13:00:00,52.0,43.2,71.83,0.0,0.0,29.8,10.0,52.0
2021-09-26 14:00:00,56.5,45.7,67.04,160.0,3.0,29.8,10.0,56.5
2021-09-26 15:00:00,60.0,48.0,64.26,160.0,4.0,29.8,10.0,60.1
2021-09-26 16:00:00,63.5,49.6,60.49,110.0,3.0,29.78,10.0,63.5
2021-09-26 17:00:00,65.0,51.8,62.06,110.0,3.0,29.78,10.0,65.1
2021-09-26 18:00:00,66.4,52.5,60.87,150.0,5.0,29.76,10.0,66.4
2021-09-26 19:00:00,68.4,53.2,58.29,140.0,5.0,29.73,10.0,68.4
2021-09-26 20:00:00,70.5,55.0,57.73,170.0,7.0,29.72,10.0,70.5
2021-09-26 21:00:00,71.0,54.3,55.34,170.0,6.0,29.72,10.0,71.1
2021-09-26 22:00:00,70.7,55.0,57.55,150.0,6.0,29.71,10.0,70.7
2021-09-26 23:00:00,65.8,56.0,70.37,130.0,3.0,29.71,10.0,65.8
2021-09-27 00:00:00,58.0,55.0,89.4,0.0,0.0,29.72,10.0,58.1
2021-09-27 01:00:00,54.0,53.6,98.19,0.0,0.0,29.72,10.0,54.1
2021-09-27 02:00:00,53.0,52.7,98.54,0.0,0.0,29.72,7.0,53.1
2021-09-27 03:00:00,51.8,51.8,100.0,0.0,0.0,29.73,10.0,51.8
2021-09-27 04:00:00,49.8,49.8,100.0,0.0,0.0,29.73,10.0,49.8
2021-09-27 05:00:00,49.3,49.0,99.26,0.0,0.0,29.73,10.0,49.3
2021-09-27 06:00:00,48.7,48.7,100.0,0.0,0.0,29.74,7.0,48.7
2021-09-27 07:00:00,52.3,52.3,100.0,0.0,0.0,29.75,10.0,52.3
2021-09-27 08:00:00,49.5,49.3,99.26,0.0,0.0,29.75,5.0,49.5
2021-09-27 09:00:00,49.0,49.0,100.0,360.0,3.0,29.76,7.0,48.01
2021-09-27 10:00:00,47.5,47.5,100.0,0.0,0.0,29.78,7.0,47.5
2021-09-27 11:00:00,47.0,47.0,100.0,340.0,3.0,29.8,10.0,45.95
2021-09-27 12:00:00,47.8,47.8,100.0,0.0,0.0,29.83,10.0,47.8
2021-09-27 13:00:00,55.4,53.0,91.27,10.0,4.0,29.84,10.0,55.4
2021-09-27 14:00:00,60.6,52.0,73.25,20.0,6.0,29.87,10.0,60.6
2021-09-27 15:00:00,64.4,52.0,64.07,20.0,6.0,29.88,10.0,64.4
2021-09-27 16:00:00,68.0,50.7,53.89,10.0,9.0,29.9,10.0,68.0
2021-09-27 17:00:00,71.0,49.0,45.98,20.0,11.0,29.9,10.0,70.9
2021-09-27 18:00:00,72.3,46.0,39.03,40.0,8.0,29.91,10.0,72.3
2021-09-27 19:00:00,72.3,45.5,38.29,360.0,8.0,29.91,10.0,72.3
2021-09-27 20:00:00,73.4,46.4,38.18,20.0,4.0,29.9,10.0,73.4
2021-09-27 21:00:00,72.7,45.3,37.49,40.0,4.0,29.91,10.0,72.7
2021-09-27 22:00:00,71.8,45.7,39.24,50.0,3.0,29.92,10.0,71.8
2021-09-27 23:00:00,65.7,48.2,53.16,0.0,0.0,29.93,10.0,65.7
2021-09-28 00:00:00,59.0,50.5,73.37,0.0,0.0,29.94,5.0,59.0
2021-09-28 01:00:00,55.6,50.5,82.93,20.0,3.0,29.95,10.0,55.6
2021-09-28 02:00:00,53.6,51.0,90.53,0.0,0.0,29.96,10.0,53.6
2021-09-28 03:00:00,50.4,49.8,97.79,0.0,0.0,29.97,10.0,50.4
2021-09-28 04:00:00,49.0,49.0,100.0,0.0,0.0,29.97,10.0,48.9
2021-09-28 05:00:00,47.0,47.0,100.0,0.0,0.0,29.98,10.0,47.1
2021-09-28 06:00:00,46.8,46.8,100.0,0.0,0.0,29.98,4.0,46.8
2021-09-28 07:00:00,46.0,46.0,100.0,0.0,0.0,29.97,4.0,45.9
2021-09-28 08:00:00,46.4,46.4,100.0,0.0,0.0,29.97,10.0,46.4
2021-09-28 09:00:00,46.6,46.4,99.25,130.0,3.0,29.98,10.0,45.38
2021-09-28 10:00:00,49.6,48.2,94.9,130.0,5.0,30.0,10.0,47.3
2021-09-28 11:00:00,49.3,48.0,95.25,120.0,3.0,30.01,10.0,48.47
2021-09-28 12:00:00,49.6,48.4,95.62,110.0,3.0,30.02,10.0,48.81
2021-09-28 13:00:00,54.0,50.0,86.29,130.0,6.0,30.02,10.0,54.0
2021-09-28 14:00:00,58.0,50.7,76.33,140.0,7.0,30.02,10.0,58.1
2021-09-28 15:00:00,64.0,51.4,63.77,160.0,7.0,30.02,10.0,63.9
2021-09-28 16:00:00,67.5,51.8,57.11,150.0,9.0,30.02,10.0,67.5
2021-09-28 17:00:00,70.7,52.7,52.9,140.0,7.0,30.01,10.0,70.7
2021-09-28 18:00:00,73.0,53.6,50.75,180.0,8.0,29.99,10.0,72.9
2021-09-28 19:00:00,74.7,54.0,48.65,180.0,9.0,29.97,10.0,74.7
2021-09-28 20:00:00,75.2,53.6,46.98,130.0,9.0,29.95,10.0,75.2
2021-09-28 21:00:00,75.4,54.0,47.36,140.0,6.0,29.95,10.0,75.4
2021-09-28 22:00:00,73.4,53.8,50.27,150.0,6.0,29.94,5.0,73.4
2021-09-28 23:00:00,67.8,53.8,60.83,150.0,4.0,29.96,10.0,67.8
2021-09-29 00:00:00,64.4,54.3,69.71,110.0,3.0,29.96,10.0,64.4
2021-09-29 01:00:00,58.0,53.0,84.0,140.0,3.0,29.96,10.0,57.9
2021-09-29 02:00:00,57.2,53.8,88.38,0.0,0.0,29.97,10.0,57.2
2021-09-29 03:00:00,55.4,53.2,92.28,0.0,0.0,29.98,10.0,55.4
2021-09-29 04:00:00,52.7,52.0,97.46,0.0,0.0,29.98,10.0,52.7
2021-09-29 05:00:00,50.2,50.0,99.26,0.0,0.0,29.99,10.0,50.2
2021-09-29 06:00:00,53.4,51.0,91.2,0.0,0.0,29.99,10.0,53.4
2021-09-29 07:00:00,54.0,51.0,89.22,0.0,0.0,30.0,10.0,54.0
2021-09-29 08:00:00,54.0,50.5,87.9,0.0,0.0,30.01,10.0,54.0
2021-09-29 09:00:00,53.4,49.0,85.29,110.0,3.0,30.02,10.0,53.4
2021-09-29 10:00:00,52.7,48.6,85.89,0.0,0.0,30.03,10.0,52.7
2021-09-29 11:00:00,52.5,48.6,86.53,110.0,3.0,30.04,10.0,52.5
2021-09-29 12:00:00,52.7,48.7,86.21,130.0,3.0,30.04,10.0,52.7
2021-09-29 13:00:00,57.2,50.4,77.97,110.0,5.0,30.06,10.0,57.2
2021-09-29 14:00:00,62.6,51.8,67.75,120.0,6.0,30.06,10.0,62.6
2021-09-29 15:00:00,66.6,53.8,63.41,110.0,6.0,30.06,10.0,66.6
2021-09-29 16:00:00,71.0,56.0,59.48,120.0,5.0,30.06,10.0,70.9
2021-09-29 17:00:00,76.5,58.6,53.92,130.0,7.0,30.05,7.0,76.5
2021-09-29 18:00:00,79.3,60.6,52.79,120.0,6.0,30.03,10.0,79.3
2021-09-29 19:00:00,80.8,61.2,51.35,130.0,7.0,30.03,10.0,81.7
2021-09-29 20:00:00,81.0,61.0,50.49,130.0,8.0,30.03,10.0,81.89
2021-09-29 21:00:00,79.7,60.8,52.48,130.0,8.0,30.04,10.0,79.7
2021-09-29 22:00:00,79.0,62.0,56.23,100.0,5.0,30.04,10.0,79.0
2021-09-29 23:00:00,74.0,62.0,66.17,120.0,4.0,30.06,10.0,74.1
2021-09-30 00:00:00,68.5,61.7,78.9,0.0,0.0,30.08,10.0,68.5
2021-09-30 01:00:00,67.8,61.0,78.84,130.0,4.0,30.09,10.0,67.8
2021-09-30 02:00:00,66.4,58.8,76.51,120.0,3.0,30.09,10.0,66.4
2021-09-30 03:00:00,62.8,57.2,81.92,0.0,0.0,30.1,10.0,62.8
2021-09-30 04:00:00,59.4,56.0,88.17,0.0,0.0,30.11,10.0,59.4
2021-09-30 05:00:00,59.0,56.3,90.74,0.0,0.0,30.12,10.0,59.0
2021-09-30 06:00:00,54.5,53.0,94.31,0.0,0.0,30.13,10.0,54.5
2021-09-30 07:00:00,58.0,53.6,84.94,110.0,3.0,30.14,10.0,58.1
2021-09-30 08:00:00,59.4,53.2,79.9,120.0,4.0,30.14,10.0,59.4
2021-09-30 09:00:00,58.3,52.7,81.6,0.0,0.0,30.14,10.0,58.3
2021-09-30 10:00:00,57.4,52.7,84.28,110.0,3.0,30.15,10.0,57.4
2021-09-30 11:00:00,56.7,52.5,85.8,100.0,4.0,30.15,10.0,56.7
2021-09-30 12:00:00,56.7,53.0,87.71,100.0,4.0,30.17,10.0,56.7
2021-09-30 13:00:00,60.0,55.0,83.52,110.0,5.0,30.17,10.0,59.9
2021-09-30 14:00:00,64.4,56.5,75.51,140.0,7.0,30.18,10.0,64.4
2021-09-30 15:00:00,68.2,57.0,67.4,100.0,5.0,30.18,10.0,68.2
2021-09-30 16:00:00,72.0,58.3,61.83,120.0,6.0,30.18,10.0,72.1
2021-09-30 17:00:00,76.6,60.0,56.7,100.0,5.0,30.16,10.0,76.6
2021-09-30 18:00:00,79.0,60.4,52.94,90.0,5.0,30.15,10.0,79.0
2021-09-30 19:00:00,81.3,61.2,50.51,130.0,5.0,30.14,10.0,82.1
2021-09-30 20:00:00,81.5,61.0,49.83,160.0,5.0,30.13,10.0,82.22
2021-09-30 21:00:00,79.7,61.3,53.42,140.0,3.0,30.13,10.0,79.7
2021-09-30 22:00:00,80.0,62.4,55.17,150.0,4.0,30.13,10.0,79.9
2021-09-30 23:00:00,74.8,63.5,67.9,0.0,0.0,30.14,7.0,74.8
2021-10-01 00:00:00,68.7,63.0,82.32,0.0,0.0,30.14,10.0,68.7
2021-10-01 01:00:00,65.8,63.5,92.28,0.0,0.0,30.14,10.0,65.8
2021-10-01 02:00:00,65.8,63.5,92.28,0.0,0.0,30.14,10.0,65.8
2021-10-01 03:00:00,66.7,62.0,84.55,120.0,5.0,30.15,10.0,66.7
2021-10-01 04:00:00,65.7,61.2,85.39,120.0,4.0,30.15,10.0,65.7
2021-10-01 05:00:00,64.8,60.0,84.13,120.0,6.0,30.15,10.0,64.8
2021-10-01 06:00:00,63.7,59.0,84.67,120.0,3.0,30.14,10.0,63.7
2021-10-01 07:00:00,63.7,58.6,83.46,120.0,5.0,30.14,10.0,63.7
2021-10-01 08:00:00,62.8,58.5,85.84,110.0,3.0,30.14,10.0,62.8
2021-10-01 09:00:00,61.7,58.0,87.96,0.0,0.0,30.13,10.0,61.7
2021-10-01 10:00:00,61.0,57.6,88.56,100.0,4.0,30.13,10.0,61.0
2021-10-01 11:00:00,60.6,57.4,89.18,110.0,3.0,30.13,10.0,60.6
2021-10-01 12:00:00,61.2,58.0,88.89,110.0,4.0,30.13,10.0,61.2
2021-10-01 13:00:00,62.8,58.3,85.22,120.0,3.0,30.13,10.0,62.8
2021-10-01 14:00:00,66.2,59.7,79.56,140.0,5.0,30.13,10.0,66.2
2021-10-01 15:00:00,71.0,61.3,71.18,140.0,3.0,30.13,10.0,71.1
2021-10-01 16:00:00,77.0,62.4,60.7,150.0,7.0,30.12,10.0,77.0
2021-10-01 17:00:00,78.8,61.7,55.8,190.0,7.0,30.11,10.0,78.8
2021-10-01 18:00:00,79.2,61.7,55.07,200.0,9.0,30.09,10.0,79.2
2021-10-01 19:00:00,80.6,60.3,50.06,210.0,9.0,30.08,10.0,81.36
2021-10-01 20:00:00,79.5,61.2,53.58,220.0,6.0,30.07,10.0,79.5
2021-10-01 21:00:00,78.8,61.0,54.44,200.0,6.0,30.06,10.0,78.8
2021-10-01 22:00:00,78.0,62.4,58.92,180.0,4.0,30.06,10.0,77.9
2021-10-01 23:00:00,73.2,63.0,70.39,140.0,3.0,30.05,10.0,73.2
2021-10-02 00:00:00,68.4,63.5,84.35,0.0,0.0,30.04,10.0,68.4
2021-10-02 01:00:00,66.2,63.0,89.74,0.0,0.0,30.04,10.0,66.2
2021-10-02 02:00:00,65.3,62.0,89.39,0.0,0.0,30.03,10.0,65.3
2021-10-02 03:00:00,62.2,61.3,96.87,0.0,0.0,30.03,10.0,62.2
2021-10-02 04:00:00,67.3,63.5,87.61,200.0,6.0,30.03,10.0,67.3
2021-10-02 05:00:00,65.3,64.0,95.56,0.0,0.0,30.01,10.0,65.3
2021-10-02 06:00:00,64.8,64.2,97.93,130.0,4.0,30.0,10.0,64.8
2021-10-02 07:00:00,64.4,63.7,97.58,0.0,0.0,29.99,5.0,64.4
2021-10-02 08:00:00,64.0,64.0,99.65,0.0,0.0,29.98,7.0,64.0
2021-10-02 09:00:00,64.0,63.7,98.95,0.0,0.0,29.97,4.0,64.0
2021-10-02 10:00:00,63.7,63.5,99.3,0.0,0.0,29.96,3.0,63.7
2021-10-02 11:00:00,64.0,64.0,100.0,0.0,0.0,29.96,1.5,63.9
2021-10-02 12:00:00,64.0,64.0,100.0,0.0,0.0,29.95,0.5,64.0
2021-10-02 13:00:00,64.2,64.2,100.0,0.0,0.0,29.94,1.25,64.2
2021-10-02 14:00:00,65.3,65.3,100.0,0.0,0.0,29.94,1.5,65.3
2021-10-02 15:00:00,65.8,65.3,98.28,220.0,5.0,29.93,4.0,65.8
2021-10-02 16:00:00,66.2,65.3,96.92,200.0,5.0,29.93,4.0,66.2
2021-10-02 17:00:00,67.0,65.7,95.26,0.0,0.0,29.92,10.0,67.1
2021-10-02 18:00:00,68.0,65.7,92.35,200.0,4.0,29.91,10.0,68.0
2021-10-02 19:00:00,67.0,66.0,96.26,310.0,3.0,29.89,5.0,67.1
2021-10-02 20:00:00,69.8,66.0,87.73,0.0,0.0,29.88,10.0,69.8
2021-10-02 21:00:00,67.8,65.5,92.35,310.0,3.0,29.87,7.0,67.8
2021-10-02 22:00:00,66.4,64.8,94.59,0.0,0.0,29.87,10.0,66.4
2021-10-02 23:00:00,65.3,65.0,99.31,230.0,3.0,29.88,10.0,65.3
2021-10-03 00:00:00,64.6,64.4,99.3,280.0,3.0,29.87,10.0,64.6
2021-10-03 01:00:00,64.2,64.0,99.3,0.0,0.0,29.88,7.0,64.2
2021-10-03 02:00:00,64.4,64.2,99.3,0.0,0.0,29.88,7.0,64.4
2021-10-03 03:00:00,64.4,64.0,98.61,0.0,0.0,29.88,10.0,64.4
2021-10-03 04:00:00,64.4,63.7,97.58,0.0,0.0,29.88,10.0,64.4
2021-10-03 05:00:00,63.7,63.0,97.57,310.0,4.0,29.87,10.0,63.7
2021-10-03 06:00:00,63.5,63.0,98.26,0.0,0.0,29.87,3.0,63.5
2021-10-03 07:00:00,62.6,62.2,98.6,330.0,4.0,29.88,5.0,62.6
2021-10-03 08:00:00,62.2,61.7,98.25,330.0,4.0,29.87,10.0,62.2
2021-10-03 09:00:00,61.5,60.8,97.55,330.0,4.0,29.87,10.0,61.5
2021-10-03 10:00:00,61.0,60.6,98.59,320.0,5.0,29.88,10.0,61.0
2021-10-03 11:00:00,60.0,59.2,97.53,330.0,5.0,29.9,10.0,59.9
2021-10-03 12:00:00,59.4,58.5,96.83,320.0,5.0,29.91,10.0,59.4
2021-10-03 13:00:00,59.0,58.0,96.83,320.0,6.0,29.92,10.0,59.0
2021-10-03 14:00:00,60.3,58.3,93.1,310.0,5.0,29.92,10.0,60.3
2021-10-03 15:00:00,61.3,58.5,90.5,350.0,6.0,29.93,10.0,61.3
2021-10-03 16:00:00,63.0,58.8,85.85,350.0,7.0,29.94,10.0,63.1
2021-10-03 17:00:00,63.7,59.0,84.67,340.0,9.0,29.93,10.0,63.7
2021-10-03 18:00:00,64.4,58.6,81.44,340.0,10.0,29.93,10.0,64.4
2021-10-03 19:00:00,63.7,58.0,81.98,340.0,7.0,29.93,10.0,63.7
2021-10-03 20:00:00,63.5,57.7,81.38,340.0,7.0,29.94,10.0,63.5
2021-10-03 21:00:00,63.3,57.7,81.95,340.0,5.0,29.94,10.0,63.3
2021-10-03 22:00:00,63.0,57.0,80.76,350.0,6.0,29.94,10.0,63.0
2021-10-03 23:00:00,63.0,57.0,80.76,350.0,6.0,29.94,10.0,63.0
2021-10-04 00:00:00,62.0,58.3,87.97,50.0,4.0,29.98,10.0,61.9
2021-10-04 01:00:00,61.2,58.0,88.89,360.0,5.0,29.98,10.0,61.2
2021-10-04 02:00:00,59.4,57.2,92.41,0.0,0.0,29.99,10.0,59.4
2021-10-04 03:00:00,57.2,56.3,96.8,0.0,0.0,29.99,10.0,57.2
2021-10-04 04:00:00,55.4,55.4,100.0,340.0,3.0,30.0,10.0,55.4
2021-10-04 05:00:00,55.6,55.0,97.49,350.0,3.0,30.01,10.0,55.6
2021-10-04 06:00:00,57.2,55.0,92.34,330.0,3.0,30.02,10.0,57.2
2021-10-04 07:00:00,57.2,55.4,93.69,330.0,3.0,30.02,10.0,57.2
2021-10-04 08:00:00,57.0,55.0,93.01,320.0,3.0,30.03,10.0,57.0
2021-10-04 09:00:00,57.0,54.5,91.33,0.0,0.0,30.04,10.0,57.0
2021-10-04 10:00:00,56.5,54.5,92.99,0.0,0.0,30.05,10.0,56.5
2021-10-04 11:00:00,56.0,54.7,95.04,0.0,0.0,30.06,10.0,56.1
2021-10-04 12:00:00,57.4,55.2,92.35,350.0,4.0,30.09,10.0,57.4
2021-10-04 13:00:00,58.8,55.6,89.1,10.0,6.0,30.1,10.0,58.8
2021-10-04 14:00:00,59.5,55.6,86.9,340.0,4.0,30.12,10.0,59.5
2021-10-04 15:00:00,61.0,55.6,82.39,340.0,3.0,30.13,10.0,61.0
2021-10-04 16:00:00,62.6,56.0,79.28,0.0,0.0,30.13,10.0,62.6
2021-10-04 17:00:00,64.8,56.7,75.01,360.0,4.0,30.14,10.0,64.8
2021-10-04 18:00:00,66.0,56.0,70.39,340.0,3.0,30.13,10.0,66.0
2021-10-04 19:00:00,66.6,56.0,68.94,250.0,3.0,30.13,10.0,66.6
2021-10-04 20:00:00,67.0,56.5,68.75,30.0,3.0,30.13,10.0,67.1
2021-10-04 21:00:00,66.4,56.0,69.42,350.0,3.0,30.14,10.0,66.4
2021-10-04 22:00:00,66.0,56.0,70.39,10.0,5.0,30.15,10.0,66.0
2021-10-04 23:00:00,60.6,54.3,79.7,0.0,0.0,30.15,10.0,60.6
2021-10-05 00:00:00,58.0,55.2,90.7,0.0,0.0,30.16,10.0,57.9
2021-10-05 01:00:00,55.0,53.8,95.72,360.0,3.0,30.18,10.0,55.0
2021-10-05 02:00:00,53.0,53.0,99.27,0.0,0.0,30.19,10.0,53.1
2021-10-05 03:00:00,51.0,51.0,100.0,0.0,0.0,30.2,3.0,50.9
2021-10-05 04:00:00,48.7,48.7,100.0,0.0,0.0,30.22,0.75,48.7
2021-10-05 05:00:00,48.6,48.6,100.0,0.0,0.0,30.23,0.5,48.6
2021-10-05 06:00:00,47.0,47.0,100.0,0.0,0.0,30.24,1.0,47.1
2021-10-05 07:00:00,46.4,46.4,100.0,0.0,0.0,30.25,0.25,46.4
2021-10-05 08:00:00,46.0,46.0,100.0,0.0,0.0,30.25,0.25,45.9
2021-10-05 09:00:00,45.5,45.5,100.0,0.0,0.0,30.25,0.25,45.5
2021-10-05 10:00:00,46.6,46.6,100.0,0.0,0.0,30.27,1.0,46.6
2021-10-05 11:00:00,49.0,49.0,100.0,0.0,0.0,30.28,0.25,49.1
2021-10-05 12:00:00,49.5,49.5,100.0,0.0,0.0,30.29,0.25,49.5
2021-10-05 13:00:00,51.8,51.8,100.0,0.0,0.0,30.31,0.25,51.8
2021-10-05 14:00:00,54.5,54.5,100.0,0.0,0.0,30.32,0.25,54.5
2021-10-05 15:00:00,57.2,57.2,100.0,0.0,0.0,30.33,0.5,57.2
2021-10-05 16:00:00,59.2,59.2,100.0,0.0,0.0,30.32,5.0,59.2
2021-10-05 17:00:00,63.7,61.0,90.92,0.0,0.0,30.31,10.0,63.7
2021-10-05 18:00:00,69.4,59.5,70.75,0.0,0.0,30.3,10.0,69.4
2021-10-05 19:00:00,69.0,57.6,66.77,0.0,0.0,30.28,10.0,69.1
2021-10-05 20:00:00,72.3,55.8,56.11,120.0,5.0,30.27,7.0,72.3
2021-10-05 21:00:00,72.7,57.4,58.66,130.0,9.0,30.27,5.0,72.7
2021-10-05 22:00:00,69.0,57.4,66.75,140.0,6.0,30.27,10.0,68.9
2021-10-05 23:00:00,64.8,55.4,71.55,130.0,6.0,30.28,10.0,64.8
2021-10-06 00:00:00,61.2,54.7,79.17,120.0,3.0,30.28,10.0,61.2
2021-10-06 01:00:00,56.7,54.5,92.32,0.0,0.0,30.29,10.0,56.7
2021-10-06 02:00:00,55.0,54.0,96.77,0.0,0.0,30.29,10.0,55.0
2021-10-06 03:00:00,54.0,53.8,98.91,0.0,0.0,30.3,10.0,54.1
2021-10-06 04:00:00,55.8,54.7,96.08,0.0,0.0,30.3,7.0,55.8
2021-10-06 05:00:00,54.0,53.6,98.55,0.0,0.0,30.3,10.0,54.0
2021-10-06 06:00:00,52.2,52.2,100.0,0.0,0.0,30.3,7.0,52.2
2021-10-06 07:00:00,52.2,52.2,100.0,0.0,0.0,30.3,5.0,52.2
2021-10-06 08:00:00,54.7,54.7,100.0,0.0,0.0,30.31,10.0,54.7
2021-10-06 09:00:00,56.8,56.7,99.64,120.0,3.0,30.31,10.0,56.8
2021-10-06 10:00:00,55.6,55.4,99.28,0.0,0.0,30.31,10.0,55.6
2021-10-06 11:00:00,53.0,53.0,100.0,0.0,0.0,30.31,5.0,52.9
2021-10-06 12:00:00,53.0,53.0,100.0,0.0,0.0,30.31,5.0,53.1
2021-10-06 13:00:00,56.7,56.0,97.85,0.0,0.0,30.31,10.0,56.7
2021-10-06 14:00:00,60.0,57.4,91.43,130.0,4.0,30.31,10.0,59.9
2021-10-06 15:00:00,62.4,58.0,85.81,120.0,4.0,30.31,10.0,62.4
2021-10-06 16:00:00,65.0,58.8,80.05,110.0,5.0,30.29,10.0,65.1
2021-10-06 17:00:00,68.0,60.0,75.3,120.0,6.0,30.28,10.0,68.0
2021-10-06 18:00:00,70.5,60.4,70.36,120.0,5.0,30.25,10.0,70.5
2021-10-06 19:00:00,71.0,60.0,68.67,120.0,8.0,30.23,10.0,70.9
2021-10-06 20:00:00,72.7,60.3,65.07,90.0,5.0,30.22,10.0,72.7
2021-10-06 21:00:00,71.8,59.4,64.96,110.0,6.0,30.2,10.0,71.8
2021-10-06 22:00:00,71.0,59.4,66.98,100.0,4.0,30.19,10.0,70.9
2021-10-06 23:00:00,67.0,58.3,73.35,100.0,3.0,30.2,10.0,67.1
2021-10-07 00:00:00,62.2,57.6,84.88,90.0,3.0,30.2,10.0,62.2
2021-10-07 01:00:00,62.0,57.6,85.18,100.0,4.0,30.2,10.0,62.1
2021-10-07 02:00:00,60.4,56.3,86.32,120.0,3.0,30.19,10.0,60.4
2021-10-07 03:00:00,61.5,56.5,83.62,120.0,4.0,30.2,10.0,61.5
2021-10-07 04:00:00,61.2,55.8,82.4,120.0,6.0,30.2,10.0,61.2
2021-10-07 05:00:00,59.7,55.4,85.66,110.0,5.0,30.2,10.0,59.7
2021-10-07 06:00:00,59.2,55.4,87.2,120.0,5.0,30.2,10.0,59.2
2021-10-07 07:00:00,57.4,54.5,90.02,0.0,0.0,30.2,10.0,57.4
2021-10-07 08:00:00,56.0,53.8,92.64,100.0,3.0,30.2,10.0,55.9
2021-10-07 09:00:00,55.0,53.2,93.98,0.0,0.0,30.2,10.0,54.9
2021-10-07 10:00:00,54.0,52.5,94.65,0.0,0.0,30.2,10.0,54.0
2021-10-07 11:00:00,54.5,53.0,94.31,110.0,4.0,30.21,10.0,54.5
2021-10-07 12:00:00,54.5,53.6,96.76,110.0,4.0,30.21,10.0,54.5
2021-10-07 13:00:00,54.5,54.5,100.0,110.0,5.0,30.2,0.5,54.5
2021-10-07 14:00:00,56.5,56.5,100.0,110.0,4.0,30.19,1.0,56.5
2021-10-07 15:00:00,58.6,58.0,98.22,90.0,5.0,30.19,1.5,58.6
2021-10-07 16:00:00,60.0,58.0,93.76,110.0,6.0,30.18,10.0,59.9
2021-10-07 17:00:00,61.2,58.6,91.15,90.0,6.0,30.16,10.0,61.2
2021-10-07 18:00:00,64.2,58.8,82.6,120.0,6.0,30.14,10.0,64.2
2021-10-07 19:00:00,65.5,58.6,78.38,120.0,3.0,30.12,10.0,65.5
2021-10-07 20:00:00,67.3,58.8,74.17,0.0,0.0,30.09,10.0,67.3
2021-10-07 21:00:00,69.0,59.4,71.23,300.0,3.0,30.07,10.0,69.1
2021-10-07 22:00:00,69.0,60.0,73.53,0.0,0.0,30.06,10.0,68.9
2021-10-07 23:00:00,64.0,59.7,85.9,280.0,3.0,30.06,7.0,64.0
2021-10-08 00:00:00,64.6,60.6,86.86,150.0,3.0,30.07,10.0,64.6
2021-10-08 01:00:00,64.4,60.3,86.54,150.0,7.0,30.07,7.0,64.4
2021-10-08 02:00:00,64.0,60.8,89.64,110.0,7.0,30.07,10.0,63.9
2021-10-08 03:00:00,61.7,61.2,98.25,100.0,4.0,30.07,3.0,61.7
2021-10-08 04:00:00,61.7,61.2,98.25,0.0,0.0,30.06,7.0,61.7
2021-10-08 05:00:00,61.7,60.8,96.86,0.0,0.0,30.05,10.0,61.7
2021-10-08 06:00:00,61.3,60.8,98.24,0.0,0.0,30.04,7.0,61.3
2021-10-08 07:00:00,61.5,60.8,97.55,0.0,0.0,30.03,5.0,61.5
2021-10-08 08:00:00,61.0,60.8,99.29,0.0,0.0,30.02,2.5,61.0
2021-10-08 09:00:00,61.0,61.0,100.0,0.0,0.0,30.02,1.25,61.0
2021-10-08 10:00:00,61.0,61.0,100.0,0.0,0.0,30.02,1.25,61.0
2021-10-08 11:00:00,61.0,61.0,100.0,0.0,0.0,30.02,1.5,61.0
2021-10-08 12:00:00,61.3,61.3,100.0,0.0,0.0,30.02,3.0,61.3
2021-10-08 13:00:00,61.7,61.5,99.29,0.0,0.0,30.02,1.5,61.7
2021-10-08 14:00:00,62.6,62.2,98.6,120.0,5.0,30.03,1.25,62.6
2021-10-08 15:00:00,64.0,62.2,93.87,110.0,6.0,30.02,10.0,64.0
2021-10-08 16:00:00,64.8,62.6,92.58,150.0,5.0,30.01,10.0,64.8
2021-10-08 17:00:00,66.2,61.7,85.42,130.0,4.0,30.0,10.0,66.2
2021-10-08 18:00:00,65.7,62.0,88.15,120.0,6.0,29.99,10.0,65.7
2021-10-08 19:00:00,64.8,62.4,91.93,130.0,4.0,29.98,10.0,64.8
2021-10-08 20:00:00,63.7,63.0,97.57,150.0,3.0,29.98,3.0,63.7
2021-10-08 21:00:00,64.6,63.0,94.88,140.0,4.0,29.97,10.0,64.6
2021-10-08 22:00:00,64.4,62.8,94.54,130.0,3.0,29.97,10.0,64.4
2021-10-08 23:00:00,64.0,62.6,95.2,0.0,0.0,29.97,10.0,64.0
2021-10-09 00:00:00,61.5,61.5,100.0,0.0,0.0,29.97,2.5,61.5
2021-10-09 01:00:00,61.2,61.2,100.0,0.0,0.0,29.97,0.75,61.2
2021-10-09 02:00:00,59.0,59.0,100.0,0.0,0.0,29.96,0.25,59.0
2021-10-09 03:00:00,56.7,56.7,100.0,0.0,0.0,29.97,0.25,56.7
2021-10-09 04:00:00,55.8,55.8,100.0,0.0,0.0,29.97,0.25,55.8
2021-10-09 05:00:00,57.2,57.2,100.0,110.0,3.0,29.96,0.25,57.2
2021-10-09 06:00:00,58.0,58.0,100.0,110.0,3.0,29.94,0.25,58.1
2021-10-09 07:00:00,59.0,59.0,100.0,130.0,4.0,29.94,0.25,59.0
2021-10-09 08:00:00,58.0,58.0,100.0,150.0,5.0,29.93,0.25,58.1
2021-10-09 09:00:00,57.7,57.7,100.0,110.0,4.0,29.91,0.25,57.7
2021-10-09 10:00:00,58.0,58.0,100.0,110.0,3.0,29.91,0.25,57.9
2021-10-09 11:00:00,57.7,57.7,100.0,120.0,4.0,29.91,2.0,57.7
2021-10-09 12:00:00,58.3,58.3,100.0,120.0,4.0,29.9,1.0,58.3
2021-10-09 13:00:00,59.4,59.4,100.0,60.0,6.0,29.91,5.0,59.4
2021-10-09 14:00:00,60.0,60.0,100.0,100.0,7.0,29.91,7.0,59.9
2021-10-09 15:00:00,60.4,60.4,100.0,100.0,9.0,29.9,7.0,60.4
2021-10-09 16:00:00,62.2,61.2,96.53,120.0,8.0,29.89,10.0,62.2
2021-10-09 17:00:00,65.5,62.2,89.08,130.0,7.0,29.87,10.0,65.5
2021-10-09 18:00:00,71.0,63.3,76.9,130.0,7.0,29.84,7.0,70.9
2021-10-09 19:00:00,74.8,63.0,66.95,100.0,10.0,29.79,7.0,74.8
2021-10-09 20:00:00,76.6,62.6,61.95,130.0,10.0,29.79,10.0,76.6
2021-10-09 21:00:00,76.6,61.7,60.01,150.0,9.0,29.78,10.0,76.6
2021-10-09 22:00:00,72.7,61.7,68.38,130.0,7.0,29.77,10.0,72.7
2021-10-09 23:00:00,70.0,62.6,77.37,100.0,9.0,29.75,10.0,70.0
2021-10-10 00:00:00,68.7,62.2,79.75,100.0,11.0,29.72,10.0,68.7
2021-10-10 01:00:00,68.7,62.2,79.75,100.0,11.0,29.72,10.0,68.7
2021-10-10 02:00:00,66.0,61.2,84.5,100.0,13.0,29.69,10.0,66.0
2021-10-10 03:00:00,64.8,61.0,87.49,110.0,9.0,29.71,10.0,64.8
2021-10-10 04:00:00,63.5,61.0,91.56,100.0,9.0,29.67,7.0,63.5
2021-10-10 05:00:00,63.5,61.0,91.56,100.0,10.0,29.64,10.0,63.5
2021-10-10 06:00:00,64.4,61.3,89.67,120.0,10.0,29.62,10.0,64.4
2021-10-10 07:00:00,64.8,61.2,88.11,110.0,14.0,29.6,5.0,64.8
2021-10-10 08:00:00,64.8,61.2,88.11,120.0,12.0,29.58,7.0,64.8
2021-10-10 09:00:00,63.7,60.8,90.28,130.0,10.0,29.57,7.0,63.7
2021-10-10 10:00:00,63.5,61.0,91.56,150.0,9.0,29.57,7.0,63.5
2021-10-10 11:00:00,62.8,61.0,93.84,140.0,10.0,29.57,7.0,62.8
2021-10-10 12:00:00,62.6,60.8,93.83,110.0,7.0,29.55,7.0,62.6
2021-10-10 13:00:00,63.5,61.7,93.86,140.0,6.0,29.55,10.0,63.5
2021-10-10 14:00:00,65.5,62.6,90.35,150.0,10.0,29.54,7.0,65.5
2021-10-10 15:00:00,69.6,63.5,80.95,160.0,10.0,29.55,7.0,69.6
2021-10-10 16:00:00,73.8,63.3,69.72,170.0,11.0,29.53,10.0,73.8
2021-10-10 17:00:00,75.7,62.0,62.72,170.0,11.0,29.51,7.0,75.7
2021-10-10 18:00:00,76.8,60.8,57.74,170.0,15.0,29.5,7.0,76.8
2021-10-10 19:00:00,76.0,58.5,54.45,180.0,11.0,29.49,10.0,76.1
2021-10-10 20:00:00,77.0,51.3,40.66,200.0,18.0,29.49,10.0,77.0
2021-10-10 21:00:00,74.3,52.0,45.65,220.0,15.0,29.5,10.0,74.3
2021-10-10 22:00:00,71.2,50.4,47.77,200.0,13.0,29.51,7.0,71.2
2021-10-10 23:00:00,66.6,50.0,55.11,210.0,11.0,29.54,10.0,66.6
2021-10-11 00:00:00,63.5,50.7,63.02,210.0,10.0,29.56,10.0,63.5
2021-10-11 01:00:00,61.7,51.0,68.15,220.0,14.0,29.59,10.0,61.7
2021-10-11 02:00:00,60.3,49.0,66.48,220.0,14.0,29.61,10.0,60.3
2021-10-11 03:00:00,58.5,47.7,67.28,220.0,10.0,29.62,10.0,58.5
2021-10-11 04:00:00,57.7,48.2,70.55,230.0,6.0,29.62,10.0,57.7
2021-10-11 05:00:00,55.4,47.7,75.24,220.0,8.0,29.63,10.0,55.4
2021-10-11 06:00:00,54.0,47.3,78.0,230.0,4.0,29.63,10.0,54.0
2021-10-11 07:00:00,52.0,47.0,82.68,0.0,0.0,29.64,10.0,52.0
2021-10-11 08:00:00,48.7,46.4,91.72,0.0,0.0,29.65,7.0,48.7
2021-10-11 09:00:00,49.0,47.0,92.77,0.0,0.0,29.65,10.0,49.1
2021-10-11 10:00:00,50.0,47.8,92.11,180.0,5.0,29.67,10.0,50.0
2021-10-11 11:00:00,50.4,48.2,92.12,0.0,0.0,29.67,10.0,50.4
2021-10-11 12:00:00,51.0,49.0,93.52,270.0,4.0,29.67,10.0,50.9
2021-10-11 13:00:00,51.8,49.6,92.17,290.0,3.0,29.69,10.0,51.8
2021-10-11 14:00:00,52.3,49.8,91.16,0.0,0.0,29.71,10.0,52.3
2021-10-11 15:00:00,53.0,50.4,90.51,210.0,5.0,29.71,10.0,53.1
2021-10-11 16:00:00,54.0,50.4,87.26,280.0,3.0,29.7,10.0,54.1
2021-10-11 17:00:00,56.0,51.0,83.88,0.0,0.0,29.7,10.0,55.9
2021-10-11 18:00:00,58.6,50.2,73.6,110.0,3.0,29.72,10.0,58.6
2021-10-11 19:00:00,62.4,51.3,66.98,130.0,3.0,29.7,10.0,62.4
2021-10-11 20:00:00,64.0,51.0,62.85,0.0,0.0,29.7,10.0,64.0
2021-10-11 21:00:00,63.7,51.0,63.04,70.0,4.0,29.71,10.0,63.7
2021-10-11 22:00:00,61.7,51.8,69.93,20.0,5.0,29.71,10.0,61.7
2021-10-11 23:00:00,58.0,52.2,80.69,0.0,0.0,29.73,10.0,58.1
2021-10-12 00:00:00,59.0,52.0,77.55,350.0,6.0,29.76,7.0,59.0
2021-10-12 01:00:00,55.8,51.0,83.56,340.0,5.0,29.78,10.0,55.8
2021-10-12 02:00:00,55.8,51.0,83.56,340.0,5.0,29.78,10.0,55.8
2021-10-12 03:00:00,55.6,51.0,84.79,330.0,3.0,29.79,10.0,55.6
2021-10-12 04:00:00,56.5,52.0,84.85,360.0,8.0,29.8,10.0,56.5
2021-10-12 05:00:00,56.8,52.2,84.55,350.0,7.0,29.8,10.0,56.8
2021-10-12 06:00:00,56.3,52.3,86.41,350.0,6.0,29.81,10.0,56.3
2021-10-12 07:00:00,56.3,53.0,88.99,360.0,7.0,29.82,10.0,56.3
2021-10-12 08:00:00,56.7,53.0,87.71,350.0,4.0,29.84,10.0,56.7
2021-10-12 09:00:00,57.2,53.6,87.74,330.0,4.0,29.86,10.0,57.2
2021-10-12 10:00:00,57.2,53.2,86.46,340.0,6.0,29.87,10.0,57.2
2021-10-12 11:00:00,57.0,53.2,87.09,340.0,5.0,29.88,10.0,57.0
2021-10-12 12:00:00,56.7,53.2,88.04,320.0,5.0,29.9,10.0,56.7
2021-10-12 13:00:00,57.4,53.8,87.75,310.0,3.0,29.92,10.0,57.4
2021-10-12 14:00:00,57.7,54.3,88.41,310.0,4.0,29.93,10.0,57.7
2021-10-12 15:00:00,59.5,54.0,82.28,330.0,4.0,29.94,10.0,59.5
2021-10-12 16:00:00,62.4,54.0,74.24,10.0,4.0,29.93,10.0,62.4
2021-10-12 17:00:00,62.8,55.0,75.37,310.0,3.0,29.93,10.0,62.8
2021-10-12 18:00:00,64.6,54.7,70.24,360.0,5.0,29.93,10.0,64.6
2021-10-12 19:00:00,65.0,56.3,73.67,270.0,8.0,29.93,10.0,64.9
2021-10-12 20:00:00,65.0,55.8,71.85,340.0,6.0,29.94,10.0,65.1
2021-10-12 21:00:00,62.8,56.5,79.87,350.0,4.0,29.93,10.0,62.8
2021-10-12 22:00:00,60.0,56.8,89.48,0.0,0.0,29.94,10.0,59.9
2021-10-12 23:00:00,60.0,58.0,93.76,20.0,3.0,29.95,7.0,59.9
2021-10-13 00:00:00,59.0,57.4,94.42,0.0,0.0,29.96,10.0,59.0
2021-10-13 01:00:00,58.5,57.4,96.12,0.0,0.0,29.97,10.0,58.5
2021-10-13 02:00:00,58.0,57.2,96.81,0.0,0.0,29.97,10.0,58.1
2021-10-13 03:00:00,57.6,56.7,96.81,0.0,0.0,29.96,10.0,57.6
2021-10-13 04:00:00,55.0,54.7,99.27,0.0,0.0,29.96,10.0,54.9
2021-10-13 05:00:00,56.3,56.0,98.56,0.0,0.0,29.98,10.0,56.3
2021-10-13 06:00:00,55.6,55.4,99.28,10.0,3.0,29.97,10.0,55.6
2021-10-13 07:00:00,55.4,55.2,99.28,0.0,0.0,29.97,10.0,55.4
2021-10-13 08:00:00,55.4,55.2,99.28,0.0,0.0,29.97,10.0,55.4
2021-10-13 09:00:00,55.4,55.2,99.28,0.0,0.0,29.97,10.0,55.4
2021-10-13 10:00:00,55.4,55.2,99.28,0.0,0.0,29.97,10.0,55.4
2021-10-13 11:00:00,55.4,55.2,99.28,0.0,0.0,29.97,10.0,55.4
2021-10-13 12:00:00,55.4,55.2,99.28,0.0,0.0,29.97,10.0,55.4
2021-10-13 13:00:00,57.2,54.7,91.34,100.0,6.0,29.88,10.0,57.2
2021-10-13 14:00:00,58.5,55.2,88.77,110.0,6.0,29.89,10.0,58.5
2021-10-13 15:00:00,59.2,55.6,87.84,100.0,11.0,29.82,10.0,59.2
2021-10-13 16:00:00,61.2,56.0,82.7,130.0,15.0,29.77,10.0,61.2
2021-10-13 17:00:00,62.2,55.0,77.26,120.0,16.0,29.71,10.0,62.2
2021-10-13 18:00:00,63.3,53.6,70.62,130.0,19.0,29.67,10.0,63.3
2021-10-13 19:00:00,63.5,53.0,68.85,120.0,18.0,29.64,10.0,63.5
2021-10-13 20:00:00,62.4,54.0,73.97,140.0,17.0,29.64,10.0,62.4
2021-10-13 21:00:00,61.2,54.7,79.17,140.0,12.0,29.63,10.0,61.2
2021-10-13 22:00:00,60.8,55.0,81.18,130.0,13.0,29.62,10.0,60.8
2021-10-13 23:00:00,60.8,55.4,82.37,130.0,14.0,29.61,10.0,60.8
2021-10-14 00:00:00,61.7,56.5,83.03,140.0,12.0,29.61,10.0,61.7
2021-10-14 01:00:00,62.0,57.2,84.56,140.0,12.0,29.61,10.0,61.9
2021-10-14 02:00:00,60.4,57.2,89.17,150.0,9.0,29.62,10.0,60.4
2021-10-14 03:00:00,61.2,48.7,63.44,210.0,15.0,29.64,10.0,61.2
2021-10-14 04:00:00,57.0,41.4,55.85,190.0,6.0,29.65,10.0,57.0
2021-10-14 05:00:00,54.3,42.0,62.8,160.0,9.0,29.64,10.0,54.3
2021-10-14 06:00:00,53.8,41.0,61.77,170.0,9.0,29.64,10.0,53.8
2021-10-14 07:00:00,52.7,40.0,62.11,180.0,10.0,29.66,10.0,52.7
2021-10-14 08:00:00,51.3,39.7,64.39,180.0,13.0,29.66,10.0,51.3
2021-10-14 09:00:00,49.6,40.0,69.12,210.0,8.0,29.68,10.0,45.79
2021-10-14 10:00:00,49.5,40.6,71.29,210.0,10.0,29.69,10.0,44.91
2021-10-14 11:00:00,49.5,40.6,71.29,210.0,10.0,29.69,10.0,44.91
2021-10-14 12:00:00,48.2,40.3,73.98,210.0,14.0,29.75,10.0,42.04
2021-10-14 13:00:00,48.2,40.5,74.55,210.0,13.0,29.77,10.0,42.32
2021-10-14 14:00:00,48.2,40.6,74.84,210.0,10.0,29.79,10.0,43.28
2021-10-14 15:00:00,48.2,40.8,75.42,220.0,9.0,29.8,10.0,43.66
2021-10-14 16:00:00,48.6,41.2,75.46,220.0,12.0,29.82,10.0,43.13
2021-10-14 17:00:00,49.0,40.8,72.93,220.0,13.0,29.83,10.0,43.48
2021-10-14 18:00:00,50.4,41.0,70.02,230.0,11.0,29.83,10.0,50.4
2021-10-14 19:00:00,51.0,41.0,68.23,220.0,10.0,29.84,10.0,51.1
2021-10-14 20:00:00,51.4,40.6,66.44,240.0,11.0,29.85,10.0,51.4
2021-10-14 21:00:00,51.4,39.2,62.92,240.0,9.0,29.86,10.0,51.4
2021-10-14 22:00:00,50.5,39.6,66.07,250.0,6.0,29.87,10.0,50.5
2021-10-14 23:00:00,47.5,39.2,72.76,270.0,4.0,29.88,10.0,45.52
2021-10-15 00:00:00,45.0,39.0,79.36,270.0,3.0,29.9,10.0,43.55
2021-10-15 01:00:00,46.0,40.0,79.13,0.0,0.0,29.91,10.0,46.0
2021-10-15 02:00:00,46.2,39.4,77.02,0.0,0.0,29.91,10.0,46.2
2021-10-15 03:00:00,42.6,39.7,89.39,0.0,0.0,29.92,10.0,42.6
2021-10-15 04:00:00,42.0,39.6,91.47,0.0,0.0,29.93,10.0,41.9
2021-10-15 05:00:00,40.8,38.7,92.15,0.0,0.0,29.92,10.0,40.8
2021-10-15 06:00:00,41.4,38.3,88.64,0.0,0.0,29.92,10.0,41.4
2021-10-15 07:00:00,41.0,38.3,90.02,0.0,0.0,29.92,10.0,41.0
2021-10-15 08:00:00,37.6,35.6,92.41,0.0,0.0,29.91,10.0,37.6
2021-10-15 09:00:00,36.5,36.0,98.43,0.0,0.0,29.9,10.0,36.5
2021-10-15 10:00:00,35.8,35.6,99.21,0.0,0.0,29.88,10.0,35.8
2021-10-15 11:00:00,34.5,34.0,98.02,0.0,0.0,29.9,10.0,34.5
2021-10-15 12:00:00,35.2,35.0,98.81,0.0,0.0,29.91,10.0,35.2
2021-10-15 13:00:00,39.4,38.3,95.79,0.0,0.0,29.92,10.0,39.4
2021-10-15 14:00:00,45.0,39.6,81.23,250.0,6.0,29.92,10.0,41.19
2021-10-15 15:00:00,48.4,40.6,74.28,250.0,5.0,29.93,10.0,45.87
2021-10-15 16:00:00,51.4,39.4,63.41,250.0,4.0,29.93,10.0,51.4
2021-10-15 17:00:00,52.2,37.0,56.04,260.0,10.0,29.92,10.0,52.2
2021-10-15 18:00:00,53.6,36.3,51.78,280.0,10.0,29.9,10.0,53.6
2021-10-15 19:00:00,52.3,34.3,50.16,270.0,8.0,29.89,10.0,52.3
2021-10-15 20:00:00,51.0,35.0,54.53,260.0,7.0,29.9,10.0,50.9
2021-10-15 21:00:00,49.6,36.0,59.31,260.0,7.0,29.91,10.0,46.23
2021-10-15 22:00:00,49.0,35.0,58.31,260.0,8.0,29.91,10.0,45.18
2021-10-15 23:00:00,48.2,36.3,63.25,260.0,8.0,29.92,10.0,44.07
2021-10-16 00:00:00,46.8,37.0,68.53,260.0,5.0,29.93,10.0,43.97
2021-10-16 01:00:00,46.2,38.3,73.78,270.0,7.0,29.93,10.0,42.09
2021-10-16 02:00:00,44.2,38.7,80.86,260.0,6.0,29.93,10.0,40.22
2021-10-16 03:00:00,44.2,39.2,82.45,270.0,6.0,29.93,10.0,40.22
2021-10-16 04:00:00,44.2,39.2,82.45,270.0,4.0,29.93,10.0,41.67
2021-10-16 05:00:00,44.0,39.4,83.42,270.0,4.0,29.93,10.0,41.55
2021-10-16 06:00:00,43.2,38.5,83.36,270.0,4.0,29.94,10.0,40.5
2021-10-16 07:00:00,40.5,37.4,88.59,250.0,4.0,29.94,10.0,37.35
2021-10-16 08:00:00,39.4,37.2,91.74,250.0,4.0,29.94,10.0,36.06
2021-10-16 09:00:00,38.5,36.7,93.17,260.0,5.0,29.94,10.0,34.11
2021-10-16 10:00:00,38.3,36.0,91.34,270.0,6.0,29.96,10.0,33.12
2021-10-16 11:00:00,37.0,35.2,93.12,260.0,4.0,29.96,10.0,33.26
2021-10-16 12:00:00,36.5,34.7,93.11,260.0,4.0,29.98,10.0,32.68
2021-10-16 13:00:00,38.8,36.0,89.93,260.0,5.0,29.99,10.0,34.47
2021-10-16 14:00:00,43.7,36.5,75.59,280.0,10.0,30.0,10.0,37.64
2021-10-16 15:00:00,47.5,37.2,67.28,260.0,6.0,30.01,10.0,44.2
2021-10-16 16:00:00,51.3,36.0,55.91,280.0,9.0,30.01,10.0,51.3
2021-10-16 17:00:00,55.0,35.6,47.85,300.0,8.0,30.01,10.0,55.0
2021-10-16 18:00:00,56.7,33.4,41.21,290.0,11.0,30.0,10.0,56.7
2021-10-16 19:00:00,57.2,32.7,39.36,290.0,13.0,30.0,10.0,57.2
2021-10-16 20:00:00,57.6,32.0,37.72,270.0,13.0,30.0,10.0,57.6
2021-10-16 21:00:00,59.4,30.7,33.55,290.0,13.0,30.0,10.0,59.4
2021-10-16 22:00:00,57.4,30.0,35.03,270.0,6.0,30.01,10.0,57.4
2021-10-16 23:00:00,52.5,30.2,42.22,270.0,4.0,30.01,10.0,52.5
2021-10-17 00:00:00,44.4,33.0,64.28,0.0,0.0,30.02,10.0,44.4
2021-10-17 01:00:00,42.6,33.0,68.32,0.0,0.0,30.04,10.0,42.6
2021-10-17 02:00:00,39.4,33.0,77.95,0.0,0.0,30.04,7.0,39.4
2021-10-17 03:00:00,37.6,34.5,88.45,0.0,0.0,30.05,10.0,37.6
2021-10-17 04:00:00,36.7,33.4,87.7,0.0,0.0,30.06,10.0,36.7
2021-10-17 05:00:00,38.7,35.0,86.08,0.0,0.0,30.07,10.0,38.7
2021-10-17 06:00:00,36.0,34.5,93.84,0.0,0.0,30.07,10.0,36.1
2021-10-17 07:00:00,35.2,34.5,97.25,0.0,0.0,30.08,10.0,35.2
2021-10-17 08:00:00,33.8,32.0,93.03,0.0,0.0,30.09,10.0,33.8
2021-10-17 09:00:00,34.2,33.8,98.41,0.0,0.0,30.1,10.0,34.2
2021-10-17 10:00:00,33.3,32.0,94.91,0.0,0.0,30.11,10.0,33.3
2021-10-17 11:00:00,33.3,32.2,95.68,0.0,0.0,30.11,10.0,33.3
2021-10-17 12:00:00,32.2,32.0,99.2,0.0,0.0,30.12,10.0,32.2
2021-10-17 13:00:00,38.0,36.5,94.64,0.0,0.0,30.13,10.0,37.9
2021-10-17 14:00:00,45.7,39.7,79.41,260.0,5.0,30.13,10.0,42.67
2021-10-17 15:00:00,51.8,40.5,65.21,240.0,5.0,30.14,10.0,51.8
2021-10-17 16:00:00,58.5,39.4,48.97,270.0,4.0,30.14,10.0,58.5
2021-10-17 17:00:00,62.2,33.0,33.46,260.0,10.0,30.14,10.0,62.2
2021-10-17 18:00:00,62.6,33.8,33.93,250.0,8.0,30.12,10.0,62.6
2021-10-17 19:00:00,63.7,32.4,30.86,220.0,5.0,30.1,10.0,63.7
2021-10-17 20:00:00,64.4,32.0,29.63,250.0,7.0,30.09,10.0,64.4
2021-10-17 21:00:00,64.0,32.0,30.16,250.0,8.0,30.08,10.0,63.9
2021-10-17 22:00:00,61.7,32.2,32.85,240.0,4.0,30.07,10.0,61.7
2021-10-17 23:00:00,52.0,35.8,53.84,0.0,0.0,30.07,10.0,52.0
2021-10-18 00:00:00,46.6,35.2,64.3,0.0,0.0,30.07,10.0,46.6
2021-10-18 01:00:00,42.4,37.0,80.72,0.0,0.0,30.08,10.0,42.4
2021-10-18 02:00:00,40.6,37.4,88.25,0.0,0.0,30.08,10.0,40.6
2021-10-18 03:00:00,39.2,37.0,91.73,0.0,0.0,30.08,10.0,39.2
2021-10-18 04:00:00,37.4,36.7,97.28,0.0,0.0,30.08,10.0,37.4
2021-10-18 05:00:00,37.0,36.3,97.66,0.0,0.0,30.07,10.0,36.9
2021-10-18 06:00:00,35.4,34.2,95.34,0.0,0.0,30.08,10.0,35.4
2021-10-18 07:00:00,35.2,35.0,98.81,0.0,0.0,30.07,10.0,35.2
2021-10-18 08:00:00,35.4,35.0,98.82,0.0,0.0,30.06,10.0,35.4
2021-10-18 09:00:00,35.2,35.0,99.6,0.0,0.0,30.06,10.0,35.2
2021-10-18 10:00:00,35.0,34.7,99.21,0.0,0.0,30.06,10.0,34.9
2021-10-18 11:00:00,34.5,34.5,100.0,0.0,0.0,30.06,10.0,34.5
2021-10-18 12:00:00,35.0,34.3,96.86,0.0,0.0,30.06,10.0,35.1
2021-10-18 13:00:00,35.0,34.3,96.86,0.0,0.0,30.06,10.0,35.1
2021-10-18 14:00:00,50.2,39.2,65.78,130.0,7.0,30.06,10.0,50.2
2021-10-18 15:00:00,55.4,41.0,58.27,110.0,6.0,30.06,10.0,55.4
2021-10-18 16:00:00,61.2,42.6,50.34,130.0,6.0,30.04,10.0,61.2
2021-10-18 17:00:00,66.6,42.3,41.18,120.0,7.0,30.02,10.0,66.6
2021-10-18 18:00:00,69.6,42.6,37.58,140.0,8.0,29.99,10.0,69.6
2021-10-18 19:00:00,72.0,42.3,34.23,150.0,9.0,29.99,10.0,72.0
2021-10-18 20:00:00,73.0,41.4,32.07,190.0,8.0,29.98,10.0,72.9
2021-10-18 21:00:00,72.7,42.3,33.43,180.0,10.0,29.97,10.0,72.7
2021-10-18 22:00:00,68.4,44.6,42.27,160.0,6.0,29.96,10.0,68.4
2021-10-18 23:00:00,62.0,43.7,51.22,150.0,6.0,29.96,10.0,61.9
2021-10-19 00:00:00,61.5,43.2,50.97,130.0,5.0,29.96,10.0,61.5
2021-10-19 01:00:00,57.4,43.5,59.68,140.0,6.0,29.97,10.0,57.4
2021-10-19 02:00:00,56.0,43.5,63.01,130.0,4.0,29.97,10.0,55.9
2021-10-19 03:00:00,51.6,43.0,72.34,140.0,4.0,29.98,10.0,51.6
2021-10-19 04:00:00,51.6,42.8,71.79,140.0,3.0,29.98,10.0,51.6
2021-10-19 05:00:00,49.6,42.3,75.85,0.0,0.0,29.98,10.0,49.6
2021-10-19 06:00:00,48.7,42.0,77.84,100.0,3.0,29.98,10.0,47.78
2021-10-19 07:00:00,45.5,42.4,88.83,0.0,0.0,29.99,10.0,45.5
2021-10-19 08:00:00,45.7,41.2,84.17,0.0,0.0,29.98,10.0,45.7
2021-10-19 09:00:00,44.0,41.2,90.14,0.0,0.0,29.97,10.0,43.9
2021-10-19 10:00:00,43.0,40.3,90.1,140.0,3.0,29.97,10.0,41.26
2021-10-19 11:00:00,44.0,41.4,90.84,0.0,0.0,29.97,10.0,43.9
2021-10-19 12:00:00,44.2,41.4,89.81,120.0,4.0,29.96,10.0,41.67
2021-10-19 13:00:00,48.2,43.3,83.05,120.0,3.0,29.96,10.0,47.21
2021-10-19 14:00:00,51.8,45.5,79.0,140.0,4.0,29.98,10.0,51.8
2021-10-19 15:00:00,58.3,46.8,65.5,120.0,3.0,29.97,10.0,58.3
2021-10-19 16:00:00,65.3,46.0,49.62,200.0,5.0,29.97,10.0,65.3
2021-10-19 17:00:00,68.0,46.0,45.02,170.0,7.0,29.95,10.0,68.0
2021-10-19 18:00:00,70.3,45.7,41.3,170.0,10.0,29.94,10.0,70.3
2021-10-19 19:00:00,71.2,45.0,39.0,170.0,7.0,29.93,10.0,71.2
2021-10-19 20:00:00,72.5,45.7,38.32,190.0,4.0,29.93,10.0,72.5
2021-10-19 21:00:00,71.6,46.0,39.81,190.0,6.0,29.93,10.0,71.6
2021-10-19 22:00:00,68.0,47.3,47.47,160.0,5.0,29.93,10.0,68.0
2021-10-19 23:00:00,63.0,46.4,54.6,0.0,0.0,29.94,10.0,63.0
2021-10-20 00:00:00,56.8,46.4,68.1,0.0,0.0,29.95,10.0,56.8
2021-10-20 01:00:00,56.8,46.4,68.1,120.0,3.0,29.96,10.0,56.8
2021-10-20 02:00:00,52.7,47.7,83.04,0.0,0.0,29.97,10.0,52.7
2021-10-20 03:00:00,50.0,46.8,88.7,0.0,0.0,29.99,10.0,50.0
2021-10-20 04:00:00,49.0,46.0,89.67,0.0,0.0,29.99,10.0,48.9
2021-10-20 05:00:00,48.2,46.4,93.45,0.0,0.0,29.99,10.0,48.2
2021-10-20 06:00:00,46.4,45.3,95.92,0.0,0.0,29.99,10.0,46.4
2021-10-20 07:00:00,46.2,45.3,96.65,0.0,0.0,29.99,10.0,46.2
2021-10-20 08:00:00,43.5,43.2,98.86,0.0,0.0,29.99,10.0,43.5
2021-10-20 09:00:00,47.0,45.5,94.13,20.0,4.0,29.99,10.0,45.05
2021-10-20 10:00:00,47.3,45.5,93.42,10.0,5.0,30.0,10.0,44.57
2021-10-20 11:00:00,49.6,47.0,90.37,30.0,8.0,30.01,10.0,45.79
2021-10-20 12:00:00,49.5,47.7,93.49,30.0,5.0,30.0,10.0,47.18
2021-10-20 13:00:00,51.0,48.4,91.11,0.0,0.0,30.04,10.0,50.9
2021-10-20 14:00:00,53.0,49.5,88.18,50.0,6.0,30.01,10.0,52.9
2021-10-20 15:00:00,53.4,48.4,83.09,50.0,10.0,29.97,10.0,53.4
2021-10-20 16:00:00,55.4,48.6,77.82,20.0,10.0,29.99,10.0,55.4
2021-10-20 17:00:00,54.7,48.4,79.23,50.0,9.0,29.98,10.0,54.7
2021-10-20 18:00:00,54.5,49.0,81.32,50.0,6.0,29.96,10.0,54.5
2021-10-20 19:00:00,53.0,49.0,86.87,50.0,4.0,29.94,10.0,52.9
2021-10-20 20:00:00,53.8,50.7,89.21,360.0,6.0,29.93,10.0,53.8
2021-10-20 21:00:00,52.7,50.0,90.5,40.0,8.0,29.91,10.0,52.7
2021-10-20 22:00:00,51.8,49.8,92.85,40.0,7.0,29.91,10.0,51.8
2021-10-20 23:00:00,51.0,49.5,94.93,50.0,10.0,29.88,10.0,50.9
2021-10-21 00:00:00,51.0,49.3,93.53,40.0,7.0,29.87,10.0,51.1
2021-10-21 01:00:00,51.0,49.0,92.83,30.0,7.0,29.87,10.0,51.1
2021-10-21 02:00:00,49.6,48.4,95.62,20.0,13.0,29.87,10.0,44.12
2021-10-21 03:00:00,48.2,47.7,98.14,30.0,9.0,29.87,3.0,43.66
2021-10-21 04:00:00,47.3,46.8,98.13,20.0,13.0,29.86,7.0,41.17
2021-10-21 05:00:00,46.4,45.7,97.39,20.0,11.0,29.85,10.0,40.66
2021-10-21 06:00:00,45.7,45.0,97.38,20.0,17.0,29.85,5.0,38.02
2021-10-21 07:00:00,45.0,43.7,95.16,10.0,17.0,29.86,10.0,37.11
2021-10-21 08:00:00,44.8,43.7,95.89,10.0,10.0,29.88,10.0,39.02
2021-10-21 09:00:00,43.7,42.4,95.14,10.0,12.0,29.9,10.0,36.89
2021-10-21 10:00:00,43.3,41.5,93.31,10.0,14.0,29.92,10.0,35.73
2021-10-21 11:00:00,42.8,41.4,94.75,350.0,8.0,29.95,10.0,37.42
2021-10-21 12:00:00,41.5,40.3,95.46,360.0,11.0,29.98,5.0,34.47
2021-10-21 13:00:00,41.5,39.2,91.46,360.0,10.0,30.01,10.0,34.88
2021-10-21 14:00:00,42.0,38.0,86.26,340.0,6.0,30.03,10.0,37.45
2021-10-21 15:00:00,43.5,37.0,77.38,360.0,9.0,30.06,10.0,37.81
2021-10-21 16:00:00,45.5,35.6,68.11,350.0,9.0,30.08,10.0,40.3
2021-10-21 17:00:00,46.6,35.0,64.05,330.0,5.0,30.07,10.0,43.73
2021-10-21 18:00:00,47.3,33.6,58.76,310.0,5.0,30.07,10.0,44.57
2021-10-21 19:00:00,48.7,32.4,53.13,350.0,9.0,30.07,10.0,44.28
2021-10-21 20:00:00,48.6,31.1,50.6,320.0,8.0,30.08,10.0,44.56
2021-10-21 21:00:00,47.7,28.8,47.66,330.0,7.0,30.09,10.0,43.92
2021-10-21 22:00:00,46.0,28.2,49.77,330.0,4.0,30.1,10.0,43.65
2021-10-21 23:00:00,41.7,28.4,58.92,340.0,3.0,30.1,10.0,39.78
2021-10-22 00:00:00,40.0,27.1,59.43,320.0,3.0,30.12,10.0,37.95
2021-10-22 01:00:00,35.0,30.9,85.16,0.0,0.0,30.12,10.0,34.9
2021-10-22 02:00:00,33.0,29.8,88.22,0.0,0.0,30.12,10.0,32.9
2021-10-22 03:00:00,31.8,30.4,94.49,0.0,0.0,30.12,10.0,31.8
2021-10-22 04:00:00,30.9,30.2,97.2,0.0,0.0,30.11,10.0,30.9
2021-10-22 05:00:00,29.5,28.9,97.58,0.0,0.0,30.1,10.0,29.5
2021-10-22 06:00:00,28.4,28.0,98.37,0.0,0.0,30.1,10.0,28.4
2021-10-22 07:00:00,28.2,27.7,97.97,0.0,0.0,30.1,10.0,28.2
2021-10-22 08:00:00,27.7,27.5,99.18,0.0,0.0,30.1,10.0,27.7
2021-10-22 09:00:00,27.5,26.8,97.16,0.0,0.0,30.11,10.0,27.5
2021-10-22 10:00:00,27.1,26.2,96.35,0.0,0.0,30.1,10.0,27.1
2021-10-22 11:00:00,27.5,27.1,98.37,0.0,0.0,30.1,10.0,27.5
2021-10-22 12:00:00,27.5,27.3,99.18,0.0,0.0,30.1,10.0,27.5
2021-10-22 13:00:00,30.2,29.8,98.39,0.0,0.0,30.11,10.0,30.2
2021-10-22 14:00:00,30.2,29.8,98.39,0.0,0.0,30.11,10.0,30.2
2021-10-22 15:00:00,38.7,36.0,89.92,20.0,5.0,30.11,10.0,34.35
2021-10-22 16:00:00,41.4,36.0,81.28,50.0,5.0,30.11,10.0,37.56
2021-10-22 17:00:00,40.6,35.0,80.58,10.0,9.0,30.09,10.0,34.21
2021-10-22 18:00:00,43.3,32.7,65.97,290.0,4.0,30.08,10.0,40.62
2021-10-22 19:00:00,44.2,30.9,59.28,320.0,5.0,30.06,10.0,40.88
2021-10-22 20:00:00,43.3,30.9,61.35,350.0,4.0,30.06,10.0,40.62
2021-10-22 21:00:00,42.8,31.1,63.05,350.0,4.0,30.06,10.0,40.03
2021-10-22 22:00:00,42.0,31.6,66.6,350.0,6.0,30.06,10.0,37.45
2021-10-22 23:00:00,40.5,31.1,68.9,360.0,4.0,30.06,10.0,37.35
2021-10-23 00:00:00,39.2,29.3,67.36,0.0,0.0,30.07,10.0,39.2
2021-10-23 01:00:00,37.8,32.2,80.03,0.0,0.0,30.07,10.0,37.8
2021-10-23 02:00:00,36.5,32.0,83.56,320.0,3.0,30.09,10.0,33.83
2021-10-23 03:00:00,36.5,31.8,82.89,0.0,0.0,30.08,10.0,36.5
2021-10-23 04:00:00,35.8,32.0,85.91,0.0,0.0,30.08,10.0,35.8
2021-10-23 05:00:00,35.0,32.0,88.33,0.0,0.0,30.07,10.0,35.1
2021-10-23 06:00:00,34.7,32.2,90.47,0.0,0.0,30.08,10.0,34.7
2021-10-23 07:00:00,35.0,33.0,92.32,0.0,0.0,30.07,10.0,34.9
2021-10-23 08:00:00,34.7,32.4,91.2,0.0,0.0,30.08,10.0,34.7
2021-10-23 09:00:00,31.6,30.7,96.42,0.0,0.0,30.08,10.0,31.6
2021-10-23 10:00:00,30.4,30.0,98.39,0.0,0.0,30.08,10.0,30.4
2021-10-23 11:00:00,29.1,28.9,99.19,0.0,0.0,30.09,10.0,29.1
2021-10-23 12:00:00,27.9,27.5,98.37,0.0,0.0,30.1,10.0,27.9
2021-10-23 13:00:00,31.8,31.6,99.2,0.0,0.0,30.1,10.0,31.8
2021-10-23 14:00:00,36.7,34.0,89.83,0.0,0.0,30.11,10.0,36.7
2021-10-23 15:00:00,43.0,34.7,72.29,30.0,3.0,30.11,10.0,41.26
2021-10-23 16:00:00,45.5,34.2,64.42,0.0,0.0,30.1,10.0,45.5
2021-10-23 17:00:00,46.6,32.4,57.49,0.0,0.0,30.09,10.0,46.6
2021-10-23 18:00:00,48.4,31.1,50.98,0.0,0.0,30.07,10.0,48.4
2021-10-23 19:00:00,47.7,30.9,51.92,310.0,3.0,30.05,10.0,46.64
2021-10-23 20:00:00,47.5,29.5,49.42,0.0,0.0,30.04,10.0,47.5
2021-10-23 21:00:00,48.2,28.8,46.78,0.0,0.0,30.03,10.0,48.2
2021-10-23 22:00:00,47.8,28.0,45.95,0.0,0.0,30.03,10.0,47.8
2021-10-23 23:00:00,40.0,30.2,68.0,0.0,0.0,30.03,10.0,39.9
2021-10-24 00:00:00,35.0,32.0,88.33,0.0,0.0,30.03,10.0,35.1
2021-10-24 01:00:00,33.6,31.1,90.43,0.0,0.0,30.03,10.0,33.6
2021-10-24 02:00:00,33.6,31.1,90.43,0.0,0.0,30.03,10.0,33.6
2021-10-24 03:00:00,33.6,31.1,90.43,0.0,0.0,30.03,10.0,33.6
2021-10-24 04:00:00,33.6,31.1,90.43,0.0,0.0,30.03,10.0,33.6
2021-10-24 05:00:00,33.6,31.1,90.43,0.0,0.0,30.03,10.0,33.6
2021-10-24 06:00:00,33.6,31.1,90.43,0.0,0.0,30.03,10.0,33.6
2021-10-24 07:00:00,33.6,31.1,90.43,0.0,0.0,30.03,10.0,33.6
2021-10-24 08:00:00,33.6,31.1,90.43,0.0,0.0,30.03,10.0,33.6
2021-10-24 09:00:00,28.0,27.3,97.16,0.0,0.0,30.0,10.0,28.0
2021-10-24 10:00:00,28.0,27.3,97.16,0.0,0.0,30.0,10.0,28.0
2021-10-24 11:00:00,28.0,27.3,97.16,0.0,0.0,30.0,10.0,28.0
2021-10-24 12:00:00,27.1,26.4,97.15,0.0,0.0,30.03,10.0,27.1
2021-10-24 13:00:00,29.5,29.3,99.19,0.0,0.0,30.06,10.0,29.5
2021-10-24 14:00:00,35.6,33.4,91.6,0.0,0.0,30.06,10.0,35.6
2021-10-24 15:00:00,44.4,33.6,65.58,90.0,6.0,30.06,10.0,40.46
2021-10-24 16:00:00,45.7,32.2,59.01,70.0,11.0,30.04,10.0,39.78
2021-10-24 17:00:00,47.0,31.5,54.82,70.0,10.0,30.04,10.0,41.65
2021-10-24 18:00:00,47.5,31.6,53.81,80.0,7.0,30.02,10.0,43.67
2021-10-24 19:00:00,48.2,31.3,51.78,50.0,7.0,29.99,10.0,44.53
2021-10-24 20:00:00,48.2,31.8,52.84,40.0,9.0,29.97,10.0,43.66
2021-10-24 21:00:00,47.3,33.0,57.13,50.0,10.0,29.97,10.0,42.15
2021-10-24 22:00:00,46.0,32.2,58.34,50.0,9.0,29.98,10.0,40.92
2021-10-24 23:00:00,44.6,32.4,62.02,40.0,6.0,30.01,10.0,40.71
2021-10-25 00:00:00,43.7,31.8,62.66,50.0,9.0,30.02,10.0,38.06
2021-10-25 01:00:00,42.0,30.9,64.24,40.0,7.0,30.02,10.0,37.09
2021-10-25 02:00:00,40.0,33.0,75.83,30.0,11.0,30.03,10.0,32.45
2021-10-25 03:00:00,40.0,33.0,75.83,30.0,11.0,30.03,10.0,32.45
2021-10-25 04:00:00,38.0,32.0,79.08,40.0,8.0,30.07,10.0,31.38
2021-10-25 05:00:00,37.2,32.0,81.29,30.0,10.0,30.08,10.0,29.49
2021-10-25 06:00:00,37.2,32.0,81.29,30.0,10.0,30.08,10.0,29.49
2021-10-25 07:00:00,37.2,32.0,81.29,30.0,10.0,30.08,10.0,29.49
2021-10-25 08:00:00,34.0,31.5,90.44,360.0,4.0,30.11,10.0,29.76
2021-10-25 09:00:00,34.7,32.0,89.75,10.0,8.0,30.12,10.0,27.44
2021-10-25 10:00:00,34.7,32.0,89.75,10.0,8.0,30.12,10.0,27.44
2021-10-25 11:00:00,34.7,32.0,89.75,10.0,8.0,30.12,10.0,27.44
2021-10-25 12:00:00,33.0,32.0,95.67,20.0,7.0,30.15,10.0,26.12
2021-10-25 13:00:00,34.0,32.7,94.92,20.0,7.0,30.17,10.0,27.22
2021-10-25 14:00:00,39.6,34.3,81.15,30.0,7.0,30.16,10.0,34.04
2021-10-25 15:00:00,44.4,33.6,65.58,50.0,11.0,30.17,10.0,38.14
2021-10-25 16:00:00,47.0,33.0,58.03,70.0,7.0,30.18,10.0,43.18
2021-10-25 17:00:00,48.6,32.7,53.98,50.0,7.0,30.17,10.0,45.01
2021-10-25 18:00:00,50.7,33.0,50.32,360.0,10.0,30.16,10.0,50.7
2021-10-25 19:00:00,51.4,32.4,48.05,20.0,10.0,30.14,10.0,51.4
2021-10-25 20:00:00,51.8,31.8,46.22,20.0,5.0,30.13,10.0,51.8
2021-10-25 21:00:00,51.8,31.8,46.22,20.0,5.0,30.13,10.0,51.8
2021-10-25 22:00:00,50.4,30.4,45.99,60.0,3.0,30.15,10.0,50.4
2021-10-25 23:00:00,45.0,31.1,57.96,0.0,0.0,30.17,10.0,45.0
2021-10-26 00:00:00,39.2,32.0,75.16,0.0,0.0,30.16,10.0,39.2
2021-10-26 01:00:00,42.3,31.1,64.27,70.0,4.0,30.16,10.0,39.45
2021-10-26 02:00:00,40.8,32.2,71.2,50.0,4.0,30.16,10.0,37.7
2021-10-26 03:00:00,41.2,32.4,70.67,70.0,6.0,30.16,10.0,36.61
2021-10-26 04:00:00,41.2,32.4,70.67,70.0,6.0,30.16,10.0,36.61
2021-10-26 05:00:00,41.2,32.4,70.67,70.0,6.0,30.16,10.0,36.61
2021-10-26 06:00:00,41.2,32.4,70.67,70.0,6.0,30.16,10.0,36.61
2021-10-26 07:00:00,35.2,31.3,85.53,90.0,3.0,30.2,10.0,32.35
2021-10-26 08:00:00,35.2,31.3,85.53,90.0,3.0,30.2,10.0,32.35
2021-10-26 09:00:00,35.2,31.3,85.53,90.0,3.0,30.2,10.0,32.35
2021-10-26 10:00:00,35.2,31.3,85.53,90.0,3.0,30.2,10.0,32.35
2021-10-26 11:00:00,35.2,31.3,85.53,90.0,3.0,30.2,10.0,32.35
2021-10-26 12:00:00,35.2,31.3,85.53,90.0,3.0,30.2,10.0,32.35
2021-10-26 13:00:00,39.2,33.0,77.93,120.0,5.0,30.17,10.0,34.95
2021-10-26 14:00:00,41.4,34.0,74.77,100.0,6.0,30.16,10.0,36.85
2021-10-26 15:00:00,43.3,35.0,72.04,100.0,9.0,30.14,10.0,37.56
2021-10-26 16:00:00,46.0,35.2,66.03,130.0,8.0,30.13,10.0,41.24
2021-10-26 17:00:00,49.5,34.2,55.42,100.0,12.0,30.1,10.0,44.27
2021-10-26 18:00:00,52.3,33.0,47.43,130.0,6.0,30.08,10.0,52.3
2021-10-26 19:00:00,54.5,32.4,42.88,100.0,9.0,30.06,10.0,54.5
2021-10-26 20:00:00,55.6,30.4,38.0,110.0,8.0,30.02,10.0,55.6
2021-10-26 21:00:00,55.0,28.4,35.8,100.0,13.0,29.99,10.0,55.0
2021-10-26 22:00:00,51.6,30.2,43.64,90.0,7.0,29.99,10.0,51.6
2021-10-26 23:00:00,51.6,30.2,43.64,90.0,7.0,29.99,10.0,51.6
2021-10-27 00:00:00,51.6,30.2,43.64,90.0,7.0,29.99,10.0,51.6
2021-10-27 01:00:00,51.6,30.2,43.64,90.0,7.0,29.99,10.0,51.6
2021-10-27 02:00:00,47.0,33.3,58.94,110.0,9.0,29.99,10.0,42.04
2021-10-27 03:00:00,46.8,33.0,58.69,130.0,10.0,30.0,10.0,41.53
2021-10-27 04:00:00,46.4,33.8,61.28,120.0,11.0,29.99,10.0,40.66
2021-10-27 05:00:00,46.0,34.2,63.21,110.0,11.0,29.98,10.0,40.16
2021-10-27 06:00:00,45.7,33.3,61.67,110.0,13.0,29.97,10.0,39.12
2021-10-27 07:00:00,46.4,34.0,61.77,120.0,13.0,29.99,10.0,40.02
2021-10-27 08:00:00,45.3,34.7,66.22,130.0,12.0,29.99,10.0,38.93
2021-10-27 09:00:00,45.5,35.0,66.77,130.0,9.0,29.99,10.0,40.3
2021-10-27 10:00:00,45.3,36.5,71.12,110.0,12.0,29.98,10.0,38.93
2021-10-27 11:00:00,44.8,38.3,77.8,120.0,12.0,29.96,10.0,38.29
2021-10-27 12:00:00,45.0,38.8,78.74,120.0,16.0,29.96,10.0,37.36
2021-10-27 13:00:00,44.6,40.8,86.42,110.0,11.0,29.94,7.0,38.39
2021-10-27 14:00:00,45.5,41.0,84.16,120.0,12.0,29.93,10.0,39.18
2021-10-27 15:00:00,46.4,41.7,83.57,120.0,12.0,29.94,10.0,40.33
2021-10-27 16:00:00,47.0,43.2,86.88,130.0,10.0,29.93,10.0,41.65
2021-10-27 17:00:00,47.7,43.7,85.93,100.0,6.0,29.89,10.0,44.44
2021-10-27 18:00:00,50.0,45.0,83.17,110.0,7.0,29.85,10.0,50.0
2021-10-27 19:00:00,53.0,42.0,65.62,120.0,8.0,29.83,10.0,53.1
2021-10-27 20:00:00,54.3,40.6,59.72,110.0,8.0,29.82,10.0,54.3
2021-10-27 21:00:00,54.7,40.3,58.18,110.0,6.0,29.81,10.0,54.7
2021-10-27 22:00:00,55.6,39.4,54.37,110.0,7.0,29.79,10.0,55.6
2021-10-27 23:00:00,56.3,38.3,50.77,110.0,12.0,29.78,10.0,56.3
2021-10-28 00:00:00,55.6,40.0,55.43,120.0,8.0,29.79,10.0,55.6
2021-10-28 01:00:00,55.0,41.2,59.59,120.0,13.0,29.79,10.0,55.0
2021-10-28 02:00:00,54.0,41.7,62.78,120.0,14.0,29.79,10.0,54.1
2021-10-28 03:00:00,52.7,42.0,67.11,130.0,10.0,29.8,10.0,52.7
2021-10-28 04:00:00,51.0,41.5,69.56,120.0,12.0,29.79,10.0,51.1
2021-10-28 05:00:00,49.6,41.4,73.26,110.0,11.0,29.8,10.0,44.71
2021-10-28 06:00:00,49.0,41.2,74.07,110.0,9.0,29.81,10.0,44.78
2021-10-28 07:00:00,48.6,41.0,74.88,110.0,7.0,29.81,10.0,45.01
2021-10-28 08:00:00,46.8,42.4,84.57,110.0,5.0,29.81,10.0,43.97
2021-10-28 09:00:00,46.0,42.8,88.85,120.0,4.0,29.8,10.0,43.65
2021-10-28 10:00:00,46.4,43.0,87.86,120.0,4.0,29.8,10.0,44.24
2021-10-28 11:00:00,46.4,42.6,86.52,50.0,4.0,29.77,10.0,44.24
2021-10-28 12:00:00,46.0,42.3,87.16,110.0,5.0,29.8,10.0,42.9
2021-10-28 13:00:00,46.4,42.4,85.85,80.0,4.0,29.79,10.0,44.24
2021-10-28 14:00:00,47.0,42.6,84.9,0.0,0.0,29.77,10.0,46.9
2021-10-28 15:00:00,49.0,44.0,82.17,30.0,3.0,29.78,10.0,48.24
2021-10-28 16:00:00,50.2,44.6,81.0,30.0,3.0,29.79,10.0,50.2
2021-10-28 17:00:00,51.4,44.6,77.48,20.0,7.0,29.77,10.0,51.4
2021-10-28 18:00:00,52.0,44.2,74.63,340.0,4.0,29.78,10.0,52.0
2021-10-28 19:00:00,52.3,45.0,76.39,350.0,6.0,29.79,10.0,52.3
2021-10-28 20:00:00,51.8,44.8,76.92,330.0,6.0,29.81,10.0,51.8
2021-10-28 21:00:00,51.0,44.6,78.92,340.0,5.0,29.82,10.0,50.9
2021-10-28 22:00:00,50.2,44.6,81.0,340.0,7.0,29.82,10.0,50.2
2021-10-28 23:00:00,49.0,45.0,85.68,330.0,9.0,29.8,10.0,44.78
2021-10-29 00:00:00,48.4,45.0,87.96,20.0,7.0,29.84,10.0,44.77
2021-10-29 01:00:00,48.2,45.0,88.62,350.0,6.0,29.84,10.0,45.04
2021-10-29 02:00:00,48.2,44.8,87.95,360.0,6.0,29.86,10.0,45.04
2021-10-29 03:00:00,48.2,44.8,87.95,340.0,5.0,29.86,10.0,45.63
2021-10-29 04:00:00,48.2,44.6,87.28,340.0,7.0,29.87,10.0,44.53
2021-10-29 05:00:00,48.2,44.6,87.28,360.0,8.0,29.88,10.0,44.07
2021-10-29 06:00:00,48.2,45.0,88.62,340.0,7.0,29.85,10.0,44.53
2021-10-29 07:00:00,48.4,45.0,87.96,340.0,8.0,29.86,10.0,44.32
2021-10-29 08:00:00,49.0,45.0,85.68,350.0,10.0,29.88,10.0,44.41
2021-10-29 09:00:00,49.0,45.0,85.68,330.0,7.0,29.88,10.0,45.62
2021-10-29 10:00:00,49.6,44.2,81.58,350.0,11.0,29.9,10.0,44.71
2021-10-29 11:00:00,49.8,44.0,80.66,360.0,11.0,29.9,10.0,44.96
2021-10-29 12:00:00,50.0,43.3,77.65,350.0,10.0,29.91,10.0,50.0
2021-10-29 13:00:00,50.4,43.0,75.63,350.0,8.0,29.94,10.0,50.4
2021-10-29 14:00:00,51.0,43.0,74.24,360.0,10.0,29.95,10.0,50.9
2021-10-29 15:00:00,51.8,43.7,73.76,350.0,12.0,29.94,10.0,51.8
2021-10-29 16:00:00,52.7,43.3,70.27,360.0,11.0,29.95,10.0,52.7
2021-10-29 17:00:00,54.0,43.3,67.0,340.0,11.0,29.94,10.0,54.0
2021-10-29 18:00:00,55.4,43.2,63.43,10.0,10.0,29.93,10.0,55.4
2021-10-29 19:00:00,56.8,42.0,57.35,360.0,10.0,29.92,10.0,56.8
2021-10-29 20:00:00,56.8,40.5,54.33,30.0,16.0,29.91,10.0,56.8
2021-10-29 21:00:00,56.0,40.8,56.78,20.0,9.0,29.93,10.0,55.9
2021-10-29 22:00:00,51.8,40.5,65.21,30.0,7.0,29.94,10.0,51.8
2021-10-29 23:00:00,47.8,39.6,73.08,360.0,4.0,29.93,10.0,45.87
2021-10-30 00:00:00,43.0,38.0,82.69,0.0,0.0,29.94,10.0,43.0
2021-10-30 01:00:00,39.0,36.0,89.23,0.0,0.0,29.94,10.0,39.0
2021-10-30 02:00:00,38.3,36.5,93.16,0.0,0.0,29.94,10.0,38.3
2021-10-30 03:00:00,37.0,35.4,93.87,0.0,0.0,29.94,10.0,37.0
2021-10-30 04:00:00,35.0,33.0,93.06,0.0,0.0,29.91,10.0,34.9
2021-10-30 05:00:00,36.0,33.8,91.62,0.0,0.0,29.9,10.0,36.0
2021-10-30 06:00:00,34.2,32.4,93.04,0.0,0.0,29.89,10.0,34.2
2021-10-30 07:00:00,33.6,32.0,93.78,0.0,0.0,29.88,10.0,33.6
2021-10-30 08:00:00,40.0,38.5,93.95,0.0,0.0,29.87,10.0,40.1
2021-10-30 09:00:00,42.0,39.7,91.83,10.0,3.0,29.86,10.0,40.01
2021-10-30 10:00:00,43.2,41.0,91.87,0.0,0.0,29.86,10.0,43.2
2021-10-30 11:00:00,44.0,42.0,92.61,0.0,0.0,29.85,10.0,43.9
2021-10-30 12:00:00,44.2,41.7,90.85,0.0,0.0,29.85,10.0,44.2
2021-10-30 13:00:00,44.6,42.0,90.87,0.0,0.0,29.85,10.0,44.6
2021-10-30 14:00:00,47.7,40.5,75.96,0.0,0.0,29.84,10.0,47.7
2021-10-30 15:00:00,51.3,42.3,71.21,230.0,4.0,29.83,10.0,51.3
2021-10-30 16:00:00,53.4,42.8,67.19,0.0,0.0,29.81,10.0,53.4
2021-10-30 17:00:00,56.0,42.8,60.89,200.0,5.0,29.78,10.0,56.1
2021-10-30 18:00:00,58.0,42.4,56.2,250.0,5.0,29.77,10.0,57.9
2021-10-30 19:00:00,59.7,42.6,53.09,280.0,5.0,29.76,10.0,59.7
2021-10-30 20:00:00,60.0,41.5,50.17,290.0,4.0,29.76,10.0,60.1
2021-10-30 21:00:00,58.6,41.4,52.73,260.0,7.0,29.77,10.0,58.6
2021-10-30 22:00:00,54.5,41.0,60.21,270.0,4.0,29.77,10.0,54.5
2021-10-30 23:00:00,50.5,40.0,67.37,290.0,3.0,29.79,10.0,50.5
2021-10-31 00:00:00,48.7,40.0,72.04,0.0,0.0,29.79,10.0,48.7
2021-10-31 01:00:00,44.2,41.0,88.43,0.0,0.0,29.8,10.0,44.2
2021-10-31 02:00:00,44.2,40.3,86.06,310.0,3.0,29.82,10.0,42.64
2021-10-31 03:00:00,48.7,41.0,74.6,330.0,10.0,29.84,10.0,43.91
2021-10-31 04:00:00,48.6,41.0,74.88,330.0,8.0,29.85,10.0,44.56
2021-10-31 05:00:00,48.0,38.5,69.48,340.0,9.0,29.87,10.0,43.41
2021-10-31 06:00:00,46.4,35.6,65.83,320.0,9.0,29.89,10.0,41.42
2021-10-31 07:00:00,46.0,33.6,61.95,330.0,10.0,29.91,10.0,40.4
2021-10-31 08:00:00,42.4,32.7,68.29,310.0,4.0,29.94,10.0,39.56
2021-10-31 09:00:00,41.0,33.0,73.25,290.0,8.0,29.96,10.0,35.2
2021-10-31 10:00:00,39.7,33.8,79.23,300.0,6.0,29.98,10.0,34.8
2021-10-31 11:00:00,38.5,32.7,79.45,310.0,4.0,29.99,10.0,35.01
2021-10-31 12:00:00,37.6,32.0,80.02,290.0,6.0,30.01,10.0,32.27
2021-10-31 13:00:00,39.2,32.0,75.16,290.0,7.0,30.04,10.0,33.56
2021-10-31 14:00:00,42.4,32.0,66.39,300.0,7.0,30.06,10.0,37.46
2021-10-31 15:00:00,45.5,31.8,58.51,290.0,8.0,30.06,10.0,40.74
2021-10-31 16:00:00,47.8,29.3,48.46,300.0,11.0,30.07,10.0,42.43
2021-10-31 17:00:00,47.3,25.9,42.94,290.0,9.0,30.06,10.0,42.54
2021-10-31 18:00:00,46.8,27.5,46.74,290.0,8.0,30.06,10.0,42.34
2021-10-31 19:00:00,42.0,32.0,67.17,330.0,4.0,30.07,10.0,39.21
2021-10-31 20:00:00,47.0,29.1,49.35,290.0,7.0,30.07,10.0,43.18
2021-10-31 21:00:00,46.6,26.2,44.64,290.0,14.0,30.08,10.0,39.98
2021-10-31 22:00:00,43.7,26.8,51.09,280.0,11.0,30.09,10.0,37.25
2021-10-31 23:00:00,42.0,24.4,49.55,270.0,6.0,30.11,10.0,37.45
2021-11-01 00:00:00,40.6,25.3,54.1,280.0,6.0,30.12,10.0,35.89
2021-11-01 01:00:00,40.8,25.9,55.04,270.0,6.0,30.14,10.0,36.13
2021-11-01 02:00:00,41.0,24.6,51.74,270.0,7.0,30.14,10.0,35.75
2021-11-01 03:00:00,40.3,25.7,55.65,250.0,6.0,30.15,10.0,35.53
2021-11-01 04:00:00,38.8,26.6,61.24,260.0,5.0,30.14,10.0,34.47
2021-11-01 05:00:00,39.4,26.4,59.33,260.0,6.0,30.14,10.0,34.44
2021-11-01 06:00:00,38.3,26.6,62.45,260.0,7.0,30.15,10.0,32.46
2021-11-01 07:00:00,35.8,27.1,70.35,270.0,6.0,30.16,10.0,30.11
2021-11-01 08:00:00,35.0,27.1,72.91,260.0,6.0,30.16,10.0,29.02
2021-11-01 09:00:00,35.8,27.7,72.11,260.0,4.0,30.18,10.0,31.86
2021-11-01 10:00:00,35.6,27.3,71.5,250.0,5.0,30.19,10.0,30.67
2021-11-01 11:00:00,36.0,27.3,70.37,280.0,3.0,30.19,10.0,33.26
2021-11-01 12:00:00,36.5,27.7,70.14,270.0,5.0,30.2,10.0,31.74
2021-11-01 13:00:00,36.5,27.7,70.14,270.0,5.0,30.2,10.0,31.74
2021-11-01 14:00:00,38.5,28.2,66.18,270.0,7.0,30.23,10.0,32.7
2021-11-01 15:00:00,41.0,26.4,55.75,290.0,10.0,30.23,10.0,34.25
2021-11-01 16:00:00,41.2,25.2,52.64,300.0,7.0,30.24,10.0,35.99
2021-11-01 17:00:00,42.3,25.2,50.45,280.0,11.0,30.23,10.0,35.48
2021-11-01 18:00:00,41.4,25.9,53.77,280.0,12.0,30.23,10.0,33.97
2021-11-01 19:00:00,40.0,21.7,47.8,290.0,7.0,30.23,10.0,34.41
2021-11-01 20:00:00,41.0,21.0,44.47,270.0,8.0,30.23,10.0,35.2
2021-11-01 21:00:00,41.0,21.9,46.19,280.0,8.0,30.23,10.0,35.2
2021-11-01 22:00:00,39.2,20.5,46.69,270.0,5.0,30.24,10.0,34.95
2021-11-01 23:00:00,36.0,21.2,54.54,260.0,4.0,30.25,10.0,32.09
2021-11-02 00:00:00,35.0,22.1,58.72,250.0,4.0,30.26,10.0,31.04
2021-11-02 01:00:00,38.0,24.4,57.44,260.0,7.0,30.26,10.0,32.21
2021-11-02 02:00:00,37.0,26.1,64.63,260.0,4.0,30.26,10.0,33.14
2021-11-02 03:00:00,37.4,25.0,60.54,260.0,6.0,30.26,10.0,32.03
2021-11-02 04:00:00,37.2,25.5,62.3,270.0,5.0,30.27,10.0,32.57
2021-11-02 05:00:00,37.0,26.4,65.44,270.0,6.0,30.27,10.0,31.43
2021-11-02 06:00:00,37.0,26.8,66.27,280.0,5.0,30.28,10.0,32.33
2021-11-02 07:00:00,37.0,28.2,70.2,290.0,4.0,30.29,10.0,33.26
2021-11-02 08:00:00,36.0,27.5,70.96,330.0,6.0,30.29,10.0,30.35
2021-11-02 09:00:00,34.0,21.4,59.56,300.0,7.0,30.31,10.0,27.22
2021-11-02 10:00:00,33.0,21.4,61.74,300.0,5.0,30.32,10.0,27.7
2021-11-02 11:00:00,31.6,22.3,68.13,300.0,3.0,30.32,10.0,28.23
2021-11-02 12:00:00,30.6,22.5,71.54,290.0,4.0,30.33,10.0,25.79
2021-11-02 13:00:00,32.0,23.4,70.21,290.0,5.0,30.34,10.0,26.4
2021-11-02 14:00:00,34.7,23.2,62.49,310.0,6.0,30.35,10.0,28.78
2021-11-02 15:00:00,37.0,23.2,57.27,290.0,9.0,30.36,10.0,29.61
2021-11-02 16:00:00,39.2,23.2,52.33,290.0,10.0,30.37,10.0,32.0
2021-11-02 17:00:00,39.6,23.5,52.17,310.0,8.0,30.35,10.0,33.48
2021-11-02 18:00:00,40.0,22.5,49.44,290.0,10.0,30.35,10.0,32.87
2021-11-02 19:00:00,40.3,21.6,46.87,270.0,9.0,30.34,10.0,33.83
2021-11-02 20:00:00,39.6,21.0,46.95,300.0,8.0,30.34,10.0,33.48
2021-11-02 21:00:00,38.7,21.6,49.88,290.0,8.0,30.34,10.0,32.37
2021-11-02 22:00:00,37.8,22.1,52.78,290.0,7.0,30.35,10.0,31.85
2021-11-02 23:00:00,37.4,21.6,52.49,280.0,5.0,30.36,10.0,32.81
2021-11-03 00:00:00,36.5,23.0,57.69,260.0,4.0,30.36,10.0,32.68
2021-11-03 01:00:00,36.5,23.0,57.69,260.0,4.0,30.36,10.0,32.68
2021-11-03 02:00:00,35.4,23.2,60.77,0.0,0.0,30.36,10.0,35.4
2021-11-03 03:00:00,34.3,23.4,64.03,0.0,0.0,30.36,10.0,34.3
2021-11-03 04:00:00,32.7,23.9,69.71,0.0,0.0,30.37,10.0,32.7
2021-11-03 05:00:00,33.4,23.9,67.78,0.0,0.0,30.38,10.0,33.4
2021-11-03 06:00:00,33.8,23.9,66.7,0.0,0.0,30.38,10.0,33.8
2021-11-03 07:00:00,34.2,24.3,66.75,0.0,0.0,30.38,10.0,34.2
2021-11-03 08:00:00,34.2,25.3,69.59,0.0,0.0,30.38,10.0,34.2
2021-11-03 09:00:00,34.3,25.5,69.89,0.0,0.0,30.37,10.0,34.3
2021-11-03 10:00:00,34.2,25.7,70.76,0.0,0.0,30.37,10.0,34.2
2021-11-03 11:00:00,34.3,25.5,69.89,0.0,0.0,30.36,10.0,34.3
2021-11-03 12:00:00,34.0,25.9,71.92,0.0,0.0,30.37,10.0,34.0
2021-11-03 13:00:00,34.7,26.8,72.59,0.0,0.0,30.38,10.0,34.7
2021-11-03 14:00:00,36.7,25.5,63.54,240.0,3.0,30.39,10.0,34.06
2021-11-03 15:00:00,39.0,23.5,53.41,250.0,5.0,30.39,10.0,34.71
2021-11-03 16:00:00,42.4,21.7,43.4,260.0,3.0,30.38,10.0,40.58
2021-11-03 17:00:00,43.0,16.0,33.22,210.0,7.0,30.36,10.0,38.19
2021-11-03 18:00:00,44.0,16.5,32.8,220.0,5.0,30.32,10.0,40.53
2021-11-03 19:00:00,44.4,17.1,33.02,190.0,6.0,30.3,10.0,40.46
2021-11-03 20:00:00,43.7,16.7,33.34,210.0,6.0,30.29,10.0,39.62
2021-11-03 21:00:00,42.0,18.5,38.31,210.0,3.0,30.29,10.0,40.23
2021-11-03 22:00:00,39.0,20.5,47.05,0.0,0.0,30.28,10.0,39.0
2021-11-03 23:00:00,33.6,21.6,61.03,0.0,0.0,30.28,10.0,33.6
2021-11-04 00:00:00,32.2,21.9,65.39,0.0,0.0,30.28,10.0,32.2
2021-11-04 01:00:00,30.9,22.3,70.09,0.0,0.0,30.28,10.0,30.9
2021-11-04 02:00:00,28.8,23.7,80.97,0.0,0.0,30.28,10.0,28.8
2021-11-04 03:00:00,27.9,23.5,83.31,0.0,0.0,30.28,10.0,27.9
2021-11-04 04:00:00,26.6,22.8,85.35,0.0,0.0,30.27,10.0,26.6
2021-11-04 05:00:00,28.9,24.4,83.03,0.0,0.0,30.27,10.0,28.9
2021-11-04 06:00:00,31.6,22.6,69.0,0.0,0.0,30.27,10.0,31.6
2021-11-04 07:00:00,32.4,23.4,69.09,0.0,0.0,30.26,10.0,32.4
2021-11-04 08:00:00,32.0,23.0,69.04,0.0,0.0,30.25,10.0,32.0
2021-11-04 09:00:00,30.6,22.1,70.35,0.0,0.0,30.24,10.0,30.6
2021-11-04 10:00:00,30.0,22.8,74.24,130.0,3.0,30.23,10.0,26.4
2021-11-04 11:00:00,29.3,22.8,76.39,110.0,3.0,30.23,10.0,25.6
2021-11-04 12:00:00,29.1,23.0,77.67,0.0,0.0,30.23,10.0,29.1
2021-11-04 13:00:00,32.0,24.6,73.83,0.0,0.0,30.25,10.0,32.0
2021-11-04 14:00:00,35.6,26.6,69.46,150.0,4.0,30.25,10.0,31.62
2021-11-04 15:00:00,37.8,27.9,67.19,170.0,5.0,30.24,10.0,33.28
2021-11-04 16:00:00,42.3,30.9,63.75,160.0,5.0,30.23,10.0,38.63
2021-11-04 17:00:00,47.5,35.0,61.91,150.0,5.0,30.22,10.0,44.8
2021-11-04 18:00:00,51.4,35.4,54.18,200.0,8.0,30.19,10.0,51.4
2021-11-04 19:00:00,50.2,34.2,54.0,190.0,6.0,30.18,10.0,50.2
2021-11-04 20:00:00,52.3,34.5,50.56,170.0,4.0,30.17,10.0,52.3
2021-11-04 21:00:00,50.5,35.4,56.01,170.0,6.0,30.16,10.0,50.5
2021-11-04 22:00:00,46.0,35.0,65.52,160.0,4.0,30.15,10.0,43.77
2021-11-04 23:00:00,42.4,34.0,71.94,160.0,4.0,30.15,10.0,39.56
2021-11-05 00:00:00,42.0,34.3,74.23,160.0,3.0,30.15,10.0,40.01
2021-11-05 01:00:00,39.0,33.0,78.54,150.0,4.0,30.14,10.0,35.59
2021-11-05 02:00:00,39.2,32.5,76.69,140.0,3.0,30.14,10.0,36.92
2021-11-05 03:00:00,37.0,31.8,81.59,130.0,3.0,30.14,10.0,34.29
2021-11-05 04:00:00,37.4,31.8,80.0,130.0,3.0,30.13,10.0,34.86
2021-11-05 05:00:00,37.0,32.0,81.93,0.0,0.0,30.13,10.0,37.0
2021-11-05 06:00:00,37.0,32.0,82.25,150.0,3.0,30.13,10.0,34.29
2021-11-05 07:00:00,37.0,32.0,82.25,150.0,3.0,30.12,10.0,34.29
2021-11-05 08:00:00,35.0,31.1,85.86,140.0,3.0,30.12,10.0,32.0
2021-11-05 09:00:00,38.0,33.0,82.0,130.0,3.0,30.12,10.0,35.43
2021-11-05 10:00:00,37.0,32.0,82.25,130.0,5.0,30.11,10.0,32.21
2021-11-05 11:00:00,37.0,32.2,82.59,140.0,6.0,30.11,10.0,31.55
2021-11-05 12:00:00,37.4,32.5,82.29,130.0,7.0,30.11,10.0,31.36
2021-11-05 13:00:00,39.4,33.8,80.16,130.0,9.0,30.1,10.0,32.72
2021-11-05 14:00:00,43.2,35.0,72.32,150.0,11.0,30.1,10.0,36.62
2021-11-05 15:00:00,47.7,37.0,65.99,160.0,12.0,30.08,10.0,41.98
2021-11-05 16:00:00,52.2,38.7,59.9,160.0,18.0,30.06,10.0,52.2
2021-11-05 17:00:00,55.6,39.2,53.94,180.0,16.0,30.03,10.0,55.6
2021-11-05 18:00:00,58.0,39.2,49.64,170.0,16.0,29.99,10.0,57.9
2021-11-05 19:00:00,58.5,38.8,47.83,160.0,15.0,29.96,10.0,58.5
2021-11-05 20:00:00,57.2,37.6,47.82,160.0,17.0,29.95,10.0,57.2
2021-11-05 21:00:00,57.0,37.8,48.54,150.0,14.0,29.93,10.0,57.0
2021-11-05 22:00:00,55.0,37.4,51.38,160.0,12.0,29.93,10.0,55.0
2021-11-05 23:00:00,54.0,37.0,52.06,170.0,18.0,29.94,10.0,54.1
2021-11-06 00:00:00,53.6,36.7,52.6,170.0,15.0,29.94,10.0,53.6
2021-11-06 01:00:00,52.7,36.5,53.94,170.0,16.0,29.93,10.0,52.7
2021-11-06 02:00:00,51.0,36.5,57.22,160.0,15.0,29.92,10.0,51.1
2021-11-06 03:00:00,51.0,37.4,59.73,170.0,15.0,29.92,10.0,50.9
2021-11-06 04:00:00,51.8,38.7,60.79,180.0,12.0,29.92,10.0,51.8
2021-11-06 05:00:00,50.7,39.2,64.57,170.0,9.0,29.93,10.0,50.7
2021-11-06 06:00:00,49.3,39.4,68.55,170.0,8.0,29.92,10.0,45.42
2021-11-06 07:00:00,47.5,39.2,72.76,170.0,7.0,29.93,10.0,43.67
2021-11-06 08:00:00,47.3,39.6,74.46,170.0,6.0,29.93,10.0,43.96
2021-11-06 09:00:00,46.0,39.7,78.52,150.0,5.0,29.93,10.0,43.02
2021-11-06 10:00:00,45.3,39.6,80.31,170.0,6.0,29.93,10.0,41.55
2021-11-06 11:00:00,45.0,39.4,80.6,0.0,0.0,29.94,10.0,45.0
2021-11-06 12:00:00,44.8,39.6,81.86,190.0,6.0,29.94,10.0,40.95
2021-11-06 13:00:00,47.0,40.5,78.29,200.0,6.0,29.96,10.0,43.48
2021-11-06 14:00:00,50.4,41.4,71.11,220.0,7.0,29.96,10.0,50.4
2021-11-06 15:00:00,54.5,41.5,61.39,210.0,7.0,29.96,10.0,54.5
2021-11-06 16:00:00,58.5,41.4,52.92,220.0,6.0,29.98,10.0,58.5
2021-11-06 17:00:00,62.2,41.7,46.93,210.0,9.0,29.96,10.0,62.2
2021-11-06 18:00:00,65.0,41.5,42.07,230.0,12.0,29.95,10.0,65.1
2021-11-06 19:00:00,66.4,41.0,39.44,260.0,8.0,29.94,10.0,66.4
2021-11-06 20:00:00,66.6,40.0,37.82,230.0,7.0,29.94,10.0,66.6
2021-11-06 21:00:00,65.0,39.0,38.18,240.0,7.0,29.95,10.0,65.1
2021-11-06 22:00:00,61.7,38.7,42.51,220.0,5.0,29.95,10.0,61.7
2021-11-06 23:00:00,58.6,38.3,46.74,0.0,0.0,29.98,10.0,58.6
2021-11-07 00:00:00,50.5,38.8,64.04,0.0,0.0,29.98,10.0,50.5
2021-11-07 01:00:00,45.0,38.7,78.43,0.0,0.0,29.98,10.0,45.0
2021-11-07 02:00:00,41.7,37.6,85.24,0.0,0.0,29.98,10.0,41.7
2021-11-07 03:00:00,40.5,37.2,87.9,0.0,0.0,29.99,10.0,40.5
2021-11-07 04:00:00,38.0,35.4,89.89,0.0,0.0,29.99,10.0,38.1
2021-11-07 05:00:00,37.0,34.3,90.2,0.0,0.0,29.99,10.0,36.9
2021-11-07 06:00:00,36.5,34.2,91.27,0.0,0.0,29.99,10.0,36.5
2021-11-07 07:00:00,35.6,33.4,91.6,0.0,0.0,29.99,10.0,35.6
2021-11-07 08:00:00,36.0,33.8,91.26,0.0,0.0,29.98,10.0,36.1
2021-11-07 09:00:00,38.0,35.6,91.32,0.0,0.0,29.96,10.0,37.9
2021-11-07 10:00:00,42.0,37.6,84.59,120.0,3.0,29.97,10.0,40.01
2021-11-07 11:00:00,42.8,39.2,86.99,120.0,4.0,29.96,10.0,40.03
2021-11-07 12:00:00,43.0,40.0,89.41,110.0,4.0,29.96,10.0,40.27
2021-11-07 13:00:00,45.0,41.7,88.13,0.0,0.0,29.97,10.0,45.0
2021-11-07 14:00:00,49.0,44.0,82.8,120.0,8.0,29.94,10.0,45.18
2021-11-07 15:00:00,53.4,45.7,75.05,160.0,6.0,29.95,10.0,53.4
2021-11-07 16:00:00,56.5,46.6,69.36,140.0,8.0,29.94,10.0,56.5
2021-11-07 17:00:00,59.7,47.3,63.49,150.0,8.0,29.91,10.0,59.7
2021-11-07 18:00:00,62.2,47.8,59.2,160.0,7.0,29.89,10.0,62.2
2021-11-07 19:00:00,62.6,48.2,59.26,150.0,8.0,29.88,10.0,62.6
2021-11-07 20:00:00,63.0,48.0,57.99,160.0,8.0,29.87,10.0,63.0
2021-11-07 21:00:00,61.7,48.2,61.17,140.0,5.0,29.87,10.0,61.7
2021-11-07 22:00:00,58.0,46.8,65.97,140.0,6.0,29.87,10.0,58.1
2021-11-07 23:00:00,55.6,46.4,71.12,140.0,4.0,29.88,10.0,55.6
2021-11-08 00:00:00,52.3,46.0,78.74,120.0,3.0,29.88,10.0,52.3
2021-11-08 01:00:00,49.6,45.7,86.37,0.0,0.0,29.88,10.0,49.6
2021-11-08 02:00:00,46.0,43.0,89.2,0.0,0.0,29.88,10.0,46.0
2021-11-08 03:00:00,44.0,41.7,91.9,0.0,0.0,29.88,10.0,43.9
2021-11-08 04:00:00,41.4,39.0,91.1,0.0,0.0,29.89,5.0,41.4
2021-11-08 05:00:00,40.3,38.0,91.77,0.0,0.0,29.9,4.0,40.3
2021-11-08 06:00:00,40.3,38.0,91.77,0.0,0.0,29.9,4.0,40.3
2021-11-08 07:00:00,38.5,37.0,93.91,0.0,0.0,29.91,0.5,38.5
2021-11-08 08:00:00,37.6,36.0,93.88,0.0,0.0,29.92,0.25,37.6
2021-11-08 09:00:00,37.0,35.2,93.49,0.0,0.0,29.96,0.5,36.9
2021-11-08 10:00:00,38.0,36.3,93.89,0.0,0.0,29.97,7.0,37.9
2021-11-08 11:00:00,37.4,35.8,93.88,0.0,0.0,30.0,1.5,37.4
2021-11-08 12:00:00,39.4,37.8,93.93,0.0,0.0,30.04,0.5,39.4
2021-11-08 13:00:00,42.6,40.8,93.29,0.0,0.0,30.06,3.0,42.6
2021-11-08 14:00:00,48.6,46.2,91.37,310.0,3.0,30.08,10.0,47.67
2021-11-08 15:00:00,54.3,38.8,55.68,320.0,8.0,30.12,10.0,54.3
2021-11-08 16:00:00,56.5,37.2,48.28,340.0,8.0,30.15,10.0,56.5
2021-11-08 17:00:00,57.2,34.2,41.79,350.0,9.0,30.16,10.0,57.2
2021-11-08 18:00:00,58.0,29.1,33.17,340.0,8.0,30.16,10.0,57.9
2021-11-08 19:00:00,57.4,28.0,32.28,340.0,8.0,30.17,10.0,57.4
2021-11-08 20:00:00,56.3,24.1,28.58,330.0,8.0,30.18,10.0,56.3
2021-11-08 21:00:00,54.7,24.6,30.93,350.0,4.0,30.18,10.0,54.7
2021-11-08 22:00:00,53.2,26.8,35.79,340.0,4.0,30.2,10.0,53.2
2021-11-08 23:00:00,51.6,28.4,40.55,0.0,0.0,30.22,10.0,51.6
2021-11-09 00:00:00,48.6,33.0,54.41,0.0,0.0,30.23,10.0,48.6
2021-11-09 01:00:00,49.3,29.7,46.57,290.0,3.0,30.24,10.0,48.47
2021-11-09 02:00:00,46.4,32.0,57.0,0.0,0.0,30.24,10.0,46.4
2021-11-09 03:00:00,42.0,35.0,75.44,0.0,0.0,30.26,10.0,42.1
2021-11-09 04:00:00,38.0,32.7,81.34,0.0,0.0,30.27,10.0,37.9
2021-11-09 05:00:00,33.3,31.3,92.26,0.0,0.0,30.28,10.0,33.3
2021-11-09 06:00:00,31.1,28.6,90.32,0.0,0.0,30.28,10.0,31.1
2021-11-09 07:00:00,29.5,26.1,86.96,0.0,0.0,30.29,10.0,29.5
2021-11-09 08:00:00,30.4,27.3,88.09,0.0,0.0,30.28,10.0,30.4
2021-11-09 09:00:00,29.7,26.2,86.61,0.0,0.0,30.28,10.0,29.7
2021-11-09 10:00:00,29.7,26.6,88.06,0.0,0.0,30.29,7.0,29.7
2021-11-09 11:00:00,29.1,26.2,88.76,0.0,0.0,30.29,10.0,29.1
2021-11-09 12:00:00,27.0,24.1,88.65,0.0,0.0,30.3,10.0,27.0
2021-11-09 13:00:00,27.7,25.0,89.43,0.0,0.0,30.3,10.0,27.7
2021-11-09 14:00:00,35.0,30.4,82.79,0.0,0.0,30.3,10.0,35.1
2021-11-09 15:00:00,39.0,32.2,76.36,0.0,0.0,30.28,10.0,39.0
2021-11-09 16:00:00,43.5,30.6,60.15,0.0,0.0,30.28,10.0,43.5
2021-11-09 17:00:00,49.0,30.2,47.89,0.0,0.0,30.25,10.0,49.1
2021-11-09 18:00:00,53.6,25.3,33.15,220.0,4.0,30.23,10.0,53.6
2021-11-09 19:00:00,56.0,24.4,29.15,250.0,6.0,30.22,10.0,56.1
2021-11-09 20:00:00,56.3,23.5,27.87,250.0,4.0,30.2,10.0,56.3
2021-11-09 21:00:00,55.2,25.2,31.14,240.0,3.0,30.2,10.0,55.2
2021-11-09 22:00:00,51.0,24.3,35.12,220.0,3.0,30.19,10.0,50.9
2021-11-09 23:00:00,42.8,29.7,59.56,0.0,0.0,30.19,10.0,42.8
2021-11-10 00:00:00,38.5,29.1,68.67,0.0,0.0,30.2,10.0,38.5
2021-11-10 01:00:00,36.7,28.8,72.8,0.0,0.0,30.18,10.0,36.7
2021-11-10 02:00:00,34.0,30.0,85.11,0.0,0.0,30.18,10.0,34.0
2021-11-10 03:00:00,31.8,27.0,82.21,0.0,0.0,30.18,10.0,31.8
2021-11-10 04:00:00,30.9,27.9,88.48,0.0,0.0,30.17,10.0,30.9
2021-11-10 05:00:00,30.2,27.3,88.81,0.0,0.0,30.17,10.0,30.2
2021-11-10 06:00:00,29.1,26.4,89.49,0.0,0.0,30.17,10.0,29.1
2021-11-10 07:00:00,29.1,26.2,88.76,0.0,0.0,30.16,10.0,29.1
2021-11-10 08:00:00,28.2,25.3,88.71,0.0,0.0,30.16,10.0,28.2
2021-11-10 09:00:00,28.9,25.2,85.85,0.0,0.0,30.16,10.0,28.9
2021-11-10 10:00:00,29.1,26.6,90.24,0.0,0.0,30.16,10.0,29.1
2021-11-10 11:00:00,29.8,26.6,87.7,0.0,0.0,30.14,10.0,29.8
2021-11-10 12:00:00,29.8,26.6,87.7,0.0,0.0,30.14,10.0,29.8
2021-11-10 13:00:00,31.5,28.8,89.6,0.0,0.0,30.13,10.0,31.5
2021-11-10 14:00:00,38.3,30.4,72.97,110.0,4.0,30.13,10.0,34.78
2021-11-10 15:00:00,43.2,29.5,58.18,120.0,6.0,30.11,10.0,39.02
2021-11-10 16:00:00,46.6,26.4,45.01,120.0,9.0,30.09,10.0,41.67
2021-11-10 17:00:00,49.5,23.4,35.63,130.0,13.0,30.05,10.0,43.99
2021-11-10 18:00:00,51.0,20.7,30.18,120.0,13.0,30.0,10.0,50.9
2021-11-10 19:00:00,52.7,18.7,25.93,110.0,8.0,29.97,10.0,52.7
2021-11-10 20:00:00,53.8,19.8,26.1,120.0,12.0,29.95,10.0,53.8
2021-11-10 21:00:00,53.4,22.5,29.7,100.0,9.0,29.91,10.0,53.4
2021-11-10 22:00:00,53.0,20.8,28.15,100.0,10.0,29.87,10.0,52.9
2021-11-10 23:00:00,52.7,21.9,29.71,110.0,11.0,29.85,10.0,52.7
2021-11-11 00:00:00,48.0,33.4,56.78,110.0,14.0,29.81,10.0,41.79
2021-11-11 01:00:00,45.5,39.2,78.47,120.0,12.0,29.78,10.0,39.18
2021-11-11 02:00:00,44.6,39.2,81.2,110.0,15.0,29.76,7.0,37.11
2021-11-11 03:00:00,43.7,39.2,84.04,110.0,12.0,29.73,10.0,36.89
2021-11-11 04:00:00,43.2,40.0,88.04,110.0,8.0,29.7,5.0,37.91
2021-11-11 05:00:00,43.7,41.0,90.13,110.0,9.0,29.66,5.0,38.06
2021-11-11 06:00:00,44.2,41.5,90.15,100.0,12.0,29.6,3.0,37.53
2021-11-11 07:00:00,44.8,42.0,90.18,100.0,9.0,29.56,7.0,39.43
2021-11-11 08:00:00,45.0,42.8,91.94,90.0,8.0,29.51,10.0,40.13
2021-11-11 09:00:00,45.5,43.3,91.95,90.0,5.0,29.46,5.0,42.43
2021-11-11 10:00:00,45.5,43.7,93.37,270.0,5.0,29.44,4.0,42.43
2021-11-11 11:00:00,45.0,43.2,93.36,290.0,5.0,29.41,5.0,41.83
2021-11-11 12:00:00,44.8,42.8,92.64,290.0,4.0,29.39,10.0,42.37
2021-11-11 13:00:00,43.7,41.0,90.13,270.0,12.0,29.39,10.0,36.89
2021-11-11 14:00:00,41.2,38.5,90.03,280.0,9.0,29.38,5.0,34.95
2021-11-11 15:00:00,40.0,37.4,89.98,270.0,9.0,29.36,10.0,33.59
2021-11-11 16:00:00,40.6,37.8,89.65,270.0,7.0,29.35,7.0,35.26
2021-11-11 17:00:00,41.2,38.3,89.33,260.0,12.0,29.35,5.0,33.71
2021-11-11 18:00:00,41.0,37.8,88.27,250.0,17.0,29.37,4.0,31.87
2021-11-11 19:00:00,40.3,36.0,84.49,250.0,13.0,29.38,10.0,32.2
2021-11-11 20:00:00,39.7,33.4,77.97,240.0,10.0,29.4,10.0,32.62
2021-11-11 21:00:00,40.0,32.0,72.57,240.0,11.0,29.42,10.0,32.7
2021-11-11 22:00:00,40.0,31.3,70.55,220.0,11.0,29.42,10.0,32.7
2021-11-11 23:00:00,39.4,30.4,69.9,230.0,9.0,29.44,10.0,32.72
2021-11-12 00:00:00,39.2,30.0,69.31,220.0,6.0,29.44,10.0,34.2
2021-11-12 01:00:00,38.8,30.7,72.43,200.0,8.0,29.43,10.0,32.49
2021-11-12 02:00:00,38.3,31.1,75.07,210.0,9.0,29.43,10.0,31.35
2021-11-12 03:00:00,38.0,31.1,76.26,200.0,9.0,29.42,10.0,30.85
2021-11-12 04:00:00,37.6,32.0,80.02,180.0,6.0,29.41,10.0,32.27
2021-11-12 05:00:00,37.0,32.4,83.26,170.0,9.0,29.4,10.0,29.73
2021-11-12 06:00:00,36.0,33.3,89.45,160.0,7.0,29.4,7.0,29.78
2021-11-12 07:00:00,36.0,33.8,91.26,150.0,6.0,29.4,10.0,30.47
2021-11-12 08:00:00,36.5,34.0,90.55,130.0,5.0,29.41,10.0,31.74
2021-11-12 09:00:00,36.5,34.0,90.55,130.0,4.0,29.41,10.0,32.68
2021-11-12 10:00:00,36.5,34.2,91.27,110.0,4.0,29.43,10.0,32.68
2021-11-12 11:00:00,36.5,33.8,89.83,110.0,3.0,29.44,10.0,33.83
2021-11-12 12:00:00,36.7,34.2,90.55,60.0,4.0,29.47,7.0,32.91
2021-11-12 13:00:00,37.0,34.3,90.2,0.0,0.0,29.51,10.0,36.9
2021-11-12 14:00:00,38.5,34.2,84.37,20.0,8.0,29.53,10.0,32.12
2021-11-12 15:00:00,39.2,33.6,80.15,10.0,7.0,29.57,10.0,33.56
2021-11-12 16:00:00,40.5,32.7,73.49,350.0,5.0,29.61,10.0,36.49
2021-11-12 17:00:00,41.0,33.0,72.66,340.0,8.0,29.62,10.0,35.2
2021-11-12 18:00:00,43.3,33.0,66.5,330.0,8.0,29.64,10.0,38.03
2021-11-12 19:00:00,43.0,32.0,64.88,320.0,8.0,29.67,10.0,37.66
2021-11-12 20:00:00,39.2,35.8,87.49,330.0,4.0,29.7,4.0,35.83
2021-11-12 21:00:00,40.0,33.4,76.77,320.0,5.0,29.72,10.0,36.01
2021-11-12 22:00:00,39.2,32.0,75.16,310.0,10.0,29.77,10.0,32.0
2021-11-12 23:00:00,38.0,31.1,76.26,300.0,6.0,29.8,10.0,32.64
2021-11-13 00:00:00,37.2,31.5,79.66,310.0,8.0,29.82,10.0,30.52
2021-11-13 01:00:00,36.5,32.0,83.56,310.0,6.0,29.84,10.0,30.95
2021-11-13 02:00:00,36.5,32.0,83.56,310.0,6.0,29.84,10.0,30.95
2021-11-13 03:00:00,35.8,29.8,78.58,320.0,7.0,29.87,10.0,29.41
2021-11-13 04:00:00,35.4,27.9,73.87,320.0,9.0,29.89,10.0,27.74
2021-11-13 05:00:00,35.0,27.5,73.54,300.0,7.0,29.91,10.0,28.56
2021-11-13 06:00:00,34.7,27.5,74.72,300.0,6.0,29.92,10.0,28.78
2021-11-13 07:00:00,34.3,25.9,71.06,320.0,4.0,29.93,10.0,30.11
2021-11-13 08:00:00,34.0,25.7,71.32,300.0,5.0,29.94,10.0,28.77
2021-11-13 09:00:00,33.8,26.1,73.1,290.0,5.0,29.94,10.0,28.53
2021-11-13 10:00:00,33.8,24.4,68.11,310.0,7.0,29.94,10.0,26.97
2021-11-13 11:00:00,33.8,23.9,66.7,320.0,6.0,29.95,10.0,27.7
2021-11-13 12:00:00,33.8,22.6,63.16,290.0,6.0,29.96,10.0,27.7
2021-11-13 13:00:00,33.0,23.5,67.46,300.0,4.0,29.96,10.0,28.7
2021-11-13 14:00:00,33.0,22.8,65.5,270.0,7.0,29.97,10.0,26.12
2021-11-13 15:00:00,33.3,20.7,59.46,330.0,6.0,29.97,10.0,27.1
2021-11-13 16:00:00,33.3,20.1,57.96,330.0,5.0,29.96,10.0,27.94
2021-11-13 17:00:00,33.8,20.5,57.79,300.0,6.0,29.94,10.0,27.7
2021-11-13 18:00:00,34.2,21.2,58.59,290.0,7.0,29.92,10.0,27.46
2021-11-13 19:00:00,33.8,22.6,63.16,250.0,4.0,29.89,10.0,29.52
2021-11-13 20:00:00,33.8,21.9,61.32,250.0,5.0,29.88,10.0,28.53
2021-11-13 21:00:00,33.8,23.0,64.23,180.0,4.0,29.85,10.0,29.52
2021-11-13 22:00:00,33.8,23.5,65.59,190.0,5.0,29.82,10.0,28.53
2021-11-13 23:00:00,33.0,24.8,71.8,160.0,3.0,29.82,10.0,29.72
2021-11-14 00:00:00,32.2,27.0,80.9,160.0,6.0,29.79,10.0,25.77
2021-11-14 01:00:00,32.0,28.0,84.98,150.0,5.0,29.78,3.0,26.4
2021-11-14 02:00:00,32.0,29.8,91.47,150.0,6.0,29.75,2.5,25.53
2021-11-14 03:00:00,32.0,30.2,92.97,100.0,4.0,29.7,1.25,27.42
2021-11-14 04:00:00,32.2,30.2,92.23,90.0,5.0,29.68,2.0,26.63
2021-11-14 05:00:00,32.0,30.0,92.22,80.0,5.0,29.66,5.0,26.4
2021-11-14 06:00:00,32.0,29.8,91.47,30.0,5.0,29.65,2.5,26.4
2021-11-14 07:00:00,32.0,29.7,91.1,10.0,8.0,29.67,3.0,24.11
2021-11-14 08:00:00,32.0,28.9,88.17,360.0,9.0,29.7,3.0,23.51
2021-11-14 09:00:00,31.8,28.4,87.09,340.0,9.0,29.72,3.0,23.27
2021-11-14 10:00:00,31.1,27.0,84.57,340.0,7.0,29.76,10.0,23.68
2021-11-14 11:00:00,30.9,26.6,83.87,330.0,5.0,29.8,7.0,25.09
2021-11-14 12:00:00,31.6,27.5,84.61,330.0,9.0,29.82,7.0,23.02
2021-11-14 13:00:00,31.1,26.6,83.19,330.0,4.0,29.86,5.0,26.37
2021-11-14 14:00:00,31.6,25.5,77.89,330.0,9.0,29.89,10.0,23.02
2021-11-14 15:00:00,32.2,24.1,71.72,350.0,13.0,29.91,10.0,21.82
2021-11-14 16:00:00,32.5,23.0,67.67,330.0,8.0,29.92,10.0,24.73
2021-11-14 17:00:00,33.3,22.5,64.16,340.0,7.0,29.91,10.0,26.36
2021-11-14 18:00:00,33.0,18.1,54.07,330.0,8.0,29.93,10.0,25.22
2021-11-14 19:00:00,32.5,20.1,59.85,300.0,8.0,29.95,10.0,24.73
2021-11-14 20:00:00,32.2,17.6,54.43,300.0,5.0,29.97,10.0,26.63
2021-11-14 21:00:00,32.0,17.4,54.4,320.0,7.0,29.98,10.0,24.78
2021-11-14 22:00:00,32.0,19.9,60.55,320.0,3.0,29.99,10.0,28.69
2021-11-14 23:00:00,31.8,19.2,59.25,0.0,0.0,30.0,10.0,31.8
2021-11-15 00:00:00,31.5,20.5,63.39,0.0,0.0,30.01,10.0,31.5
2021-11-15 01:00:00,30.9,18.9,60.66,0.0,0.0,30.01,10.0,30.9
2021-11-15 02:00:00,30.6,19.2,62.19,0.0,0.0,30.02,10.0,30.6
2021-11-15 03:00:00,30.6,19.2,62.19,0.0,0.0,30.02,10.0,30.6
2021-11-15 04:00:00,30.2,17.2,58.0,0.0,0.0,30.02,10.0,30.2
2021-11-15 05:00:00,29.8,18.1,61.29,20.0,4.0,30.03,10.0,24.85
2021-11-15 06:00:00,29.3,19.0,65.01,10.0,3.0,30.02,10.0,25.6
2021-11-15 07:00:00,29.7,17.1,58.94,0.0,0.0,30.03,10.0,29.7
2021-11-15 08:00:00,28.8,19.2,66.93,0.0,0.0,30.02,10.0,28.8
2021-11-15 09:00:00,28.4,20.1,70.69,0.0,0.0,30.02,10.0,28.4
2021-11-15 10:00:00,28.2,20.1,71.28,0.0,0.0,30.03,10.0,28.2
2021-11-15 11:00:00,26.1,19.9,77.06,0.0,0.0,30.03,10.0,26.1
2021-11-15 12:00:00,23.7,18.7,80.9,0.0,0.0,30.04,10.0,23.7
2021-11-15 13:00:00,25.2,19.4,78.31,0.0,0.0,30.06,10.0,25.2
2021-11-15 14:00:00,27.7,19.9,72.14,0.0,0.0,30.07,10.0,27.7
2021-11-15 15:00:00,31.5,16.7,53.85,70.0,3.0,30.08,10.0,28.12
2021-11-15 16:00:00,32.7,16.9,51.75,0.0,0.0,30.08,10.0,32.7
2021-11-15 17:00:00,34.0,17.4,50.2,0.0,0.0,30.06,10.0,34.0
2021-11-15 18:00:00,34.2,18.9,53.12,0.0,0.0,30.06,10.0,34.2
2021-11-15 19:00:00,34.7,19.6,53.65,0.0,0.0,30.06,10.0,34.7
2021-11-15 20:00:00,34.5,19.6,54.08,0.0,0.0,30.06,10.0,34.5
2021-11-15 21:00:00,34.5,19.6,54.08,0.0,0.0,30.07,10.0,34.5
2021-11-15 22:00:00,32.4,20.7,61.65,0.0,0.0,30.06,10.0,32.4
2021-11-15 23:00:00,30.2,22.8,73.64,0.0,0.0,30.07,10.0,30.2
2021-11-16 00:00:00,28.4,22.5,78.26,0.0,0.0,30.08,10.0,28.4
2021-11-16 01:00:00,27.5,21.9,79.18,0.0,0.0,30.08,10.0,27.5
2021-11-16 02:00:00,25.0,21.0,84.53,0.0,0.0,30.07,10.0,25.0
2021-11-16 03:00:00,25.0,21.6,86.7,0.0,0.0,30.07,10.0,25.0
2021-11-16 04:00:00,25.7,22.6,87.85,0.0,0.0,30.07,10.0,25.7
2021-11-16 05:00:00,28.4,23.2,80.6,90.0,4.0,30.06,10.0,23.22
2021-11-16 06:00:00,29.7,23.4,77.07,130.0,4.0,30.04,10.0,24.73
2021-11-16 07:00:00,29.8,22.8,74.85,120.0,4.0,30.03,10.0,24.85
2021-11-16 08:00:00,29.8,22.3,73.29,0.0,0.0,30.03,10.0,29.8
2021-11-16 09:00:00,31.1,22.8,71.0,130.0,6.0,30.02,10.0,24.45
2021-11-16 10:00:00,30.9,22.3,70.09,120.0,8.0,29.99,10.0,22.76
2021-11-16 11:00:00,30.9,21.9,68.91,120.0,5.0,29.98,10.0,25.09
2021-11-16 12:00:00,31.1,22.5,70.11,130.0,10.0,29.96,10.0,21.84
2021-11-16 13:00:00,31.8,22.6,68.44,110.0,12.0,29.92,10.0,21.75
2021-11-16 14:00:00,32.2,22.8,67.92,130.0,13.0,29.92,10.0,21.82
2021-11-16 15:00:00,33.3,22.8,64.98,120.0,19.0,29.87,10.0,21.16
2021-11-16 16:00:00,35.6,23.9,62.09,130.0,13.0,29.86,10.0,26.18
2021-11-16 17:00:00,37.0,24.8,61.23,120.0,19.0,29.78,10.0,25.92
2021-11-16 18:00:00,38.0,26.8,63.96,110.0,15.0,29.69,10.0,28.43
2021-11-16 19:00:00,38.5,28.0,65.64,130.0,18.0,29.67,10.0,28.31
2021-11-16 20:00:00,39.2,29.1,66.81,120.0,17.0,29.6,10.0,29.51
2021-11-16 21:00:00,40.0,30.9,69.41,130.0,14.0,29.59,10.0,31.6
2021-11-16 22:00:00,40.5,32.0,71.45,130.0,8.0,29.62,10.0,34.58
2021-11-16 23:00:00,41.0,33.0,72.66,120.0,9.0,29.61,10.0,34.7
2021-11-17 00:00:00,41.0,33.6,74.73,110.0,8.0,29.62,10.0,35.2
2021-11-17 01:00:00,41.4,34.2,75.37,120.0,6.0,29.62,10.0,36.85
2021-11-17 02:00:00,41.4,35.0,77.5,120.0,6.0,29.63,10.0,36.85
2021-11-17 03:00:00,42.0,35.6,77.56,120.0,5.0,29.63,10.0,38.39
2021-11-17 04:00:00,42.0,35.8,78.79,0.0,0.0,29.65,10.0,41.9
2021-11-17 05:00:00,40.8,36.0,83.19,0.0,0.0,29.68,10.0,40.8
2021-11-17 06:00:00,41.0,35.6,80.93,0.0,0.0,29.68,10.0,41.0
2021-11-17 07:00:00,36.0,32.7,87.32,0.0,0.0,29.69,7.0,36.1
2021-11-17 08:00:00,37.8,34.0,86.03,280.0,3.0,29.73,7.0,35.32
2021-11-17 09:00:00,36.5,33.3,88.05,250.0,4.0,29.74,7.0,32.68
2021-11-17 10:00:00,36.3,32.7,86.63,240.0,3.0,29.73,10.0,33.6
2021-11-17 11:00:00,37.4,32.4,81.96,260.0,4.0,29.75,10.0,33.73
2021-11-17 12:00:00,36.7,31.8,82.24,240.0,3.0,29.77,10.0,34.06
2021-11-17 13:00:00,38.3,30.0,71.79,250.0,5.0,29.79,10.0,33.88
2021-11-17 14:00:00,39.4,26.8,60.32,260.0,9.0,29.81,10.0,32.72
2021-11-17 15:00:00,39.4,26.8,60.32,260.0,9.0,29.81,10.0,32.72
2021-11-17 16:00:00,39.4,26.8,60.32,260.0,9.0,29.81,10.0,32.72
2021-11-17 17:00:00,39.4,26.8,60.32,260.0,9.0,29.81,10.0,32.72
2021-11-17 18:00:00,39.4,26.8,60.32,260.0,9.0,29.81,10.0,32.72
2021-11-17 19:00:00,39.4,26.8,60.32,260.0,9.0,29.81,10.0,32.72
2021-11-17 20:00:00,38.3,19.0,45.36,260.0,19.0,29.85,10.0,27.77
2021-11-17 21:00:00,37.4,20.8,50.74,260.0,13.0,29.87,10.0,28.49
2021-11-17 22:00:00,35.8,23.4,60.32,270.0,15.0,29.89,10.0,25.71
2021-11-17 23:00:00,36.0,22.1,56.66,250.0,14.0,29.9,10.0,26.32
2021-11-18 00:00:00,35.0,23.5,62.28,250.0,15.0,29.91,10.0,24.8
2021-11-18 01:00:00,34.7,23.0,61.96,250.0,11.0,29.92,10.0,25.88
2021-11-18 02:00:00,33.3,21.2,60.73,250.0,10.0,29.93,10.0,24.6
2021-11-18 03:00:00,33.0,21.2,61.22,250.0,10.0,29.94,10.0,24.35
2021-11-18 04:00:00,32.7,21.6,63.28,250.0,10.0,29.94,10.0,23.85
2021-11-18 05:00:00,32.5,20.8,61.66,260.0,15.0,29.94,10.0,21.43
2021-11-18 06:00:00,32.0,21.2,63.99,250.0,14.0,29.94,10.0,21.16
2021-11-18 07:00:00,32.0,22.5,67.61,260.0,12.0,29.94,10.0,22.0
2021-11-18 08:00:00,31.5,23.2,71.04,260.0,9.0,29.94,10.0,22.89
2021-11-18 09:00:00,30.9,22.6,70.98,260.0,11.0,29.95,10.0,21.08
2021-11-18 10:00:00,30.9,19.9,63.31,280.0,10.0,29.96,10.0,21.59
2021-11-18 11:00:00,30.2,20.7,67.39,270.0,13.0,29.97,10.0,19.26
2021-11-18 12:00:00,30.2,17.4,58.51,280.0,13.0,29.99,10.0,19.26
2021-11-18 13:00:00,29.8,19.0,63.7,260.0,13.0,30.02,10.0,18.75
2021-11-18 14:00:00,29.5,20.8,69.63,270.0,11.0,30.04,7.0,19.31
2021-11-18 15:00:00,30.2,19.9,65.13,280.0,12.0,30.06,7.0,19.71
2021-11-18 16:00:00,31.6,15.8,51.58,290.0,15.0,30.09,10.0,20.26
2021-11-18 17:00:00,31.5,18.5,58.2,270.0,10.0,30.1,10.0,22.34
2021-11-18 18:00:00,32.0,16.5,52.32,290.0,15.0,30.12,10.0,20.78
2021-11-18 19:00:00,31.3,23.0,71.02,280.0,11.0,30.14,2.5,21.58
2021-11-18 20:00:00,32.5,16.5,51.28,290.0,9.0,30.17,10.0,24.14
2021-11-18 21:00:00,32.4,19.4,58.33,290.0,9.0,30.2,10.0,24.01
2021-11-18 22:00:00,33.0,18.1,54.07,290.0,9.0,30.23,10.0,24.63
2021-11-18 23:00:00,32.5,17.6,53.77,280.0,8.0,30.26,10.0,24.73
2021-11-19 00:00:00,33.0,16.7,50.9,290.0,9.0,30.29,10.0,24.63
2021-11-19 01:00:00,32.5,17.8,54.24,300.0,5.0,30.31,10.0,26.99
2021-11-19 02:00:00,32.0,17.1,53.7,290.0,9.0,30.32,10.0,23.51
2021-11-19 03:00:00,31.1,16.3,53.79,290.0,7.0,30.33,10.0,23.68
2021-11-19 04:00:00,31.1,16.3,53.79,290.0,7.0,30.33,10.0,23.68
2021-11-19 05:00:00,25.5,19.4,77.34,260.0,3.0,30.36,10.0,21.26
2021-11-19 06:00:00,25.5,19.4,77.34,260.0,3.0,30.36,10.0,21.26
2021-11-19 07:00:00,25.5,19.4,77.34,260.0,3.0,30.36,10.0,21.26
2021-11-19 08:00:00,20.3,16.0,83.12,0.0,0.0,30.37,10.0,20.3
2021-11-19 09:00:00,19.4,15.4,84.15,0.0,0.0,30.38,10.0,19.4
2021-11-19 10:00:00,18.5,15.3,87.08,0.0,0.0,30.36,10.0,18.5
2021-11-19 11:00:00,20.8,17.2,85.71,0.0,0.0,30.36,10.0,20.8
2021-11-19 12:00:00,22.5,18.5,84.36,160.0,4.0,30.35,10.0,16.33
2021-11-19 13:00:00,24.1,19.8,83.39,150.0,4.0,30.36,10.0,18.19
2021-11-19 14:00:00,26.1,20.7,79.73,140.0,7.0,30.34,10.0,17.59
2021-11-19 15:00:00,29.5,21.2,70.82,150.0,10.0,30.33,10.0,19.83
2021-11-19 16:00:00,32.2,19.6,59.3,150.0,11.0,30.3,10.0,22.72
2021-11-19 17:00:00,33.6,17.8,51.9,140.0,11.0,30.26,10.0,24.49
2021-11-19 18:00:00,34.7,18.3,50.75,140.0,10.0,30.22,10.0,26.35
2021-11-19 19:00:00,36.5,18.1,46.85,130.0,14.0,30.16,10.0,26.96
2021-11-19 20:00:00,37.6,17.8,44.28,150.0,14.0,30.14,10.0,28.38
2021-11-19 21:00:00,36.5,18.3,47.25,140.0,12.0,30.12,10.0,27.73
2021-11-19 22:00:00,34.3,19.0,53.13,140.0,12.0,30.1,10.0,24.93
2021-11-19 23:00:00,33.0,19.4,56.71,140.0,8.0,30.09,10.0,25.47
2021-11-20 00:00:00,32.0,19.8,60.29,140.0,8.0,30.1,10.0,24.11
2021-11-20 01:00:00,32.0,20.1,61.07,140.0,10.0,30.08,10.0,22.97
2021-11-20 02:00:00,33.0,19.8,57.69,150.0,10.0,30.07,10.0,24.35
2021-11-20 03:00:00,32.5,19.8,59.09,140.0,10.0,30.05,10.0,23.6
2021-11-20 04:00:00,32.2,20.3,61.1,130.0,7.0,30.03,10.0,25.02
2021-11-20 05:00:00,31.8,20.8,63.43,130.0,5.0,30.02,10.0,26.16
2021-11-20 06:00:00,32.0,21.6,65.09,130.0,6.0,30.0,10.0,25.53
2021-11-20 07:00:00,31.5,22.5,68.98,100.0,4.0,29.99,10.0,26.84
2021-11-20 08:00:00,32.0,23.0,69.04,110.0,3.0,29.99,10.0,28.69
2021-11-20 09:00:00,32.4,23.0,67.94,120.0,3.0,29.97,10.0,29.15
2021-11-20 10:00:00,32.0,23.5,70.51,0.0,0.0,29.98,10.0,32.0
2021-11-20 11:00:00,30.2,23.0,74.26,0.0,0.0,29.97,10.0,30.2
2021-11-20 12:00:00,29.8,23.5,77.08,0.0,0.0,29.98,10.0,29.8
2021-11-20 13:00:00,29.8,23.9,78.38,0.0,0.0,30.0,10.0,29.8
2021-11-20 14:00:00,34.7,25.5,68.79,0.0,0.0,30.02,10.0,34.7
2021-11-20 15:00:00,38.0,26.6,63.44,260.0,3.0,30.03,10.0,35.43
2021-11-20 16:00:00,41.5,26.6,55.14,290.0,5.0,30.04,10.0,37.68
2021-11-20 17:00:00,42.0,25.7,52.31,280.0,7.0,30.06,10.0,36.85
2021-11-20 18:00:00,43.3,25.5,49.16,290.0,6.0,30.07,10.0,39.14
2021-11-20 19:00:00,43.0,25.0,48.7,280.0,5.0,30.09,10.0,39.46
2021-11-20 20:00:00,44.0,21.6,40.8,290.0,7.0,30.1,10.0,39.28
2021-11-20 21:00:00,42.4,22.3,44.51,0.0,0.0,30.12,10.0,42.4
2021-11-20 22:00:00,37.6,21.2,51.21,0.0,0.0,30.14,10.0,37.6
2021-11-20 23:00:00,32.0,22.1,66.48,0.0,0.0,30.15,10.0,32.0
2021-11-21 00:00:00,28.8,23.7,80.97,0.0,0.0,30.16,10.0,28.8
2021-11-21 01:00:00,26.6,22.1,82.87,0.0,0.0,30.16,10.0,26.6
2021-11-21 02:00:00,26.2,22.5,85.68,0.0,0.0,30.16,10.0,26.2
2021-11-21 03:00:00,26.2,23.0,87.5,0.0,0.0,30.16,10.0,26.2
2021-11-21 04:00:00,26.2,23.0,87.5,0.0,0.0,30.15,10.0,26.2
2021-11-21 05:00:00,26.2,23.0,87.5,0.0,0.0,30.14,10.0,26.2
2021-11-21 06:00:00,25.3,21.9,86.72,0.0,0.0,30.13,10.0,25.3
2021-11-21 07:00:00,24.8,21.9,88.54,0.0,0.0,30.11,10.0,24.8
2021-11-21 08:00:00,27.3,23.9,86.83,0.0,0.0,30.09,10.0,27.3
2021-11-21 09:00:00,28.4,24.8,86.18,0.0,0.0,30.06,10.0,28.4
2021-11-21 10:00:00,28.9,25.2,85.85,0.0,0.0,30.03,10.0,28.9
2021-11-21 11:00:00,30.9,25.7,80.8,0.0,0.0,30.0,10.0,30.9
2021-11-21 12:00:00,32.2,26.8,80.23,140.0,3.0,29.96,10.0,28.92
2021-11-21 13:00:00,34.7,25.9,69.94,210.0,5.0,29.93,10.0,29.6
2021-11-21 14:00:00,37.0,28.2,70.2,250.0,9.0,29.93,10.0,29.73
2021-11-21 15:00:00,38.0,29.1,70.3,270.0,11.0,29.92,10.0,29.92
2021-11-21 16:00:00,35.0,27.7,74.74,300.0,11.0,29.97,5.0,26.13
2021-11-21 17:00:00,35.2,14.0,41.28,290.0,22.0,30.0,10.0,22.86
2021-11-21 18:00:00,33.0,11.5,40.2,290.0,19.0,30.03,10.0,20.89
2021-11-21 19:00:00,33.0,9.0,35.96,300.0,15.0,30.05,10.0,22.21
2021-11-21 20:00:00,32.0,5.5,32.08,300.0,16.0,30.07,10.0,20.42
2021-11-21 21:00:00,30.2,6.6,36.27,280.0,16.0,30.1,10.0,18.07
2021-11-21 22:00:00,28.9,7.7,40.2,280.0,17.0,30.13,10.0,16.01
2021-11-21 23:00:00,28.0,9.3,44.83,280.0,16.0,30.15,10.0,15.2
2021-11-22 00:00:00,26.6,11.3,51.92,280.0,12.0,30.16,10.0,15.13
2021-11-22 01:00:00,25.7,12.2,56.08,280.0,14.0,30.17,10.0,13.04
2021-11-22 02:00:00,23.9,12.2,60.45,270.0,8.0,30.18,10.0,14.14
2021-11-22 03:00:00,22.6,12.0,63.28,270.0,7.0,30.19,10.0,13.32
2021-11-22 04:00:00,21.2,12.2,67.73,280.0,7.0,30.2,10.0,11.61
2021-11-22 05:00:00,20.3,11.7,68.83,260.0,8.0,30.2,10.0,9.7
2021-11-22 06:00:00,19.4,10.8,68.72,270.0,6.0,30.2,10.0,10.36
2021-11-22 07:00:00,18.1,8.6,65.85,270.0,5.0,30.19,10.0,9.89
2021-11-22 08:00:00,17.6,7.3,63.45,260.0,7.0,30.19,10.0,7.23
2021-11-22 09:00:00,17.1,6.6,62.8,270.0,7.0,30.18,10.0,6.62
2021-11-22 10:00:00,16.2,7.3,67.41,270.0,5.0,30.18,10.0,7.63
2021-11-22 11:00:00,15.8,8.0,70.47,260.0,4.0,30.19,10.0,8.5
2021-11-22 12:00:00,16.2,8.6,71.48,270.0,4.0,30.19,10.0,8.97
2021-11-22 13:00:00,18.0,9.7,69.48,290.0,7.0,30.19,10.0,7.71
2021-11-22 14:00:00,19.4,8.8,62.84,280.0,7.0,30.2,10.0,9.42
2021-11-22 15:00:00,22.1,10.0,59.13,280.0,7.0,30.2,10.0,12.71
2021-11-22 16:00:00,24.8,7.2,46.55,280.0,7.0,30.2,10.0,16.0
2021-11-22 17:00:00,27.3,6.0,39.92,290.0,9.0,30.19,10.0,17.67
2021-11-22 18:00:00,28.8,6.4,38.06,250.0,7.0,30.16,10.0,20.88
2021-11-22 19:00:00,29.5,4.8,34.38,280.0,5.0,30.15,10.0,23.43
2021-11-22 20:00:00,30.4,3.0,30.51,260.0,8.0,30.15,10.0,22.14
2021-11-22 21:00:00,30.2,4.8,33.41,260.0,6.0,30.15,10.0,23.36
2021-11-22 22:00:00,29.8,9.3,41.64,240.0,5.0,30.16,10.0,23.78
2021-11-22 23:00:00,29.3,10.9,45.65,250.0,3.0,30.14,10.0,25.6
2021-11-23 00:00:00,29.3,12.0,47.94,240.0,3.0,30.14,10.0,25.6
2021-11-23 01:00:00,29.3,11.7,47.3,230.0,3.0,30.15,10.0,25.6
2021-11-23 02:00:00,28.0,11.3,49.01,0.0,0.0,30.15,10.0,28.0
2021-11-23 03:00:00,23.2,11.3,59.82,110.0,3.0,30.14,10.0,18.63
2021-11-23 04:00:00,22.5,12.6,65.26,0.0,0.0,30.12,10.0,22.5
2021-11-23 05:00:00,22.3,12.9,66.68,0.0,0.0,30.12,10.0,22.3
2021-11-23 06:00:00,22.5,12.4,64.68,100.0,3.0,30.11,10.0,17.83
2021-11-23 07:00:00,22.3,12.2,64.66,120.0,3.0,30.1,10.0,17.6
2021-11-23 08:00:00,22.8,13.8,67.93,120.0,4.0,30.07,10.0,16.68
2021-11-23 09:00:00,23.5,14.0,66.54,120.0,4.0,30.06,10.0,17.49
2021-11-23 10:00:00,23.9,14.4,66.6,120.0,6.0,30.03,10.0,15.77
2021-11-23 11:00:00,23.7,14.9,68.64,130.0,6.0,30.02,10.0,15.53
2021-11-23 12:00:00,24.1,14.9,67.5,120.0,5.0,30.0,10.0,17.01
2021-11-23 13:00:00,24.6,15.8,68.75,130.0,6.0,29.99,10.0,16.62
2021-11-23 14:00:00,28.9,16.3,58.83,140.0,7.0,29.98,10.0,21.0
2021-11-23 15:00:00,33.8,17.6,51.04,150.0,9.0,29.96,10.0,25.75
2021-11-23 16:00:00,39.4,19.4,44.2,160.0,10.0,29.92,10.0,32.25
2021-11-23 17:00:00,44.6,21.2,39.06,170.0,12.0,29.87,10.0,38.04
2021-11-23 18:00:00,47.0,21.2,35.53,170.0,15.0,29.83,10.0,40.36
2021-11-23 19:00:00,49.6,21.2,32.35,160.0,17.0,29.79,10.0,43.13
2021-11-23 20:00:00,48.7,21.7,34.17,150.0,13.0,29.76,10.0,42.96
2021-11-23 21:00:00,47.7,22.1,36.08,150.0,11.0,29.72,10.0,42.31
2021-11-23 22:00:00,44.0,22.1,41.35,130.0,9.0,29.71,10.0,38.56
2021-11-23 23:00:00,42.3,22.3,44.68,140.0,10.0,29.69,10.0,35.88
2021-11-24 00:00:00,42.3,22.8,45.63,140.0,11.0,29.69,10.0,35.48
2021-11-24 01:00:00,41.0,23.0,48.39,140.0,7.0,29.68,10.0,35.75
2021-11-24 02:00:00,38.5,23.0,53.33,130.0,6.0,29.67,10.0,33.36
2021-11-24 03:00:00,39.2,23.4,52.77,120.0,9.0,29.66,10.0,32.47
2021-11-24 04:00:00,39.4,23.9,53.47,120.0,8.0,29.65,10.0,33.23
2021-11-24 05:00:00,38.7,24.8,57.05,120.0,7.0,29.63,10.0,32.95
2021-11-24 06:00:00,38.3,25.9,60.67,110.0,6.0,29.61,10.0,33.12
2021-11-24 07:00:00,38.0,27.1,64.76,120.0,5.0,29.6,10.0,33.4
2021-11-24 08:00:00,37.4,27.5,67.14,110.0,3.0,29.6,10.0,34.86
2021-11-24 09:00:00,38.8,28.9,67.31,110.0,4.0,29.59,10.0,35.36
2021-11-24 10:00:00,39.7,30.0,67.97,110.0,5.0,29.6,10.0,35.54
2021-11-24 11:00:00,40.3,30.2,66.95,120.0,6.0,29.61,10.0,35.53
2021-11-24 12:00:00,41.4,30.7,65.47,120.0,5.0,29.61,10.0,37.56
2021-11-24 13:00:00,41.7,31.3,66.31,130.0,5.0,29.62,10.0,37.92
2021-11-24 14:00:00,43.5,32.0,63.65,90.0,4.0,29.65,10.0,40.85
2021-11-24 15:00:00,46.0,32.2,58.56,100.0,4.0,29.67,10.0,43.65
2021-11-24 16:00:00,48.6,33.4,55.51,120.0,3.0,29.69,10.0,47.67
2021-11-24 17:00:00,50.7,34.7,54.07,260.0,4.0,29.7,10.0,50.7
2021-11-24 18:00:00,52.0,34.5,51.13,290.0,5.0,29.73,10.0,52.0
2021-11-24 19:00:00,52.3,33.8,49.17,330.0,9.0,29.76,10.0,52.3
2021-11-24 20:00:00,49.0,32.2,52.31,330.0,9.0,29.82,10.0,44.53
2021-11-24 21:00:00,45.3,29.3,53.26,310.0,7.0,29.89,10.0,40.99
2021-11-24 22:00:00,38.8,27.5,63.56,330.0,7.0,29.94,10.0,33.07
2021-11-24 23:00:00,35.6,27.3,71.5,330.0,8.0,30.0,10.0,28.55
2021-11-25 00:00:00,34.7,27.1,73.49,340.0,11.0,30.04,10.0,25.88
2021-11-25 01:00:00,34.2,27.0,74.67,350.0,11.0,30.06,10.0,25.25
2021-11-25 02:00:00,34.0,27.0,75.26,340.0,7.0,30.1,10.0,27.22
2021-11-25 03:00:00,33.8,25.7,71.9,340.0,10.0,30.11,10.0,25.23
2021-11-25 04:00:00,33.4,25.5,72.45,340.0,10.0,30.13,10.0,24.72
2021-11-25 05:00:00,33.0,25.7,73.94,330.0,6.0,30.14,10.0,26.86
2021-11-25 06:00:00,30.6,26.1,83.15,300.0,8.0,30.16,7.0,22.39
2021-11-25 07:00:00,29.1,24.8,83.74,290.0,8.0,30.18,5.0,20.54
2021-11-25 08:00:00,27.1,23.0,84.31,320.0,9.0,30.21,7.0,17.42
2021-11-25 09:00:00,25.7,20.8,81.41,310.0,11.0,30.22,10.0,14.5
2021-11-25 10:00:00,24.6,17.6,74.32,320.0,8.0,30.25,10.0,15.0
2021-11-25 11:00:00,23.0,16.0,74.15,320.0,10.0,30.26,7.0,11.68
2021-11-25 12:00:00,20.7,11.1,65.89,320.0,8.0,30.29,10.0,10.19
2021-11-25 13:00:00,18.7,8.4,63.6,310.0,8.0,30.32,10.0,7.73
2021-11-25 14:00:00,17.6,6.8,62.02,340.0,11.0,30.32,10.0,4.27
2021-11-25 15:00:00,18.5,4.8,54.47,340.0,11.0,30.33,10.0,5.41
2021-11-25 16:00:00,21.2,1.0,40.72,340.0,11.0,30.33,10.0,8.82
2021-11-25 17:00:00,22.8,0.3,36.83,300.0,9.0,30.33,10.0,12.07
2021-11-25 18:00:00,23.7,-2.4,31.23,340.0,8.0,30.31,10.0,13.89
2021-11-25 19:00:00,23.9,-3.3,29.67,330.0,8.0,30.31,10.0,14.14
2021-11-25 20:00:00,24.4,-3.8,28.37,330.0,9.0,30.31,10.0,14.06
2021-11-25 21:00:00,23.4,-3.3,30.3,290.0,9.0,30.31,10.0,12.82
2021-11-25 22:00:00,21.2,-3.0,33.56,310.0,4.0,30.33,10.0,14.81
2021-11-25 23:00:00,18.5,-0.2,43.19,290.0,4.0,30.33,10.0,11.66
2021-11-26 00:00:00,17.6,-0.8,43.65,0.0,0.0,30.33,10.0,17.6
2021-11-26 01:00:00,15.3,2.8,57.05,0.0,0.0,30.32,10.0,15.3
2021-11-26 02:00:00,14.5,1.9,56.66,0.0,0.0,30.31,10.0,14.5
2021-11-26 03:00:00,14.0,3.4,62.08,0.0,0.0,30.28,10.0,14.0
2021-11-26 04:00:00,12.6,4.0,67.56,0.0,0.0,30.29,10.0,12.6
2021-11-26 05:00:00,11.1,4.0,72.87,0.0,0.0,30.28,10.0,11.1
2021-11-26 06:00:00,13.5,7.7,77.22,0.0,0.0,30.26,10.0,13.5
2021-11-26 07:00:00,15.6,6.6,67.02,0.0,0.0,30.25,10.0,15.6
2021-11-26 08:00:00,17.2,9.1,70.01,0.0,0.0,30.23,10.0,17.2
2021-11-26 09:00:00,17.8,9.0,67.91,130.0,3.0,30.2,10.0,12.46
2021-11-26 10:00:00,18.5,7.3,61.04,140.0,4.0,30.2,10.0,11.66
2021-11-26 11:00:00,19.4,6.6,56.89,150.0,6.0,30.17,10.0,10.36
2021-11-26 12:00:00,19.8,6.0,54.67,160.0,6.0,30.17,10.0,10.84
2021-11-26 13:00:00,20.7,6.0,52.14,130.0,9.0,30.14,10.0,9.46
2021-11-26 14:00:00,21.9,4.5,46.48,120.0,7.0,30.14,10.0,12.47
2021-11-26 15:00:00,23.5,5.2,44.87,110.0,9.0,30.11,10.0,12.94
2021-11-26 16:00:00,25.3,4.0,39.21,120.0,8.0,30.09,10.0,15.86
2021-11-26 17:00:00,26.6,2.8,35.32,120.0,12.0,30.05,10.0,15.13
2021-11-26 18:00:00,29.7,3.4,31.97,130.0,10.0,30.0,10.0,20.08
2021-11-26 19:00:00,30.7,2.8,29.86,120.0,9.0,29.98,10.0,21.9
2021-11-26 20:00:00,31.8,2.8,28.56,130.0,10.0,29.96,10.0,22.72
2021-11-26 21:00:00,30.2,2.5,30.05,130.0,8.0,29.94,10.0,21.9
2021-11-26 22:00:00,30.0,2.8,30.72,130.0,9.0,29.93,10.0,21.03
2021-11-26 23:00:00,29.7,3.2,31.68,130.0,9.0,29.92,10.0,20.65
2021-11-27 00:00:00,29.7,4.3,33.33,140.0,10.0,29.92,10.0,20.08
2021-11-27 01:00:00,29.8,5.2,34.59,120.0,5.0,29.92,10.0,23.78
2021-11-27 02:00:00,29.3,6.3,37.12,130.0,8.0,29.9,10.0,20.79
2021-11-27 03:00:00,28.9,6.4,37.9,130.0,8.0,29.88,10.0,20.29
2021-11-27 04:00:00,28.8,6.8,38.75,130.0,9.0,29.87,10.0,19.53
2021-11-27 05:00:00,29.1,8.2,40.78,120.0,8.0,29.85,10.0,20.54
2021-11-27 06:00:00,29.3,9.0,41.93,130.0,8.0,29.83,10.0,20.79
2021-11-27 07:00:00,29.5,9.5,42.54,110.0,7.0,29.82,10.0,21.73
2021-11-27 08:00:00,29.8,9.5,42.02,120.0,8.0,29.8,10.0,21.4
2021-11-27 09:00:00,29.8,10.6,44.14,130.0,6.0,29.79,10.0,22.88
2021-11-27 10:00:00,29.8,11.1,45.13,100.0,6.0,29.78,10.0,22.88
2021-11-27 11:00:00,29.8,11.8,46.55,100.0,3.0,29.8,10.0,26.17
2021-11-27 12:00:00,29.3,12.9,49.88,80.0,4.0,29.8,10.0,24.27
2021-11-27 13:00:00,29.7,13.5,50.38,100.0,3.0,29.79,10.0,26.06
2021-11-27 14:00:00,30.7,13.8,49.02,70.0,4.0,29.8,10.0,25.9
2021-11-27 15:00:00,31.6,13.1,45.83,0.0,0.0,29.82,10.0,31.6
2021-11-27 16:00:00,33.0,13.8,44.86,350.0,4.0,29.84,10.0,28.47
2021-11-27 17:00:00,33.0,13.8,44.86,350.0,4.0,29.84,10.0,28.47
2021-11-27 18:00:00,37.6,15.1,39.39,330.0,6.0,29.84,10.0,32.27
2021-11-27 19:00:00,37.6,15.4,39.91,330.0,7.0,29.86,10.0,31.61
2021-11-27 20:00:00,37.0,15.6,41.39,290.0,9.0,29.88,10.0,29.61
2021-11-27 21:00:00,36.5,16.7,44.1,300.0,5.0,29.91,10.0,31.74
2021-11-27 22:00:00,35.8,17.4,46.73,290.0,3.0,29.93,10.0,33.03
2021-11-27 23:00:00,32.2,18.0,55.37,280.0,3.0,29.95,10.0,28.92
2021-11-28 00:00:00,31.8,18.7,57.99,270.0,3.0,29.95,10.0,28.46
2021-11-28 01:00:00,31.5,18.7,58.7,240.0,3.0,29.95,10.0,28.12
2021-11-28 02:00:00,30.2,21.0,68.25,280.0,4.0,29.96,10.0,25.32
2021-11-28 03:00:00,34.0,24.4,67.57,280.0,7.0,29.96,10.0,27.22
2021-11-28 04:00:00,33.4,23.9,67.78,280.0,9.0,29.97,10.0,25.25
2021-11-28 05:00:00,32.7,23.9,69.71,280.0,10.0,29.98,10.0,23.85
2021-11-28 06:00:00,32.0,22.5,67.61,280.0,10.0,29.99,10.0,22.97
2021-11-28 07:00:00,31.8,20.7,63.16,290.0,15.0,30.0,10.0,20.52
2021-11-28 08:00:00,30.9,18.5,59.63,290.0,12.0,30.02,10.0,20.6
2021-11-28 09:00:00,30.0,16.5,56.73,300.0,11.0,30.03,10.0,19.94
2021-11-28 10:00:00,29.1,14.4,53.71,290.0,10.0,30.04,10.0,19.33
2021-11-28 11:00:00,29.1,14.4,53.71,290.0,10.0,30.04,10.0,19.33
2021-11-28 12:00:00,25.5,13.6,60.15,270.0,4.0,30.06,10.0,19.83
2021-11-28 13:00:00,25.5,14.5,62.57,270.0,4.0,30.08,10.0,19.83
2021-11-28 14:00:00,28.4,15.6,58.24,270.0,6.0,30.1,10.0,21.19
2021-11-28 15:00:00,31.8,14.7,48.77,290.0,9.0,30.09,10.0,23.27
2021-11-28 16:00:00,34.2,14.4,43.72,290.0,8.0,30.09,10.0,26.82
2021-11-28 17:00:00,35.0,12.7,39.45,300.0,9.0,30.08,10.0,27.12
2021-11-28 18:00:00,36.0,13.1,38.29,280.0,9.0,30.08,10.0,28.61
2021-11-28 19:00:00,36.7,13.8,38.56,250.0,7.0,30.07,10.0,30.51
2021-11-28 20:00:00,36.5,11.1,34.5,280.0,9.0,30.06,10.0,29.11
2021-11-28 21:00:00,34.7,14.4,42.85,270.0,7.0,30.08,10.0,28.07
2021-11-28 22:00:00,32.0,14.0,46.92,270.0,3.0,30.08,10.0,28.69
2021-11-28 23:00:00,31.6,15.8,51.58,0.0,0.0,30.08,10.0,31.6
2021-11-29 00:00:00,30.7,15.3,52.34,0.0,0.0,30.06,10.0,30.7
2021-11-29 01:00:00,28.6,18.9,66.61,0.0,0.0,30.07,10.0,28.6
2021-11-29 02:00:00,30.0,15.1,53.38,0.0,0.0,30.07,10.0,30.0
2021-11-29 03:00:00,28.0,18.3,66.54,0.0,0.0,30.06,10.0,28.0
2021-11-29 04:00:00,26.6,18.5,71.1,0.0,0.0,30.03,10.0,26.6
2021-11-29 05:00:00,26.4,18.0,70.16,0.0,0.0,30.03,10.0,26.4
2021-11-29 06:00:00,26.2,19.4,75.12,0.0,0.0,30.03,10.0,26.2
2021-11-29 07:00:00,28.2,18.1,65.43,120.0,3.0,30.0,10.0,24.34
2021-11-29 08:00:00,29.8,17.2,58.96,120.0,3.0,29.98,10.0,26.17
2021-11-29 09:00:00,30.0,17.1,58.23,110.0,4.0,29.95,10.0,25.08
2021-11-29 10:00:00,31.5,15.1,50.23,120.0,8.0,29.92,10.0,23.5
2021-11-29 11:00:00,32.5,12.9,43.81,110.0,8.0,29.89,10.0,24.73
2021-11-29 12:00:00,33.3,13.6,43.76,120.0,11.0,29.87,10.0,24.11
2021-11-29 13:00:00,34.3,12.7,40.41,110.0,12.0,29.84,10.0,24.93
2021-11-29 14:00:00,35.8,12.0,36.91,130.0,13.0,29.81,10.0,26.44
2021-11-29 15:00:00,37.0,13.1,37.1,130.0,11.0,29.78,10.0,28.66
2021-11-29 16:00:00,38.5,14.9,37.7,140.0,9.0,29.77,10.0,31.6
2021-11-29 17:00:00,39.6,16.7,39.05,150.0,9.0,29.71,10.0,32.96
2021-11-29 18:00:00,42.0,19.0,39.44,190.0,4.0,29.71,10.0,38.98
2021-11-29 19:00:00,42.4,21.0,42.13,220.0,4.0,29.7,10.0,39.56
2021-11-29 20:00:00,42.3,21.2,42.65,0.0,0.0,29.7,10.0,42.3
2021-11-29 21:00:00,41.2,21.7,45.45,0.0,0.0,29.72,10.0,41.2
2021-11-29 22:00:00,35.2,22.5,59.48,0.0,0.0,29.74,10.0,35.2
2021-11-29 23:00:00,35.0,22.5,60.19,0.0,0.0,29.79,10.0,34.9
2021-11-30 00:00:00,35.0,23.2,61.99,0.0,0.0,29.8,10.0,34.9
2021-11-30 01:00:00,34.0,21.9,60.83,0.0,0.0,29.84,10.0,34.0
2021-11-30 02:00:00,33.0,21.0,60.71,320.0,3.0,29.85,10.0,29.95
2021-11-30 03:00:00,32.5,21.6,63.79,320.0,3.0,29.87,10.0,29.26
2021-11-30 04:00:00,31.8,22.3,67.58,290.0,3.0,29.9,10.0,28.46
2021-11-30 05:00:00,29.5,22.3,74.19,0.0,0.0,29.91,10.0,29.5
2021-11-30 06:00:00,28.4,22.1,76.95,270.0,3.0,29.92,10.0,24.57
2021-11-30 07:00:00,28.9,21.6,73.82,0.0,0.0,29.93,10.0,28.9
2021-11-30 08:00:00,25.2,20.3,81.37,280.0,3.0,29.95,10.0,20.91
2021-11-30 09:00:00,28.0,23.0,81.25,250.0,4.0,29.95,10.0,22.75
2021-11-30 10:00:00,28.4,24.4,84.75,250.0,5.0,29.94,10.0,22.12
2021-11-30 11:00:00,28.9,25.7,87.65,270.0,4.0,29.96,10.0,23.8
2021-11-30 12:00:00,28.6,25.7,88.73,260.0,4.0,29.99,10.0,23.45
2021-11-30 13:00:00,31.1,28.0,88.13,290.0,4.0,30.01,10.0,26.37
2021-11-30 14:00:00,36.0,29.8,77.96,310.0,7.0,30.04,10.0,29.65
2021-11-30 15:00:00,38.5,29.1,68.67,310.0,6.0,30.06,10.0,33.36
2021-11-30 16:00:00,39.2,26.6,60.29,300.0,7.0,30.09,10.0,33.56
2021-11-30 17:00:00,40.3,24.8,53.61,290.0,9.0,30.08,10.0,33.83
2021-11-30 18:00:00,41.5,22.5,46.47,310.0,8.0,30.07,10.0,35.82
2021-11-30 19:00:00,43.2,17.6,35.33,300.0,8.0,30.06,10.0,37.91
2021-11-30 20:00:00,42.0,14.4,32.07,300.0,5.0,30.06,10.0,38.39
2021-11-30 21:00:00,39.7,14.7,35.66,270.0,4.0,30.06,10.0,36.41
2021-11-30 22:00:00,36.0,16.5,44.42,0.0,0.0,30.04,10.0,36.1
2021-11-30 23:00:00,32.2,21.4,64.02,0.0,0.0,30.06,10.0,32.2
2021-12-01 00:00:00,32.2,20.7,62.15,0.0,0.0,30.04,10.0,32.2
2021-12-01 01:00:00,31.6,21.4,65.59,0.0,0.0,30.03,10.0,31.6
2021-12-01 02:00:00,31.6,23.0,70.17,140.0,3.0,30.01,10.0,28.23
2021-12-01 03:00:00,33.4,19.9,57.24,120.0,3.0,29.99,10.0,30.29
2021-12-01 04:00:00,33.8,22.5,62.89,0.0,0.0,29.99,10.0,33.8
2021-12-01 05:00:00,33.6,23.5,66.12,150.0,4.0,29.97,10.0,29.29
2021-12-01 06:00:00,35.0,22.8,60.96,150.0,5.0,29.94,10.0,29.84
2021-12-01 07:00:00,35.0,24.1,63.86,150.0,9.0,29.91,7.0,27.37
2021-12-01 08:00:00,33.8,30.2,86.49,150.0,8.0,29.88,2.5,26.33
2021-12-01 09:00:00,33.6,31.6,92.27,140.0,7.0,29.86,4.0,26.73
2021-12-01 10:00:00,34.3,32.2,91.93,120.0,8.0,29.83,3.0,26.95
2021-12-01 11:00:00,35.0,33.0,92.32,140.0,7.0,29.8,5.0,28.56
2021-12-01 12:00:00,36.0,33.8,91.62,150.0,8.0,29.77,10.0,29.04
2021-12-01 13:00:00,36.5,34.2,91.27,150.0,6.0,29.75,10.0,30.95
2021-12-01 14:00:00,37.0,34.7,91.65,170.0,6.0,29.76,10.0,31.43
2021-12-01 15:00:00,37.6,35.6,92.41,200.0,5.0,29.76,7.0,33.05
2021-12-01 16:00:00,38.5,36.5,92.44,180.0,6.0,29.72,5.0,33.36
2021-12-01 17:00:00,39.6,37.4,91.75,190.0,7.0,29.68,5.0,34.04
2021-12-01 18:00:00,41.5,38.7,89.69,210.0,5.0,29.66,10.0,37.68
2021-12-01 19:00:00,46.0,39.4,77.9,220.0,10.0,29.62,10.0,40.4
2021-12-01 20:00:00,46.0,38.5,74.92,190.0,4.0,29.6,10.0,43.77
2021-12-01 21:00:00,46.6,37.4,70.15,200.0,5.0,29.57,10.0,43.73
2021-12-01 22:00:00,46.0,36.7,69.8,190.0,6.0,29.55,10.0,42.39
2021-12-01 23:00:00,46.0,37.0,70.9,210.0,6.0,29.55,10.0,42.27
2021-12-02 00:00:00,48.7,38.3,67.16,240.0,8.0,29.54,10.0,44.68
2021-12-02 01:00:00,48.7,38.8,68.48,240.0,10.0,29.53,10.0,43.91
2021-12-02 02:00:00,47.5,38.7,71.36,250.0,8.0,29.51,10.0,43.21
2021-12-02 03:00:00,47.5,39.0,72.2,260.0,8.0,29.53,10.0,43.21
2021-12-02 04:00:00,47.7,38.7,70.82,270.0,10.0,29.53,10.0,42.66
2021-12-02 05:00:00,45.5,36.7,71.14,260.0,5.0,29.55,10.0,42.43
2021-12-02 06:00:00,45.3,34.7,66.22,270.0,7.0,29.57,10.0,40.99
2021-12-02 07:00:00,45.3,34.7,66.22,270.0,7.0,29.57,10.0,40.99
2021-12-02 08:00:00,42.3,32.2,67.19,270.0,7.0,29.62,10.0,37.33
2021-12-02 09:00:00,41.4,32.4,70.12,270.0,7.0,29.64,10.0,36.24
2021-12-02 10:00:00,41.4,31.8,68.45,270.0,8.0,29.66,10.0,35.69
2021-12-02 11:00:00,40.6,30.2,66.17,290.0,10.0,29.7,10.0,33.75
2021-12-02 12:00:00,40.0,29.3,65.04,290.0,10.0,29.74,10.0,33.13
2021-12-02 13:00:00,39.4,28.9,65.75,290.0,9.0,29.77,10.0,32.72
2021-12-02 14:00:00,40.5,29.3,64.04,290.0,10.0,29.81,10.0,33.63
2021-12-02 15:00:00,42.0,28.8,58.98,300.0,9.0,29.85,10.0,36.07
2021-12-02 16:00:00,44.0,28.4,54.15,290.0,9.0,29.87,10.0,38.31
2021-12-02 17:00:00,44.8,25.9,47.2,300.0,12.0,29.88,10.0,38.29
2021-12-02 18:00:00,44.8,26.1,47.59,280.0,9.0,29.89,10.0,39.43
2021-12-02 19:00:00,44.8,25.3,46.04,290.0,11.0,29.92,10.0,38.64
2021-12-02 20:00:00,44.8,25.0,45.47,290.0,9.0,29.93,10.0,39.43
2021-12-02 21:00:00,41.4,24.4,50.52,340.0,3.0,29.96,10.0,39.43
2021-12-02 22:00:00,40.0,25.0,54.48,0.0,0.0,29.97,10.0,40.1
2021-12-02 23:00:00,36.7,25.9,64.61,0.0,0.0,29.98,10.0,36.7
2021-12-03 00:00:00,35.0,27.9,75.35,0.0,0.0,29.98,10.0,34.9
2021-12-03 01:00:00,34.0,28.0,78.43,0.0,0.0,29.99,10.0,34.0
2021-12-03 02:00:00,34.5,28.2,77.51,0.0,0.0,30.0,10.0,34.5
2021-12-03 03:00:00,34.3,29.1,81.06,20.0,3.0,30.01,10.0,31.32
2021-12-03 04:00:00,34.7,29.8,82.09,160.0,3.0,30.01,10.0,31.78
2021-12-03 05:00:00,35.0,29.1,78.52,0.0,0.0,30.04,10.0,35.1
2021-12-03 06:00:00,34.3,31.1,87.93,0.0,0.0,30.04,2.0,34.3
2021-12-03 07:00:00,33.8,32.0,93.03,0.0,0.0,30.04,2.5,33.8
2021-12-03 08:00:00,33.8,32.0,93.03,0.0,0.0,30.03,7.0,33.8
2021-12-03 09:00:00,33.8,32.0,93.03,0.0,0.0,30.02,7.0,33.8
2021-12-03 10:00:00,33.8,32.0,93.03,0.0,0.0,30.01,5.0,33.8
2021-12-03 11:00:00,34.0,32.0,92.29,0.0,0.0,30.02,7.0,34.0
2021-12-03 12:00:00,34.0,32.2,93.03,0.0,0.0,30.02,5.0,34.0
2021-12-03 13:00:00,34.3,32.4,92.67,0.0,0.0,30.04,2.5,34.3
2021-12-03 14:00:00,34.7,33.0,93.06,0.0,0.0,30.06,0.5,34.7
2021-12-03 15:00:00,35.0,33.3,93.81,0.0,0.0,30.08,0.75,34.9
2021-12-03 16:00:00,35.6,33.8,93.08,0.0,0.0,30.09,4.0,35.6
2021-12-03 17:00:00,37.0,34.2,89.84,0.0,0.0,30.08,10.0,36.9
2021-12-03 18:00:00,38.8,34.7,85.06,270.0,4.0,30.06,10.0,35.36
2021-12-03 19:00:00,39.7,35.0,82.79,290.0,4.0,30.06,10.0,36.41
2021-12-03 20:00:00,41.0,34.0,75.94,310.0,3.0,30.06,10.0,38.98
2021-12-03 21:00:00,40.0,32.4,74.32,330.0,7.0,30.09,10.0,34.41
2021-12-03 22:00:00,40.0,32.4,74.32,330.0,7.0,30.09,10.0,34.41
2021-12-03 23:00:00,36.5,31.6,82.22,250.0,4.0,30.11,10.0,32.68
2021-12-04 00:00:00,36.5,31.6,82.22,250.0,4.0,30.11,10.0,32.68
2021-12-04 01:00:00,36.5,31.6,82.22,250.0,4.0,30.11,10.0,32.68
2021-12-04 02:00:00,36.5,31.6,82.22,250.0,4.0,30.11,10.0,32.68
2021-12-04 03:00:00,34.0,27.0,75.26,270.0,7.0,30.14,10.0,27.22
2021-12-04 04:00:00,32.5,23.5,69.1,260.0,7.0,30.15,10.0,25.39
2021-12-04 05:00:00,32.0,20.3,61.59,260.0,9.0,30.16,10.0,23.51
2021-12-04 06:00:00,31.6,18.9,58.96,260.0,11.0,30.18,10.0,21.96
2021-12-04 07:00:00,30.9,17.6,57.36,260.0,9.0,30.19,10.0,22.15
2021-12-04 08:00:00,30.2,16.2,55.55,260.0,9.0,30.2,10.0,21.28
2021-12-04 09:00:00,29.8,15.3,54.29,280.0,8.0,30.2,10.0,21.4
2021-12-04 10:00:00,28.8,15.3,56.55,270.0,6.0,30.22,10.0,21.68
2021-12-04 11:00:00,28.9,14.9,55.35,270.0,7.0,30.22,10.0,21.0
2021-12-04 12:00:00,30.2,14.7,52.04,280.0,9.0,30.23,10.0,21.28
2021-12-04 13:00:00,30.4,14.2,50.5,280.0,8.0,30.25,10.0,22.14
2021-12-04 14:00:00,30.9,14.5,50.14,280.0,6.0,30.27,10.0,24.21
2021-12-04 15:00:00,31.6,14.9,49.6,280.0,7.0,30.28,10.0,24.29
2021-12-04 16:00:00,32.5,13.3,44.59,280.0,10.0,30.29,10.0,23.6
2021-12-04 17:00:00,33.3,12.6,41.87,280.0,10.0,30.29,10.0,24.6
2021-12-04 18:00:00,33.6,11.5,39.41,290.0,10.0,30.3,10.0,24.97
2021-12-04 19:00:00,34.0,12.7,40.89,280.0,9.0,30.28,10.0,26.0
2021-12-04 20:00:00,34.0,11.3,38.44,280.0,9.0,30.28,10.0,26.0
2021-12-04 21:00:00,33.0,10.4,38.28,280.0,6.0,30.28,10.0,26.86
2021-12-04 22:00:00,32.2,12.6,43.76,260.0,3.0,30.28,10.0,28.92
2021-12-04 23:00:00,32.0,13.6,46.1,270.0,3.0,30.28,10.0,28.69
2021-12-05 00:00:00,31.8,14.0,47.3,0.0,0.0,30.26,10.0,31.8
2021-12-05 01:00:00,30.7,17.1,56.59,0.0,0.0,30.23,10.0,30.7
2021-12-05 02:00:00,30.6,19.0,61.66,0.0,0.0,30.23,10.0,30.6
2021-12-05 03:00:00,30.0,19.8,65.38,0.0,0.0,30.23,10.0,30.0
2021-12-05 04:00:00,30.6,17.6,58.06,0.0,0.0,30.21,10.0,30.6
2021-12-05 05:00:00,30.7,17.8,58.33,120.0,3.0,30.17,10.0,27.2
2021-12-05 06:00:00,28.9,24.4,83.03,130.0,5.0,30.15,4.0,22.71
2021-12-05 07:00:00,28.4,25.0,86.9,110.0,6.0,30.11,1.5,21.19
2021-12-05 08:00:00,28.2,24.8,86.89,100.0,4.0,30.12,3.0,22.98
2021-12-05 09:00:00,28.0,23.9,84.37,80.0,9.0,30.08,4.0,18.54
2021-12-05 10:00:00,28.0,23.0,81.25,90.0,9.0,30.04,10.0,18.54
2021-12-05 11:00:00,27.7,23.9,85.42,90.0,8.0,30.02,1.5,18.82
2021-12-05 12:00:00,27.3,23.9,86.83,110.0,15.0,29.94,1.25,14.69
2021-12-05 13:00:00,28.0,23.9,84.37,120.0,20.0,29.84,1.5,13.83
2021-12-05 14:00:00,28.4,23.9,83.0,120.0,19.0,29.78,1.25,14.68
2021-12-05 15:00:00,28.9,24.8,84.43,130.0,17.0,29.74,1.75,16.01
2021-12-05 16:00:00,29.8,25.2,82.75,130.0,21.0,29.7,3.0,15.92
2021-12-05 17:00:00,30.9,26.1,82.15,130.0,13.0,29.66,7.0,20.16
2021-12-05 18:00:00,32.0,26.6,80.22,140.0,11.0,29.63,10.0,22.47
2021-12-05 19:00:00,32.0,27.1,81.89,150.0,6.0,29.62,10.0,25.53
2021-12-05 20:00:00,32.0,27.5,83.25,130.0,8.0,29.59,10.0,24.11
2021-12-05 21:00:00,32.4,28.0,83.62,140.0,9.0,29.57,10.0,24.01
2021-12-05 22:00:00,32.4,28.4,85.01,140.0,8.0,29.56,10.0,24.61
2021-12-05 23:00:00,33.0,28.4,83.31,160.0,7.0,29.55,10.0,25.88
2021-12-06 00:00:00,33.0,29.1,85.74,160.0,7.0,29.54,10.0,25.88
2021-12-06 01:00:00,33.8,29.1,82.7,190.0,4.0,29.53,10.0,29.52
2021-12-06 02:00:00,34.7,25.2,67.93,250.0,11.0,29.54,10.0,25.88
2021-12-06 03:00:00,33.8,22.6,63.16,250.0,8.0,29.54,10.0,26.33
2021-12-06 04:00:00,32.4,24.8,73.25,250.0,10.0,29.55,10.0,23.47
2021-12-06 05:00:00,31.8,26.8,81.54,280.0,14.0,29.58,3.0,20.9
2021-12-06 06:00:00,30.6,23.9,75.88,280.0,16.0,29.62,7.0,18.59
2021-12-06 07:00:00,28.0,23.0,81.25,280.0,13.0,29.64,1.5,16.44
2021-12-06 08:00:00,27.5,22.1,79.85,290.0,19.0,29.69,2.0,13.49
2021-12-06 09:00:00,28.9,19.8,68.38,300.0,17.0,29.72,2.5,16.01
2021-12-06 10:00:00,27.5,19.2,70.59,290.0,19.0,29.77,5.0,13.49
2021-12-06 11:00:00,24.6,16.0,69.35,290.0,16.0,29.82,7.0,10.77
2021-12-06 12:00:00,18.5,10.2,69.54,290.0,16.0,29.88,10.0,2.82
2021-12-06 13:00:00,14.5,5.2,65.97,290.0,14.0,29.94,5.0,-1.4
2021-12-06 14:00:00,11.8,1.9,63.81,280.0,14.0,29.98,10.0,-4.88
2021-12-06 15:00:00,10.9,-0.6,59.08,280.0,17.0,30.03,10.0,-7.57
2021-12-06 16:00:00,10.2,-2.4,55.99,290.0,14.0,30.08,10.0,-6.94
2021-12-06 17:00:00,10.4,-3.8,51.91,280.0,13.0,30.09,10.0,-6.1
2021-12-06 18:00:00,10.0,-6.5,46.4,290.0,14.0,30.1,10.0,-7.2
2021-12-06 19:00:00,10.0,-9.2,40.68,270.0,16.0,30.12,10.0,-8.26
2021-12-06 20:00:00,9.7,-11.0,37.72,280.0,11.0,30.13,10.0,-5.71
2021-12-06 21:00:00,9.1,-12.3,36.33,280.0,8.0,30.16,10.0,-4.1
2021-12-06 22:00:00,6.8,-9.8,45.62,280.0,7.0,30.18,10.0,-5.94
2021-12-06 23:00:00,5.5,-9.8,48.4,280.0,7.0,30.21,10.0,-7.52
2021-12-07 00:00:00,4.0,-10.3,50.35,260.0,7.0,30.22,10.0,-9.23
2021-12-07 01:00:00,2.3,-9.4,57.19,290.0,4.0,30.2,10.0,-7.26
2021-12-07 02:00:00,1.2,-8.7,62.3,0.0,0.0,30.2,10.0,1.2
2021-12-07 03:00:00,-0.4,-9.0,66.17,0.0,0.0,30.2,10.0,-0.4
2021-12-07 04:00:00,-0.4,-7.8,70.17,0.0,0.0,30.21,10.0,-0.4
2021-12-07 05:00:00,1.0,-7.0,67.99,210.0,5.0,30.24,10.0,-10.42
2021-12-07 06:00:00,1.9,-6.5,67.12,220.0,4.0,30.23,10.0,-7.73
2021-12-07 07:00:00,1.9,-6.5,67.12,220.0,4.0,30.23,10.0,-7.73
2021-12-07 08:00:00,1.9,-6.5,67.12,220.0,4.0,30.23,10.0,-7.73
2021-12-07 09:00:00,4.0,-4.4,67.09,0.0,0.0,30.19,10.0,4.1
2021-12-07 10:00:00,2.7,-4.5,71.23,160.0,3.0,30.17,10.0,-4.81
2021-12-07 11:00:00,1.4,-4.5,75.66,0.0,0.0,30.16,10.0,1.4
2021-12-07 12:00:00,1.6,-4.7,74.24,0.0,0.0,30.16,10.0,1.6
2021-12-07 13:00:00,4.0,-3.0,71.39,140.0,4.0,30.14,10.0,-5.16
2021-12-07 14:00:00,6.0,-0.9,72.31,140.0,5.0,30.14,10.0,-4.36
2021-12-07 15:00:00,7.7,0.9,73.17,140.0,6.0,30.13,4.0,-3.74
2021-12-07 16:00:00,10.4,3.0,71.46,130.0,6.0,30.11,3.0,-0.48
2021-12-07 17:00:00,12.0,4.0,69.38,140.0,4.0,30.09,7.0,4.07
2021-12-07 18:00:00,13.3,6.0,71.79,140.0,6.0,30.06,3.0,3.01
2021-12-07 19:00:00,14.5,7.7,73.91,120.0,5.0,30.03,1.0,5.61
2021-12-07 20:00:00,14.9,8.6,75.64,130.0,5.0,30.02,1.5,6.09
2021-12-07 21:00:00,14.7,8.8,76.99,130.0,6.0,29.99,2.5,4.69
2021-12-07 22:00:00,14.2,8.6,77.99,120.0,4.0,29.99,5.0,6.63
2021-12-07 23:00:00,14.0,9.0,80.1,0.0,0.0,29.99,5.0,14.0
2021-12-08 00:00:00,14.0,9.0,80.1,110.0,3.0,29.98,7.0,8.11
2021-12-08 01:00:00,13.6,8.6,80.07,0.0,0.0,29.98,10.0,13.6
2021-12-08 02:00:00,11.5,7.5,83.59,0.0,0.0,29.96,10.0,11.5
2021-12-08 03:00:00,8.4,4.8,84.91,0.0,0.0,29.95,10.0,8.4
2021-12-08 04:00:00,7.2,2.5,80.63,0.0,0.0,29.94,10.0,7.2
2021-12-08 05:00:00,3.0,-1.8,79.89,0.0,0.0,29.94,10.0,3.0
2021-12-08 06:00:00,0.3,-4.7,78.89,0.0,0.0,29.93,10.0,0.3
2021-12-08 07:00:00,-0.6,-5.6,78.8,0.0,0.0,29.93,10.0,-0.6
2021-12-08 08:00:00,-0.8,-5.6,79.55,0.0,0.0,29.94,10.0,-0.8
2021-12-08 09:00:00,-2.4,-7.8,77.12,0.0,0.0,29.94,10.0,-2.4
2021-12-08 10:00:00,-5.4,-10.8,76.82,0.0,0.0,29.95,10.0,-5.4
2021-12-08 11:00:00,-4.2,-9.6,76.94,0.0,0.0,29.96,10.0,-4.2
2021-12-08 12:00:00,-0.6,-5.6,78.8,0.0,0.0,29.98,7.0,-0.6
2021-12-08 13:00:00,-0.4,-5.4,78.82,0.0,0.0,29.99,0.25,-0.4
2021-12-08 14:00:00,0.0,-5.0,78.48,0.0,0.0,30.0,5.0,0.0
2021-12-08 15:00:00,3.4,-1.8,78.43,0.0,0.0,30.02,2.0,3.4
2021-12-08 16:00:00,7.5,2.7,80.28,0.0,0.0,30.01,5.0,7.5
2021-12-08 17:00:00,13.6,9.3,82.63,0.0,0.0,30.01,7.0,13.6
2021-12-08 18:00:00,15.8,12.2,85.4,0.0,0.0,29.99,10.0,15.8
2021-12-08 19:00:00,18.0,13.6,82.59,0.0,0.0,29.98,10.0,18.0
2021-12-08 20:00:00,21.2,11.7,66.25,190.0,5.0,29.98,10.0,13.57
2021-12-08 21:00:00,21.2,11.7,66.25,160.0,3.0,29.99,10.0,16.34
2021-12-08 22:00:00,21.2,12.2,67.73,130.0,6.0,29.96,10.0,12.52
2021-12-08 23:00:00,20.7,12.2,69.18,120.0,6.0,29.94,10.0,11.92
2021-12-09 00:00:00,20.3,11.8,69.14,130.0,6.0,29.94,10.0,11.44
2021-12-09 01:00:00,20.8,12.6,70.12,110.0,5.0,29.93,10.0,13.09
2021-12-09 02:00:00,21.7,13.3,69.61,120.0,8.0,29.93,10.0,11.43
2021-12-09 03:00:00,22.6,14.0,69.11,120.0,9.0,29.89,10.0,11.83
2021-12-09 04:00:00,23.4,14.2,67.41,130.0,11.0,29.88,10.0,11.6
2021-12-09 05:00:00,23.9,14.2,66.02,130.0,11.0,29.85,10.0,12.23
2021-12-09 06:00:00,24.6,13.1,61.09,120.0,11.0,29.81,10.0,13.11
2021-12-09 07:00:00,24.4,13.3,62.15,120.0,12.0,29.78,10.0,12.33
2021-12-09 08:00:00,24.6,14.0,63.55,130.0,13.0,29.76,10.0,12.09
2021-12-09 09:00:00,25.2,14.5,63.36,130.0,11.0,29.72,10.0,13.87
2021-12-09 10:00:00,25.7,15.1,63.7,120.0,11.0,29.71,10.0,14.5
2021-12-09 11:00:00,26.4,15.8,63.8,120.0,16.0,29.66,10.0,13.12
2021-12-09 12:00:00,27.1,16.3,63.34,110.0,14.0,29.63,10.0,14.85
2021-12-09 13:00:00,28.0,17.6,64.56,120.0,12.0,29.63,10.0,16.91
2021-12-09 14:00:00,29.1,19.2,66.11,120.0,13.0,29.6,10.0,17.85
2021-12-09 15:00:00,28.4,23.9,83.0,130.0,11.0,29.61,1.0,17.92
2021-12-09 16:00:00,28.9,25.5,86.92,130.0,7.0,29.6,0.75,21.0
2021-12-09 17:00:00,30.0,25.7,83.8,130.0,9.0,29.57,2.0,21.03
2021-12-09 18:00:00,30.0,25.7,83.8,130.0,9.0,29.57,2.0,21.03
2021-12-09 19:00:00,30.0,25.7,83.8,130.0,9.0,29.57,2.0,21.03
2021-12-09 20:00:00,32.2,26.6,79.57,160.0,7.0,29.59,10.0,25.02
2021-12-09 21:00:00,32.2,27.1,81.23,150.0,4.0,29.6,10.0,27.65
2021-12-09 22:00:00,32.4,27.5,81.92,0.0,0.0,29.63,10.0,32.4
2021-12-09 23:00:00,32.0,27.9,84.63,0.0,0.0,29.67,10.0,32.0
2021-12-10 00:00:00,32.5,27.1,80.26,0.0,0.0,29.7,10.0,32.5
2021-12-10 01:00:00,33.0,27.1,78.98,260.0,4.0,29.72,10.0,28.47
2021-12-10 02:00:00,33.4,27.1,77.41,0.0,0.0,29.74,10.0,33.4
2021-12-10 03:00:00,35.0,26.8,72.01,290.0,4.0,29.76,10.0,30.81
2021-12-10 04:00:00,33.0,24.8,71.8,260.0,4.0,29.8,10.0,28.47
2021-12-10 05:00:00,32.0,24.4,73.21,270.0,4.0,29.83,10.0,27.42
2021-12-10 06:00:00,32.0,24.4,73.21,270.0,4.0,29.83,10.0,27.42
2021-12-10 07:00:00,25.0,21.9,87.81,0.0,0.0,29.86,10.0,25.0
2021-12-10 08:00:00,20.1,17.6,89.84,0.0,0.0,29.88,7.0,20.1
2021-12-10 09:00:00,17.6,14.0,85.51,0.0,0.0,29.91,3.0,17.6
2021-12-10 10:00:00,18.9,15.6,86.72,0.0,0.0,29.92,7.0,18.9
2021-12-10 11:00:00,19.8,16.5,86.77,10.0,3.0,29.91,10.0,14.74
2021-12-10 12:00:00,20.7,17.4,86.83,0.0,0.0,29.91,10.0,20.7
2021-12-10 13:00:00,23.4,20.3,87.72,0.0,0.0,29.91,10.0,23.4
2021-12-10 14:00:00,25.0,22.3,89.3,0.0,0.0,29.91,7.0,25.0
2021-12-10 15:00:00,26.1,23.4,89.36,0.0,0.0,29.93,10.0,26.1
2021-12-10 16:00:00,27.9,25.5,90.56,0.0,0.0,29.92,10.0,27.9
2021-12-10 17:00:00,30.2,25.2,81.42,0.0,0.0,29.91,10.0,30.2
2021-12-10 18:00:00,31.5,25.0,76.6,0.0,0.0,29.88,10.0,31.5
2021-12-10 19:00:00,32.0,24.8,74.44,360.0,3.0,29.87,10.0,28.69
2021-12-10 20:00:00,31.1,27.5,86.33,20.0,6.0,29.85,0.75,24.45
2021-12-10 21:00:00,30.9,27.9,88.48,30.0,9.0,29.79,2.0,22.15
2021-12-10 22:00:00,31.1,27.7,87.05,40.0,9.0,29.72,1.75,22.39
2021-12-10 23:00:00,30.9,28.4,90.31,20.0,5.0,29.75,1.0,25.09
2021-12-11 00:00:00,30.6,28.0,89.93,10.0,8.0,29.7,1.0,22.39
2021-12-11 01:00:00,30.7,28.4,91.05,10.0,4.0,29.71,0.5,25.9
2021-12-11 02:00:00,30.9,28.8,91.81,10.0,10.0,29.66,1.25,21.59
2021-12-11 03:00:00,30.9,28.2,89.58,360.0,13.0,29.61,2.0,20.16
2021-12-11 04:00:00,30.4,27.0,87.01,360.0,12.0,29.59,2.0,19.97
2021-12-11 05:00:00,30.6,26.6,84.89,350.0,13.0,29.56,2.0,19.77
2021-12-11 06:00:00,30.9,27.1,85.61,350.0,14.0,29.54,1.75,19.74
2021-12-11 07:00:00,31.1,26.4,82.5,340.0,12.0,29.54,3.0,20.86
2021-12-11 08:00:00,30.2,27.1,88.08,330.0,12.0,29.52,1.5,19.71
2021-12-11 09:00:00,30.9,27.0,85.26,340.0,10.0,29.51,5.0,21.59
2021-12-11 10:00:00,30.9,26.6,83.87,320.0,8.0,29.53,4.0,22.76
2021-12-11 11:00:00,30.4,25.7,82.45,290.0,11.0,29.55,10.0,20.44
2021-12-11 12:00:00,29.3,20.3,68.72,290.0,9.0,29.55,10.0,20.16
2021-12-11 13:00:00,27.1,20.1,74.58,280.0,7.0,29.57,10.0,18.81
2021-12-11 14:00:00,25.3,18.9,76.33,270.0,7.0,29.59,10.0,16.61
2021-12-11 15:00:00,26.6,18.3,70.49,270.0,6.0,29.63,10.0,19.03
2021-12-11 16:00:00,28.2,18.3,65.99,260.0,7.0,29.64,10.0,20.15
2021-12-11 17:00:00,30.9,17.8,57.86,250.0,9.0,29.64,10.0,22.15
2021-12-11 18:00:00,32.0,18.9,58.02,250.0,7.0,29.66,10.0,24.78
2021-12-11 19:00:00,33.0,19.4,57.17,250.0,9.0,29.67,10.0,24.63
2021-12-11 20:00:00,33.8,17.6,51.04,240.0,11.0,29.7,10.0,24.74
2021-12-11 21:00:00,32.0,17.2,53.93,230.0,7.0,29.73,10.0,24.78
2021-12-11 22:00:00,28.6,17.1,61.65,210.0,4.0,29.75,10.0,23.45
2021-12-11 23:00:00,25.9,17.1,68.91,200.0,4.0,29.77,10.0,20.3
2021-12-12 00:00:00,24.6,15.6,68.15,210.0,5.0,29.79,10.0,17.61
2021-12-12 01:00:00,23.5,14.9,69.22,180.0,4.0,29.8,10.0,17.49
2021-12-12 02:00:00,22.6,14.5,70.64,190.0,4.0,29.79,10.0,16.44
2021-12-12 03:00:00,22.6,14.7,71.26,200.0,5.0,29.8,10.0,15.23
2021-12-12 04:00:00,22.3,14.2,70.6,190.0,5.0,29.81,10.0,14.88
2021-12-12 05:00:00,22.5,14.0,69.4,190.0,4.0,29.8,10.0,16.33
2021-12-12 06:00:00,22.1,14.0,70.58,190.0,5.0,29.79,10.0,14.64
2021-12-12 07:00:00,20.5,13.1,72.6,170.0,5.0,29.8,10.0,12.74
2021-12-12 08:00:00,18.0,12.2,77.65,160.0,6.0,29.8,10.0,8.67
2021-12-12 09:00:00,19.0,12.4,75.05,160.0,6.0,29.79,10.0,9.87
2021-12-12 10:00:00,18.7,14.0,81.56,140.0,5.0,29.79,10.0,10.6
2021-12-12 11:00:00,17.8,13.3,82.21,160.0,4.0,29.78,10.0,10.84
2021-12-12 12:00:00,14.5,11.3,86.85,140.0,4.0,29.78,10.0,6.98
2021-12-12 13:00:00,15.8,12.4,86.16,190.0,3.0,29.79,10.0,10.17
2021-12-12 14:00:00,26.6,18.5,71.1,200.0,7.0,29.79,10.0,18.2
2021-12-12 15:00:00,30.2,18.9,62.4,190.0,8.0,29.79,10.0,21.9
2021-12-12 16:00:00,32.5,19.4,58.09,200.0,7.0,29.82,10.0,25.39
2021-12-12 17:00:00,35.8,19.9,52.02,190.0,6.0,29.81,10.0,30.11
2021-12-12 18:00:00,39.0,20.8,47.66,190.0,5.0,29.8,10.0,34.71
2021-12-12 19:00:00,40.3,21.0,45.69,190.0,7.0,29.79,10.0,34.9
2021-12-12 20:00:00,38.7,21.6,49.88,170.0,8.0,29.8,10.0,32.37
2021-12-12 21:00:00,36.0,22.1,56.66,160.0,5.0,29.82,10.0,31.15
2021-12-12 22:00:00,35.6,21.9,57.08,170.0,6.0,29.83,10.0,29.87
2021-12-12 23:00:00,34.7,21.9,59.16,160.0,6.0,29.84,10.0,28.78
2021-12-13 00:00:00,33.8,22.1,61.84,170.0,6.0,29.85,10.0,27.7
2021-12-13 01:00:00,33.4,23.0,65.27,160.0,5.0,29.84,10.0,28.06
2021-12-13 02:00:00,33.0,23.2,67.15,160.0,4.0,29.84,10.0,28.47
2021-12-13 03:00:00,34.0,23.9,66.17,160.0,5.0,29.84,10.0,28.77
2021-12-13 04:00:00,32.0,23.7,71.1,170.0,6.0,29.85,10.0,25.53
2021-12-13 05:00:00,30.2,22.8,73.64,140.0,3.0,29.86,10.0,26.63
2021-12-13 06:00:00,25.2,20.8,83.12,0.0,0.0,29.85,10.0,25.2
2021-12-13 07:00:00,22.5,19.6,88.43,130.0,3.0,29.86,10.0,17.83
2021-12-13 08:00:00,20.7,17.6,87.58,0.0,0.0,29.88,0.75,20.7
2021-12-13 09:00:00,17.4,14.0,86.25,180.0,3.0,29.91,7.0,12.0
2021-12-13 10:00:00,14.4,10.8,85.31,0.0,0.0,29.95,10.0,14.4
2021-12-13 11:00:00,15.6,12.2,86.15,0.0,0.0,29.96,3.0,15.6
2021-12-13 12:00:00,14.2,10.6,85.3,0.0,0.0,29.99,10.0,14.2
2021-12-13 13:00:00,13.3,9.5,84.48,0.0,0.0,30.03,10.0,13.3
2021-12-13 14:00:00,15.1,11.3,84.6,0.0,0.0,30.08,7.0,15.1
2021-12-13 15:00:00,19.6,16.0,85.64,0.0,0.0,30.1,10.0,19.6
2021-12-13 16:00:00,29.1,27.0,91.74,0.0,0.0,30.12,10.0,29.1
2021-12-13 17:00:00,34.2,23.5,64.55,0.0,0.0,30.12,10.0,34.2
2021-12-13 18:00:00,37.0,24.3,59.73,0.0,0.0,30.14,10.0,37.0
2021-12-13 19:00:00,37.6,25.2,60.57,0.0,0.0,30.16,10.0,37.6
2021-12-13 20:00:00,38.0,25.3,60.11,0.0,0.0,30.18,10.0,37.9
2021-12-13 21:00:00,38.8,25.2,57.79,0.0,0.0,30.21,10.0,38.8
2021-12-13 22:00:00,32.7,25.7,75.14,0.0,0.0,30.23,10.0,32.7
2021-12-13 23:00:00,30.0,25.2,82.08,10.0,3.0,30.26,10.0,26.4
2021-12-14 00:00:00,26.8,22.8,84.65,0.0,0.0,30.28,10.0,26.8
2021-12-14 01:00:00,28.4,23.9,83.0,360.0,4.0,30.28,10.0,23.22
2021-12-14 02:00:00,26.6,23.7,88.63,0.0,0.0,30.28,10.0,26.6
2021-12-14 03:00:00,25.9,23.4,90.1,0.0,0.0,30.29,7.0,25.9
2021-12-14 04:00:00,21.0,17.8,87.22,0.0,0.0,30.29,5.0,21.0
2021-12-14 05:00:00,21.0,17.8,87.22,0.0,0.0,30.3,7.0,21.0
2021-12-14 06:00:00,20.5,17.4,87.57,0.0,0.0,30.29,7.0,20.5
2021-12-14 07:00:00,21.2,18.1,87.61,0.0,0.0,30.31,7.0,21.2
2021-12-14 08:00:00,22.3,19.2,87.66,160.0,3.0,30.3,7.0,17.6
2021-12-14 09:00:00,20.5,17.1,86.44,0.0,0.0,30.3,7.0,20.5
2021-12-14 10:00:00,23.9,21.2,89.25,100.0,4.0,30.28,10.0,17.96
2021-12-14 11:00:00,33.3,23.9,68.05,100.0,10.0,30.25,10.0,24.6
2021-12-14 12:00:00,34.5,23.7,64.32,100.0,11.0,30.26,10.0,25.63
2021-12-14 13:00:00,34.7,25.7,69.36,100.0,10.0,30.25,10.0,26.35
2021-12-14 14:00:00,35.6,27.5,72.09,100.0,9.0,30.25,10.0,27.99
2021-12-14 15:00:00,37.4,29.1,71.7,120.0,9.0,30.26,10.0,30.23
2021-12-14 16:00:00,39.6,31.1,71.35,120.0,12.0,30.22,10.0,31.67
2021-12-14 17:00:00,40.3,32.0,72.01,110.0,15.0,30.17,10.0,31.54
2021-12-14 18:00:00,41.0,32.4,71.22,120.0,12.0,30.13,10.0,33.46
2021-12-14 19:00:00,42.0,33.0,70.18,110.0,19.0,30.08,10.0,32.53
2021-12-14 20:00:00,42.0,33.4,71.05,120.0,12.0,30.05,10.0,34.86
2021-12-14 21:00:00,41.5,33.8,73.89,120.0,13.0,30.04,10.0,33.74
2021-12-14 22:00:00,40.6,33.8,76.51,120.0,9.0,30.03,10.0,34.21
2021-12-14 23:00:00,40.5,34.0,77.42,120.0,9.0,30.02,10.0,34.08
2021-12-15 00:00:00,40.6,34.5,78.68,130.0,15.0,30.01,10.0,31.93
2021-12-15 01:00:00,40.0,35.0,81.51,130.0,14.0,30.0,10.0,31.6
2021-12-15 02:00:00,39.2,36.5,89.94,130.0,13.0,29.98,5.0,30.79
2021-12-15 03:00:00,39.2,36.0,88.18,130.0,9.0,29.95,7.0,32.47
2021-12-15 04:00:00,39.6,36.5,88.55,130.0,7.0,29.94,7.0,34.04
2021-12-15 05:00:00,40.0,36.7,88.22,130.0,9.0,29.91,5.0,33.34
2021-12-15 06:00:00,40.0,36.5,86.84,130.0,9.0,29.88,7.0,33.59
2021-12-15 07:00:00,40.0,36.3,86.16,130.0,8.0,29.85,7.0,34.09
2021-12-15 08:00:00,40.3,36.5,86.17,130.0,8.0,29.84,7.0,34.34
2021-12-15 09:00:00,40.5,37.0,86.87,130.0,10.0,29.8,7.0,33.63
2021-12-15 10:00:00,40.5,38.0,91.06,140.0,8.0,29.77,2.5,34.58
2021-12-15 11:00:00,40.0,38.3,93.22,110.0,10.0,29.7,0.5,33.13
2021-12-15 12:00:00,41.0,39.4,93.97,130.0,10.0,29.7,0.25,34.25
2021-12-15 13:00:00,41.4,39.7,93.62,120.0,9.0,29.67,0.25,35.2
2021-12-15 14:00:00,42.0,40.5,94.0,120.0,9.0,29.64,0.25,36.07
2021-12-15 15:00:00,43.3,42.0,94.76,120.0,10.0,29.62,0.25,37.14
2021-12-15 16:00:00,44.6,42.8,93.35,120.0,9.0,29.59,0.25,39.18
2021-12-15 17:00:00,46.0,44.2,93.74,130.0,9.0,29.54,0.25,40.8
2021-12-15 18:00:00,48.2,46.4,93.45,130.0,11.0,29.5,0.25,42.94
2021-12-15 19:00:00,49.5,47.7,93.49,130.0,8.0,29.49,0.25,45.67
2021-12-15 20:00:00,50.4,48.7,93.86,120.0,8.0,29.45,0.25,50.4
2021-12-15 21:00:00,50.2,48.4,93.5,120.0,8.0,29.44,0.25,50.2
2021-12-15 22:00:00,52.0,50.2,93.55,120.0,13.0,29.39,0.5,52.0
2021-12-15 23:00:00,52.3,50.5,93.56,120.0,12.0,29.34,0.25,52.3
2021-12-16 00:00:00,53.0,51.3,93.58,120.0,10.0,29.31,0.75,53.1
2021-12-16 01:00:00,54.0,52.3,93.61,110.0,11.0,29.23,4.0,54.1
2021-12-16 02:00:00,55.8,54.0,93.66,130.0,12.0,29.13,7.0,55.8
2021-12-16 03:00:00,55.2,51.0,85.4,110.0,8.0,29.02,10.0,55.2
2021-12-16 04:00:00,52.7,44.8,74.42,160.0,15.0,29.03,7.0,52.7
2021-12-16 05:00:00,52.5,41.0,64.79,170.0,13.0,29.02,4.0,52.5
2021-12-16 06:00:00,49.6,43.0,77.92,160.0,13.0,28.97,4.0,44.12
2021-12-16 07:00:00,41.2,37.0,84.88,200.0,21.0,29.04,10.0,31.12
2021-12-16 08:00:00,38.3,35.4,89.19,210.0,18.0,29.12,7.0,28.04
2021-12-16 09:00:00,40.5,36.0,83.83,240.0,19.0,29.22,7.0,30.68
2021-12-16 10:00:00,36.7,32.0,82.91,240.0,15.0,29.33,10.0,26.87
2021-12-16 11:00:00,35.0,29.7,81.11,240.0,13.0,29.4,10.0,25.28
2021-12-16 12:00:00,32.4,27.1,80.58,250.0,20.0,29.46,10.0,19.67
2021-12-16 13:00:00,29.3,23.5,78.67,240.0,14.0,29.5,10.0,17.68
2021-12-16 14:00:00,27.0,21.0,77.8,250.0,17.0,29.55,2.5,13.52
2021-12-16 15:00:00,25.2,19.0,76.98,250.0,17.0,29.62,1.75,11.17
2021-12-16 16:00:00,22.5,16.3,76.72,240.0,18.0,29.66,1.0,7.24
2021-12-16 17:00:00,21.6,14.4,73.36,250.0,17.0,29.69,2.0,6.45
2021-12-16 18:00:00,22.3,13.3,67.87,250.0,16.0,29.72,7.0,7.78
2021-12-16 19:00:00,21.6,12.6,67.78,260.0,15.0,29.76,5.0,7.3
2021-12-16 20:00:00,20.3,11.8,69.14,260.0,12.0,29.8,5.0,7.11
2021-12-16 21:00:00,19.8,8.6,61.22,260.0,15.0,29.84,10.0,4.96
2021-12-16 22:00:00,19.0,8.6,63.35,250.0,12.0,29.88,10.0,5.46
2021-12-16 23:00:00,18.0,7.5,62.93,260.0,10.0,29.91,10.0,5.41
2021-12-17 00:00:00,16.7,7.3,65.96,260.0,9.0,29.94,10.0,4.49
2021-12-17 01:00:00,16.2,6.6,65.3,250.0,10.0,29.98,10.0,3.15
2021-12-17 02:00:00,15.4,5.5,64.31,260.0,9.0,30.02,10.0,2.87
2021-12-17 03:00:00,14.2,5.0,66.23,280.0,9.0,30.03,10.0,1.38
2021-12-17 04:00:00,13.5,5.0,68.3,270.0,7.0,30.06,10.0,2.23
2021-12-17 05:00:00,13.1,4.8,68.88,280.0,6.0,30.09,10.0,2.77
2021-12-17 06:00:00,12.0,4.3,70.67,300.0,7.0,30.11,10.0,0.4
2021-12-17 07:00:00,10.9,3.4,71.19,300.0,4.0,30.11,10.0,2.78
2021-12-17 08:00:00,10.8,3.2,70.85,280.0,3.0,30.14,10.0,4.45
2021-12-17 09:00:00,10.4,3.2,72.12,260.0,5.0,30.19,10.0,0.74
2021-12-17 10:00:00,10.4,3.2,72.12,260.0,5.0,30.2,10.0,0.74
2021-12-17 11:00:00,10.4,3.0,71.46,290.0,6.0,30.22,10.0,-0.48
2021-12-17 12:00:00,10.4,3.2,72.12,250.0,3.0,30.26,10.0,4.0
2021-12-17 13:00:00,10.9,3.6,71.85,310.0,3.0,30.28,10.0,4.57
2021-12-17 14:00:00,11.3,3.7,70.91,350.0,4.0,30.28,7.0,3.25
2021-12-17 15:00:00,12.2,4.3,70.04,10.0,4.0,30.29,10.0,4.3
2021-12-17 16:00:00,12.9,4.8,69.49,30.0,6.0,30.3,10.0,2.53
2021-12-17 17:00:00,14.7,6.0,67.52,10.0,7.0,30.28,10.0,3.69
2021-12-17 18:00:00,15.6,6.3,66.12,340.0,4.0,30.27,10.0,8.27
2021-12-17 19:00:00,18.0,8.0,64.08,20.0,7.0,30.24,10.0,7.71
2021-12-17 20:00:00,19.0,7.7,60.83,40.0,5.0,30.23,10.0,10.96
2021-12-17 21:00:00,19.0,7.7,60.83,100.0,6.0,30.23,10.0,9.87
2021-12-17 22:00:00,17.6,8.1,65.78,100.0,5.0,30.25,10.0,9.29
2021-12-17 23:00:00,18.0,8.6,66.13,70.0,7.0,30.26,10.0,7.71
2021-12-18 00:00:00,18.0,9.3,68.24,60.0,5.0,30.26,10.0,9.77
2021-12-18 01:00:00,17.6,10.4,72.93,30.0,4.0,30.26,10.0,10.6
2021-12-18 02:00:00,18.5,11.3,73.03,20.0,4.0,30.26,10.0,11.66
2021-12-18 03:00:00,19.0,12.2,74.39,360.0,5.0,30.26,10.0,10.96
2021-12-18 04:00:00,18.5,12.2,76.0,360.0,4.0,30.26,10.0,11.66
2021-12-18 05:00:00,18.9,12.7,76.37,20.0,6.0,30.26,10.0,9.75
2021-12-18 06:00:00,19.4,13.3,76.76,20.0,7.0,30.24,10.0,9.42
2021-12-18 07:00:00,19.6,13.3,76.11,20.0,6.0,30.22,10.0,10.6
2021-12-18 08:00:00,19.9,14.0,77.48,20.0,4.0,30.23,10.0,13.29
2021-12-18 09:00:00,20.1,14.0,76.83,20.0,5.0,30.21,10.0,12.26
2021-12-18 10:00:00,20.1,13.8,76.16,10.0,4.0,30.2,10.0,13.52
2021-12-18 11:00:00,20.7,14.7,77.22,360.0,4.0,30.2,10.0,14.22
2021-12-18 12:00:00,20.3,14.9,79.24,350.0,4.0,30.23,5.0,13.76
2021-12-18 13:00:00,18.9,14.5,82.66,330.0,3.0,30.23,10.0,13.71
2021-12-18 14:00:00,19.0,14.0,80.52,310.0,3.0,30.24,10.0,13.83
2021-12-18 15:00:00,21.7,14.7,74.02,310.0,6.0,30.25,10.0,13.13
2021-12-18 16:00:00,22.5,14.9,72.19,320.0,6.0,30.26,10.0,14.09
2021-12-18 17:00:00,24.1,15.3,68.69,330.0,6.0,30.25,10.0,16.02
2021-12-18 18:00:00,24.8,15.8,68.18,330.0,6.0,30.23,10.0,16.86
2021-12-18 19:00:00,25.3,15.4,65.62,360.0,6.0,30.23,10.0,17.46
2021-12-18 20:00:00,25.7,15.8,65.67,340.0,5.0,30.24,10.0,18.91
2021-12-18 21:00:00,26.1,15.6,64.03,350.0,5.0,30.26,10.0,19.39
2021-12-18 22:00:00,25.7,15.3,64.26,310.0,5.0,30.26,10.0,18.91
2021-12-18 23:00:00,24.1,15.1,68.09,280.0,8.0,30.28,10.0,14.38
2021-12-19 00:00:00,23.4,14.4,68.01,290.0,4.0,30.28,10.0,17.38
2021-12-19 01:00:00,23.4,15.3,70.73,280.0,4.0,30.3,10.0,17.38
2021-12-19 02:00:00,22.1,13.8,69.96,270.0,4.0,30.31,10.0,15.86
2021-12-19 03:00:00,21.9,14.0,71.18,260.0,5.0,30.31,10.0,14.4
2021-12-19 04:00:00,20.3,13.5,74.52,260.0,3.0,30.3,10.0,15.31
2021-12-19 05:00:00,17.4,12.0,78.98,0.0,0.0,30.3,10.0,17.4
2021-12-19 06:00:00,14.9,10.9,83.84,0.0,0.0,30.29,10.0,14.9
2021-12-19 07:00:00,13.6,9.5,83.37,0.0,0.0,30.28,10.0,13.6
2021-12-19 08:00:00,12.6,8.4,82.92,0.0,0.0,30.29,10.0,12.6
2021-12-19 09:00:00,10.9,6.6,82.42,0.0,0.0,30.28,10.0,10.9
2021-12-19 10:00:00,10.2,6.0,82.37,0.0,0.0,30.26,10.0,10.2
2021-12-19 11:00:00,10.8,6.3,81.67,0.0,0.0,30.26,10.0,10.8
2021-12-19 12:00:00,14.0,9.5,81.92,170.0,4.0,30.26,10.0,6.4
2021-12-19 13:00:00,16.5,12.6,84.32,170.0,7.0,30.24,10.0,5.89
2021-12-19 14:00:00,17.6,13.8,84.77,160.0,9.0,30.23,7.0,5.61
2021-12-19 15:00:00,18.5,14.5,84.09,160.0,7.0,30.2,10.0,8.32
2021-12-19 16:00:00,20.3,16.5,84.94,150.0,13.0,30.17,10.0,6.58
2021-12-19 17:00:00,22.1,17.4,81.83,160.0,9.0,30.15,10.0,11.2
2021-12-19 18:00:00,23.5,18.0,79.17,160.0,10.0,30.1,10.0,12.31
2021-12-19 19:00:00,25.0,18.5,75.98,170.0,15.0,30.06,10.0,11.71
2021-12-19 20:00:00,25.5,19.0,76.02,150.0,10.0,30.04,10.0,14.82
2021-12-19 21:00:00,25.5,19.4,77.34,140.0,10.0,30.02,10.0,14.82
2021-12-19 22:00:00,25.7,19.8,78.02,160.0,10.0,29.99,10.0,15.07
2021-12-19 23:00:00,25.7,19.8,78.02,160.0,7.0,29.99,10.0,17.1
2021-12-20 00:00:00,26.2,20.1,77.4,160.0,6.0,29.98,10.0,18.54
2021-12-20 01:00:00,26.6,20.1,76.13,160.0,7.0,29.97,10.0,18.2
2021-12-20 02:00:00,27.9,20.5,73.4,160.0,10.0,29.95,10.0,17.83
2021-12-20 03:00:00,28.6,21.0,72.85,180.0,9.0,29.96,10.0,19.29
2021-12-20 04:00:00,29.3,21.2,71.4,170.0,9.0,29.94,10.0,20.16
2021-12-20 05:00:00,30.2,21.6,70.01,200.0,6.0,29.94,10.0,23.36
2021-12-20 06:00:00,28.8,21.0,72.26,190.0,4.0,29.93,10.0,23.68
2021-12-20 07:00:00,27.0,20.3,75.52,170.0,4.0,29.92,10.0,21.58
2021-12-20 08:00:00,26.4,20.1,76.76,190.0,5.0,29.93,10.0,19.74
2021-12-20 09:00:00,27.5,20.3,73.98,220.0,3.0,29.95,10.0,23.54
2021-12-20 10:00:00,27.1,20.1,74.58,0.0,0.0,29.95,10.0,27.1
2021-12-20 11:00:00,27.1,21.2,78.14,240.0,4.0,29.97,10.0,21.7
2021-12-20 12:00:00,27.5,21.2,76.87,270.0,4.0,29.99,10.0,22.17
2021-12-20 13:00:00,27.5,21.7,78.51,260.0,4.0,30.0,10.0,22.17
2021-12-20 14:00:00,28.4,22.5,78.26,250.0,4.0,30.03,10.0,23.22
2021-12-20 15:00:00,29.3,23.4,78.34,260.0,7.0,30.04,10.0,21.49
2021-12-20 16:00:00,30.4,17.6,58.54,280.0,11.0,30.07,10.0,20.44
2021-12-20 17:00:00,28.9,14.9,55.35,270.0,11.0,30.08,10.0,18.55
2021-12-20 18:00:00,28.9,12.7,50.26,260.0,11.0,30.09,10.0,18.55
2021-12-20 19:00:00,27.7,9.5,45.79,280.0,9.0,30.11,10.0,18.17
2021-12-20 20:00:00,25.3,6.0,42.98,280.0,11.0,30.13,10.0,14.0
2021-12-20 21:00:00,22.8,8.1,52.72,280.0,9.0,30.16,10.0,12.07
2021-12-20 22:00:00,19.0,6.0,56.57,290.0,8.0,30.19,10.0,8.1
2021-12-20 23:00:00,16.3,4.5,59.07,270.0,5.0,30.19,10.0,7.75
2021-12-21 00:00:00,14.5,3.4,60.74,310.0,3.0,30.2,10.0,8.68
2021-12-21 01:00:00,12.0,3.7,68.74,0.0,0.0,30.21,10.0,12.0
2021-12-21 02:00:00,11.1,2.3,67.06,0.0,0.0,30.19,10.0,11.1
2021-12-21 03:00:00,11.3,2.3,66.46,0.0,0.0,30.19,10.0,11.3
2021-12-21 04:00:00,12.6,3.4,66.02,0.0,0.0,30.19,10.0,12.6
2021-12-21 05:00:00,12.9,3.2,64.56,280.0,3.0,30.18,10.0,6.85
2021-12-21 06:00:00,12.9,3.0,63.96,0.0,0.0,30.13,10.0,12.9
2021-12-21 07:00:00,13.1,2.3,61.38,0.0,0.0,30.1,10.0,13.1
2021-12-21 08:00:00,13.6,3.6,63.76,90.0,3.0,30.06,10.0,7.65
2021-12-21 09:00:00,14.0,4.0,63.53,130.0,6.0,30.02,10.0,3.85
2021-12-21 10:00:00,14.4,4.8,65.06,140.0,5.0,29.98,10.0,5.49
2021-12-21 11:00:00,14.9,5.0,64.24,140.0,7.0,29.94,10.0,3.94
2021-12-21 12:00:00,15.4,4.8,62.28,130.0,9.0,29.89,10.0,2.87
2021-12-21 13:00:00,15.3,6.6,67.9,140.0,9.0,29.85,2.5,2.75
2021-12-21 14:00:00,14.9,9.5,78.76,130.0,9.0,29.79,0.75,2.25
2021-12-21 15:00:00,15.6,10.9,81.32,150.0,6.0,29.76,0.5,5.78
2021-12-21 16:00:00,16.9,11.5,78.94,160.0,7.0,29.73,1.25,6.37
2021-12-21 17:00:00,19.0,12.0,73.73,210.0,8.0,29.7,2.0,8.1
2021-12-21 18:00:00,19.9,12.6,72.86,280.0,9.0,29.68,4.0,8.47
2021-12-21 19:00:00,19.4,9.1,63.69,290.0,13.0,29.7,10.0,5.43
2021-12-21 20:00:00,18.5,8.2,63.57,290.0,14.0,29.74,10.0,3.76
2021-12-21 21:00:00,17.6,7.3,63.45,290.0,8.0,29.75,10.0,6.37
2021-12-21 22:00:00,15.8,6.0,64.36,280.0,8.0,29.79,10.0,4.16
2021-12-21 23:00:00,14.7,5.7,66.91,270.0,5.0,29.81,10.0,5.85
2021-12-22 00:00:00,15.6,6.0,64.92,270.0,7.0,29.83,10.0,4.79
2021-12-22 01:00:00,16.7,5.7,61.33,280.0,11.0,29.84,10.0,3.13
2021-12-22 02:00:00,16.7,6.0,61.9,280.0,12.0,29.86,10.0,2.53
2021-12-22 03:00:00,14.7,4.0,62.18,280.0,11.0,29.87,10.0,0.6
2021-12-22 04:00:00,11.1,2.3,67.06,270.0,8.0,29.91,10.0,-1.63
2021-12-22 05:00:00,9.5,0.5,66.23,290.0,8.0,29.92,10.0,-3.6
2021-12-22 06:00:00,6.6,-0.9,70.68,270.0,3.0,29.92,10.0,-0.35
2021-12-22 07:00:00,4.8,-1.1,76.01,230.0,3.0,29.93,10.0,-2.41
2021-12-22 08:00:00,4.0,-1.3,77.75,250.0,3.0,29.96,10.0,-3.21
2021-12-22 09:00:00,3.2,-2.0,78.41,0.0,0.0,29.96,10.0,3.2
2021-12-22 10:00:00,-2.4,-7.0,80.57,0.0,0.0,29.97,10.0,-2.4
2021-12-22 11:00:00,-3.0,-8.0,78.21,0.0,0.0,29.97,10.0,-2.9
2021-12-22 12:00:00,-3.0,-7.8,79.73,0.0,0.0,29.98,1.25,-3.1
2021-12-22 13:00:00,-3.3,-8.5,77.79,0.0,0.0,29.98,7.0,-3.3
2021-12-22 14:00:00,-0.2,-5.3,78.46,0.0,0.0,29.99,4.0,-0.2
2021-12-22 15:00:00,6.0,0.9,79.4,130.0,3.0,30.0,10.0,-1.15
2021-12-22 16:00:00,9.5,4.0,78.26,140.0,4.0,30.01,10.0,1.15
2021-12-22 17:00:00,13.6,6.4,72.49,160.0,4.0,30.0,10.0,5.93
2021-12-22 18:00:00,15.3,7.0,69.15,140.0,6.0,29.97,10.0,5.42
2021-12-22 19:00:00,16.7,7.3,65.96,160.0,7.0,29.96,10.0,6.13
2021-12-22 20:00:00,17.6,7.7,64.6,160.0,5.0,29.96,10.0,9.29
2021-12-22 21:00:00,17.4,7.5,64.58,140.0,6.0,29.94,10.0,7.95
2021-12-22 22:00:00,15.4,6.8,68.23,110.0,3.0,29.94,10.0,9.71
2021-12-22 23:00:00,13.5,6.0,71.17,140.0,3.0,29.94,10.0,7.54
2021-12-23 00:00:00,13.1,6.0,72.43,120.0,5.0,29.94,10.0,3.95
2021-12-23 01:00:00,12.6,5.5,72.7,100.0,3.0,29.95,10.0,6.51
2021-12-23 02:00:00,13.8,6.0,70.23,110.0,4.0,29.94,10.0,6.17
2021-12-23 03:00:00,16.5,7.5,67.14,120.0,7.0,29.92,10.0,5.89
2021-12-23 04:00:00,18.0,7.7,63.5,120.0,7.0,29.88,10.0,7.71
2021-12-23 05:00:00,19.4,8.8,62.84,120.0,6.0,29.87,10.0,10.36
2021-12-23 06:00:00,19.9,9.1,62.35,110.0,6.0,29.85,10.0,10.96
2021-12-23 07:00:00,20.1,9.5,62.94,110.0,5.0,29.82,10.0,12.26
2021-12-23 08:00:00,21.0,9.5,60.57,120.0,4.0,29.82,10.0,14.57
2021-12-23 09:00:00,21.2,10.6,63.09,100.0,5.0,29.79,10.0,13.57
2021-12-23 10:00:00,22.5,11.3,61.61,110.0,4.0,29.75,10.0,16.33
2021-12-23 11:00:00,22.5,11.3,61.61,110.0,4.0,29.75,10.0,16.33
2021-12-23 12:00:00,23.5,13.5,65.1,100.0,6.0,29.72,10.0,15.29
2021-12-23 13:00:00,23.7,14.2,66.57,130.0,5.0,29.72,10.0,16.54
2021-12-23 14:00:00,24.4,14.4,65.22,80.0,8.0,29.69,10.0,14.75
2021-12-23 15:00:00,26.2,15.3,62.94,90.0,3.0,29.72,10.0,22.06
2021-12-23 16:00:00,29.1,17.6,61.72,130.0,8.0,29.7,10.0,20.54
2021-12-23 17:00:00,31.3,19.9,62.29,140.0,6.0,29.67,10.0,24.69
2021-12-23 18:00:00,33.6,21.4,60.52,0.0,0.0,29.65,10.0,33.6
2021-12-23 19:00:00,34.2,21.0,58.09,190.0,4.0,29.65,10.0,29.99
2021-12-23 20:00:00,35.0,21.2,56.98,190.0,3.0,29.65,10.0,32.0
2021-12-23 21:00:00,33.8,21.2,59.53,190.0,4.0,29.66,10.0,29.52
2021-12-23 22:00:00,30.4,20.8,67.12,0.0,0.0,29.67,10.0,30.4
2021-12-23 23:00:00,26.2,20.1,77.4,0.0,0.0,29.67,10.0,26.2
2021-12-24 00:00:00,26.4,21.7,82.16,0.0,0.0,29.67,10.0,26.4
2021-12-24 01:00:00,24.6,20.3,83.43,0.0,0.0,29.66,10.0,24.6
2021-12-24 02:00:00,24.4,20.3,84.13,140.0,3.0,29.65,10.0,20.0
2021-12-24 03:00:00,25.7,21.0,82.1,110.0,5.0,29.63,10.0,18.91
2021-12-24 04:00:00,25.7,21.2,82.8,140.0,3.0,29.63,10.0,21.49
2021-12-24 05:00:00,25.3,21.0,83.48,100.0,4.0,29.62,10.0,19.6
2021-12-24 06:00:00,26.2,21.9,83.54,120.0,5.0,29.6,10.0,19.51
2021-12-24 07:00:00,27.1,22.6,82.9,120.0,5.0,29.59,10.0,20.58
2021-12-24 08:00:00,29.1,23.9,80.65,120.0,11.0,29.56,10.0,18.8
2021-12-24 09:00:00,30.4,24.8,79.42,120.0,10.0,29.52,10.0,20.96
2021-12-24 10:00:00,32.0,25.7,77.28,130.0,9.0,29.49,10.0,23.51
2021-12-24 11:00:00,32.5,26.1,77.01,130.0,11.0,29.45,10.0,23.1
2021-12-24 12:00:00,33.8,26.6,74.63,120.0,12.0,29.41,10.0,24.29
2021-12-24 13:00:00,34.7,27.5,74.72,140.0,13.0,29.36,10.0,25.03
2021-12-24 14:00:00,36.7,30.2,77.08,150.0,12.0,29.37,10.0,27.98
2021-12-24 15:00:00,37.6,32.0,80.02,150.0,7.0,29.37,10.0,31.61
2021-12-24 16:00:00,38.5,33.8,83.03,150.0,6.0,29.37,10.0,33.36
2021-12-24 17:00:00,38.8,34.2,83.38,120.0,6.0,29.35,10.0,33.72
2021-12-24 18:00:00,39.6,35.0,83.77,0.0,0.0,29.35,10.0,39.6
2021-12-24 19:00:00,40.8,36.3,83.85,0.0,0.0,29.35,7.0,40.8
2021-12-24 20:00:00,41.4,37.8,86.92,0.0,0.0,29.37,7.0,41.4
2021-12-24 21:00:00,40.0,36.7,87.53,160.0,3.0,29.4,5.0,37.95
2021-12-24 22:00:00,36.0,33.8,91.26,0.0,0.0,29.42,2.5,36.1
2021-12-24 23:00:00,34.7,33.0,93.06,0.0,0.0,29.45,2.0,34.7
2021-12-25 00:00:00,34.7,33.0,93.06,0.0,0.0,29.49,2.5,34.7
2021-12-25 01:00:00,37.0,35.2,93.49,0.0,0.0,29.49,7.0,36.9
2021-12-25 02:00:00,38.5,31.3,75.09,330.0,4.0,29.5,10.0,35.01
2021-12-25 03:00:00,37.8,27.1,65.02,330.0,6.0,29.52,10.0,32.52
2021-12-25 04:00:00,35.6,21.2,55.41,330.0,7.0,29.56,10.0,29.17
2021-12-25 05:00:00,33.0,18.1,54.07,340.0,6.0,29.6,10.0,26.61
2021-12-25 06:00:00,31.3,14.9,50.2,330.0,6.0,29.62,10.0,24.69
2021-12-25 07:00:00,29.8,12.9,48.87,330.0,4.0,29.64,10.0,24.85
2021-12-25 08:00:00,27.9,12.7,52.36,300.0,3.0,29.7,10.0,24.0
2021-12-25 09:00:00,26.1,8.6,46.98,350.0,8.0,29.7,10.0,16.85
2021-12-25 10:00:00,23.9,9.3,53.13,320.0,5.0,29.72,10.0,16.78
2021-12-25 11:00:00,21.9,9.5,58.31,340.0,4.0,29.74,10.0,15.63
2021-12-25 12:00:00,19.9,9.1,62.35,320.0,4.0,29.76,10.0,13.29
2021-12-25 13:00:00,18.5,8.6,64.72,330.0,4.0,29.79,10.0,11.66
2021-12-25 14:00:00,19.4,8.0,60.34,310.0,4.0,29.8,10.0,12.71
2021-12-25 15:00:00,21.2,7.7,55.39,330.0,4.0,29.83,10.0,14.81
2021-12-25 16:00:00,23.7,7.5,49.4,360.0,9.0,29.86,10.0,13.19
2021-12-25 17:00:00,24.3,6.8,46.68,320.0,8.0,29.89,10.0,14.63
2021-12-25 18:00:00,23.9,6.4,46.61,340.0,7.0,29.91,10.0,14.91
2021-12-25 19:00:00,24.4,7.3,47.55,290.0,5.0,29.92,10.0,17.37
2021-12-25 20:00:00,24.4,8.1,49.3,360.0,5.0,29.9,10.0,17.37
2021-12-25 21:00:00,22.6,7.5,51.74,330.0,8.0,29.94,10.0,12.53
2021-12-25 22:00:00,21.2,12.2,67.73,10.0,12.0,29.92,5.0,8.26
2021-12-25 23:00:00,20.8,15.8,80.67,20.0,7.0,29.93,10.0,11.13
2021-12-26 00:00:00,21.2,15.3,77.61,20.0,6.0,29.95,10.0,12.52
2021-12-26 01:00:00,21.6,13.6,70.83,20.0,7.0,29.94,10.0,12.1
2021-12-26 02:00:00,21.9,13.6,69.94,20.0,6.0,29.96,10.0,13.37
2021-12-26 03:00:00,22.1,13.1,67.84,360.0,4.0,29.98,10.0,15.86
2021-12-26 04:00:00,22.1,12.0,64.63,350.0,6.0,30.0,10.0,13.61
2021-12-26 05:00:00,21.7,12.7,67.8,0.0,0.0,30.03,10.0,21.7
2021-12-26 06:00:00,21.0,12.9,70.45,360.0,6.0,30.03,10.0,12.28
2021-12-26 07:00:00,20.8,14.0,74.57,360.0,8.0,30.04,10.0,10.32
2021-12-26 08:00:00,20.7,14.2,75.55,10.0,8.0,30.07,10.0,10.19
2021-12-26 09:00:00,18.3,12.7,78.37,20.0,5.0,30.07,10.0,10.13
2021-12-26 10:00:00,17.6,12.2,79.0,360.0,6.0,30.07,10.0,8.19
2021-12-26 11:00:00,17.8,11.8,76.95,20.0,8.0,30.08,10.0,6.62
2021-12-26 12:00:00,17.4,11.7,77.94,10.0,5.0,30.1,10.0,9.06
2021-12-26 13:00:00,15.6,11.5,83.52,10.0,3.0,30.1,10.0,9.94
2021-12-26 14:00:00,17.8,12.4,79.02,20.0,5.0,30.1,10.0,9.53
2021-12-26 15:00:00,25.5,15.1,64.23,90.0,8.0,30.12,10.0,16.11
2021-12-26 16:00:00,27.0,15.1,60.37,100.0,8.0,30.13,10.0,17.95
2021-12-26 17:00:00,28.2,15.4,58.21,100.0,7.0,30.11,10.0,20.15
2021-12-26 18:00:00,29.3,15.4,55.65,120.0,8.0,30.11,10.0,20.79
2021-12-26 19:00:00,30.6,16.0,54.18,80.0,9.0,30.06,10.0,21.77
2021-12-26 20:00:00,31.1,15.3,51.5,80.0,11.0,30.0,10.0,21.33
2021-12-26 21:00:00,31.5,14.7,49.37,80.0,11.0,29.98,10.0,21.83
2021-12-26 22:00:00,31.6,12.7,45.03,90.0,10.0,29.98,10.0,22.47
2021-12-26 23:00:00,31.5,14.4,48.72,90.0,8.0,29.99,10.0,23.5
2021-12-27 00:00:00,28.6,22.6,77.95,90.0,11.0,29.96,2.0,18.17
2021-12-27 01:00:00,28.4,24.3,84.4,90.0,14.0,29.92,2.0,16.52
2021-12-27 02:00:00,27.5,23.5,84.69,90.0,14.0,29.86,0.75,15.36
2021-12-27 03:00:00,27.5,23.7,85.4,80.0,13.0,29.82,1.0,15.8
2021-12-27 04:00:00,27.1,23.5,86.1,80.0,13.0,29.81,0.75,15.29
2021-12-27 05:00:00,27.0,23.5,86.45,80.0,12.0,29.78,0.75,15.64
2021-12-27 06:00:00,27.3,23.4,85.03,80.0,12.0,29.71,1.0,16.02
2021-12-27 07:00:00,27.5,23.9,86.12,80.0,12.0,29.69,0.5,16.27
2021-12-27 08:00:00,27.5,24.3,87.57,80.0,5.0,29.69,0.75,21.05
2021-12-27 09:00:00,28.4,24.8,86.18,90.0,11.0,29.65,4.0,17.92
2021-12-27 10:00:00,28.6,25.2,86.91,100.0,14.0,29.61,7.0,16.78
2021-12-27 11:00:00,29.7,26.1,86.25,110.0,9.0,29.61,7.0,20.65
2021-12-27 12:00:00,30.6,27.5,88.1,120.0,13.0,29.57,4.0,19.77
2021-12-27 13:00:00,31.1,28.8,91.06,130.0,9.0,29.55,1.75,22.39
2021-12-27 14:00:00,32.0,30.2,92.97,130.0,12.0,29.5,2.0,22.0
2021-12-27 15:00:00,33.8,32.0,93.03,150.0,9.0,29.51,1.5,25.75
2021-12-27 16:00:00,35.6,32.2,87.29,220.0,12.0,29.53,10.0,26.58
2021-12-27 17:00:00,32.4,26.1,77.32,220.0,15.0,29.54,10.0,21.3
2021-12-27 18:00:00,27.5,18.3,67.92,240.0,15.0,29.57,10.0,14.95
2021-12-27 19:00:00,23.9,14.7,67.48,250.0,14.0,29.6,10.0,10.72
2021-12-27 20:00:00,21.7,10.6,61.77,250.0,13.0,29.64,10.0,8.37
2021-12-27 21:00:00,19.4,8.8,62.84,240.0,13.0,29.65,10.0,5.43
2021-12-27 22:00:00,17.1,7.3,64.83,230.0,11.0,29.68,10.0,3.64
2021-12-27 23:00:00,14.7,6.0,67.52,250.0,10.0,29.71,10.0,1.27
2021-12-28 00:00:00,12.7,4.6,69.46,250.0,9.0,29.74,10.0,-0.48
2021-12-28 01:00:00,11.1,3.2,69.91,250.0,11.0,29.78,10.0,-3.95
2021-12-28 02:00:00,9.5,2.3,72.02,250.0,9.0,29.82,10.0,-4.46
2021-12-28 03:00:00,7.7,0.5,71.81,270.0,6.0,29.84,10.0,-3.74
2021-12-28 04:00:00,6.3,-0.6,72.67,260.0,4.0,29.85,10.0,-2.59
2021-12-28 05:00:00,5.4,-1.3,73.26,0.0,0.0,29.86,10.0,5.4
2021-12-28 06:00:00,4.6,-0.8,77.8,0.0,0.0,29.85,10.0,4.6
2021-12-28 07:00:00,4.0,-1.8,75.94,0.0,0.0,29.82,10.0,4.1
2021-12-28 08:00:00,4.6,-0.6,78.54,190.0,5.0,29.86,10.0,-6.15
2021-12-28 09:00:00,6.0,-0.8,72.65,0.0,0.0,29.89,10.0,6.1
2021-12-28 10:00:00,6.8,-0.4,71.71,0.0,0.0,29.85,10.0,6.8
2021-12-28 11:00:00,7.2,0.3,72.77,80.0,3.0,29.82,10.0,0.34
2021-12-28 12:00:00,8.0,1.2,73.53,100.0,4.0,29.8,10.0,-0.72
2021-12-28 13:00:00,9.1,2.5,74.01,90.0,4.0,29.76,10.0,0.68
2021-12-28 14:00:00,10.8,3.7,72.5,80.0,7.0,29.71,10.0,-1.06
2021-12-28 15:00:00,12.2,5.0,72.33,130.0,4.0,29.7,10.0,4.3
2021-12-28 16:00:00,13.6,6.6,73.15,130.0,10.0,29.72,10.0,-0.11
2021-12-28 17:00:00,14.9,7.7,72.63,120.0,7.0,29.72,7.0,3.94
2021-12-28 18:00:00,17.1,11.1,76.88,50.0,9.0,29.64,1.5,4.99
2021-12-28 19:00:00,19.2,13.1,76.74,100.0,8.0,29.66,10.0,8.35
2021-12-28 20:00:00,20.3,16.2,83.85,90.0,7.0,29.64,0.25,10.52
2021-12-28 21:00:00,21.6,17.2,82.86,100.0,8.0,29.63,0.75,11.3
2021-12-28 22:00:00,22.6,18.5,84.01,100.0,8.0,29.59,2.5,12.53
2021-12-28 23:00:00,23.7,20.3,86.63,160.0,5.0,29.62,1.25,16.54
2021-12-29 00:00:00,23.9,21.2,89.25,150.0,5.0,29.63,3.0,16.78
2021-12-29 01:00:00,24.8,22.5,90.81,150.0,5.0,29.64,3.0,17.84
2021-12-29 02:00:00,25.5,22.8,89.33,200.0,5.0,29.65,5.0,18.68
2021-12-29 03:00:00,24.8,21.2,85.96,230.0,8.0,29.65,7.0,15.24
2021-12-29 04:00:00,23.9,19.9,84.45,250.0,6.0,29.68,10.0,15.77
2021-12-29 05:00:00,20.3,15.4,80.98,270.0,11.0,29.72,10.0,7.68
2021-12-29 06:00:00,15.1,7.7,72.0,260.0,8.0,29.76,10.0,3.3
2021-12-29 07:00:00,11.5,5.4,75.98,280.0,8.0,29.78,10.0,-1.14
2021-12-29 08:00:00,8.1,2.8,78.5,270.0,7.0,29.81,10.0,-4.35
2021-12-29 09:00:00,4.6,-1.1,76.71,240.0,4.0,29.83,10.0,-4.58
2021-12-29 10:00:00,1.9,-3.6,77.17,270.0,4.0,29.86,10.0,-7.73
2021-12-29 11:00:00,-0.4,-6.0,76.57,280.0,4.0,29.9,10.0,-10.42
2021-12-29 12:00:00,-2.2,-8.0,75.65,280.0,5.0,29.93,10.0,-14.22
2021-12-29 13:00:00,-4.0,-9.6,76.2,290.0,3.0,29.94,10.0,-12.47
2021-12-29 14:00:00,-3.3,-9.6,73.7,260.0,3.0,29.98,10.0,-11.67
2021-12-29 15:00:00,-1.7,-8.5,72.09,260.0,4.0,30.01,10.0,-11.93
2021-12-29 16:00:00,0.7,-7.4,67.95,240.0,5.0,30.02,10.0,-10.78
2021-12-29 17:00:00,2.7,-5.8,66.91,250.0,4.0,30.01,10.0,-6.8
2021-12-29 18:00:00,4.8,-3.8,66.86,260.0,5.0,30.0,10.0,-5.91
2021-12-29 19:00:00,7.5,-1.7,65.34,260.0,5.0,30.01,10.0,-2.7
2021-12-29 20:00:00,9.5,-0.4,63.49,0.0,0.0,29.99,10.0,9.5
2021-12-29 21:00:00,9.7,0.1,64.42,320.0,3.0,29.97,10.0,3.2
2021-12-29 22:00:00,5.7,-0.2,76.1,140.0,3.0,29.97,10.0,-1.38
2021-12-29 23:00:00,4.6,0.5,82.7,0.0,0.0,29.98,10.0,4.6
2021-12-30 00:00:00,2.0,-2.0,82.51,0.0,0.0,30.0,10.0,2.1
2021-12-30 01:00:00,3.6,-1.7,78.07,0.0,0.0,30.0,10.0,3.6
2021-12-30 02:00:00,5.7,0.7,79.38,0.0,0.0,30.01,10.0,5.7
2021-12-30 03:00:00,6.8,1.4,78.01,0.0,0.0,30.01,10.0,6.8
2021-12-30 04:00:00,8.0,1.2,73.53,0.0,0.0,30.0,10.0,7.9
2021-12-30 05:00:00,7.7,1.0,73.51,0.0,0.0,29.99,10.0,7.7
2021-12-30 06:00:00,8.2,1.4,73.22,0.0,0.0,29.98,10.0,8.2
2021-12-30 07:00:00,8.2,2.0,75.65,0.0,0.0,29.97,10.0,8.2
2021-12-30 08:00:00,8.6,2.3,74.99,80.0,3.0,29.94,10.0,1.94
2021-12-30 09:00:00,6.8,1.2,77.29,110.0,3.0,29.93,10.0,-0.12
2021-12-30 10:00:00,6.0,0.5,77.93,140.0,3.0,29.91,10.0,-1.15
2021-12-30 11:00:00,4.6,-0.6,78.54,120.0,3.0,29.9,10.0,-2.63
2021-12-30 12:00:00,6.8,1.4,78.01,140.0,7.0,29.9,10.0,-5.94
2021-12-30 13:00:00,8.2,2.3,76.35,130.0,5.0,29.88,10.0,-1.87
2021-12-30 14:00:00,10.2,3.2,72.77,120.0,6.0,29.85,10.0,-0.72
2021-12-30 15:00:00,12.0,5.4,74.32,130.0,7.0,29.83,10.0,0.4
2021-12-30 16:00:00,15.4,8.6,74.01,150.0,7.0,29.82,10.0,4.54
2021-12-30 17:00:00,18.5,12.0,75.33,140.0,7.0,29.8,10.0,8.32
2021-12-30 18:00:00,21.2,14.2,73.96,140.0,10.0,29.75,10.0,9.42
2021-12-30 19:00:00,21.2,14.5,74.94,130.0,10.0,29.71,10.0,9.42
2021-12-30 20:00:00,22.1,14.9,73.42,140.0,9.0,29.71,10.0,11.2
2021-12-30 21:00:00,22.5,16.7,78.06,140.0,10.0,29.68,10.0,11.06
2021-12-30 22:00:00,22.8,17.4,79.45,150.0,6.0,29.69,10.0,14.45
2021-12-30 23:00:00,23.4,18.5,81.23,150.0,5.0,29.7,10.0,16.18
2021-12-31 00:00:00,23.7,19.0,81.95,170.0,5.0,29.71,10.0,16.54
2021-12-31 01:00:00,23.9,20.3,85.91,180.0,5.0,29.71,7.0,16.78
2021-12-31 02:00:00,24.4,20.8,85.94,160.0,4.0,29.7,7.0,18.55
2021-12-31 03:00:00,24.8,21.2,85.96,170.0,4.0,29.71,7.0,19.01
2021-12-31 04:00:00,26.1,22.1,84.6,200.0,6.0,29.7,10.0,18.42
2021-12-31 05:00:00,26.6,22.1,82.87,210.0,3.0,29.72,10.0,22.52
2021-12-31 06:00:00,27.1,21.7,79.81,210.0,3.0,29.71,10.0,23.09
2021-12-31 07:00:00,28.0,21.2,75.3,210.0,4.0,29.72,10.0,22.75
2021-12-31 08:00:00,27.9,21.6,76.9,0.0,0.0,29.74,10.0,27.9
2021-12-31 09:00:00,27.1,21.0,77.48,230.0,4.0,29.73,10.0,21.7
2021-12-31 10:00:00,26.6,21.2,79.77,220.0,5.0,29.74,10.0,19.98
2021-12-31 11:00:00,26.4,20.1,76.76,230.0,4.0,29.73,10.0,20.88
2021-12-31 12:00:00,25.5,19.6,78.0,270.0,3.0,29.75,10.0,21.26
2021-12-31 13:00:00,25.0,19.9,80.66,0.0,0.0,29.76,10.0,25.0
2021-12-31 14:00:00,24.8,19.4,79.62,0.0,0.0,29.76,10.0,24.8
2021-12-31 15:00:00,24.8,19.4,79.62,260.0,5.0,29.8,10.0,17.84
2021-12-31 16:00:00,23.9,18.3,78.86,320.0,6.0,29.81,10.0,15.77
2021-12-31 17:00:00,21.6,16.0,78.66,330.0,7.0,29.79,10.0,12.1
2021-12-31 18:00:00,19.8,13.8,77.14,350.0,4.0,29.81,3.0,13.17
2021-12-31 19:00:00,19.9,14.7,79.9,340.0,4.0,29.8,1.0,13.29
2021-12-31 20:00:00,19.0,12.4,75.05,340.0,9.0,29.82,4.0,7.35
2021-12-31 21:00:00,16.3,9.1,72.79,340.0,8.0,29.84,4.0,4.77
2021-12-31 22:00:00,15.3,7.7,71.37,330.0,5.0,29.87,10.0,6.56
2021-12-31 23:00:00,14.0,6.8,72.53,340.0,7.0,29.88,5.0,2.84
